"","business_id","name","city","state","postal_code","latitude","longitude","is_open","categories"
"1",116415,"Panera Bread","Richmond Hill","ON","L4C 5G2",43.8568578495,-79.4344568253,"1","Salad, Bagels, Breakfast & Brunch, Sandwiches, Food, Bakeries, Soup, Restaurants"
"2",177308,"New York Bagels 'N Bialys","Scottsdale","AZ","85253",33.5796797,-111.9275444,"1","Restaurants, Delis, Breakfast & Brunch, American (Traditional), Food, Bakeries, Bagels"
"3",62236,"Dunkin' Donuts","Moon","PA","15108",40.5157666,-80.2216573,"1","Bagels, Donuts, Coffee & Tea, Breakfast & Brunch, Restaurants, Food"
"4",53529,"Einstein Bros Bagels","Las Vegas","NV","89119",36.0574675327,-115.1207419292,"1","Restaurants, Pizza, Food, Bagels, Sandwiches, Breakfast & Brunch"
"5",7207,"Winchell's Donut House","Las Vegas","NV","89146",36.1282146,-115.2252957,"1","Sandwiches, Food, Donuts, Bagels, Restaurants"
"6",153541,"Bagel St-Lo","Montréal","QC","H4H 1K6",45.4529067,-73.5724513,"1","Food, Internet Cafes, Bagels"
"7",150322,"Patisserie Lavande","Montréal","QC","H4R 1T4",45.4985638,-73.7497567,"1","Food Delivery Services, Food, Bagels, Bakeries"
"8",89018,"Panera Bread","North Ridgeville","OH","44039",41.385899,-81.9751,"1","Sandwiches, Bagels, Soup, Breakfast & Brunch, Salad, Restaurants, Bakeries, Food"
"9",10248,"What A Bagel","North York","ON","M3B 1X8",43.7545229757,-79.3575244778,"1","Bagels, Food"
"10",100815,"Nu Bügel","Toronto","ON","M5T 2L7",43.6553612109,-79.4023953024,"1","Bagels, Food"
"11",121582,"Rainbow Donuts Cafe and Deli","Phoenix","AZ","85032",33.611676987,-111.9984461607,"1","Bagels, Restaurants, Donuts, Sandwiches, Cafes, Food, Breakfast & Brunch, Delis"
"12",18060,"Panera Bread","Murrysville","PA","15668",40.421806,-79.661538,"1","Restaurants, Breakfast & Brunch, Sandwiches, Bagels, Food, Salad, Soup"
"13",139494,"Panera Bread","Allison Park","PA","15101",40.602218,-79.945617,"1","Bagels, Soup, Salad, Restaurants, Food, Sandwiches, Breakfast & Brunch"
"14",34869,"Einstein Bros Bagels","Tempe","AZ","85284",33.3218022,-111.9304637,"1","Restaurants, Breakfast & Brunch, Food, Delis, Bagels"
"15",158694,"Einstein Bros Bagels","Pittsburgh","PA","15241",40.3475049005,-80.0545406342,"0","Breakfast & Brunch, Food, Sandwiches, Bagels, Restaurants"
"16",45221,"Madhouse Coffee","Las Vegas","NV","89123",36.0280976,-115.1189137,"1","Bagels, Restaurants, Juice Bars & Smoothies, Breakfast & Brunch, Food, Coffee & Tea, Bakeries"
"17",184843,"The Cuppa","Las Vegas","NV","89135",36.1488913095,-115.3333637771,"0","Bagels, Coffee & Tea, Sandwiches, Bakeries, Food, Restaurants"
"18",22814,"The Bagel Cafe","Las Vegas","NV","89145",36.1761018,-115.2602821,"1","Breakfast & Brunch, Bagels, Delis, Coffee & Tea, Comfort Food, Cafes, Bakeries, Food, Restaurants"
"19",139269,"Panera Bread","Highland Heights","OH","44143",41.539594,-81.451432,"1","Bagels, Restaurants, Sandwiches, Soup, Breakfast & Brunch, Salad, Bakeries, Food"
"20",115733,"Einstein Bros Bagels","Chandler","AZ","85224",33.3065952578,-111.8891021576,"1","Delis, Food, Restaurants, Bagels"
"21",103412,"Bagelino's","Calgary","AB","T2P 1Z5",51.0457559,-114.0791699,"1","Bagels, Food, Sandwiches, Breakfast & Brunch, Cafes, Restaurants"
"22",68592,"Krispy Kreme","Las Vegas","NV","89109",36.1370185301,-115.1640695141,"1","Coffee & Tea, Donuts, Bagels, Food"
"23",165748,"Dunkin' Donuts","Crafton","PA","15205",40.4400217488,-80.0691623849,"1","Donuts, Coffee & Tea, Food, Bagels"
"24",55563,"Einstein Bros Bagels","Lakewood","OH","44107",41.4850286,-81.7977859,"1","Food, Caterers, Restaurants, Event Planning & Services, Bagels"
"25",58745,"Bagel Bin","Huntersville","NC","28078",35.442567,-80.860933,"1","Bagels, Restaurants, Delis, Coffee & Tea, Food"
"26",78879,"Tim Hortons","Toronto","ON","M5G 1X8",43.6597276849,-79.3907524248,"1","Food, Bagels, Coffee & Tea, Bakeries"
"27",107367,"Bagel World","Markham","ON","L6E 0H7",43.9043010026,-79.2690962926,"0","Breakfast & Brunch, Restaurants, Bagels, Waffles, Food"
"28",167791,"Einstein Bros","Las Vegas","NV","89119",36.1056431,-115.1368196,"1","Bagels, Restaurants, Breakfast & Brunch, Delis, Food"
"29",46425,"Einstein Bros Bagels","Glendale","AZ","85308",33.6392147652,-112.2302141629,"1","Food, Bagels, Coffee & Tea"
"30",8820,"Owen's Bagel & Deli","Charlotte","NC","28203",35.208424,-80.859759,"1","Coffee & Tea, Food, Delis, Restaurants, Bagels"
"31",100262,"Caribou Coffee And Einsteins Bros Bagels","Phoenix","AZ","85021",33.5531876399,-112.1038430913,"1","Food, Coffee & Tea, Juice Bars & Smoothies, Bagels"
"32",86922,"Caribou Coffee & Einstein Bros. Bagels","Tempe","AZ","85281",33.4227444,-111.9258396,"1","Restaurants, Sandwiches, Bagels, Food, Coffee & Tea, Internet Cafes"
"33",50920,"Bruegger's Bagels","Pittsburgh","PA","15213",40.4412932,-79.9569755,"1","Bagels, Sandwiches, Restaurants, Food, Breakfast & Brunch"
"34",89872,"Big City Bagels","Scottsdale","AZ","85260",33.627288,-111.89567,"1","Restaurants, Breakfast & Brunch, Food, Bagels, Delis"
"35",138510,"St-Viateur Bagel & Café","Montréal","QC","H2J 1X9",45.528427,-73.57911,"1","Cafes, Breakfast & Brunch, Bagels, Restaurants, Bakeries, Food, Coffee & Tea, Fast Food"
"36",20514,"St-Viateur Bagel & Café DDO","Pointe-Claire","QC","H9R 4X8",45.4751833936,-73.8123833354,"1","Food, Bagels, Breakfast & Brunch, Restaurants, Cafes, Bakeries"
"37",61332,"Toquoi","Montréal","QC","H2V 1L4",45.5187458,-73.6166623,"1","Food, Juice Bars & Smoothies, Coffee & Tea, Bagels"
"38",44496,"Einstein Bros","Las Vegas","NV","89119",36.1032874506,-115.14194525,"1","Sandwiches, Coffee & Tea, Food, Restaurants, Bagels"
"39",72633,"Bagel Nash","Thornhill","ON","L4J 0A6",43.8283387,-79.4787377,"1","Food, Bakeries, Bagels"
"40",42967,"The Great American Bagel Bakery","Charlotte","NC","28208",35.2184907,-80.9453334,"1","Bagels, Food"
"41",115735,"Panera Bread","Strongsville","OH","44136",41.3141693629,-81.83472,"1","Breakfast & Brunch, Bagels, Soup, Sandwiches, Salad, Food, Restaurants"
"42",72739,"Bagel World","Vaughan","ON","L6A 0A9",43.8621337551,-79.4857406616,"0","Food, Bagels, Restaurants, Breakfast & Brunch"
"43",80187,"Schmaltz","Toronto","ON","M6J 2Z9",43.6492114,-79.4209224,"1","Bagels, Coffee & Tea, Food"
"44",141072,"Howbowda Bagel","Champaign","IL","61820",40.1164204,-88.2433829,"0","Food, Bagels"
"45",165016,"Einstein Bros Bagels","Charlotte","NC","28207",35.19508,-80.825792,"0","Bagels, Food, Coffee & Tea"
"46",177304,"Rockaberry","Dollard-Des-Ormeaux","QC","H9B 1Z8",45.484633,-73.796026,"1","Salad, Diners, Desserts, Sandwiches, Cafes, Bagels, Restaurants, Food"
"47",68439,"Bruegger's Bagels","Cleveland Hghts.","OH","44106",41.5012588,-81.5929132,"1","Bagels, Breakfast & Brunch, Food, Restaurants, Sandwiches"
"48",172455,"Panera Bread","Charlotte","NC","28210",35.151154,-80.841072,"1","Restaurants, Bagels, Breakfast & Brunch, Bakeries, Soup, Salad, Sandwiches, Food"
"49",80583,"Einstein Bros","Las Vegas","NV","89103",36.1161032,-115.2425,"1","Delis, Restaurants, Bakeries, Bagels, Food"
"50",149904,"Einstein Brothers Bagels","Madison","WI","53704",43.1215580306,-89.318560982,"1","Food, Bagels"
"51",121315,"Mako Espresso Bar","Toronto","ON","M4E 2W2",43.6844069,-79.2974463,"1","Food, Coffee & Tea, Bagels, Desserts"
"52",72338,"Hot Bagels & Deli","Glendale Az","AZ","85310",33.7135958371,-112.2001252952,"1","Food, Delis, Restaurants, Breakfast & Brunch, Bagels"
"53",38128,"Einstein Bros Bagels","Champaign","IL","61822",40.1365794371,-88.2573496356,"1","Restaurants, Bagels, American (New), Breakfast & Brunch, Food"
"54",50767,"Nocawich","Tempe","AZ","85281",33.4227395826,-111.9347911023,"1","Food, Breakfast & Brunch, Sandwiches, Restaurants, Bagels"
"55",3745,"Tega Cay Gourmet Deli","Tega Cay","SC","29708",35.0474998,-80.9918989,"1","Breakfast & Brunch, Food, Sandwiches, Restaurants, Delis, Bagels"
"56",18868,"Einstein Bros Bagels","Phoenix","AZ","85016",33.5087147,-112.0458206,"1","Delis, Restaurants, Bagels, Food, Breakfast & Brunch"
"57",130668,"Mustard Cafe","Las Vegas","NV","89169",36.1274670308,-115.1690260629,"0","Cafes, Coffee & Tea, Bagels, Food, Restaurants"
"58",92623,"Panera Bread","Charlotte","NC","28277",35.053051,-80.850809,"1","Bakeries, Salad, Breakfast & Brunch, Food, Bagels, Restaurants, Soup, Sandwiches"
"59",168711,"St. Urbain Bagel Bakery","Thornhill","ON","L4J 2J6",43.7940577,-79.4455122,"1","Food, Bagels"
"60",837,"What A Bagel - Spadina","Toronto","ON","M5V 2L4",43.6471114738,-79.3958801811,"1","Bakeries, Breakfast & Brunch, Food, Bagels, Restaurants"
"61",104072,"Einstein Bros. Bagels","Canonsburg","PA","15317",40.2731213,-80.126437,"1","Food, Coffee & Tea, Bagels"
"62",42319,"Panera Bread","Pittsburgh","PA","15213",40.436272,-79.958116,"1","Breakfast & Brunch, Salad, Sandwiches, Food, Soup, Bagels, Restaurants"
"63",41226,"Dunkin' Donuts","Las Vegas","NV","89149",36.2858206806,-115.2885471582,"1","Coffee & Tea, Donuts, Bagels, Food"
"64",77708,"Tim Hortons","Toronto","ON","M5V 2K2",43.646919747,-79.3951460347,"0","Coffee & Tea, Food, Donuts, Bagels"
"65",23661,"Panera Bread","Madison","WI","53717",43.0731892532,-89.5248886945,"1","Salad, Bagels, Soup, Breakfast & Brunch, Food, Restaurants, Sandwiches"
"66",187230,"BIGGBY COFFEE","Champaign","IL","61821",40.1123750709,-88.2772195188,"1","Bagels, Coffee & Tea, Restaurants, Bakeries, Cafes, Food"
"67",44065,"Barista Bagels","Las Vegas","NV","89109",36.1376416,-115.1653861,"1","Coffee & Tea, Breakfast & Brunch, Food, Bagels, Restaurants"
"68",10918,"City Square Cafe","Phoenix","AZ","85012",33.4918515,-112.074775,"0","Restaurants, Breakfast & Brunch, Bagels, Food, Sandwiches"
"69",65841,"Bruegger's Bagels","Charlotte","NC","28262",35.312144,-80.745093,"0","Restaurants, Food, Sandwiches, Breakfast & Brunch, Bagels"
"70",20256,"Panera Bread","Westlake","OH","44145",41.468284,-81.909276,"1","Breakfast & Brunch, Restaurants, Salad, Soup, Sandwiches, Bakeries, Bagels, Food"
"71",158318,"Bruegger's Bagels","Sewickley","PA","15143",40.5406501,-80.1811203,"1","Sandwiches, Restaurants, Bagels, Bakeries, Food, Breakfast & Brunch"
"72",83748,"Tim Hortons","Toronto","ON","M6P 2A2",43.6653638,-79.4750685,"1","Donuts, Restaurants, Coffee & Tea, Sandwiches, Breakfast & Brunch, Bagels, Food"
"73",47366,"Panera Bread","Mentor","OH","44060",41.6540041778,-81.3784173131,"1","Sandwiches, Soup, Bagels, Breakfast & Brunch, Salad, Food, Restaurants"
"74",67538,"Tim Hortons","Lachine","QC","H8R 4E1",45.442169,-73.6463282,"1","Food, Bagels"
"75",75844,"Back East Bagels","Tempe","AZ","85282",33.3943144,-111.9129167,"1","Restaurants, Breakfast & Brunch, Bagels, Sandwiches, Food"
"76",110471,"Brooklyns Best Bagel and Deli","Phoenix","AZ","85050",33.6756727,-111.9791944,"0","Delis, Restaurants, Food, Bagels"
"77",57734,"Chompie's","Scottsdale","AZ","85260",33.5809003055,-111.8806399013,"1","Restaurants, Bagels, Caterers, Event Planning & Services, Delis, Food, Breakfast & Brunch, Bakeries"
"78",87190,"Einsteins Bagels","Phoenix","AZ","85028",33.5834720349,-111.9760118954,"1","Food, Bagels"
"79",143138,"Einstein Bros Bagels","Phoenix","AZ","85004",33.4663898,-112.0656616,"1","Delis, Restaurants, Food, Breakfast & Brunch, Bagels, Coffee & Tea"
"80",91926,"The Bagel Shoppe","South Euclid","OH","44121",41.5056444,-81.5369026,"1","Bagels, Food"
"81",124800,"Viva Café Espresso Bar","Las Vegas","NV","89107",36.1725319,-115.197258,"0","Food, Cafes, Restaurants, Coffee & Tea, Bagels"
"82",176441,"The Bagel House","Toronto","ON","M4T 1Y7",43.6873008,-79.3939087,"1","Bagels, Food"
"83",99830,"Panera Bread","Champaign","IL","61821",40.097838,-88.275366,"1","Bagels, Sandwiches, Salad, Breakfast & Brunch, Bakeries, Soup, Restaurants, Food"
"84",179360,"Bagel Nash","Toronto","ON","M3J 3N4",43.7852513,-79.4732888,"1","Bagels, Bakeries, Sandwiches, Restaurants, Food, Breakfast & Brunch"
"85",29236,"Dunkin' Donuts","Irwin","PA","15642",40.3250195,-79.7035194,"1","Bagels, Restaurants, Ice Cream & Frozen Yogurt, Food, Coffee & Tea, Donuts"
"86",47018,"Panera Bread","Scottsdale","AZ","85251",33.494685103,-111.927015268,"1","Sandwiches, Food, Restaurants, Bagels, Bakeries"
"87",168367,"Grotto Cafe","Cave Creek","AZ","85331",33.8323562,-111.9408396,"1","Coffee & Tea, Restaurants, Cafes, Bagels, Food, Breakfast & Brunch, Beer, Wine & Spirits, American (New), Local Flavor"
"88",173761,"Einstein Bros Bagels","Charlotte","NC","28203",35.2141898,-80.8545793,"1","Restaurants, Bagels, Food"
"89",41865,"O'Bagel","Montréal","QC","H2S 1B5",45.5359283997,-73.6137303337,"1","Food, Bagels"
"90",97440,"Lox Stock & Bagel","Champaign","IL","61824",40.1211828,-88.2434596,"0","Restaurants, Food, Bagels"
"91",176299,"Bialy's Bagels","Cleveland","OH","44118",41.4979909,-81.5357253,"1","Restaurants, Food, Bagels, Bakeries"
"92",175663,"Buka Maranga","Mississauga","ON","L5N 5R3",43.5911743,-79.7418695,"1","Food, Breakfast & Brunch, Restaurants, Bagels, Bakeries, Cafes"
"93",175780,"Sunset Grill","Nobleton","ON","L0G 1N0",43.9079343,-79.6526462,"1","Sandwiches, Breakfast & Brunch, Diners, Restaurants, Bagels, Food, Canadian (New)"
"94",147962,"Einstein Bros Bagels","Las Vegas","NV","89139",36.0393356223,-115.1912002953,"1","Coffee & Tea, Bagels, Food"
"95",31179,"Panera Bread","Pittsburgh","PA","15232",40.456066,-79.937436,"1","Soup, Food, Sandwiches, Breakfast & Brunch, Salad, Bagels, Restaurants"
"96",2581,"The Great Canadian Bagel","Mississauga","ON","L4W 1S9",43.6790689348,-79.6079389316,"1","Food, Coffee & Tea, Bagels"
"97",118504,"Express Donuts","Goodyear","AZ","85395",33.4651361,-112.356396,"1","Food, Donuts, Bagels, Breakfast & Brunch, Coffee & Tea, Restaurants"
"98",170653,"Dunkin' Donuts","Elyria","OH","44035",41.4151103581,-82.0775117684,"1","Donuts, Coffee & Tea, Food, Bagels"
"99",126966,"Great Canadian Bagel","Calgary","AB","T2S 0A3",51.0376927,-114.069133,"0","Food, Restaurants, Delis, Bagels"
"100",96079,"The Cleveland Bagel Co","Cleveland","OH","44113",41.4873977922,-81.7163715252,"1","Bagels, Donuts, Food"
"101",123649,"Panera Bread","Solon","OH","44139",41.392065,-81.442852,"1","Sandwiches, Food, Bagels, Salad, Breakfast & Brunch, Soup, Bakeries, Restaurants, Cafes"
"102",81770,"Vermont Sandwich Co","Scottsdale","AZ","85260",33.6396513,-111.8913939,"0","Sandwiches, Vegetarian, Restaurants, Breakfast & Brunch, Food, Soup, Salad, Bagels"
"103",86154,"The Coffee Buzz","Phoenix","AZ","85073",33.3055166,-111.9798699,"0","Food, Sandwiches, Restaurants, Bagels, Local Flavor, Coffee & Tea"
"104",153161,"La Fabrique de Bagel","Montréal","QC","H3B 4W5",45.498563,-73.566195,"1","Food, Bagels"
"105",57309,"Ana Meilleure Cuisine","Montréal","QC","H2W 1X9",45.515867,-73.576528,"1","Food, Restaurants, Bagels, Sandwiches, Coffee & Tea"
"106",2183,"Sweet Buzz Bean & Bistro","Harrison City","PA","15636",40.3550933347,-79.6515513495,"1","Coffee & Tea, Restaurants, Bagels, Food, American (Traditional), American (New), Hot Dogs, Bakeries, Breakfast & Brunch"
"107",62121,"Panera Bread","Medina","OH","44256",41.16388,-81.861382,"1","Salad, Food, Sandwiches, Bagels, Restaurants, Soup, Breakfast & Brunch"
"108",44402,"Sunrise Kosher Foods","North York","ON","M3H 2S5",43.7551507,-79.4417537,"1","Delis, Sandwiches, Food, Restaurants, Bagels, Specialty Food"
"109",160761,"Panera Bread","Champaign","IL","61820",40.138507,-88.243173,"1","Breakfast & Brunch, Bagels, Restaurants, Soup, Food, Coffee & Tea, Salad, Sandwiches, Bakeries"
"110",35669,"Jamboree Bagel Restaurant & Cafe","Las Vegas","NV","89149",36.2660802,-115.2586289,"0","Donuts, Restaurants, Bakeries, Food, Bagels, Delis"
"111",164494,"Panera Bread","Charlotte","NC","28207",35.201751,-80.824406,"1","Bagels, Food, Salad, Breakfast & Brunch, Coffee & Tea, Soup, Sandwiches, Delis, Restaurants"
"112",77217,"Dj's Bagel Cafe","Fountain Hills","AZ","85268",33.609428,-111.729264,"1","Bagels, Restaurants, Cafes, Food"
"113",105016,"Carefree Coffee","Cave Creek","AZ","85331",33.8276875987,-111.9247950548,"1","Customized Merchandise, Bagels, Food, Shopping, Coffee & Tea, Bakeries, Coffee Roasteries"
"114",1323,"My Brothers Bagel","Denver","NC","28037",35.4629853826,-80.9935725116,"1","Bagels, Food, Breakfast & Brunch, Restaurants, Sandwiches"
"115",146632,"Bagel Buddy's","Euclid","OH","44123",41.601661,-81.539694,"1","Bagels, Restaurants, Food"
"116",53439,"Bubby's Bagels","Toronto","ON","M6B 3B5",43.718317,-79.429265,"1","Breakfast & Brunch, Event Planning & Services, Restaurants, Bagels, Caterers, Kosher, Food"
"117",183146,"Manhattan Bagel","Charlotte","NC","28277",35.0970774975,-80.7790989891,"1","Breakfast & Brunch, Delis, Vegetarian, Kosher, Vegan, Bagels, Food, Restaurants"
"118",144924,"Bagel Nosh","Gilbert","AZ","85233",33.3341319,-111.8075763,"1","Food, Sandwiches, Breakfast & Brunch, Restaurants, Bagels"
"119",535,"Einstein Bros Bagels","Las Vegas","NV","89149",36.2837875042,-115.287225086,"1","Breakfast & Brunch, Bagels, Food, Coffee & Tea, Restaurants, Sandwiches"
"120",143280,"Bruegger's Bagels","Stow","OH","44224",41.1997322,-81.4396676,"1","Sandwiches, Breakfast & Brunch, Restaurants, Food, Bagels"
"121",121500,"The Bagel Cafe","Las Vegas","NV","89136",36.1590987,-115.3376537,"0","Cafes, Food, Restaurants, American (Traditional), Bagels"
"122",168069,"Kiva's  Bagel Bar","Toronto","ON","M5H 3A9",43.6500952,-79.3848513,"1","Delis, Bagels, Breakfast & Brunch, Food, Restaurants"
"123",170925,"Panera Bread","Willoughby","OH","44094",41.627283,-81.431397,"1","Food, Coffee & Tea, Soup, Bagels, Restaurants, Breakfast & Brunch, Sandwiches, Salad"
"124",68212,"Station Kaffe","Montréal","QC","H3A 1T5",45.5009023,-73.5736691,"0","Food, Bagels, Bakeries, Coffee & Tea"
"125",31878,"Panera Bread","Pittsburgh","PA","15205",40.4403206,-80.1492465,"1","Soup, Bagels, Food, Breakfast & Brunch, Sandwiches, Salad, Restaurants"
"126",31385,"Arabica","Willoughby","OH","44094",41.640026,-81.40682,"0","American (Traditional), Sandwiches, Bagels, Food, Desserts, Restaurants, Coffee & Tea, Bakeries"
"127",159449,"Panera Bread","Amherst","OH","44001",41.4127637372,-82.2394618394,"1","Salad, Sandwiches, Breakfast & Brunch, Bakeries, Restaurants, Cafes, Soup, Bagels, Food"
"128",7004,"Brooklyn Bagels","Las Vegas","NV","89123",36.01979,-115.15036,"0","Food, Bagels"
"129",12182,"Panera Bread","North Olmsted","OH","44070",41.418357,-81.911685,"1","Breakfast & Brunch, Restaurants, Bagels, Food, Salad, Soup, Cafes, Bakeries, Sandwiches"
"130",85458,"Bruegger's Bagels","Pittsburgh","PA","15232",40.4507324,-79.935724,"1","Restaurants, Breakfast & Brunch, Sandwiches, Food, Bagels"
"131",103408,"Redheads Japa Cafe","Calgary","AB","T2R 0E2",51.0428936933,-114.0758754934,"1","Bagels, Buffets, Food, Japanese, Cafes, Tapas Bars, Restaurants, Breakfast & Brunch"
"132",14681,"Bruegger's Bagels","Pittsburgh","PA","15203",40.4289222,-79.9803032,"1","Sandwiches, Bagels, Restaurants, Breakfast & Brunch, Food"
"133",172978,"Gasoline Street Coffee","Pittsburgh","PA","15219",40.4353844922,-79.995624918,"1","Breakfast & Brunch, Coffee & Tea, Bakeries, Food, Cafes, Restaurants, Juice Bars & Smoothies, Bagels"
"134",171529,"The Nosh Cafe","Phoenix","AZ","85044",33.3308508709,-111.9786421111,"1","Bagels, Sandwiches, Coffee & Tea, Food, Breakfast & Brunch, Restaurants"
"135",135468,"Panera Bread","Toronto","ON","M3C 0H8",43.734813402,-79.3440060318,"1","Salad, Soup, Restaurants, Bagels, Food, Sandwiches, Breakfast & Brunch"
"136",169944,"The Madison Deli","Phoenix","AZ","85016",33.5157019634,-112.0469014803,"1","Restaurants, Bagels, Delis, Food"
"137",94879,"Smokey Jo's Bagel Bar & Deli","Toronto","ON","M1C 2L4",43.7896024133,-79.1399149189,"1","Restaurants, Delis, Burgers, Food, Coffee & Tea, Bagels"
"138",66519,"Dough Bakeshop","Toronto","ON","M4K 1N2",43.6764344,-79.3566296,"1","Desserts, Gluten-Free, Restaurants, Bagels, Bakeries, Ice Cream & Frozen Yogurt, Food"
"139",13019,"R.E.A.L. Bagel","Montréal","QC","H3W 3E3",45.4917185,-73.6463642,"1","Bagels, Food"
"140",89773,"Tim Horton's","Toronto","ON","M5H 3V9",43.6498592,-79.3820602,"1","Restaurants, Bagels, Donuts, Coffee & Tea, Cafes, Food"
"141",95731,"Brooklyn Bagel Deli","Henderson","NV","89074",36.0293246869,-115.0858483931,"0","Breakfast & Brunch, Food, Sandwiches, Bagels, Restaurants"
"142",122704,"Panera Bread","Las Vegas","NV","89148",36.0957996497,-115.2966007591,"1","Breakfast & Brunch, Soup, Food, Bagels, Salad, Restaurants, Sandwiches"
"143",165311,"Bagel Boat","Lake Wylie","SC","29710",35.1099757308,-81.0442433231,"1","Food Delivery Services, Event Planning & Services, Cafes, Sandwiches, Breakfast & Brunch, Caterers, Bagels, Food, Restaurants"
"144",143037,"Bagel Time","Toronto","ON","M4K 1R1",43.6787836894,-79.3468884006,"1","Bagels, Food, Sandwiches, Restaurants"
"145",155996,"Pearlee & Cille's Bagel Cafe","Belmont","NC","28012",35.2454935,-81.0373572,"1","Food, Desserts, Donuts, Bagels, Coffee & Tea, Kids Activities, Ice Cream & Frozen Yogurt, Active Life"
"146",97411,"Vegas 808","Las Vegas","NV","89101",36.1730572,-115.1450046,"1","Specialty Food, Convenience Stores, Ethnic Food, Food, Candy Stores, Bagels"
"147",112566,"Einstein Bros Bagels","Pittsburgh","PA","15213",40.4417577,-79.9551865,"1","Food, Bagels"
"148",133806,"Panera Bread","Pittsburgh","PA","15220",40.395932,-80.067397,"1","Soup, Restaurants, Breakfast & Brunch, Coffee & Tea, Bagels, Food, Bakeries, Salad, Sandwiches"
"149",30316,"Boss Coffee","Scottsdale","AZ","85255",33.696356776,-111.9246612765,"1","Restaurants, Food, Juice Bars & Smoothies, Cafes, Bagels, Sandwiches, Breakfast & Brunch, Internet Cafes, Coffee & Tea"
"150",135475,"Hot Bagels & Deli","Glendale","AZ","85308",33.6666947,-112.1878914,"1","Restaurants, Bagels, Food, Sandwiches, Breakfast & Brunch"
"151",124595,"Dunkin' Donuts","Pittsburgh","PA","15213",40.4422,-79.956316,"1","Bakeries, Bagels, Food, Donuts, Coffee & Tea"
"152",19177,"Einstein Bros Bagels","Glendale","AZ","85306",33.6111943,-112.18517,"1","Delis, Bagels, Restaurants, Food"
"153",118189,"Bagel Factory","Pittsburgh","PA","15217",40.438304,-79.9199261,"1","Food, Sandwiches, Restaurants, Specialty Food, Bagels, Delis"
"154",33001,"Java Jive Coffee & Tea Co","Toronto","ON","M4Y 2E4",43.6682927,-79.3818156,"0","Cafes, Sandwiches, Food, Bagels, Coffee & Tea, Restaurants, Breakfast & Brunch"
"155",21883,"Mike's Deli and Bagels","Concord","NC","28027",35.4109106703,-80.6664403528,"1","Bagels, Food, Restaurants, Breakfast & Brunch, Sandwiches, Delis"
"156",127211,"Ville Emard Bagels","Montréal","QC","H4E 3J1",45.4533798,-73.5939113,"1","Food, Bagels"
"157",12857,"The Best NY Bagel Deli","Cornelius","NC","28031",35.4787634,-80.8933777,"1","Restaurants, Food, Bagels"
"158",89956,"Tim Hortons","Calgary","AB","T2E 6Z8",51.12957843,-114.0086077899,"1","Donuts, Bagels, Food, Coffee & Tea"
"159",88900,"Cafe On the Go","Toronto","ON","M8X",43.6454388488,-79.5240855217,"1","Bagels, Food, Coffee & Tea"
"160",902,"Hot Bagels & Deli # 1","Litchfield Park","AZ","85340",33.5096682822,-112.3565273425,"1","Restaurants, Delis, Food, Bagels"
"161",22064,"1865 Coffee","Tempe","AZ","85281",33.4222101,-111.9384367,"1","Cafes, Sandwiches, Bagels, Coffee & Tea, Restaurants, Breakfast & Brunch, Food"
"162",182299,"Great Canadian Bagel","Ajax","ON","L1S 7K7",43.8419547,-79.0223692,"1","Bagels, Food"
"163",42033,"Panera Bread","Pittsburgh","PA","15235",40.429091169,-79.8130032421,"1","Salad, Bagels, Sandwiches, Food, Breakfast & Brunch, Soup, Bakeries, Restaurants"
"164",187042,"Panera Bread","South Euclid","OH","44118",41.5016104641,-81.5394338967,"1","Breakfast & Brunch, Restaurants, Bakeries, Soup, Bagels, Food, Salad, Sandwiches"
"165",174518,"Einstein Bros Bagels","Las Vegas","NV","89123",36.0175333439,-115.1174958806,"1","Bagels, Food, Bakeries"
"166",160730,"Aj's Fine Foods","Scottsdale","AZ","85250",33.6220938744,-111.8730840786,"1","Farmers Market, Seafood Markets, Coffee & Tea, Flowers & Gifts, Bagels, Restaurants, Shopping, Florists, Health Markets, Beer, Wine & Spirits, Grocery, Specialty Food, Barbeque, Bakeries, Food"
"167",101071,"Einstein Bros Bagels","Surprise","AZ","85374",33.641429,-112.354776,"1","Food, Bagels"
"168",56840,"Tortas Ahogadas El Pariente","North Las Vegas","NV","89030",36.2062789,-115.112654,"0","Imported Food, Bagels, Ethnic Food, Restaurants, Specialty Food, Mexican, Food"
"169",135452,"Java Express Cafe","Mentor","OH","44060",41.6732003205,-81.3392919302,"1","Sandwiches, Bagels, Cafes, Coffee & Tea, Food, Restaurants"
"170",12647,"Panera Bread","McMurray","PA","15317",40.263010369,-80.131316185,"1","Breakfast & Brunch, Sandwiches, Bagels, Restaurants, Food, Bakeries, Salad, Soup"
"171",40579,"Kokobelli Bagel Cafe","Mesa","AZ","85206",33.3945593,-111.6836794,"1","Sandwiches, Cafes, Breakfast & Brunch, Bagels, Food, Restaurants"
"172",176511,"Beauty's Luncheonette","Montréal","QC","H2T 2S5",45.5191426,-73.587511,"1","Diners, Breakfast & Brunch, Food, Delis, Bagels, Restaurants"
"173",127609,"Empire Bagels","Las Vegas","NV","89148",36.0772861605,-115.2981759269,"0","Delis, Restaurants, Breakfast & Brunch, Food, Bagels"
"174",142629,"Second Cup Colossus","Vaughan","ON","L4L 0B6",43.7889219,-79.5450052,"0","Food, Coffee & Tea, Bagels"
"175",192118,"Einstein Bros Bagels","Las Vegas","NV","89129",36.2188667,-115.2746367,"1","Bagels, Delis, Food, Restaurants, Sandwiches"
"176",112741,"Brueggers Bagels","Gilbert","AZ","85233",33.363016,-111.841114,"0","Restaurants, Sandwiches, Bagels, Food, Breakfast & Brunch"
"177",129171,"The Bagel Stop","Toronto","ON","M4W 3G7",43.6710978,-79.386063,"1","Bagels, Food"
"178",179556,"Dunkin' Donuts","Urbana","IL","61801",40.1167564392,-88.2114257812,"1","Food, Bagels, Donuts, Coffee & Tea"
"179",107159,"Einstein Bros Bagels","Charlotte","NC","28208",35.2223175,-80.9414618,"1","Food, Coffee & Tea, Bagels"
"180",77271,"Rising Star Coffee Roasters","Lakewood","OH","44107",41.477292,-81.784374,"1","Coffee Roasteries, Bagels, Food, Coffee & Tea"
"181",132254,"Panera Bread","Oakmont","PA","15139",40.52108,-79.841511,"1","Soup, Bagels, Breakfast & Brunch, Salad, Food, Restaurants, Sandwiches"
"182",2318,"Panera Bread","Cleveland","OH","44106",41.509763,-81.603852,"1","Salad, Breakfast & Brunch, Sandwiches, Soup, Bagels, Restaurants, Food, Bakeries"
"183",53792,"Chompie's","Phoenix","AZ","85032",33.6027713133,-111.9813721156,"1","Caterers, Delis, Bagels, Breakfast & Brunch, Event Planning & Services, Food, Bakeries, Restaurants"
"184",29540,"Brew at Juma","Shaker Heights","OH","44122",41.4642659,-81.5382528,"1","Coffee & Tea, Shopping, Arts & Entertainment, Beer, Wine & Spirits, Accessories, Nightlife, Sandwiches, Art Galleries, Bars, Fashion, Tapas/Small Plates, Bagels, Restaurants, Bakeries, Food"
"185",190264,"Loca Boba","Phoenix","AZ","85033",33.4780654,-112.2256247,"1","Macarons, Bagels, Food, Specialty Food, Juice Bars & Smoothies, Coffee & Tea"
"186",20300,"Bagels-N-More","Las Vegas","NV","89121",36.0996751,-115.1186361,"0","Food, Restaurants, Bagels"
"187",175300,"Bruegger's Bagels","Madison","WI","53705",43.061218,-89.486019,"0","Bagels, Breakfast & Brunch, Restaurants, Food, Sandwiches"
"188",174600,"Blenz Coffee","Calgary","AB","T2P 0Z1",51.0470607,-114.0764657,"1","Sandwiches, Bagels, Food, Restaurants, Coffee & Tea"
"189",189283,"Panera Bread","Pittsburgh","PA","15213",40.4416203898,-79.9566856027,"1","Bakeries, Breakfast & Brunch, Restaurants, Salad, Sandwiches, Bagels, Soup, Delis, Coffee & Tea, Food"
"190",159998,"Krispy Kreme","Las Vegas","NV","89109",36.1088418,-115.1721488,"1","Donuts, Bagels, Coffee & Tea, Food"
"191",170380,"Bruegger's Bagels","Fairlawn","OH","44333",41.1366611,-81.6345573,"1","Restaurants, Food, Sandwiches, Breakfast & Brunch, Bagels"
"192",72369,"Caribou Coffee and Einstein's Bagels","Gilbert","AZ","85295",33.3061994,-111.7589092,"1","Coffee & Tea, Bagels, Food"
"193",140536,"Viva Café","Las Vegas","NV","89169",36.1248998,-115.1350531,"1","Coffee & Tea, Juice Bars & Smoothies, Bagels, Cafes, Food, Tea Rooms, Sandwiches, Restaurants"
"194",160545,"Fractured Prune Doughnuts","Glendale","AZ","85305",33.5349973245,-112.2609967759,"1","Breakfast & Brunch, Pizza, Restaurants, Bakeries, Bagels, Desserts, Donuts, Food, Coffee & Tea"
"195",128656,"Fresh Blend Coffee & Sandwich Bar","Calgary","AB","T3A 0Z9",51.0920607,-114.1539556,"1","Cafes, Bakeries, Restaurants, Korean, Food, Coffee & Tea, Ethnic Food, Sandwiches, Bagels, Specialty Food"
"196",72450,"Big Apple Bagels","Henderson","NV","89074",36.0352661982,-115.0982050482,"1","Food, Restaurants, Sandwiches, Coffee & Tea, Bagels"
"197",7319,"Enchanted Cupcakes and More","Phoenix","AZ","85041",33.3796253,-112.1385527,"1","Cupcakes, Restaurants, Food, Donuts, Bakeries, Bagels, Desserts, Breakfast & Brunch, Custom Cakes"
"198",53978,"Panera Bread","Matthews","NC","28105",35.123889,-80.707596,"1","Sandwiches, Delis, Food, Restaurants, Soup, Breakfast & Brunch, Bagels, Salad"
"199",19944,"Everything Bagels","Phoenix","AZ","85016",33.524593147,-112.0471481325,"1","Bagels, Breakfast & Brunch, Sandwiches, Food, Restaurants, Coffee & Tea"
"200",34329,"Brickway Bagels","Mesa","AZ","85210",33.412437,-111.857159,"0","Food, Bagels, Shopping, Antiques"
"201",191566,"Panera Bread","Pittsburgh","PA","15238",40.4891772611,-79.8925406952,"1","Soup, Salad, Breakfast & Brunch, Bagels, Sandwiches, Food, Restaurants, Bakeries"
"202",145687,"Bruegger's Bagels","Hudson","OH","44236",41.2396502,-81.4453734,"1","Breakfast & Brunch, Bagels, Restaurants, Sandwiches, Food"
"203",11163,"Panera Bread","Henderson","NV","89014",36.0646853186,-115.039139986,"1","Soup, Food, Bakeries, Salad, Bagels, Breakfast & Brunch, Restaurants, Sandwiches"
"204",169176,"Tranches de Bonheur","Verdun","QC","H4H 1M9",45.454399,-73.567509,"1","Coffee & Tea, Breakfast & Brunch, Restaurants, Bagels, Canadian (New), Food, Cafes"
"205",71019,"Panera Bread","Brooklyn","OH","44144",41.423111,-81.760827,"1","Sandwiches, American (Traditional), Food, Restaurants, Soup, Breakfast & Brunch, Salad, Bagels"
"206",82145,"Panera Bread","Hudson","OH","44236",41.238893,-81.446344,"1","Bagels, Salad, Soup, Breakfast & Brunch, Restaurants, Food, Sandwiches"
"207",101496,"Fairmount Bagel","Montréal","QC","H2T 2M2",45.5229082,-73.5952772,"1","Bakeries, Food, Bagels"
"208",3243,"Panera Bread","Toronto","ON","M5B 1R8",43.6571142451,-79.3815341592,"1","Delis, Restaurants, Sandwiches, Food, Salad, Breakfast & Brunch, Soup, Bagels, Bakeries"
"209",135117,"Panera Bread","Thornhill","ON","L4J 3M8",43.809673,-79.457857,"0","Bagels, Salad, Breakfast & Brunch, Sandwiches, Restaurants, Bakeries, Internet Cafes, Soup, Food"
"210",2349,"Panera Bread","Madison","WI","53705",43.075946,-89.446009,"1","Food, Bagels, Soup, Breakfast & Brunch, Sandwiches, Restaurants, Salad"
"211",1079,"Bronze Cafe at The Market","Las Vegas","NV","89101",36.1682897,-115.1391277,"1","Coffee & Tea, Restaurants, Vegan, Salad, Bagels, Grocery, Juice Bars & Smoothies, Breakfast & Brunch, Food, Caterers, Event Planning & Services, Cafes, Sandwiches"
"212",55256,"Honeybee Donuts","Markham","ON","L3P 5E5",43.8682520508,-79.2846966907,"1","Breakfast & Brunch, Bagels, Donuts, Restaurants, Food"
"213",141167,"Affogato","Bellevue","PA","15202",40.496863,-80.058902,"0","Food, Coffee & Tea, Soup, Restaurants, Bagels"
"214",87864,"Bagel World","Toronto","ON","M3H 1S9",43.7368719,-79.4376865,"1","Bakeries, Bagels, Kosher, Food, Restaurants, Breakfast & Brunch"
"215",92360,"Tim Hortons","Toronto","ON","M5H 3B3",43.6478833787,-79.3850146607,"1","Food, Bakeries, Coffee & Tea, Donuts, Bagels"
"216",11167,"Cafe Sheli","Thornhill","ON","L4J 7Y3",43.8097134,-79.4515772,"1","Restaurants, Kosher, Bagels, Breakfast & Brunch, Food, Middle Eastern"
"217",144636,"Gotham Bagels","Madison","WI","53704",43.0769221065,-89.3835302639,"1","Food, Bagels, Delis, Breakfast & Brunch, Restaurants"
"218",26620,"Bruegger's Bagels","Cleveland","OH","44135",41.4109065,-81.8336741,"1","Food, Breakfast & Brunch, Salad, Bagels, Restaurants, Sandwiches"
"219",37094,"Granny Mac's Bake Shop","Harrisburg","NC","28075",35.321683,-80.659621,"0","Bakeries, Donuts, Bagels, Restaurants, Food, Pizza"
"220",6139,"Bagel St-Henri","Montréal","QC","H4C 1C8",45.4771946,-73.5904975,"1","Bakeries, Event Planning & Services, Food, Bagels, Caterers, Breakfast & Brunch, Restaurants, Sandwiches, Cafes"
"221",144147,"Bongiorno Bagels","Gilbert","AZ","85295",33.2929773888,-111.7889980227,"1","Restaurants, Sandwiches, Coffee & Tea, Bagels, Food"
"222",13918,"Coffee Bean & Tea Leaf","Henderson","NV","89052",35.999233,-115.104056,"1","Internet Cafes, Food, Coffee & Tea, Bagels"
"223",2591,"Bagels on Greene","Montréal","QC","H3Z 1P4",45.4862525,-73.5875134,"1","Restaurants, Grocery, Sandwiches, Internet Cafes, Salad, Food, Breakfast & Brunch, Bagels"
"224",17977,"Bagels On Fire","Toronto","ON","M4E 1G2",43.6728334,-79.2867277,"1","Bagels, Coffee & Tea, Breakfast & Brunch, Food, Restaurants"
"225",97467,"Bruegger's Bagels","Willoughby","OH","44094",41.607959,-81.440713,"1","Sandwiches, Bagels, Restaurants, Bakeries, Breakfast & Brunch, Food"
"226",59254,"New York Bagels N Bialys at SkySong","Scottsdale","AZ","85257",33.4643786,-111.9257504,"1","Breakfast & Brunch, Sandwiches, Restaurants, Bagels, Food, Delis"
"227",177251,"Port City Java","Charlotte","NC","28202",35.2279675,-80.8412983,"0","Restaurants, Bagels, Food, Wraps, Sandwiches, Coffee Roasteries, Coffee & Tea"
"228",53879,"What A Bagel","Ajax","ON","L1Z 0T4",43.8787194011,-79.0247792265,"1","Food, Bakeries, Restaurants, Breakfast & Brunch, Bagels"
"229",173316,"Big Apple Bagels","Tega Cay","SC","29708",35.0483346,-80.9922069,"0","Coffee & Tea, Delis, Food, Bagels, Restaurants"
"230",133635,"Passenger's Cafe","Cleveland","OH","44113",41.4830039,-81.7028128,"1","Food, Coffee & Tea, Bagels"
"231",126476,"Life's A Bagel","Las Vegas","NV","89128",36.2003923,-115.2819365,"1","Food, Restaurants, Delis, Bagels, Sandwiches, American (Traditional)"
"232",11353,"Hinnawi Bros Bagel & Café","Montréal","QC","H2X 1E6",45.5166486,-73.567286,"1","Bagels, Food"
"233",177670,"The Roasted Bean","Las Vegas","NV","89109",36.1206533199,-115.1757013701,"1","Bagels, Food, Coffee & Tea, Bakeries"
"234",43462,"What A Bagel","North York","ON","M6A 2C5",43.7290402,-79.4316426,"0","Bagels, Food"
"235",104305,"Parker's PGH","Pittsburgh","PA","15226",40.3952468,-80.0224334,"1","Food, Restaurants, Sandwiches, Breakfast & Brunch, Coffee & Tea, Bagels"
"236",67067,"Einstein Bros Bagels","Las Vegas","NV","89169",36.102268,-115.156796,"1","Bagels, Food"
"237",7895,"Everything Bagels","Scottsdale","AZ","85251",33.4943831063,-111.925853344,"0","Coffee & Tea, Specialty Food, Food, Bagels"
"238",45711,"Donut Counter","North York","ON","M2K 1G4",43.7920037,-79.3927656,"1","Donuts, Food, Coffee & Tea, Bagels, Sandwiches, Restaurants"
"239",99859,"Chompie's","Tempe","AZ","85281",33.4224209766,-111.9199218246,"1","Delis, Bakeries, Caterers, Breakfast & Brunch, Food, Event Planning & Services, Restaurants, Bagels"
"240",43450,"Einstein Bros Bagels","Akron","OH","44313",41.109083,-81.5689488,"1","Restaurants, Bagels, Event Planning & Services, Food, Caterers"
"241",136712,"Nosh","Las Vegas","NV","89109",36.1142224,-115.1708505,"1","Bagels, Sandwiches, Restaurants, Food, Bakeries"
"242",47900,"OKO Bagels","Oakville","ON","L6J 7S8",43.4640778,-79.6734963,"1","Bagels, Coffee & Tea, Food, Restaurants, Sandwiches"
"243",190449,"Fresh Donuts","North Las Vegas","NV","89030",36.1962389,-115.1190162,"1","Bagels, Food, Donuts, Bakeries, Restaurants"
"244",16830,"Einstein Bros Bagels","Pittsburgh","PA","15220",40.4184859,-80.045437,"1","Food, Coffee & Tea, Bagels, Restaurants, Bakeries"
"245",44734,"Einstein Bros Bagels","Phoenix","AZ","85050",33.6793943306,-111.9752431288,"1","Sandwiches, Bagels, Food, Breakfast & Brunch, Salad, Restaurants"
"246",32924,"Dunkin' Donuts","Tempe","AZ","85284",33.3350123,-111.9620302,"1","Coffee & Tea, Donuts, Food, Bagels"
"247",177244,"Espresso Royale","Urbana","IL","61801",40.104703,-88.227208,"1","Coffee & Tea, Bagels, Restaurants, Food"
"248",93641,"Chompie's","Chandler","AZ","85226",33.2976955302,-111.9013309479,"1","American (New), Sandwiches, Bagels, Bakeries, Restaurants, Food, Delis, Event Planning & Services, Caterers, Breakfast & Brunch, Delicatessen"
"249",154913,"The Bagel Stop","Toronto","ON","M5K 1A1",43.6471768,-79.3815764,"1","Food, Bagels"
"250",164182,"Bistro du Marché","Montréal","QC","H4N 1K2",45.5333844403,-73.649352775,"1","Bistros, Bagels, Coffee & Tea, Food, Restaurants"
"251",114320,"The Original Brooklyn Water Bagel","Charlotte","NC","28277",35.0531562,-80.8471264,"0","Restaurants, Food, Breakfast & Brunch, Bagels, Coffee & Tea"
"252",95761,"What A Bagel","Toronto","ON","M5P 2W3",43.6888774,-79.412606,"1","Food, Bagels"
"253",170541,"CoffeeBytes","Madison","WI","53715",43.0730351,-89.3985695,"0","Food, Bagels, Coffee & Tea, Bakeries"
"254",170218,"Fionas Coffee Bar And Bakery","Willoughby","OH","44094",41.6398438,-81.4070361,"1","Bagels, Food, Bakeries, Coffee & Tea"
"255",128279,"Tim Hortons","Newmarket","ON","L3Y 8E6",44.0494999,-79.421662,"1","Coffee & Tea, Food, Donuts, Bagels"
"256",172559,"Tim Hortons","Toronto","ON","M6K 1M3",43.6405633025,-79.437282675,"1","Coffee & Tea, Donuts, Food, Bagels"
"257",89694,"Einstein Brothers Bagels","Madison","WI","53703",43.075054,-89.396524,"1","Restaurants, Food, Bagels"
"258",75982,"Black Rock Coffee Bar","Mesa","AZ","85206",33.389993,-111.719812,"1","Food, Juice Bars & Smoothies, Coffee & Tea, Bagels"
"259",160098,"Vinyl Rush Cafe","Mesa","AZ","85201",33.41644,-111.834415,"0","Coffee & Tea, Food, Bagels"
"260",108997,"Einstein Bros Bagels","Las Vegas","NV","89103",36.1147442926,-115.2002593785,"1","Bagels, Breakfast & Brunch, Restaurants, Coffee & Tea, Food, American (Traditional), Sandwiches"
"261",105855,"Café Vito","Montréal","QC","H2R 1G4",45.5384181,-73.6245508,"1","Coffee & Tea, Bagels, Food, Restaurants, Ice Cream & Frozen Yogurt, Cafes"
"262",64365,"Sunrise Donuts","Phoenix","AZ","85339",33.3789419421,-112.1346091984,"1","Food, Bagels, Breakfast & Brunch, Donuts, Restaurants"
"263",96589,"Beaubien Bagel","Montréal","QC","H2S 1S9",45.5364432,-73.6025898,"1","Bagels, Food, Bakeries"
"264",153090,"Panera Bread","Broadview Heights","OH","44147",41.29162,-81.675579,"1","Soup, Breakfast & Brunch, Salad, Bagels, Sandwiches, Food, Restaurants"
"265",115660,"Bagel Nosh","Mesa","AZ","85205",33.435594,-111.721028,"0","Restaurants, Bagels, Breakfast & Brunch, Food, Sandwiches, Coffee & Tea, Cafes"
"266",109501,"Joe Maxx Coffee","Las Vegas","NV","89123",36.0430342509,-115.1513231735,"1","Bagels, Breakfast & Brunch, Patisserie/Cake Shop, Ice Cream & Frozen Yogurt, Vegan, Sandwiches, Coffee & Tea, Cafes, Food, Restaurants"
"267",1177,"Fourth Ward Bread Co.","Charlotte","NC","28202",35.2324862,-80.8442261,"0","Bagels, Restaurants, Food, Bakeries, Breakfast & Brunch"
"268",162128,"D & R Bagels","Solon","OH","44139",41.386172,-81.441055,"1","Breakfast & Brunch, Food, Bagels, Delis, Restaurants"
"269",103911,"Panera Bread","Bainbridge Township","OH","44023",41.413695,-81.33986,"1","Soup, Bagels, Restaurants, Sandwiches, Bakeries, Salad, Breakfast & Brunch, Food"
"270",52879,"Bruegger's Bagels","Pittsburgh","PA","15217",40.437442,-79.9228098,"1","Breakfast & Brunch, Bagels, Restaurants, Sandwiches, Food, Bakeries"
"271",66185,"Einstein Bros Bagels","Phoenix","AZ","85022",33.6390795,-112.0661274,"1","Bagels, Delis, Food, Restaurants, Breakfast & Brunch"
"272",11098,"Espace Culinaire Fletchers","Montréal","QC","H2W 1Y8",45.5169489,-73.579716,"1","Restaurants, Breakfast & Brunch, Kosher, Tours, Hotels & Travel, Cafes, Bagels, Food, Food Tours"
"273",143097,"Einstein Bros","Scottsdale","AZ","85258",33.5800165,-111.8871341,"1","Food, Bagels"
"274",155541,"Bruegger's Bagels","South Euclid","OH","44121",41.5016486,-81.5184029,"0","Sandwiches, Bagels, Food, Breakfast & Brunch, Restaurants"
"275",64513,"What A Bagel","Richmond Hill","ON","L4C 8S7",43.8643271,-79.434961,"0","Food, Bagels"
"276",125876,"The Coffee Bean & Tea Leaf","Las Vegas","NV","89119",36.0847396851,-115.1510772705,"1","Food, Bagels, Desserts, Coffee & Tea"
"277",164403,"Average Joe's Café","Toronto","ON","M5T 1L9",43.6547744,-79.3997903,"0","Breakfast & Brunch, Coffee & Tea, Restaurants, Bagels, Food"
"278",18101,"Tim Hortons","Lachine","QC","H8T 1A4",45.4636126,-73.72026,"1","Donuts, Bagels, Coffee & Tea, Food"
"279",106108,"Big Apple Bagels","Sun Prairie","WI","53590",43.2004795,-89.2261423,"1","Food, Bagels, Delis, Breakfast & Brunch, Restaurants"
"280",14968,"Bagels Forever","Madison","WI","53705",43.074995,-89.441249,"1","Bakeries, Restaurants, Bagels, Food"
"281",104406,"Bagel World Thornhill","Thornhill","ON","L4J 9E9",43.8106965,-79.4543032,"1","Food, Bagels, Restaurants"
"282",123927,"Cafe Pan","Las Vegas","NV","89109",36.12168,-115.169457,"1","Bakeries, Bagels, Creperies, Food, Coffee & Tea, Restaurants"
"283",76820,"Dunkin Donuts  Baskin Robbins","Urbana","IL","61801",40.116757,-88.2113811,"1","Bagels, Ice Cream & Frozen Yogurt, Donuts, Food, Coffee & Tea"
"284",181969,"Panera Bread","Brecksville","OH","44141",41.3206373827,-81.6227467172,"1","Salad, Soup, Bakeries, Sandwiches, Restaurants, Breakfast & Brunch, Food, Coffee & Tea, Bagels"
"285",9171,"Bagel Etc","Montréal","QC","H2W 1Z3",45.5188821,-73.5839004,"1","Food, Bagels, Restaurants, Breakfast & Brunch"
"286",149456,"Einstein Bros","Mesa","AZ","85204",33.3802045,-111.787783,"1","Caterers, Delis, Event Planning & Services, Bagels, Restaurants, Food"
"287",88872,"Panera Bread","Mentor","OH","44060",41.684725,-81.295681,"1","Bagels, Restaurants, Soup, Sandwiches, Salad, Food, Breakfast & Brunch"
"288",103151,"Panera Bread","Pleasant Hills","PA","15236",40.3314729865,-79.9439789169,"1","Bakeries, Bagels, Restaurants, Soup, Salad, Sandwiches, Food, Breakfast & Brunch"
"289",66079,"The Bagel House","North York","ON","M5M 3Y6",43.7282997,-79.4182181,"1","Food, Bagels"
"290",62141,"Panera Bread","Sheffield Village","OH","44035",41.41887269,-82.0776329935,"1","Bagels, Restaurants, Cafes, Sandwiches, Salad, Soup, Bakeries, Food"
"291",52707,"St-Viateur Bagel","Laval","QC","H7L 5A3",45.5954549,-73.7554728,"1","Food, Restaurants, Cafes, Bagels, Canadian (New), Bakeries"
"292",64831,"Crosstown Deli & Bagel","Charlotte","NC","28212",35.204111,-80.744085,"0","Bagels, Restaurants, Internet Cafes, Delis, Food"
"293",87060,"Panera Bread","Mount Lebanon","PA","15228",40.3573572094,-80.0519013405,"1","Food, Restaurants, Breakfast & Brunch, Soup, Bagels, Sandwiches, Salad"
"294",113287,"Cast Iron Waffles","Huntersville","NC","28078",35.4427206,-80.8857951,"0","Restaurants, Breakfast & Brunch, Food, Bagels, Coffee & Tea"
"295",159530,"Einstein Bros Bagels","Pittsburgh","PA","15219",40.442098617,-79.9953344235,"1","Bagels, Food"
"296",17626,"Panera Bread","Madison","WI","53703",43.067837,-89.395321,"1","Sandwiches, Bakeries, Bagels, Food, Salad, Restaurants, Soup, Breakfast & Brunch"
"297",11384,"The Original New York Bagels","Davidson","NC","28036",35.5011616998,-80.8607937906,"1","Food, Bagels, American (Traditional), Breakfast & Brunch, Restaurants"
"298",23122,"Frickaccios Pizza Market","Fairview Park","OH","44126",41.439633,-81.870035,"0","Bakeries, Restaurants, Pizza, Food, Do-It-Yourself Food, Sandwiches, Bagels"
"299",6232,"Tim Hortons","Toronto","ON","M6R 2L3",43.6444476,-79.4481838,"1","Bagels, Breakfast & Brunch, Restaurants, Coffee & Tea, Donuts, Food, Sandwiches"
"300",146928,"Bruegger's Bagels","Strongsville","OH","44136",41.3061028,-81.834504,"1","Restaurants, Sandwiches, Food, Breakfast & Brunch, Bagels"
"301",24437,"Haymishe Bagel Shop","North York","ON","M6B 3B5",43.7182558,-79.42921,"1","Bagels, Bakeries, Food"
"302",31005,"St-Viateur Bagel","Montréal","QC","H2A 2Z4",45.5576333,-73.5957946,"1","Food, Bagels"
"303",145837,"Panera Bread","Concord","NC","28027",35.372239,-80.718169,"1","Soup, Bagels, Breakfast & Brunch, American (New), Bakeries, Salad, Sandwiches, Restaurants, Food"
"304",130777,"Tim Hortons","Calgary","AB","T2E 2Y4",51.0884699,-114.0628192,"1","Donuts, Food, Bagels, Coffee & Tea"
"305",132994,"The Great American Bagel","Las Vegas","NV","89119",36.080733,-115.147022,"1","Food, Bagels, Coffee & Tea, Restaurants, Sandwiches"
"306",167494,"Helious Cafe","Toronto","ON","M1S 0G5",43.7782272,-79.2810055,"0","Food, Restaurants, Coffee & Tea, Bagels, Cafes, Juice Bars & Smoothies"
"307",161348,"SPLAT! Coffee n' Such","Mount Holly","NC","28120",35.2756523028,-81.0275492475,"0","Bagels, Patisserie/Cake Shop, Food, Coffee & Tea, Bakeries, Desserts"
"308",10711,"Einstein Bros Bagels","Chagrin Falls","OH","44022",41.431263,-81.390773,"1","Bagels, Coffee & Tea, Food, Restaurants"
"309",106053,"M.T.L. Bagel","Côte Saint-Luc","QC","H4X 2A5",45.458584,-73.660824,"1","Bakeries, Bagels, Food"
"310",112006,"Hot Bagels & Deli","Surprise","AZ","85374",33.6393981175,-112.3523580239,"1","Breakfast & Brunch, Restaurants, Bagels, Delis, Food"
"311",53168,"Three Little Birds Cafe & Juice Bar","Glenshaw","PA","15116",40.5504619,-79.9141283,"1","Juice Bars & Smoothies, Cafes, Breakfast & Brunch, Coffee & Tea, Restaurants, Food, Bagels"
"312",134767,"Bagel World","Newmarket","ON","L3Y 5L8",44.048156,-79.478554,"1","Food, Restaurants, Breakfast & Brunch, Bagels"
"313",139730,"What A Bagel","Toronto","ON","M5G",43.6616006,-79.3861183,"0","Sandwiches, Bakeries, Restaurants, Food, Bagels, Breakfast & Brunch"
"314",105004,"mmmuffins","Toronto","ON","M5L 1G5",43.6486434,-79.3790251,"1","Food, Bagels, Bakeries"
"315",19209,"Panera Bread","Northfield","OH","44067",41.313541,-81.524147,"1","Breakfast & Brunch, Soup, Restaurants, Sandwiches, Bagels, Food, Salad"
"316",171663,"Einstein Bros Bagels","Phoenix","AZ","85003",33.639787,-112.1523934,"1","Breakfast & Brunch, Coffee & Tea, Food, Bagels, Restaurants, Delis"
"317",61996,"Einstein Bros","Cleveland","OH","44106",41.506638,-81.604965,"1","Fast Food, Food, Bagels, Restaurants"
"318",168222,"Sages Cafe","Cleveland","OH","44106",41.5045755,-81.6098195,"1","Food, Restaurants, Bagels, Coffee & Tea, Cafes"
"319",179671,"Einstein Bros Bagels","Scottsdale","AZ","85254",33.625707,-111.941594,"1","Delis, Food, Restaurants, Bagels"
"320",104056,"Top Fuel Espresso","Gilbert","AZ","85295",33.311299,-111.743798,"1","Food, Juice Bars & Smoothies, Coffee & Tea, Internet Cafes, Bagels"
"321",129262,"Constantinople Bakery & Coffee","Toronto","ON","M5V 2B5",43.6476148,-79.4026175,"0","Food, Coffee & Tea, Restaurants, Bagels, Turkish, Bakeries"
"322",108191,"Bagel Stop College Park","Toronto","ON","M5G 2C8",43.660489,-79.384447,"1","Food, Bagels"
"323",89582,"Barry Bagels Avon","Avon","OH","44011",41.4582393248,-82.0214197093,"1","Food, Salad, Bagels, Restaurants, Sandwiches"
"324",50061,"Panera Bread","Monroeville","PA","15146",40.438351,-79.765068,"1","Sandwiches, Soup, Food, Restaurants, Breakfast & Brunch, Bagels, Bakeries, Salad"
"325",135814,"The Great Canadian Bagel","Brampton","ON","L6W 3R1",43.7028646,-79.7379446,"1","Food, Bagels, Event Planning & Services, Caterers"
"326",132310,"Las Vegas Jerkys","Las Vegas","NV","89101",36.1721156,-115.1469038,"1","Candy Stores, Meat Shops, Food, Specialty Food, Bagels"
"327",57574,"Tim Hortons","Toronto","ON","M6H 1C5",43.6508953,-79.4394679,"1","Sandwiches, Breakfast & Brunch, Donuts, Food, Bagels, Coffee & Tea, Restaurants"
"328",116317,"Sunrise Donuts","Las Vegas","NV","89118",36.0711489,-115.2073958,"1","Ice Cream & Frozen Yogurt, Bagels, Donuts, Food, Juice Bars & Smoothies, Beverage Store"
"329",52756,"City Cafe","Pittsburgh","PA","15218",40.4332501,-79.8844159,"1","Food, Bagels, Juice Bars & Smoothies, Coffee & Tea"
"330",139397,"Einstein Bros Bagels","Phoenix","AZ","85021",33.554315,-112.0981949,"0","Delis, Bagels, Breakfast & Brunch, Food, Restaurants"
"331",18451,"Dunkin' Donuts","Stow","OH","44224",41.1810462184,-81.4829674019,"1","Food, Donuts, Fast Food, Restaurants, Bagels, Coffee & Tea"
"332",61765,"Bruegger's Bagels","Pittsburgh","PA","15231",40.4955233376,-80.2414157749,"1","Sandwiches, Food, Breakfast & Brunch, Bagels, Restaurants"
"333",75896,"Jubilee Donuts","Tallmadge","OH","44278",41.1005157,-81.4413176,"1","Donuts, Bagels, Food, Bakeries, Coffee & Tea"
"334",93032,"NY Bagels and Deli","Phoenix","AZ","85027",33.683323,-112.092428,"1","Restaurants, Delis, Bagels, Breakfast & Brunch, Food"
"335",160700,"Bagel Bar","Montréal","QC","",45.4583245457,-73.7492465973,"1","Food, Sandwiches, Restaurants, Bagels"
"336",107595,"Hava Java","Phoenix","AZ","85016",33.5109389274,-112.0135106288,"1","Bagels, Coffee & Tea, Restaurants, Bakeries, Food"
"337",180536,"The Original Sunrise Cafe","Las Vegas","NV","89123",36.0262328,-115.1193237,"1","Breakfast & Brunch, Food, American (Traditional), Restaurants, Bagels"
"338",133598,"Haute Coffee","Toronto","ON","M5R 1V5",43.6757247859,-79.4027011965,"1","Breakfast & Brunch, Nightlife, Food, Bagels, Restaurants, Sandwiches, Wine Bars, Coffee & Tea, Bars"
"339",171006,"Panera Bread","Strongsville","OH","44136",41.3084543,-81.8204263,"1","Food, Soup, Caterers, Sandwiches, Breakfast & Brunch, Bagels, Event Planning & Services, Salad, Restaurants"
"340",34386,"Rise & Shine a Steak & Egg Place","Las Vegas","NV","89147",36.1144185,-115.3065849,"1","Food, Sandwiches, Bagels, American (Traditional), Breakfast & Brunch, Restaurants, American (New)"
"341",30330,"Einstein Bros Bagels","Phoenix","AZ","85032",33.6123187276,-111.9942300466,"1","Restaurants, Bagels, Food, Breakfast & Brunch, Sandwiches, Delis"
"342",138832,"Pascal's Baguette & Bagels","Toronto","ON","M6P 1Y8",43.6655702,-79.4663124,"1","Bakeries, Bagels, Food"
"343",46940,"Poppy's Bagels & More","Charlotte","NC","28211",35.1708013351,-80.8069507642,"1","Bagels, Food, Breakfast & Brunch, Delis, Restaurants"
"344",156150,"Dunkin' Donuts","Tempe","AZ","85281",33.4494458,-111.9260961,"1","Food, Bagels, Donuts, Coffee & Tea"
"345",28177,"Panera Bread","Charlotte","NC","28262",35.31172178,-80.7451719046,"1","Soup, Breakfast & Brunch, Salad, Bagels, Food, Bakeries, Sandwiches, Coffee & Tea, Restaurants"
"346",168119,"Old Town Local","Scottsdale","AZ","85251",33.4924398,-111.9248112,"1","Ice Cream & Frozen Yogurt, Gelato, Juice Bars & Smoothies, Coffee & Tea, Bagels, Food"
"347",56607,"Panera Bread","Pittsburgh","PA","15206",40.456611,-79.914994,"1","Soup, Food, Bagels, Restaurants, Breakfast & Brunch, Coffee & Tea, Salad, Sandwiches"
"348",126388,"Dunkin' Donuts","Parma","OH","44134",41.3638598,-81.6853891,"1","Coffee & Tea, Donuts, Bagels, Food"
"349",97267,"Bruegger's Bagels","Charlotte","NC","28226",35.0890517,-80.867053,"1","Sandwiches, Breakfast & Brunch, Restaurants, Bagels, Food"
"350",56021,"The Bagel House","Toronto","ON","M5N 1A5",43.7039194,-79.4118118,"1","Bagels, Food"
"351",73285,"What A Bagel","Toronto","ON","M3H 5T4",43.779873568,-79.470070243,"1","Breakfast & Brunch, Bagels, Bakeries, Restaurants, Food"
"352",59758,"Einstein Bros Bagels","Phoenix","AZ","85018",33.494507,-111.9863667,"1","Restaurants, Sandwiches, Bagels, Delis, Food, Coffee & Tea"
"353",38052,"PHX Eats Cafe","Phoenix","AZ","85008",33.4495293,-111.9911107,"1","Bagels, American (New), Cafes, Food, Delis, Caterers, Restaurants, Breakfast & Brunch, American (Traditional), Burgers, Salad, Sandwiches, Event Planning & Services"
"354",93780,"Einstein's Bagels","Charlotte","NC","28280",35.2265794,-80.8428142,"0","Bagels, Restaurants, Food"
"355",74208,"Einstein Bros Bagels","Charlotte","NC","28277",35.0570335388,-80.8516464233,"1","Bagels, Food"
"356",58358,"Einstein Bros Bagels","Cleveland","OH","44130",41.3800705,-81.7849819,"1","Restaurants, Food, Bagels"
"357",50347,"Bruegger's Bagels","Mentor","OH","44060",41.6769109,-81.308924,"1","Sandwiches, Restaurants, Breakfast & Brunch, Bagels, Food"
"358",100245,"Uncle Tony's Bagels, Deli & Pizza","Phoenix","AZ","85012",33.4846952,-112.0732999,"1","Restaurants, Delis, Pizza, Food, Breakfast & Brunch, Bagels"
"359",147847,"Bagel Nosh","Scottsdale","AZ","85260",33.6396856,-111.8915244,"0","Food, Bagels"
"360",100857,"Chompie's","Phoenix","AZ","85032",33.6272318,-112.0121147,"0","Bagels, Caterers, Event Planning & Services, Bakeries, Delis, Restaurants, Food"
"361",179692,"La Fabrique de Bagel","Montréal","QC","H2Y 1N9",45.5022956091,-73.5598544776,"1","Bagels, Sandwiches, Breakfast & Brunch, Restaurants, Food"
"362",110430,"Odelay Bagel","Phoenix","AZ","85044",33.3377046576,-111.9947783418,"1","Bagels, Coffee & Tea, Caterers, Restaurants, Cafes, Event Planning & Services, Food"
"363",159032,"Bruegger's Bagels","Brecksville","OH","44141",41.3197502,-81.6257975,"1","Bagels, Coffee & Tea, Sandwiches, Food, Breakfast & Brunch, Restaurants, Bakeries"
"364",125684,"Dewey's Coffee House","Cleveland","OH","44120",41.4846805,-81.5899745,"1","Ice Cream & Frozen Yogurt, Restaurants, Sandwiches, Bagels, Food, Coffee & Tea"
"365",55336,"Nate's Bagels & Gluten Free Foods","Vaughan","ON","L4K 2G4",43.8063634,-79.4984212,"1","Bakeries, Gluten-Free, Restaurants, Bagels, Food"
"366",170001,"Einstein Bros Bagels","Rocky River","OH","44116",41.482462,-81.835641,"0","Event Planning & Services, Restaurants, Bagels, Caterers, Food"
"367",9644,"T & T Bakery and Cafe","Markham","ON","L3P 1X3",43.8751774,-79.2599749,"1","Food, Bakeries, Bagels"
"368",172961,"Fukuburger Truck","Las Vegas","NV","89146",36.135635,-115.2304131,"1","Food Trucks, Restaurants, Food, Food Stands, Burgers, Bagels"
"369",111516,"Katz Deli","Charlotte","NC","28277",35.0543244737,-80.8154617363,"1","Food, Delis, Sandwiches, Bagels, Restaurants, American (Traditional), Burgers"
"370",94033,"Bruegger's Bagels","Pittsburgh","PA","15222",40.441073,-80.00294,"1","Bagels, Sandwiches, Restaurants, Breakfast & Brunch, Food"
"371",29190,"Panera Bread","Fitchburg","WI","53711",43.016974,-89.42269,"1","Food, Salad, Breakfast & Brunch, Soup, Restaurants, Bakeries, Sandwiches, Bagels"
"372",159334,"Tim Hortons","Toronto","ON","M6P 1A8",43.6551814157,-79.4586271941,"1","Food, Bagels, Coffee & Tea"
"373",103416,"Wayne's Bagels","Calgary","AB","T2R 0B4",51.043724,-114.080907,"1","Bagels, Food"
"374",152656,"JackBeagles","Charlotte","NC","28205",35.2474779,-80.8055628,"1","Arts & Entertainment, Bagels, Restaurants, American (Traditional), Food, Beer, Wine & Spirits, Pubs, Nightlife, Breakfast & Brunch, Bars, Music Venues"
"375",1136,"Tim Hortons","Brampton","ON","L6Y 1N6",43.6680386475,-79.7370777841,"1","Donuts, Restaurants, Bagels, Food, Coffee & Tea, Sandwiches"
"376",94245,"Oasis Bagels","Goodyear","AZ","85338",33.3576587,-112.4285876,"1","Breakfast & Brunch, Restaurants, Bagels, Food, Coffee & Tea"
"377",179262,"Sunset Grill","Etobicoke","ON","M9C 1A8",43.6198094009,-79.5542589863,"1","Diners, Canadian (New), Restaurants, Salad, Breakfast & Brunch, Bagels, Food"
"378",10251,"Panera Bread","Rocky River","OH","44116",41.464592,-81.841481,"1","Soup, Restaurants, Breakfast & Brunch, Bakeries, Food, Sandwiches, Salad, Bagels, Coffee & Tea"
"379",30808,"Kiva's Bagel Bar","Toronto","ON","M4V 1K6",43.6877259,-79.3947538,"1","Caterers, Food, Restaurants, Breakfast & Brunch, Event Planning & Services, Bagels"
"380",29166,"Panera Bread","Bethel Park","PA","15102",40.332715,-80.022094,"1","Breakfast & Brunch, Food, Sandwiches, Soup, Salad, Bagels, Bakeries, Restaurants"
"381",79591,"The Brilliant Bagel","Scottsdale","AZ","85258",33.570389,-111.886452,"1","Bagels, Bakeries, Restaurants, Vegan, Food, Coffee & Tea, Vegetarian"
"382",57342,"Bagel Stop","Toronto","ON","M5J 1E6",43.6453166,-79.3804073,"1","Bagels, Food"
"383",191046,"The Bagel House","Mississauga","ON","L5G",43.559130281,-79.5771483608,"1","Food, Bagels"
"384",101550,"Panera Bread","Etobicoke","ON","M9C 1A7",43.6150376753,-79.5560713195,"1","Bakeries, Salad, Sandwiches, Soup, Food, Restaurants, Bagels"
"385",169250,"The Black Cup Coffee","Las Vegas","NV","89101",36.1677166,-115.1383532,"0","Food, Coffee & Tea, Bagels"
"386",110268,"Panera Bread","Lakewood","OH","44107",41.484839,-81.79852,"1","Salad, Coffee & Tea, Food, Breakfast & Brunch, Soup, Restaurants, Sandwiches, Bagels"
"387",133749,"Bruegger's Bagels","Charlotte","NC","28211",35.1761455,-80.7996081,"1","Breakfast & Brunch, Bagels, Sandwiches, Restaurants, Food"
"388",73685,"Einstein Brothers Bagels","Madison","WI","53711",43.0352824,-89.4536017,"0","Restaurants, Breakfast & Brunch, Bagels, Food"
"389",31174,"NY Bagels","Tempe","AZ","85281",33.4153899,-111.9251413,"1","Restaurants, Sandwiches, Bagels, Delis, Breakfast & Brunch, Coffee & Tea, Food"
"390",89246,"Beans Coffee Shop","Chardon","OH","44024",41.581407,-81.204121,"1","Bagels, Food, Coffee & Tea, Breakfast & Brunch, Restaurants"
"391",170656,"Panera Bread","Broadview Heights","OH","44147",41.2924309872,-81.6714084148,"1","Coffee & Tea, Soup, Breakfast & Brunch, Bagels, Salad, Food, Restaurants, Bakeries, Sandwiches"
"392",188435,"BF Bakers","Aurora","ON","L4G 2N9",43.9986572268,-79.4751424921,"0","Organic Stores, Restaurants, Cafes, Food, Bakeries, Bagels, Gluten-Free"
"393",11598,"Poppyseeds Bagels","Weddington","NC","28104",35.0235091,-80.7608256,"1","Bagels, Sandwiches, Food, Restaurants, Bakeries, Delis, Breakfast & Brunch"
"394",62847,"Chompie's","Glendale","AZ","85308",33.6416717396,-112.2236080746,"1","Breakfast & Brunch, Bakeries, Bagels, Food, Waffles, Sandwiches, Delis, Restaurants"
"395",88107,"Lox + Schmear","Toronto","ON","M6E 1A4",43.6791729,-79.4382679,"1","Breakfast & Brunch, Restaurants, Bagels, Food"
"396",56829,"Cocky's Bagels","Cleveland","OH","44113",41.4857101,-81.6966306,"1","Mediterranean, Food Trucks, Bagels, Event Planning & Services, Caterers, Sandwiches, Food, Restaurants"
"397",63118,"Tim Hortons","Toronto","ON","M4J 1M7",43.681346,-79.3319114,"1","Restaurants, Sandwiches, Bagels, Coffee & Tea, Breakfast & Brunch, Food"
"398",24460,"Bruegger's Bagels","Pittsburgh","PA","15241",40.3481439,-80.0538247,"0","Restaurants, Food, Sandwiches, Bagels, Breakfast & Brunch"
"399",139559,"Starbucks","Goodyear","AZ","85338",33.437709,-112.411262,"1","Bakeries, Coffee & Tea, Food, Bagels"
"400",62753,"Einstein Bros Bagels","Madison","WI","53705",43.0731022,-89.4343952,"1","Coffee & Tea, Food, Restaurants, Bagels"
"401",77279,"Lox, Stock & Bagel","Scottsdale","AZ","85258",33.5442293455,-111.9054722786,"0","Bagels, Restaurants, Food, Delis, Coffee & Tea, Sandwiches, Breakfast & Brunch"
"402",90583,"Panera Bread","Mayfield Heights","OH","44124",41.5161522695,-81.4506535606,"0","Soup, Sandwiches, Food, Bagels, Breakfast & Brunch, Bakeries, Salad, Restaurants"
"403",51940,"Panera Bread","Amherst","OH","44001",41.3787986,-82.2112654,"1","Salad, Sandwiches, Soup, Bagels, Restaurants, Breakfast & Brunch, Food"
"404",1257,"Einstein Bros Bagels","Tempe","AZ","85281",33.4227444,-111.9258396,"1","Bagels, Restaurants, Food, Breakfast & Brunch, Delis"
"405",116581,"Gryfe's Bagel Bakery","Toronto","ON","M6A 2C1",43.7271702,-79.4314138,"1","Bagels, Food"
"406",45149,"Body Envy Fitness","Chandler","AZ","85286",33.2799761,-111.7995074,"1","Health & Medical, Active Life, Food, Trainers, Bagels, Fitness & Instruction, Weight Loss Centers"
"407",18748,"Bagel Factory","Pittsburgh","PA","15232",40.456795,-79.930231,"0","Bakeries, Restaurants, Bagels, Food"
"408",108710,"What a Bagel Eatery","Vaughan","ON","L4J",43.8490261249,-79.4596694845,"1","Bagels, Restaurants, Sandwiches, Food"
"409",75176,"Le Mardi Gras","Pittsburgh","PA","15232",40.4512603,-79.9345876,"1","Dive Bars, Nightlife, Food, Bagels, Lounges, Bars"
"410",89668,"Einstein Bros Bagels","Pittsburgh","PA","15222",40.4400812,-80.0027794,"1","Bagels, Restaurants, Food"
"411",36654,"The Great Canadian Bagel","Calgary","AB","T2L 2L4",51.0959712,-114.1412239,"0","Bagels, Restaurants, Sandwiches, Food"
"412",46803,"Bruegger's Bagels & Jamba Juice","Pittsburgh","PA","15219",40.440637,-79.996631,"1","Restaurants, Bagels, Breakfast & Brunch, Coffee & Tea, Sandwiches, Food"
"413",74319,"Naturalis Cafe","Toronto","ON","M4E 1E7",43.6725424,-79.2899051,"1","Bakeries, Restaurants, Bagels, Gluten-Free, Food, Cafes"
"414",92161,"Panera Bread","Mississauga","ON","L5B 0E2",43.5969248417,-79.6426394954,"1","Salad, Sandwiches, Food, Restaurants, Bagels, Breakfast & Brunch, Soup, Bakeries"
"415",72962,"Panera Bread","Madison","WI","53704",43.131264,-89.301283,"1","Soup, Food, Restaurants, American (Traditional), Sandwiches, Breakfast & Brunch, Bakeries, Salad, Bagels"
"416",85975,"Famous Toastery","Tega Cay","SC","29708",35.047191135,-80.9908684123,"1","Breakfast & Brunch, Caterers, Event Planning & Services, Sandwiches, Coffee & Tea, Food, Bagels, Burgers, Salad, American (Traditional), Restaurants"
"417",19431,"Panera Bread","Independence","OH","44131",41.393934,-81.643735,"1","Restaurants, Coffee & Tea, Soup, Breakfast & Brunch, Bakeries, Food, Bagels, Sandwiches, Salad"
"418",140277,"Einstein Bros Bagels","Henderson","NV","89014",36.0633902,-115.0470166,"1","Bagels, Restaurants, Food, Delis"
"419",176293,"Gotham Bagels","Madison","WI","53715",43.0598416,-89.4008555,"0","Food, Bagels, Restaurants, Sandwiches"
"420",6229,"Panera Bread","Charlotte","NC","28216",35.349778,-80.854491,"1","Food, Soup, Salad, Bagels, Sandwiches, Breakfast & Brunch, Restaurants"
"421",138464,"Caribou Coffee","Fitchburg","WI","53713",43.0304279233,-89.4092341387,"1","Coffee & Tea, Bagels, Food"
"422",114793,"Planet Smoothie","Mesa","AZ","85201",33.4157593,-111.8418604,"1","Bagels, Juice Bars & Smoothies, Food"
"423",179735,"Premier Bagel","Kirkland","QC","H9H 3B5",45.449168,-73.854146,"1","Bagels, Food"
"424",62698,"Addley's Bagel","Belmont","NC","28012",35.2428423,-81.0376885,"0","Bagels, Food"
"425",27769,"Tintoretto Restaurant and Bakery","Las Vegas","NV","89109",36.122113735,-115.1706238888,"0","Breakfast & Brunch, Bagels, Gelato, Restaurants, Bakeries, Italian, Food"
"426",87445,"Einstein Bros","Las Vegas","NV","89118",36.0634211684,-115.2414469067,"1","Food, Bagels"
"427",158747,"Hot Bagels and Deli","Phoenix","AZ","85086",33.7991098079,-112.1309262192,"1","Bagels, Breakfast & Brunch, Restaurants, Food, Delis"
"428",70917,"Bruegger's Bagels","North Olmsted","OH","44070",41.4165681,-81.9213962,"0","Restaurants, Food, Sandwiches, Breakfast & Brunch, Bagels"
"429",36608,"The Coffee Brewer","Lyndhurst","OH","44124",41.5016901659,-81.4760038362,"0","Bagels, Coffee & Tea, Food"
"430",91988,"Halfpenny's","Charlotte","NC","28202",35.2254513,-80.84528,"1","Bagels, Ice Cream & Frozen Yogurt, Food"
"431",173583,"Panera Bread","Charlotte","NC","28244",35.224819,-80.843626,"1","Food, Breakfast & Brunch, Sandwiches, Restaurants, Bagels, Salad, Bakeries, Soup"
"432",12133,"What A Bagel","York","ON","M6C 2C4",43.6999216,-79.4294884,"1","Food, Restaurants, Breakfast & Brunch, Bagels"
"433",162930,"Einstein Bros Bagels","Scottsdale","AZ","85254",33.5834720349,-111.976011895,"1","Restaurants, Delis, Breakfast & Brunch, Bagels, Food"
"434",54993,"Starbucks","Toronto","ON","M5V",43.6474968,-79.392644,"1","Coffee & Tea, Bagels, Food, Desserts"
"435",166844,"Sunset Grill","Aurora","ON","L4G 7N2",44.004241,-79.4472438,"1","Breakfast & Brunch, Restaurants, Bagels, Sandwiches, Burgers, Food, Canadian (New), Diners"
"436",85952,"Marash Café","La Salle","QC","H8N 1B1",45.4369999,-73.6139318,"1","Bagels, Ice Cream & Frozen Yogurt, Bakeries, Cafes, Food, Restaurants"
"437",184749,"Panera Bread","Charlotte","NC","28226",35.087992,-80.846242,"1","Salad, Bagels, Food, Restaurants, Bakeries, Sandwiches, Breakfast & Brunch, Soup"
"438",56660,"First Break Coffee Shop","Toronto","ON","M4M 3L1",43.6634875,-79.3411679,"0","Bagels, Food, Restaurants, Comfort Food, Coffee & Tea"
"439",103745,"Bruegger's Bagels","Pittsburgh","PA","15237",40.5296965,-80.010085,"1","Bagels, Restaurants, Food, Breakfast & Brunch, Bakeries, Sandwiches"
"440",137497,"Bruegger's Bagels","Pittsburgh","PA","15219",40.4384589,-79.9983343,"1","Breakfast & Brunch, Coffee & Tea, Bagels, Sandwiches, Restaurants, Food"
"441",124296,"Bruegger's Bagels","Westlake","OH","44145",41.461141,-81.952925,"1","Bagels, Restaurants, Breakfast & Brunch, Food, Sandwiches"
"442",111480,"Einstein Bros Bagels","Chandler","AZ","85286",33.263458252,-111.8574981689,"1","Bagels, Food"
"443",172599,"Dunkin' Donuts","Madison","WI","53715",43.0592017,-89.4002507,"1","Donuts, Bagels, Bakeries, Coffee & Tea, Food"
"444",55861,"Einstein Bros","Las Vegas","NV","89128",36.195608,-115.2610055,"1","Restaurants, Mexican, Food, Bagels"
"445",38155,"Panera Bread","Pittsburgh","PA","15275",40.44935,-80.174279,"1","Breakfast & Brunch, Food, Bagels, Soup, Restaurants, Salad, Sandwiches"
"446",135589,"Einstein Bros","Las Vegas","NV","89117",36.1438217,-115.294084,"1","Bagels, Food, Restaurants"
"447",92710,"Bagel Gourmet","Phoenix","AZ","85053",33.6388635,-112.1209921,"1","Bagels, Sandwiches, Food, Breakfast & Brunch, Bakeries, Restaurants"
"448",146978,"Bruegger's Bagels","Cornelius","NC","28031",35.485702,-80.878408,"1","Sandwiches, Breakfast & Brunch, Food, Bagels, Restaurants"
"449",64941,"Great Harvest Bread Company","Las Vegas","NV","89147",36.1008766,-115.3147099,"1","Food, Desserts, Bakeries, Sandwiches, Bagels, Coffee & Tea, Breakfast & Brunch, Restaurants, Cafes"
"450",172163,"Panera Bread","West Homestead","PA","15120",40.407174,-79.916603,"1","Breakfast & Brunch, Restaurants, Salad, Soup, Food, Sandwiches, Bagels"
"451",133518,"Tim Hortons","Toronto","ON","M5E 1R8",43.6477040939,-79.3705069274,"1","Bagels, Coffee & Tea, Food, Donuts"
"452",135797,"Tim Hortons","Calgary","AB","T2A 6K3",51.0568502,-113.9825415,"1","Bagels, Sandwiches, Breakfast & Brunch, Restaurants, Coffee & Tea, Food"
"453",185489,"The Local Donut","Scottsdale","AZ","85251",33.48516,-111.908355,"1","Bakeries, Food, Bagels, Coffee & Tea, Donuts"
"454",121201,"Einstein Bros Bagels","Cave Creek","AZ","85331",33.7541424,-111.9907214,"1","Bagels, Restaurants, Food"
"455",78007,"Panera Bread","Huntersville","NC","28078",35.442832,-80.859496,"1","Salad, Bagels, Sandwiches, Soup, Food, Breakfast & Brunch, Restaurants"
"456",142280,"Einstein Bros Bagels","Scottsdale","AZ","85255",33.6965078621,-111.9246726342,"1","Bagels, Food, Sandwiches, Coffee & Tea, Restaurants"
"457",162550,"Treats York University","Toronto","ON","M3K 1P3",43.7739036342,-79.5032940432,"1","Restaurants, Breakfast & Brunch, Food, Bagels, Coffee & Tea"
"458",56317,"Bagel Corner Deli and Bakery","Las Vegas","NV","89144",36.1691517,-115.2913521,"1","Bakeries, Food, Bagels"
"459",154035,"The Bagel House","Toronto","ON","M4P 2J3",43.713947196,-79.4000464305,"1","Delis, Breakfast & Brunch, Restaurants, Bagels, Food"
"460",62769,"Canada's Baking and Sweets Show","Etobicoke","ON","M9W 1J1",43.6910625,-79.5781333,"1","Food, Bakeries, Donuts, Bagels"
"461",14026,"Bobby's Bagel Bistro","Las Vegas","NV","89106",36.2003921,-115.2819509,"0","Breakfast & Brunch, Food, Restaurants, Bagels"
"462",99948,"BeanThru","Glenshaw","PA","15116",40.541713,-79.964318,"1","Breakfast & Brunch, Juice Bars & Smoothies, Coffee & Tea, Food, Restaurants, Bagels"
"463",109030,"Tim Hortons","Toronto","ON","M4C 1L5",43.6882339533,-79.300733824,"1","Donuts, Coffee & Tea, Food, Bagels"
"464",170083,"Einstein Bagels","Goodyear","AZ","85338",33.4636381932,-112.34145023,"1","Food, Restaurants, Bagels, Breakfast & Brunch"
"465",14375,"Faubourg Bagel Place","Montréal","QC","H3H 1L7",45.4941562,-73.5789142,"0","Bagels, Food"
"466",10505,"Panera Bread","Amherst","OH","44001",41.3798516553,-82.222956419,"1","Bagels, Salad, Soup, Sandwiches, Food, Breakfast & Brunch, Restaurants"
"467",82182,"Bruegger's Bagels","Matthews","NC","28105",35.1244838531,-80.7085589208,"1","Restaurants, Bagels, Sandwiches, Breakfast & Brunch, Bakeries, Food"
"468",5181,"Einstein Bros Bagels","Las Vegas","NV","89134",36.1918793785,-115.3051185755,"1","Sandwiches, Bagels, Food, Restaurants"
"469",95523,"Caffe Mona La Bistro","Pittsburgh","PA","15224",40.465725,-79.95432,"1","Creperies, Breakfast & Brunch, Cafes, Italian, Restaurants, Coffee & Tea, Food, French, Bagels"
"470",28850,"Bruegger's Bagels","Pittsburgh","PA","15236",40.3441937,-79.970963,"0","Bagels, Food, Sandwiches, Restaurants, Bakeries, Breakfast & Brunch"
"471",104221,"Einstein Bros Bagels","Tempe","AZ","85281",33.4180432505,-111.9342374268,"1","Delis, Restaurants, Food, Bagels"
"472",139574,"Tim Hortons","Toronto","ON","M3H 2S5",43.7547531128,-79.4432983398,"1","Bagels, Ice Cream & Frozen Yogurt, Food, Bakeries, Coffee & Tea"
"473",65490,"Brossard Bagel","Greenfield Park","QC","J4K 2Y6",45.492788,-73.4805901,"1","Bagels, Food"
"474",34248,"The Bagel House","Toronto","ON","M4G 3B6",43.7048197,-79.3749946,"1","Food, Bagels"
"475",143425,"Einstein Bros Bagels","Rocky River","OH","44116",41.4822684,-81.8340087,"1","Food, Bagels"
"476",168679,"Dunkin' Donuts","Las Vegas","NV","89121",36.1005270562,-115.1021624451,"0","Food, Bagels, Donuts, Coffee & Tea"
"477",126664,"What A Bagel","Richmond Hill","ON","L4C 9Y2",43.8851115,-79.4666091,"1","Bagels, Food"
"478",21392,"Dunkin' Donuts","Charlotte","NC","28208",35.228639,-80.86708,"1","Donuts, Coffee & Tea, Bagels, Food"
"479",130044,"Kiva's Restaurant & Bakery","North York","ON","M2R 2S9",43.7913381016,-79.4477032015,"1","Food, Restaurants, Bagels, Bakeries, Breakfast & Brunch"
"480",60347,"Bagel Brigade","York","ON","M6C 2C4",43.6999711,-79.4292246,"1","Bagels, Bakeries, Food"
"481",151855,"Panera Bread","Ross Township","PA","15237",40.537139,-80.013116,"1","Restaurants, Soup, Bagels, Food, Breakfast & Brunch, Salad, Bakeries, Sandwiches"
"482",185978,"Einstein Bros Bagels","Charlotte","NC","28202",35.2284396,-80.8349193,"1","Food, Bagels"
"483",154314,"Tim Horton's","Mississauga","ON","L5C 1T7",43.5747675,-79.6448037,"1","Bagels, Food, Donuts, Coffee & Tea"
"484",103878,"Small Town Coffeehouse","Glendale","AZ","85308",33.662645,-112.187027,"1","Restaurants, Coffee & Tea, Cafes, Breakfast & Brunch, Bagels, Food"
"485",75666,"Grouchy John's Coffee","Las Vegas","NV","89123",36.0350856,-115.1357861,"1","Food Trucks, Breakfast & Brunch, Cafes, Food, Bagels, Juice Bars & Smoothies, Restaurants, Coffee & Tea"
"486",61557,"Bruegger's Bagels","Coraopolis","PA","15108",40.505252,-80.2084709,"1","Sandwiches, Bagels, Breakfast & Brunch, Restaurants, Food"
"487",156342,"Einstein Bros Bagels","Phoenix","AZ","85004",33.4497405,-112.0716698,"0","Delis, Breakfast & Brunch, Bagels, Food, Restaurants"
"488",187004,"Montreal Bagels","Calgary","AB","T2V 1K7",50.9792697,-114.082675,"1","Grocery, Bagels, Food"
"489",190173,"Panera Bread","Warrensville Heights","OH","44122",41.44481,-81.4971732,"1","Restaurants, Breakfast & Brunch, Sandwiches, Coffee & Tea, Salad, Food, Bagels, Soup"
"490",89292,"Gotham Provisions Company","Sun Prairie","WI","53590",43.1828531,-89.2203346,"0","Sandwiches, Food, Restaurants, Soup, Bagels"
