"","business_id","name","city","state","postal_code","latitude","longitude","is_open","categories"
"1",1037,"Feast Buffet","Las Vegas","NV","89102",36.1421161808,-115.1742515629,"1","Buffets, Restaurants"
"2",138910,"Jardin Tiki","Montréal","QC","H1V 1A1",45.5679434,-73.5526664,"0","Local Flavor, Chinese, Nightlife, Restaurants, Bars, Buffets, Asian Fusion"
"3",72511,"ChinaTown Buffet","Champaign","IL","61822",40.13727,-88.2560426,"1","Sushi Bars, Buffets, Restaurants, Chinese"
"4",72315,"Marcello's Market & Deli","Toronto","ON","M5H 1B6",43.649321,-79.378413,"1","Food, Grocery, Delis, Buffets, Event Planning & Services, Breakfast & Brunch, Restaurants, Caterers"
"5",135798,"Misaki","Pittsburgh","PA","15226",40.411302,-80.007324,"0","Buffets, Restaurants"
"6",175422,"Sunny China Buffet","Urbana","IL","61802",40.0976392,-88.1912166,"1","Buffets, Chinese, Restaurants"
"7",170103,"Cusina Lounge","Toronto","ON","M3H 1S8",43.7372891748,-79.4349258766,"1","Barbeque, Filipino, Buffets, Fish & Chips, Restaurants"
"8",128522,"Mandarin Restaurant - Queensway","Etobicoke","ON","M8Z 1S1",43.621045152,-79.52306148,"1","Chinese, Restaurants, Buffets"
"9",13423,"The Buffet at Bellagio","Las Vegas","NV","89109",36.11322,-115.17689,"1","American (New), Buffets, Restaurants"
"10",111667,"Fu Lam","Montréal","QC","H8N 2K3",45.4439834839,-73.6162743853,"1","Buffets, Restaurants, Chinese"
"11",4754,"Cicis","Gastonia","NC","28056",35.2593786197,-81.1130197521,"1","American (Traditional), Pizza, Restaurants, Buffets"
"12",117385,"King Buffet","Belmont","NC","28012",35.253526,-81.0436409,"0","Restaurants, Buffets"
"13",117272,"Super Buffet","Scarborough","ON","M1H 3E2",43.7786531,-79.2321322,"0","Food, Buffets, Restaurants"
"14",185095,"Peter Piper Pizza","Scottsdale","AZ","85260",33.6282559148,-111.8928736698,"1","Chicken Wings, Restaurants, Buffets, Pizza"
"15",20620,"World Buffet","Las Vegas","NV","89128",36.1976942,-115.2470842,"0","Restaurants, Buffets"
"16",187567,"Great Wall Buffet","Pickering","ON","L1V 1B5",43.8279946,-79.0976787,"0","Restaurants, Buffets"
"17",81878,"Mon Ami - Brossard","Brossard","QC","J4Z 3H1",45.477253,-73.447508,"1","Buffets, Barbeque, Korean, Restaurants"
"18",84719,"Ichiban Buffet","Charlotte","NC","28227",35.204845,-80.721379,"1","Buffets, Restaurants, Chinese"
"19",73030,"Peter Piper Pizza","Phoenix","AZ","85033",33.4934232,-112.204681,"1","Restaurants, Chicken Wings, Pizza, Buffets"
"20",143790,"Sky Asian Bistro","Pineville","NC","28134",35.0867844,-80.8810593,"1","Seafood, Asian Fusion, Chinese, Buffets, Sushi Bars, Restaurants"
"21",188906,"Buffet Yangtze","Calgary","AB","T2E 7P4",51.1085655575,-114.0400811411,"1","Chinese, Dim Sum, Buffets, Restaurants, Asian Fusion"
"22",111867,"Zen Buffet","Glendale","AZ","85308",33.6383418,-112.2163379,"0","Restaurants, Buffets, Chinese"
"23",32595,"Sushiya","Sainte-Julie","QC","J3E 2T6",45.5753626,-73.3266204,"1","Buffets, Restaurants, Japanese, Sushi Bars"
"24",52272,"Curry Bowl","Chandler","AZ","85248",33.2324025,-111.8569985,"1","Vegetarian, Indian, Buffets, Pan Asian, Restaurants, Food, Desserts"
"25",138057,"Taj Mahal Indian Cuisine","Tempe","AZ","85281",33.4502544,-111.9255745,"0","Asian Fusion, Restaurants, Pakistani, Buffets, Indian"
"26",160168,"Red Rock Buffet","Fort McDowell","AZ","85264",33.581892,-111.6811641,"1","Buffets, Restaurants"
"27",42229,"Indian Paradise","Scottsdale","AZ","85260",33.6222859533,-111.9041715755,"0","Indian, Restaurants, Gluten-Free, Pakistani, Halal, Buffets"
"28",101327,"UmJi","Toronto","ON","M1T 3J7",43.7766273,-79.3171808,"0","Barbeque, Buffets, Korean, Restaurants"
"29",167105,"NY Seafood Buffet","Glendale","AZ","85308",33.6377979,-112.168226,"0","Seafood, Buffets, Restaurants, Chinese"
"30",44978,"Jogoya Sushi Seafood Buffet","Chandler","AZ","85286",33.2767552948,-111.7921988809,"1","Buffets, Seafood, Sushi Bars, Chinese, Restaurants"
"31",34201,"Buffet Vichy St Hubert","Saint-Hubert","QC","J4T 3K1",45.4995538,-73.4861534,"1","Buffets, Restaurants"
"32",128283,"Peter Piper Pizza","Glendale","AZ","85301",33.5370013,-112.152069,"1","Buffets, Chicken Wings, Pizza, Restaurants"
"33",114955,"Sweet Tomatoes","Phoenix","AZ","85012",33.5096666571,-112.0717401263,"0","Buffets, Salad, Soup, Vegetarian, Restaurants"
"34",100372,"Dragon Buffet","Charlotte","NC","28263",35.1457769,-80.9365337,"1","Restaurants, Chinese, Buffets"
"35",43982,"Kirin Buffet","Las Vegas","NV","89119",36.115613,-115.132619,"1","Buffets, Seafood, Chinese, Asian Fusion, Restaurants"
"36",151564,"Yu's Old Town Buffet","Pleasant Hills","PA","15236",40.3326499,-79.9460512,"0","Buffets, Restaurants"
"37",185291,"Big Kitchen Buffet","Las Vegas","NV","89109",36.1142773,-115.1709763,"0","Buffets, Restaurants"
"38",128739,"Great China","Scottsdale","AZ","85254",33.5978405,-111.9781111,"0","Restaurants, Buffets"
"39",157910,"Cravings Buffet","Las Vegas","NV","89109",36.121237,-115.174105,"1","American (New), Buffets, Restaurants, American (Traditional)"
"40",101458,"Village Seafood Buffet","Las Vegas","NV","89103",36.118117,-115.187298,"0","Restaurants, Seafood, Buffets"
"41",8536,"Lotus Buffet","Charlotte","NC","28262",35.3171937,-80.740204,"1","Buffets, Restaurants, Chinese"
"42",10903,"Eastern Buffet","Phoenix","AZ","85016",33.4799005,-112.046838,"0","Restaurants, Chinese, Buffets"
"43",103889,"China Star Buffet","Las Vegas","NV","89103",36.099494,-115.2083645,"0","Buffets, Restaurants"
"44",190145,"Sweet Tomatoes Field Kitchen","Peoria","AZ","85382",33.637715,-112.2223053,"0","Vegetarian, Soup, Restaurants, Buffets, Salad"
"45",154435,"Jumbo Buffet","Phoenix","AZ","85041",33.3931495,-112.1317218,"0","Buffets, Chinese, Restaurants"
"46",137087,"Corner Market Buffet","Las Vegas","NV","89109",36.124829,-115.171991,"1","Event Planning & Services, Buffets, Asian Fusion, Restaurants, Hotels & Travel, American (Traditional), Sushi Bars, Hotels, Breakfast & Brunch"
"47",112451,"Fresh Buffet","Las Vegas","NV","89109",36.1362575,-115.1512526,"1","Buffets, Restaurants"
"48",182500,"Cowboys Casino","Calgary","AB","T2G 1A5",51.041175,-114.0544367,"1","Cafes, Casinos, Nightlife, Buffets, Restaurants, Arts & Entertainment"
"49",82446,"New India Bazaar","Phoenix","AZ","85006",33.4760486,-112.0654671,"1","Indian, Food, Specialty Food, Restaurants, Buffets, Grocery, Ethnic Food"
"50",110159,"Red's Catering","Twinsburg","OH","44087",41.2847462774,-81.4410142888,"1","Soup, Event Planning & Services, Buffets, Sandwiches, Caterers, Restaurants, Breakfast & Brunch, Salad"
"51",92404,"Agra Fine Indian Cuisine","Toronto","ON","M5V 1K1",43.6458616,-79.3925945,"0","Food, Food Delivery Services, Indian, Bangladeshi, Event Planning & Services, Buffets, Restaurants, Caterers"
"52",158103,"Chef of India","Toronto","ON","M4P 1A6",43.7070001967,-79.3971258402,"0","Indian, Middle Eastern, Buffets, Restaurants, Pakistani"
"53",188561,"Delhi Palace Cuisine of India","Tempe","AZ","85281",33.4212886,-111.9246995,"1","Pakistani, Indian, Buffets, Restaurants"
"54",132752,"Woo Che","Las Vegas","NV","89102",36.1261038,-115.2054322,"0","Barbeque, Buffets, Restaurants, Korean"
"55",176920,"Sabor Cubano Restaurant","Phoenix","AZ","85015",33.509991,-112.103239,"0","Cuban, Restaurants, Buffets"
"56",118749,"Jade Garden","Madison","WI","53715",43.0548573,-89.3968559,"1","Buffets, Chinese, Restaurants"
"57",7325,"Tao Yuan Chinese Restaurant","Mesa","AZ","85205",33.4142216,-111.7359993,"1","Restaurants, Buffets, Asian Fusion, Chinese"
"58",28340,"Carson City Saloon","Pittsburgh","PA","15203",40.4289193,-79.984081,"1","Bars, Nightlife, Restaurants, Sports Bars, Buffets, American (Traditional), Lounges"
"59",39521,"Wai Wai Buffet & Grill","Canonsburg","PA","15317",40.2634203,-80.1738365,"1","Restaurants, Chinese, Buffets"
"60",110960,"Indian Maharaja Palace","Glendale","AZ","85308",33.6367211,-112.1836222,"0","Pakistani, Indian, Buffets, Restaurants"
"61",124495,"Boulder Station Pasta Cucina","Las Vegas","NV","89121",36.133220722,-115.0848475877,"1","Mexican, Seafood, Steakhouses, Restaurants, American (Traditional), Italian, Buffets"
"62",8139,"Bamboo Palace Buffet","Avondale","AZ","85323",33.4517512,-112.3403341,"0","Chinese, Restaurants, Buffets"
"63",62655,"Fuse","Charlotte","NC","28262",35.3009646,-80.7537396,"0","Buffets, Asian Fusion, Restaurants, Sushi Bars"
"64",13810,"Blossom Vegetarian","Richmond Hill","ON","L4B 3N7",43.8663797,-79.386063,"1","Buffets, Restaurants, Vegetarian"
"65",112852,"Joy's Restaurant","Las Vegas","NV","89104",36.1585529,-115.1341506,"0","Party & Event Planning, Restaurants, Event Planning & Services, Fast Food, Buffets, Filipino, Noodles"
"66",29017,"Panda","Pittsburgh","PA","15205",40.441887,-80.07068,"1","Buffets, Chinese, Food, Restaurants"
"67",87174,"China King Super Buffet","Charlotte","NC","28217",35.165117,-80.8797953,"0","Restaurants, Chinese, Buffets"
"68",69783,"Echo Sushi","Toronto","ON","M4S 1Z9",43.7012748,-79.3975334,"1","Japanese, Sushi Bars, Buffets, Restaurants"
"69",158088,"Yummy Grill Buffet","Chandler","AZ","85286",33.2762606274,-111.7913389206,"0","Restaurants, Buffets, Chinese"
"70",59340,"Red 8","Las Vegas","NV","89109",36.1257833505,-115.1659683726,"1","Chinese, Diners, Asian Fusion, Buffets, Restaurants"
"71",72240,"Great Taste Chinese Restaurant","Cleveland","OH","44114",41.501901,-81.6845327,"1","Buffets, Restaurants, Chinese"
"72",122062,"North Coast Cafe","Cleveland","OH","44106",41.5017377,-81.618879,"1","Restaurants, American (New), Buffets"
"73",4421,"Little India Restaurant","Toronto","ON","M5V 1Z4",43.6502008,-79.3888945,"1","Pakistani, Vegetarian, Caterers, Indian, Event Planning & Services, Buffets, Food Delivery Services, Middle Eastern, Food, Restaurants"
"74",86045,"Le Milsa","Laval","QC","H7M 1Y9",45.5764889499,-73.7137208907,"1","Restaurants, Brazilian, Barbeque, Buffets"
"75",114704,"Buffet la Stanza","Saint-Leonard","QC","H1S 1N1",45.5957128736,-73.5706408078,"0","Restaurants, Sushi Bars, Buffets"
"76",49486,"Great China Super Buffet","Phoenix","AZ","85015",33.5239687,-112.0911673,"0","Restaurants, Chinese, Buffets"
"77",77080,"Kwality Sweets & Restaurants","Brampton","ON","L6T 1A7",43.7134039,-79.6818281,"1","Indian, Buffets, Caterers, Event Planning & Services, Food, Restaurants"
"78",176010,"Buffet Palace","Toronto","ON","M5B 1S1",43.6582055,-79.3814852,"1","Indian, Pakistani, Restaurants, Buffets"
"79",79262,"Golden Corral","Northfield","OH","44067",41.3134675,-81.5256136,"1","Buffets, Restaurants"
"80",14772,"TJ Buffet Sushi and Grill","Pittsburgh","PA","15237",40.5226505128,-80.0064798072,"0","Restaurants, Japanese, Chinese, Sushi Bars, Buffets"
"81",85696,"China City Super Buffet","Mesa","AZ","85206",33.393419,-111.701411,"0","Restaurants, Buffets"
"82",13726,"Happy Panda Buffet","Scarborough","ON","M1K 2S3",43.7368256,-79.2486972,"0","Chinese, Buffets, Restaurants"
"83",175710,"Red Wok Buffet","Phoenix","AZ","85018",33.4808153,-112.0069764,"1","Buffets, Chinese, Restaurants"
"84",86950,"HomeTown Buffet","Madison","WI","53704",43.122528,-89.314783,"0","Restaurants, Buffets, American (New), Breakfast & Brunch"
"85",95299,"Peony Garden Buffet","Phoenix","AZ","85048",33.3038845,-111.9787978,"0","Buffets, Mongolian, Sushi Bars, Restaurants, Chinese"
"86",31950,"China Buffet","Champlain","NY","12919",44.9794671,-73.4449037,"1","Buffets, Restaurants, Szechuan, Chinese, Cantonese"
"87",110114,"Buffet des Continents","St-Jerome","QC","J7Y 4P7",45.759381549,-74.0218477566,"1","Buffets, Restaurants"
"88",127082,"Copper Kettle-Salads Balti & Taandoori Grill","Tempe","AZ","85281",33.4167677,-111.9222221,"0","Buffets, Pakistani, Indian, Restaurants"
"89",46952,"Pelican's Patio Bar & Grill","Cornelius","NC","28031",35.481292,-80.8844,"0","Buffets, Restaurants, Caribbean"
"90",33569,"Ocean Blue Caribbean Restaurant and Bar","Chandler","AZ","85226",33.3059385,-111.9471779,"1","Restaurants, Sandwiches, Buffets, Seafood, Caribbean"
"91",78016,"Shinta Japanese BBQ","Richmond Hill","ON","L4B 3B1",43.8439761,-79.3878015,"1","Buffets, Asian Fusion, Restaurants, Barbeque, Japanese"
"92",98991,"Eat'n Park","Pittsburgh","PA","15205",40.4486141,-80.1621608,"1","Diners, American (New), American (Traditional), Breakfast & Brunch, Buffets, Restaurants"
"93",69082,"Sushi Mon","Las Vegas","NV","89117",36.1435952655,-115.2798899048,"0","Seafood, Japanese, Sushi Bars, Restaurants, Buffets"
"94",43677,"Hi-Ball Restaurant","Calgary","AB","T3B 0N3",51.0733526,-114.1646684,"1","Chinese, Diners, Restaurants, Buffets"
"95",192489,"Green's Restaurant","Calgary","AB","T2H 2B5",51.000454,-114.047064,"1","Buffets, Restaurants"
"96",95256,"Masala Mantra","Calgary","AB","T3C 0M5",51.042866,-114.0892996,"0","Indian, Restaurants, Bars, Buffets, Nightlife"
"97",177250,"Peter Piper Pizza","Phoenix","AZ","85044",33.3213573,-111.9781133,"1","Restaurants, Chicken Wings, Buffets, Pizza"
"98",70779,"Priya Indian Restaurant","Parma","OH","44130",41.4058147,-81.7668844,"0","Indian, Buffets, Restaurants"
"99",64028,"YC's Mongolian Grill","Tempe","AZ","85282",33.394965,-111.909476,"1","Chinese, Mongolian, Asian Fusion, Restaurants, Vegan, Gluten-Free, Buffets"
"100",144422,"Buffet Maharani","Montréal","QC","H3N 1S4",45.526017,-73.624529,"1","Indian, Restaurants, Pakistani, Buffets"
"101",161171,"Pizza Pie Cafe","Gilbert","AZ","85296",33.348178101,-111.7574131929,"0","Pizza, Buffets, Restaurants, Gluten-Free, Salad, American (Traditional)"
"102",58381,"Richtree Market Restaurants","Toronto","ON","M5E 1T1",43.6475443,-79.3773804,"0","Restaurants, Buffets, Canadian (New), American (New)"
"103",45414,"Feast Buffet","North Las Vegas","NV","89032",36.197476,-115.191654,"1","Breakfast & Brunch, Buffets, Restaurants"
"104",107778,"Copper Kettle-Salads Balti & Taandoori Grill","Mesa","AZ","85202",33.362719,-111.8761389,"0","Pakistani, Restaurants, Indian, Buffets"
"105",96835,"Spoonful","Brampton","ON","L6Y 1N6",43.667819,-79.738754,"1","Seafood, Buffets, Restaurants, Sushi Bars"
"106",102931,"Buffet Casa Corfu","Montréal","QC","H1Y 1Y2",45.5500926,-73.573907,"1","Greek, Restaurants, Mediterranean, Buffets"
"107",185334,"Cicis Mesa","Mesa","AZ","85206",33.3900512,-111.6839123,"1","Pizza, Restaurants, Italian, Buffets, Chicken Wings, Food, Desserts"
"108",166393,"Woo Buffet & Restaurant Lounge","Toronto","ON","M5B 2G9",43.6567455,-79.380484,"0","Restaurants, Buffets, Lounges, Nightlife, Asian Fusion, Bars"
"109",130265,"Golden Corral","Surprise","AZ","85374",33.6447773,-112.3588992,"1","Restaurants, Buffets"
"110",83347,"Hong Kong Gourmet Buffet","Phoenix","AZ","85048",33.3039011,-111.9784087,"0","Sushi Bars, Ice Cream & Frozen Yogurt, Chinese, Asian Fusion, Restaurants, Buffets, Seafood, Japanese, Food, Fast Food"
"111",48633,"Desi Grill","Calgary","AB","T1Y 2G1",51.0798105,-113.9965945,"0","Restaurants, Gluten-Free, Indian, Buffets"
"112",190357,"China Olive Super Buffet","Sun City","AZ","85351",33.6007015,-112.2835237,"0","Restaurants, Buffets"
"113",144209,"Fukuda","Henderson","NV","89104",36.063167,-115.037421,"0","Buffets, Restaurants, Sushi Bars, Japanese"
"114",102281,"U-Like Asian Buffet","Madison","WI","53719",43.055135,-89.497286,"0","Sushi Bars, Restaurants, Asian Fusion, Buffets"
"115",85548,"Indian Taste Restaurant","Twinsburg","OH","44087",41.3120077,-81.4382935,"0","Ethnic Food, Imported Food, Indian, Vegetarian, Food, Restaurants, Buffets, Specialty Food, Desserts"
"116",5422,"Resto Végo McGill","Montréal","QC","H3B 4J8",45.5014114,-73.5705109,"0","Restaurants, Buffets, Vegetarian, Vegan"
"117",111160,"JT's Barbecue Buffet and Catering","Medina","OH","44256",41.1442994,-81.8898098,"1","Sandwiches, Buffets, Event Planning & Services, Caterers, Barbeque, Food Trucks, Restaurants, Food"
"118",47340,"Campus Biryani & Gyros","Madison","WI","53711",43.0676175,-89.4106017,"1","Indian, Mediterranean, Restaurants, Pakistani, Buffets"
"119",102925,"Marston's Cafe","Phoenix","AZ","85004",33.4494991323,-112.0733680172,"1","Food, American (Traditional), Restaurants, Buffets"
"120",101267,"Volcano Buffet","Mesa","AZ","85201",33.4304474,-111.8737232,"0","Restaurants, Buffets, Japanese, Chinese"
"121",155310,"Souper Salad","Charlotte","NC","28217",35.3184247,-80.6624269,"0","Buffets, Restaurants, American (Traditional)"
"122",35828,"Kwality Grand Indian Buffet","Mississauga","ON","L5T 2Y3",43.6372782121,-79.6932041645,"1","Indian, Buffets, Restaurants"
"123",140855,"Nanay Gloria's Filipino Buffet","Henderson","NV","89052",36.0058936,-115.111836,"0","Food, Restaurants, Buffets, Filipino"
"124",169639,"Star of India","Phoenix","AZ","85048",33.3033358617,-111.9944411895,"1","Indian, Pakistani, Buffets, Restaurants"
"125",18487,"Crave","Richmond Hill","ON","L4B 4R8",43.8457124,-79.3816335,"1","Seafood, Restaurants, Canadian (New), Buffets"
"126",90327,"A Panda Buffet","South Euclid","OH","44121",41.5199389,-81.5182749,"0","Chinese, Buffets, Restaurants"
"127",174232,"Paradise Garden Buffet","Las Vegas","NV","89109",36.117064,-115.171177,"1","Food, Buffets, Restaurants"
"128",158752,"A.Y.C.E. Buffet","Las Vegas","NV","89103",36.114239,-115.19508,"1","Buffets, Restaurants"
"129",124154,"China One Buffet","Lorain","OH","44053",41.4182365408,-82.1990116686,"1","Buffets, Restaurants"
"130",48373,"Mandarin","Scarborough","ON","M1L 4S7",43.7306224,-79.2796866,"1","Canadian (New), Buffets, Restaurants, American (New), Chinese"
"131",67914,"New China Buffet","Phoenix","AZ","85033",33.494702,-112.2359129,"1","Restaurants, Buffets"
"132",25643,"Pavillon 67","Montréal","QC","H3C 4W7",45.5055720763,-73.5258185765,"1","Buffets, Restaurants"
"133",121973,"Grand View Golf Club","Braddock","PA","15104",40.4032579,-79.8558012,"1","Golf, Active Life, Restaurants, Buffets"
"134",143557,"Muddy Duck Restaurant","Mississauga","ON","L4X 2V3",43.6258686076,-79.5653487,"1","Breakfast & Brunch, Diners, Buffets, Restaurants"
"135",7627,"Mr Wok","Glendale","AZ","85301",33.5242075875,-112.203345642,"0","Chinese, Buffets, Restaurants"
"136",178871,"Mandarin Restaurant - North York","North York","ON","M3J 2C7",43.7680777,-79.4697753,"1","Buffets, Chinese, Ethnic Food, Specialty Food, Restaurants, Food"
"137",62380,"The Grand Ballroom at Rhythm Kitchen","Las Vegas","NV","89118",36.0732079,-115.2085074,"1","Cajun/Creole, Southern, Restaurants, Buffets, Seafood"
"138",101630,"New China Buffet","Mesa","AZ","85204",33.4149073,-111.8057924,"0","Buffets, Restaurants"
"139",169461,"Golden Corral","Charlotte","NC","28273",35.108898,-80.882351,"1","Restaurants, Buffets"
"140",89093,"Pharoah's Pheast Buffet","Las Vegas","NV","89119",36.1094581,-115.1568938,"0","Buffets, Restaurants, Food, Desserts, American (New)"
"141",169165,"DC Bar & Grill","Fountain Hills","AZ","85268",33.5821241,-111.716244,"1","Bars, Diners, Nightlife, Buffets, American (Traditional), Restaurants"
"142",172328,"The Buffet at Monte Carlo","Las Vegas","NV","89109",36.1047813604,-115.1746626725,"0","Buffets, American (Traditional), Restaurants"
"143",156211,"Sushi Factory","Las Vegas","NV","89103",36.1013213,-115.225783,"0","Buffets, Restaurants, Sushi Bars, Japanese"
"144",138017,"Wicked Spoon","Las Vegas","NV","89109",36.10955,-115.176155,"1","Buffets, Breakfast & Brunch, Restaurants"
"145",45317,"Sushi Legend","Toronto","ON","M1S 3M7",43.7970053926,-79.2704776265,"1","Buffets, Japanese, Restaurants, Asian Fusion, Sushi Bars"
"146",48156,"Bombay Cuisine","Charlotte","NC","28262",35.303872,-80.749548,"0","Pakistani, Vegan, Restaurants, Breakfast & Brunch, Vegetarian, Indian, Buffets"
"147",108634,"Le Tropik Restaurant Bar","Montréal","QC","H4T 1E3",45.4856741,-73.6912598,"1","Restaurants, Italian, Breakfast & Brunch, Buffets"
"148",58600,"Festival Buffet","Las Vegas","NV","89130",36.2015702,-115.1951924,"1","Buffets, Restaurants"
"149",160452,"Urban Turban","Las Vegas","NV","89169",36.1189093605,-115.1543320479,"0","Bars, Halal, Vegetarian, Cocktail Bars, Indian, Restaurants, Nightlife, Tapas Bars, Buffets, Vegan, Food, Desserts"
"150",27035,"Mandarin Restaurant - Mississauga","Mississauga","ON","L4Z 2Y5",43.6207267804,-79.6673627052,"1","Restaurants, Buffets, Chinese"
"151",153345,"China Buffet","Eastlake","OH","44095",41.64197,-81.449399,"1","Chinese, Italian, Restaurants, Buffets"
"152",22905,"Lin's Grand Buffet","Phoenix","AZ","85035",33.4662093811,-112.2189348,"1","Buffets, Restaurants, Cantonese, Chinese, Sushi Bars"
"153",134438,"Golden Corral","Matthews","NC","28105",35.1213311,-80.6992199,"1","Restaurants, Buffets"
"154",126554,"Tucker's Marketplace","Toronto","ON","M9W 6A2",43.6890313,-79.5851311,"1","Restaurants, American (Traditional), Buffets"
"155",107050,"New Great China Super Buffet","Phoenix","AZ","85035",33.478181,-112.2200991,"1","Buffets, Restaurants"
"156",61967,"Imperial Buffet","Mississauga","ON","L4Y 2A6",43.6105877,-79.5878672,"0","Buffets, Restaurants"
"157",120055,"Festival Buffet","Henderson","NV","89015",36.0320227724,-115.0101810978,"1","Buffets, Restaurants"
"158",108541,"Hibachi Grill & Supreme Buffet","Phoenix","AZ","85013",33.487608,-112.082516,"0","Restaurants, Buffets"
"159",20150,"Sushi Club","Henderson","NV","89052",35.9975649,-115.1025545,"0","Sushi Bars, Japanese, Restaurants, Buffets"
"160",167229,"Souper Salad","Tempe","AZ","85284",33.3492229,-111.9569501,"0","Buffets, Restaurants"
"161",17824,"Cherry-O Southern Buffet & Carry Out","Garfield Heights","OH","44125",41.400134023,-81.5985079855,"0","Soul Food, Restaurants, Buffets"
"162",59361,"Pittsburgh Cafe","Pittsburgh","PA","15213",40.439681,-79.957556,"0","Buffets, American (Traditional), Chicken Wings, Restaurants"
"163",64698,"Crazy Buffet","Mesa","AZ","85204",33.3800389,-111.8070834,"0","Restaurants, Buffets"
"164",174008,"Sushi On Tropicana","Las Vegas","NV","89121",36.099319,-115.114283,"0","Buffets, Sushi Bars, Restaurants, Japanese"
"165",106014,"Buffet La Bonne Carte","Montréal","QC","H3C 4W7",45.5054701,-73.5256318,"1","Restaurants, Buffets, French, American (Traditional)"
"166",57226,"Peter Piper Pizza","Las Vegas","NV","89102",36.147574438,-115.2076083273,"1","Restaurants, Buffets, Chicken Wings, Pizza"
"167",115411,"Emperor's Buffet","Las Vegas","NV","89109",36.118346,-115.170129,"0","Buffets, Breakfast & Brunch, Restaurants"
"168",183850,"Feast Buffet","Las Vegas","NV","89135",36.1564007,-115.3335552,"1","Buffets, Restaurants"
"169",134993,"Mint Indian Cuisine","Scottsdale","AZ","85260",33.583,-111.892905,"1","Restaurants, Vegetarian, Halal, Buffets, Indian"
"170",42269,"China Farm Chinese Buffet","Tempe","AZ","85282",33.394695,-111.9778065,"0","Restaurants, Chinese, Food, Food Delivery Services, Buffets"
"171",53393,"Sushi Plus","Montréal","QC","H3S 1Z5",45.4998766,-73.6306229,"1","Japanese, Sushi Bars, Buffets, Restaurants"
"172",71491,"Epoy's Filipino Fast Food","Las Vegas","NV","89102",36.144051,-115.198702,"0","Restaurants, Buffets, Ethnic Food, Food, Filipino, Specialty Food"
"173",191110,"Lucky 7s Buffet","Las Vegas","NV","89136",36.175,-115.136389,"0","Buffets, Restaurants"
"174",123712,"Sushi Plus","Montréal","QC","H8N 1S2",45.4327268923,-73.6358739856,"1","Buffets, Sushi Bars, Restaurants, Japanese"
"175",191871,"Via Brasil Steakhouse on South Fort Apache and Charleston","Las Vegas","NV","89117",36.1568983622,-115.2919117492,"1","Diners, Desserts, Steakhouses, Food, Restaurants, Seafood, Buffets, Beer, Wine & Spirits, Brazilian, Portuguese"
"176",4572,"Chez Bouffe","Montréal","QC","H1V 1Y1",45.550872,-73.533842,"1","Canadian (New), Beer, Wine & Spirits, Food, French, Buffets, Restaurants"
"177",81,"Apni Havelly Restaurant & Banquet Hall","Mississauga","ON","L4X 1L4",43.610212,-79.58142,"1","Buffets, Restaurants, Indian, Middle Eastern"
"178",182703,"Saino Indian Nepali Kitchen","Las Vegas","NV","89102",36.1316910159,-115.2073291981,"0","Pakistani, Indian, Buffets, Restaurants, Himalayan/Nepalese"
"179",112910,"Let's Meat Kbbq","Charlotte","NC","28203",35.2190478215,-80.8576791734,"1","Korean, Buffets, Barbeque, Restaurants"
"180",16199,"Hibachi Sushi Buffet","Cornelius","NC","28031",35.475439,-80.888605,"0","Buffets, Restaurants, Japanese, Sushi Bars, Asian Fusion, Chinese"
"181",115551,"Garam Masala","Mississauga","ON","L4Z 3K8",43.6137412,-79.6618322,"1","Food, Indian, Specialty Food, Restaurants, Ethnic Food, Buffets"
"182",36751,"Pizza Up","Charlotte","NC","28202",35.2283622,-80.8427789,"0","Pizza, Buffets, Restaurants, Italian"
"183",78774,"China One Buffet","Amherst","OH","44001",41.4183185844,-82.2010551004,"1","Restaurants, Buffets, Chinese"
"184",149206,"Golden Palace Buffet","Pittsburgh","PA","15213",40.4408628,-79.9581821,"1","Restaurants, Chinese, Buffets"
"185",15247,"A Plus Buffet Sushi Bar","Calgary","AB","T2H 0L3",50.9932729182,-114.0709654614,"1","Buffets, Sushi Bars, Restaurants, Diners, Japanese, Asian Fusion"
"186",127556,"Sweet Tomatoes","Peoria","AZ","85382",33.6375975506,-112.2223644995,"1","Restaurants, Soup, Salad, Buffets, Vegetarian"
"187",78381,"YOBO","Las Vegas","NV","89146",36.1255374,-115.2112409,"1","Japanese, Restaurants, Ramen, Noodles, Buffets, Hot Pot"
"188",12632,"Yummy Buffet","Madison","WI","53703",43.074349,-89.393575,"0","Restaurants, Chinese, Buffets"
"189",74498,"Genghis Grill","Chandler","AZ","85226",33.3184353787,-111.9690317969,"0","Restaurants, Mongolian, Buffets"
"190",183994,"Hamada of Japan","Las Vegas","NV","89103",36.118699,-115.186442,"0","Buffets, Restaurants, Japanese"
"191",154401,"Cucina Vitale","Pittsburgh","PA","15203",40.4274367,-79.9691357,"1","Italian, Diners, Food, Breakfast & Brunch, Buffets, Restaurants"
"192",80122,"Railroad Pass Hotel & Casino","Henderson","NV","89002",35.9725374929,-114.9119012288,"1","Event Planning & Services, Hotels & Travel, Arts & Entertainment, Restaurants, Buffets, Hotels, Casinos"
"193",188887,"Souper Salad","Phoenix","AZ","85032",33.5989263,-111.9814759,"0","Restaurants, Salad, Buffets"
"194",84114,"Brar's-Grand","Brampton","ON","L6T 4N2",43.690611,-79.6941458,"1","Restaurants, Buffets, Indian, Food, Desserts"
"195",5584,"Peter Piper Pizza","Scottsdale","AZ","85257",33.4651928,-111.9165925,"1","Chicken Wings, Restaurants, Pizza, Buffets"
"196",5923,"Makino Sushi & Seafood Buffet","Las Vegas","NV","89103",36.1186319921,-115.2084587597,"1","Seafood, Restaurants, Sushi Bars, Buffets, Japanese"
"197",190851,"DiPietro's","Pittsburgh","PA","15229",40.518468,-80.0316117,"1","Italian, Fast Food, Food, Restaurants, Ice Cream & Frozen Yogurt, Sandwiches, Pizza, Buffets"
"198",69659,"Azure Restaurant & Bar","Toronto","ON","M5V 2X3",43.6444547,-79.3854827,"1","Arts & Entertainment, Cocktail Bars, Jazz & Blues, Restaurants, Bars, Nightlife, Buffets, Canadian (New), American (New)"
"199",39594,"Green Valley Ranch Resort & Spa","Henderson","NV","89052",36.020552,-115.089984,"1","Casinos, Steakhouses, Hotels & Travel, Resorts, Sports Bars, Nightlife, Arts & Entertainment, Buffets, Event Planning & Services, Restaurants, Day Spas, Bars, Hotels, Beauty & Spas, Seafood"
"200",80346,"Kumo Japanese Seafood Buffet","Parma","OH","44134",41.403182,-81.6957670839,"1","Restaurants, Buffets, Japanese, Sushi Bars"
"201",127307,"Pampas Churrascaria Brazilian Grille","Las Vegas","NV","89109",36.108761,-115.170129,"1","Event Planning & Services, Restaurants, Buffets, Caterers, Steakhouses, Seafood, Brazilian"
"202",6072,"Great Wall Buffet","Glendale","AZ","85308",33.637417,-112.187539,"0","Buffets, Restaurants, Chinese"
"203",90374,"Crafted Buffet","Las Vegas","NV","89104",36.147248,-115.156032,"1","Restaurants, Buffets"
"204",10438,"Garden Buffet","Las Vegas","NV","89183",36.0114387079,-115.1749124005,"1","Buffets, Restaurants"
"205",140617,"Eat'n Park","Tarentum","PA","15084",40.569987,-79.8036939,"1","Breakfast & Brunch, Buffets, American (Traditional), Diners, Restaurants"
"206",171188,"Sahara Buffet","Las Vegas","NV","89136",36.1423378,-115.1563054,"0","Restaurants, Buffets"
"207",119743,"Fiesta Henderson","Henderson","NV","89015",36.0319583,-115.0091278,"1","Event Planning & Services, Steakhouses, Mexican, Seafood, Casinos, Buffets, Restaurants, Hotels, Arts & Entertainment, Hotels & Travel"
"208",51164,"Flaming Grill Buffet","Kannapolis","NC","28083",35.4500062867,-80.6088687479,"1","Chinese, Sushi Bars, Restaurants, Buffets"
"209",103408,"Redheads Japa Cafe","Calgary","AB","T2R 0E2",51.0428936933,-114.0758754934,"1","Bagels, Buffets, Food, Japanese, Cafes, Tapas Bars, Restaurants, Breakfast & Brunch"
"210",14354,"New China Super Buffet","Phoenix","AZ","85023",33.6394811,-112.0813108,"1","Chinese, Buffets, Restaurants"
"211",148674,"New China Buffet","Phoenix","AZ","85016",33.4818808,-112.0298819,"1","Buffets, Chinese, Restaurants"
"212",72579,"Tabla Indian Restaurant","Charlotte","NC","28277",35.041879,-80.8624702,"1","Restaurants, Indian, Halal, Buffets"
"213",58217,"Hibachi Grill Super Buffet","Mesa","AZ","85210",33.3940329,-111.8565791,"1","Japanese, Buffets, Restaurants, Szechuan, Chinese, Asian Fusion"
"214",10076,"Uncle Bob's Country Buffet","Brampton","ON","L6V 1N1",43.7027388987,-79.7572111823,"1","Restaurants, Buffets, Canadian (New), Pizza"
"215",180766,"Bombay Spice Restaurant","Calgary","AB","T2G 2M1",51.0470164,-114.0580266,"1","Buffets, Indian, Bars, Pakistani, Restaurants, Nightlife"
"216",74475,"Chine Hot Pot & Noodles","Toronto","ON","M5T 2E9",43.6545068365,-79.3984092772,"1","Chinese, Restaurants, Buffets, Hot Pot"
"217",126706,"Studio B Buffet","Henderson","NV","89044",35.9650723,-115.1679801,"1","Restaurants, Seafood, Desserts, Specialty Food, Food, Buffets"
"218",141400,"BJ's Buffet","Las Vegas","NV","89103",36.099494,-115.2083645,"0","Restaurants, Buffets"
"219",154065,"Peter Piper Pizza","Phoenix","AZ","85013",33.4884218,-112.0823702,"1","Chicken Wings, Restaurants, Buffets, Pizza"
"220",97228,"Firelight Buffet","Las Vegas","NV","89122",36.1128952,-115.0623534,"1","Event Planning & Services, Buffets, Hotels & Travel, Hotels, Arts & Entertainment, Restaurants, Casinos"
"221",127194,"Eat'n Park","Monroeville","PA","15146",40.4363721,-79.7725423,"1","Breakfast & Brunch, American (Traditional), Diners, Buffets, Restaurants, Salad, Burgers"
"222",106551,"Shaya Cuisine","Calgary","AB","T2H 0R4",50.9974691,-114.0614912,"0","Buffets, Restaurants, Event Planning & Services, Caterers, Diners"
"223",109192,"Mandarin Super Buffet","Phoenix","AZ","85015",33.524008,-112.091192,"1","Restaurants, Asian Fusion, Buffets, Cantonese, Food, Chinese"
"224",12868,"Mango Shiva","Calgary","AB","T2P 1B5",51.0456412,-114.0665623,"0","Bars, Pakistani, Nightlife, Buffets, Indian, Restaurants"
"225",148249,"Chinese Village Oriental & Western","Calgary","AB","T2P 1X3",51.0481483,-114.0759872,"1","Restaurants, Buffets, Chinese"
"226",20574,"Tandul","Cleveland","OH","44113",41.477919,-81.6825795,"1","Restaurants, Buffets, Bars, Indian, Nightlife"
"227",20017,"The SLS Buffet","Las Vegas","NV","89109",36.1427564,-115.1578748,"0","American (New), Japanese, Restaurants, Buffets, Mediterranean"
"228",183150,"Feast of India","Calgary","AB","T2C 4X6",50.9895114,-113.9599143,"1","Vegetarian, Buffets, Indian, Restaurants"
"229",111415,"China Buffet","Pittsburgh","PA","15206",40.458066,-79.917146,"1","Chinese, Asian Fusion, Buffets, Restaurants"
"230",15090,"Royal Taj","Tempe","AZ","85282",33.406601,-111.9075196,"0","Restaurants, Indian, Buffets, Pakistani"
"231",72591,"Mongolian Grill","Whitby","ON","L1N 9S2",43.8696508507,-78.9130130424,"1","Restaurants, Buffets, Mongolian"
"232",55614,"VinciTorio's","Tempe","AZ","85284",33.34831,-111.908761,"1","Italian, Buffets, Bars, Wine Bars, Nightlife, Restaurants"
"233",63102,"Pancho's Mexican Buffet","Phoenix","AZ","85014",33.4943842,-112.0606304,"0","Mexican, Restaurants, Buffets"
"234",180212,"Moroccan Paradise","Tempe","AZ","85281",33.4152426,-111.9196665,"0","Bars, Arabian, Hookah Bars, Restaurants, Buffets, Burgers, Halal, Salad, Sandwiches, Nightlife, Moroccan, Mediterranean"
"235",21718,"Mumbai Sapphire","Markham","ON","L3R",43.8359655,-79.3545948,"0","Indian, Restaurants, Buffets"
"236",161941,"Hwaro","Spring Valley","NV","89146",36.1270307944,-115.209860464,"1","Korean, Buffets, Barbeque, Restaurants"
"237",18546,"Flavors of India","Phoenix","AZ","85016",33.5028106,-112.0472423,"1","Restaurants, Pakistani, Indian, Seafood, Buffets"
"238",171589,"The Big Fat Greek Buffet","Mississauga","ON","L4W 4G1",43.6398192,-79.6253481,"0","Buffets, Restaurants, Greek"
"239",50320,"Bukhara Grill","Mississauga","ON","L5C 4E6",43.5688057392,-79.6630470827,"0","Restaurants, Indian, Buffets"
"240",65921,"Copper Kettle","Tempe","AZ","85281",33.4153283,-111.9182786,"0","Indian, Buffets, Restaurants, Pakistani"
"241",40997,"Souper Salad","Mesa","AZ","85204",33.3830888,-111.8026577,"0","Restaurants, Buffets"
"242",109601,"Sweet Tomatoes","Scottsdale","AZ","85250",33.538186,-111.887991,"1","Restaurants, Vegetarian, Soup, Buffets, Salad"
"243",106940,"Sakura Sushi","Phoenix","AZ","85044",33.348359,-111.983325,"1","Soup, Buffets, Japanese, Sushi Bars, Restaurants, Salad"
"244",47300,"Cannery Row Buffet","North Las Vegas","NV","89030",36.23855,-115.1190877,"1","Restaurants, Buffets"
"245",133773,"Fourchette Antillaise","Montréal","QC","H4J 1J8",45.526989,-73.713709,"1","Cajun/Creole, Buffets, Restaurants, Caribbean"
"246",35708,"Cicis","Las Vegas","NV","89108",36.2151476891,-115.24276793,"1","Desserts, Restaurants, Buffets, Pizza, American (Traditional), Food, Italian"
"247",146696,"Texas de Brazil","Dallas","TX","75247",36.0701358,-115.1753479,"0","Restaurants, Brazilian, Gluten-Free, Buffets, Steakhouses"
"248",123365,"HomeTown Buffet","Scottsdale","AZ","85257",33.4626163,-111.9269743,"0","Breakfast & Brunch, American (New), Buffets, Restaurants"
"249",3946,"Chauhans India Grill House & Banquet","Markham","ON","L3R 0E4",43.8309686,-79.3574533,"1","Venues & Event Spaces, Event Planning & Services, Food, Indian, Restaurants, Buffets"
"250",57668,"CiCi's Pizza","Las Vegas","NV","89131",36.2769821519,-115.2084750544,"0","Restaurants, Pizza, Buffets"
"251",58665,"New Dynasty Buffet Restaurant","Calgary","AB","T2A 6X1",51.0473104672,-113.9900637638,"1","Buffets, Restaurants, Asian Fusion, Chinese"
"252",148625,"Lim's Chinese Buffet","Phoenix","AZ","85032",33.6269122,-112.0297986,"1","Chinese, Restaurants, Buffets"
"253",46723,"Rampart Buffet","Las Vegas","NV","89145",36.175747,-115.2917528,"1","Buffets, Restaurants, Seafood, Steakhouses"
"254",115010,"Hibachi Grill & Supreme Buffet","Glendale","AZ","85308",33.6379008,-112.1674758,"0","Restaurants, Buffets"
"255",162183,"Pacific Seafood Buffet","Glendale","AZ","85308",33.638669,-112.231662,"1","Seafood, Restaurants, Buffets, Chinese"
"256",35414,"Peter Piper Pizza","Avondale","AZ","85392",33.4659519,-112.2784059,"1","Buffets, Pizza, Chicken Wings, Restaurants"
"257",79514,"Nirvana Indian Cuisine","Scottsdale","AZ","85260",33.6205227,-111.8962794,"1","Indian, Halal, Buffets, Vegan, Restaurants, Gluten-Free"
"258",89886,"JB's Restaurant","Mesa","AZ","85207",33.416079898,-111.6841578484,"1","Buffets, Restaurants"
"259",171838,"Boulder Station Hotel & Casino","Las Vegas","NV","89121",36.1329379,-115.084697,"1","Casinos, Mexican, Buffets, Restaurants, Steakhouses, American (Traditional), Event Planning & Services, Seafood, Hotels & Travel, Cinema, Arts & Entertainment, Hotels, Italian"
"260",68381,"Singapore Sam's","Calgary","AB","T2R 1P6",51.0422965,-114.0732242,"1","Chinese, Buffets, Restaurants"
"261",188288,"Copper Kettle Curry House","Phoenix","AZ","85008",33.4659236,-111.9722278,"0","Indian, Pakistani, Buffets, Restaurants"
"262",172642,"Great Wall Of China South","Charlotte","NC","28226",35.08565,-80.847489,"1","Asian Fusion, Chinese, Restaurants, Seafood, Buffets, Event Planning & Services, Cocktail Bars, Nightlife, Bars, Caterers"
"263",188787,"Sweet Tomatoes","Tempe","AZ","85282",33.393496,-111.914905,"1","American (New), Salad, Soup, Restaurants, Vegetarian, Buffets"
"264",46402,"BBQ House","Mesa","AZ","85202",33.363563,-111.876153,"1","Barbeque, Buffets, Korean, Steakhouses, Restaurants"
"265",142604,"Punjabi By Nature","Brampton","ON","L6P 0B7",43.7705896805,-79.6600848621,"1","Indian, Restaurants, Buffets, Vegetarian"
"266",110158,"Spice Market Buffet","Las Vegas","NV","89109",36.1102503133,-115.1716660644,"1","Restaurants, Buffets, Breakfast & Brunch"
"267",181523,"Mayuri Palace","Phoenix","AZ","85023",33.6401217,-112.1116606,"0","Restaurants, Indian, Buffets, Diners"
"268",173420,"Inti - Modern Peruvian","Calgary","AB","T1Y 6Z1",51.0791889314,-113.9976656772,"0","Chicken Shop, Buffets, Restaurants, Peruvian"
"269",3305,"Sushi Palace","Boucherville","QC","J4B 6R2",45.5911498,-73.4360696,"1","Restaurants, Buffets, Asian Fusion, Sushi Bars"
"270",120749,"Jasmine Tokyo","Scottsdale","AZ","85254",33.582398017,-111.9286845698,"0","Restaurants, Asian Fusion, Bars, Nightlife, Buffets"
"271",125681,"Lee's Buffet","Las Vegas","NV","89119",36.1153072,-115.1327931,"0","Seafood, Buffets, Sushi Bars, Restaurants"
"272",191773,"Eat'n Park","Etna","PA","15223",40.5120473,-79.9475961,"1","Buffets, Diners, American (Traditional), Breakfast & Brunch, Restaurants"
"273",39976,"Desi Spice","Toronto","ON","M9W 6J1",43.7356008358,-79.6047169852,"1","Indian, Buffets, Restaurants"
"274",38701,"Buffet At Asia","Las Vegas","NV","89119",36.1152176,-115.1185529,"1","Seafood, Chinese, Specialty Food, Food, Buffets, Restaurants, Asian Fusion"
"275",47121,"Sura BBQ Buffet","Las Vegas","NV","89102",36.12695,-115.201296,"1","Barbeque, Korean, Buffets, Restaurants"
"276",98282,"Chinese Gourmet Buffet","Phoenix","AZ","85031",33.4944809,-112.1736724,"0","Buffets, Chinese, Restaurants"
"277",1433,"Airdrie Wok","Airdrie","AB","T4B 0P8",51.2912338332,-114.0146370605,"1","Buffets, Asian Fusion, Chinese, Restaurants"
"278",191882,"The Resident","Mesa","AZ","85210",33.3881313,-111.8538436,"1","American (New), Restaurants, Breakfast & Brunch, Buffets"
"279",114947,"Imperial Garden Chinese Buffett","Phoenix","AZ","85014",33.5089548,-112.0483091,"0","Chinese, Buffets, Restaurants"
"280",186175,"Peter Piper Pizza","Laveen","AZ","85339",33.3760926,-112.1696673,"1","Chicken Wings, Restaurants, Buffets, Pizza"
"281",165091,"No. 1 Sushi","Montréal","QC","H2W 1Y4",45.516672,-73.578437,"0","Japanese, Buffets, Seafood, Restaurants, Sushi Bars"
"282",84739,"Mandarin Restaurant - Pickering","Pickering","ON","L1V 4L9",43.8498943,-79.0706519,"1","Buffets, Restaurants, Ethnic Food, Food, Chinese, Specialty Food"
"283",40076,"Genghis Khan Mongolian Grill","North York","ON","M3C 1V6",43.7269871,-79.3414943,"1","Barbeque, Buffets, Mongolian, Restaurants, Chinese"
"284",103608,"Jade River Buffet","Toronto","ON","M1R 2T5",43.7674555,-79.3020157,"0","Restaurants, Food, Buffets"
"285",171881,"The Rose Bar & Grille","White Oak","PA","15131",40.3239315,-79.7831466,"1","Restaurants, Diners, American (New), Buffets"
"286",15535,"China City Super Buffet","Surprise","AZ","85374",33.655834,-112.373872,"0","Buffets, Restaurants, Chinese"
"287",10187,"Al-Qud's Kebab House & Cafe","Calgary","AB","T2P 2C4",51.0470237732,-114.0832672119,"1","Kebab, Middle Eastern, Restaurants, Buffets"
"288",181808,"168 Sushi Japan Buffet","Brampton","ON","L6W 3G6",43.6813337,-79.7292085,"1","Buffets, Japanese, Restaurants, Sushi Bars"
"289",109566,"Sterling Brunch","Las Vegas","NV","89109",36.113722,-115.169184,"1","Breakfast & Brunch, Restaurants, Buffets"
"290",139897,"Golden Nugget Chinese Buffet","Phoenix","AZ","85031",33.4946269,-112.1668902,"1","Chinese, Restaurants, Buffets"
"291",4716,"Yummy Sushi","Richmond Hill","ON","L4S 0A1",43.880913,-79.393872,"1","Restaurants, Japanese, Buffets, Sushi Bars"
"292",185889,"Priya Indian Cuisine","Tempe","AZ","85284",33.333854,-111.9123807,"0","Indian, Restaurants, Pakistani, Buffets"
"293",8442,"King Buffet","Chandler","AZ","85224",33.3476332,-111.8606228,"0","Chinese, Buffets, Restaurants"
"294",39284,"Pacific Buffet","Las Vegas","NV","89146",36.1442519,-115.2108408,"0","Restaurants, Buffets"
"295",63269,"Rodízio Brasil","Montréal","QC","H2Y 1C2",45.507884,-73.5543227,"1","Buffets, Brazilian, Restaurants, Steakhouses"
"296",158557,"Buffet House","Mayfield Heights","OH","44124",41.5197722083,-81.4679735899,"0","Restaurants, Chinese, Japanese, Buffets"
"297",31882,"Tandoori Flame","Brampton","ON","L6T 5N9",43.7016685627,-79.7115981546,"1","Food, Beer, Wine & Spirits, Indian, Restaurants, Buffets"
"298",75084,"India Grill","Tempe","AZ","85284",33.3487388761,-111.9447575882,"0","Restaurants, Buffets, Indian"
"299",3435,"The Indian Hut","Toronto","ON","M4Y 2G3",43.6697695,-79.3829273,"0","Middle Eastern, Indian, Restaurants, Pakistani, Buffets"
"300",26717,"Carnival World Buffet","Las Vegas","NV","89103",36.1178899374,-115.1893946112,"0","Buffets, Salad, Restaurants, Food, Breakfast & Brunch"
"301",115708,"Royal Buffet","Charlotte","NC","28217",35.1631658,-80.8854741,"0","Buffets, Chinese, Restaurants"
"302",163767,"China Chan Restaurant","Phoenix","AZ","85051",33.5803589,-112.120516,"0","Chinese, Restaurants, Buffets, Dim Sum"
"303",147399,"YC's Mongolian Grill","Tempe","AZ","85284",33.3496395266,-111.9491835778,"1","Vegan, Buffets, Asian Fusion, Chinese, Gluten-Free, Restaurants, Mongolian"
"304",143921,"Pancho's Mexican Buffet","Mesa","AZ","85202",33.393234,-111.8620014,"0","Buffets, Restaurants, Mexican"
"305",19085,"Lago Buffet","Las Vegas","NV","89109",36.1162194,-115.1745719,"0","American (New), Restaurants, Casinos, Event Planning & Services, Hotels & Travel, Hotels, Buffets, Arts & Entertainment"
"306",92426,"Asian Buffet & Grill","Matthews","NC","28105",35.119773,-80.7005629,"1","Restaurants, Chinese, Sushi Bars, Buffets"
"307",89161,"Billoo's Indian Cuisine","Calgary","AB","T3R 0S4",51.16997,-114.146485,"1","Halal, Indian, Restaurants, Beer, Wine & Spirits, Food, Buffets"
"308",167637,"Suns Buffet","Chandler","AZ","85286",33.220295,-111.867508,"0","Japanese, Restaurants, Asian Fusion, Buffets, Chinese, American (Traditional)"
"309",82858,"Moon Sushi","Mississauga","ON","L5K 1T7",43.527296,-79.650433,"1","Asian Fusion, Sushi Bars, Japanese, Buffets, Food, Restaurants, Beer, Wine & Spirits"
"310",133731,"Lin Buffet","Las Vegas","NV","89128",36.1976942,-115.2470842,"0","Buffets, Restaurants, Chinese"
"311",105803,"Tai Pan","Calgary","AB","T2V 5H5",50.966889,-114.072899,"0","Chinese, Restaurants, Buffets"
"312",105557,"World Buffet","Peoria","AZ","85345",33.5650142,-112.2556795,"1","Restaurants, Chinese, Buffets"
"313",104349,"Fire & Ice","Markham","ON","L3R 9S1",43.8491073,-79.3612909,"0","Buffets, Asian Fusion, Restaurants, Vegetarian"
"314",120836,"Sweet Tomatoes Express","Henderson","NV","89052",36.0004729,-115.1055811,"0","Soup, Vegetarian, Buffets, Food, Restaurants, Salad"
"315",93198,"Sweet Tomatoes","Phoenix","AZ","85021",33.5779313,-112.1161484,"1","Vegetarian, Salad, Soup, Restaurants, Buffets"
"316",85863,"Golden Nugget Buffet","Las Vegas","NV","89101",36.170044,-115.144858,"1","Buffets, Restaurants"
"317",167243,"Maison June Rose","Montréal","QC","H2W 1N3",45.5152754,-73.5747548,"0","Buffets, Bars, Cocktail Bars, Restaurants, Nightlife, Chinese"
"318",16027,"Aachi South Indian Kitchen","Tempe","AZ","85284",33.349118,-111.944979,"0","Indian, Buffets, Restaurants, Vegetarian, Seafood, Soup"
"319",138919,"Sweet Tomatoes Field Kitchen","Tempe","AZ","85282",33.3931044,-111.9149789,"0","Buffets, Restaurants, Vegetarian, Salad, Soup"
"320",169826,"Olly Fresco's: Southport","Calgary","AB","T2W 1S7",50.9631342,-114.0756461,"1","Restaurants, Sandwiches, Delis, Buffets"
"321",46820,"Guru Palace","Mesa","AZ","85204",33.3813133,-111.787321,"1","Indian, Buffets, Pakistani, Restaurants"
"322",169874,"Golden Corral","Phoenix","AZ","85033",33.4795091,-112.2231728,"1","Buffets, American (Traditional), Restaurants"
"323",86404,"Seoul BBQ","Toronto","ON","M1S 3V1",43.8032491,-79.288433,"0","Restaurants, Buffets, Barbeque, Korean"
"324",89239,"Peter Piper Pizza","Gilbert","AZ","85295",33.305135,-111.78697,"1","Restaurants, Pizza, Buffets, Chicken Wings"
"325",182423,"Trimurti Indian Cuisine","Toronto","ON","M5V 1Z4",43.6502113,-79.389349,"0","Middle Eastern, Pakistani, Buffets, Indian, Restaurants"
"326",89306,"Golden Corral","Elyria","OH","44035",41.3945041,-82.1058557,"1","Restaurants, American (Traditional), Buffets"
"327",151912,"City Buffet","Chandler","AZ","85224",33.33563,-111.854277,"0","Restaurants, Buffets"
"328",75256,"The Spread Buffet","Cleveland","OH","44113",41.4986969,-81.6931494,"1","Restaurants, Food, Buffets"
"329",124028,"Mandarin - Markham East","Markham","ON","L6B 0P2",43.8669842,-79.2284136,"1","Buffets, Chinese, Restaurants"
"330",39754,"Carnival World Buffet","Las Vegas","NV","89103",36.1163819,-115.1850253,"1","Restaurants, Buffets"
"331",134282,"Shanghai Buffet","Phoenix","AZ","85053",33.6391367,-112.1492386,"0","Chinese, Restaurants, Buffets"
"332",86813,"Cravings Market Restaurant","Calgary","AB","T2H 0X6",50.9888816,-114.0638105,"1","Mediterranean, Restaurants, Delis, Caterers, Event Planning & Services, Buffets"
"333",66395,"Sweet Tomatoes","Las Vegas","NV","89108",36.1972325,-115.2404624,"1","Soup, American (Traditional), Buffets, Vegetarian, Restaurants, Salad"
"334",150060,"Kings Kitchen Buffet","Markham","ON","L3R 2P4",43.8561002,-79.3370188,"0","Restaurants, Buffets"
"335",39899,"Tatemono","Whitby","ON","L1N 2C2",43.870056,-78.91359,"1","Interior Design, Buffets, Japanese, Restaurants, Sushi Bars, Home Services"
"336",131474,"White Castle Banquet & Event Centre","Vaughan","ON","L1K 1Z2",43.8094025,-79.5014078,"1","Venues & Event Spaces, Buffets, Music Venues, Event Planning & Services, Restaurants, Nightlife, Afghan, Indian, American (Traditional), Arts & Entertainment"
"337",112889,"Rancho Papa Chulo's","Phoenix","AZ","85051",33.578121,-112.118043,"0","Buffets, Restaurants, Mexican"
"338",91526,"Great Dragon Restaurant","Phoenix","AZ","85017",33.5244141,-112.1150359,"1","Restaurants, Buffets, Chinese"
"339",114087,"The Pizza Buffet","Phoenix","AZ","85032",33.6422558,-112.0129337,"1","Restaurants, Pizza, Buffets"
"340",172446,"Great Wall China Buffet","North Olmsted","OH","44070",41.415672135,-81.9118310469,"1","Chinese, Buffets, Restaurants, Soup"
"341",125051,"Chutney's Indian Cuisine","Tempe","AZ","85283",33.3774032593,-111.9086227417,"1","Indian, Buffets, Restaurants"
"342",142700,"George & Son's Asian Cuisine","Scottsdale","AZ","85259",33.5876349741,-111.836714308,"1","Austrian, Buffets, Thai, Chinese, Asian Fusion, Restaurants"
"343",82105,"Reign Of Thai","Phoenix","AZ","85020",33.5959555,-112.0391836,"1","Buffets, Salad, Thai, Seafood, Restaurants"
"344",88236,"New Hong Kong","Phoenix","AZ","85016",33.4949655,-112.0310218,"1","Chinese, Restaurants, Buffets"
"345",149565,"Win Wah","Vaudreuil-Dorion","QC","J7V 7W1",45.380508,-74.017192,"0","Shopping, Buffets, Chinese, Kitchen & Bath, Home & Garden, Restaurants"
"346",154324,"Bacchanal Buffet","Las Vegas","NV","89109",36.116113,-115.176222,"1","Restaurants, Buffets, Sandwiches, Food, Breakfast & Brunch"
"347",164842,"Buffet Chinois Kim-Kwok","Saint-Laurent","QC","H4R 1K4",45.5194932,-73.7030643,"0","Buffets, Restaurants"
"348",70187,"India's Flame","Tempe","AZ","85282",33.383383,-111.925297,"1","Nightlife, Buffets, Bars, Restaurants, Indian"
"349",135057,"E-Z Buffet","Phoenix","AZ","85032",33.6272318,-112.0121147,"0","Chinese, Restaurants, Buffets"
"350",51371,"Gastonia Grill & Sushi Buffet","Gastonia","NC","28054",35.2606566,-81.1501218,"1","Sushi Bars, American (Traditional), Restaurants, Asian Fusion, Buffets"
"351",124213,"India Garden","Avondale","AZ","85392",33.468306,-112.340335,"1","Buffets, Indian, Restaurants"
"352",4321,"HomeTown Buffet","Champaign","IL","61822",40.144166,-88.257164,"0","American (New), Breakfast & Brunch, Buffets, Restaurants"
"353",184279,"Tay-Yo Sushi Seafood Buffet","Henderson","NV","89074",36.0151363,-115.1184733,"0","Seafood, Restaurants, Buffets"
"354",188851,"Golden Corral","Brooklyn","OH","44129",41.419232,-81.74614,"1","Buffets, Restaurants"
"355",142693,"New India Gate","Chandler","AZ","85226",33.31923,-111.925813,"1","Restaurants, Buffets, Bars, Vegan, Halal, Nightlife, Beer Bar, Indian"
"356",133633,"Happy Buffet","Phoenix","AZ","85020",33.5511368,-112.0565797,"0","Buffets, Restaurants"
"357",41792,"Genghis Grill","Tempe","AZ","85281",33.4324571,-111.9023035,"1","Vegetarian, Restaurants, Buffets, Mongolian, Asian Fusion, Korean, Food, Thai, Chinese, Vegan"
"358",22555,"Peter Piper Pizza","Chandler","AZ","85224",33.307314,-111.8735513,"1","Pizza, Restaurants, Buffets, Chicken Wings"
"359",106911,"Watami Japanese Seafood Buffet & Grill","Parma","OH","44129",41.382427,-81.7398702,"0","Restaurants, Japanese, Seafood, Sushi Bars, Buffets"
"360",27201,"Fortune Star","Monroeville","PA","15146",40.4375528936,-79.766564928,"1","Buffets, Chinese, Restaurants"
"361",161851,"Asia Buffet","Las Vegas","NV","89109",36.1316722,-115.1642599,"1","Buffets, Food, Coffee & Tea, Desserts, Restaurants"
"362",150884,"Buffet Roundtable","Las Vegas","NV","89109",36.0988783486,-115.1756406203,"0","Restaurants, Buffets, American (Traditional)"
"363",2416,"Matka Indian Cuisine","Chandler","AZ","85224",33.3350307,-111.877439,"0","Indian, Restaurants, Buffets"
"364",56864,"New Chinatown Buffet","Sheffield Village","OH","44035",41.419496,-82.0811004,"1","Buffets, Japanese, Restaurants, Sushi Bars, Chinese"
"365",125698,"Lucky Star Chinese & Japanese Buffet","Las Vegas","NV","89136",36.175,-115.136389,"0","Japanese, Restaurants, Buffets, Chinese"
"366",188319,"Yellow Tail Seafood Sushi Buffet Bar & Lounge","Akron","OH","44334",41.135894,-81.643931,"1","Sushi Bars, Restaurants, Japanese, Buffets"
"367",16091,"Restaurant Odaki","Montréal","QC","H3H 1M1",45.493037,-73.579658,"0","Restaurants, Buffets, Asian Fusion, Sushi Bars, Japanese"
"368",1909,"Mandarin Restaurant - Vaughan","Vaughan","ON","L4L 0C3",43.8146209,-79.5531824,"1","Restaurants, Buffets, Chinese"
"369",180705,"Peter Piper Pizza","Peoria","AZ","85382",33.636158,-112.220659,"1","Chicken Wings, Buffets, Pizza, Restaurants"
"370",101143,"Feast Buffet","Las Vegas","NV","89121",36.1337103,-115.0850568,"1","Restaurants, Buffets"
"371",46633,"Sai India Curry","Las Vegas","NV","89119",36.0987077,-115.136795,"0","Restaurants, Fast Food, Pakistani, Buffets, Indian"
"372",57173,"Frankie Tomatto's","Markham","ON","L3R 1A3",43.8188292,-79.3492018,"1","Buffets, Restaurants, Pizza, Italian"
"373",4780,"168 Sushi Asian Buffet","Vaughan","ON","L4K 3B9",43.78738,-79.471494,"1","Buffets, Restaurants, Japanese, Sushi Bars, Chinese, Thai, Asian Fusion"
"374",187365,"Passage To India","Tempe","AZ","85284",33.348671,-111.9277127,"1","Indian, Food, Buffets, Restaurants"
"375",102634,"New King Wah Chinese Buffet","Phoenix","AZ","85040",33.392663,-112.070677,"0","Chinese, Restaurants, Buffets"
"376",72446,"Golden Corral","Rock Hill","SC","29730",34.9648588,-80.9942686,"1","Caterers, Buffets, Restaurants, Event Planning & Services"
"377",119271,"India Oven","Mesa","AZ","85204",33.391635,-111.787783,"1","Restaurants, Buffets, Indian"
"378",42419,"Blue Pacific Super Buffet","Phoenix","AZ","85051",33.567138,-112.1351505,"1","Restaurants, Buffets"
"379",174341,"Buffet Des Continents","Mascouche","QC","J7L 3X7",45.7306442686,-73.6743764798,"1","Buffets, Restaurants"
"380",111902,"Cicis","Avon","OH","44011",41.4602386239,-82.0223915577,"0","Food, American (Traditional), Restaurants, Desserts, Chicken Wings, Buffets, Pizza"
"381",6511,"New China Buffet","Phoenix","AZ","85031",33.496392,-112.1671464,"1","Buffets, Chinese, Restaurants"
"382",65477,"Marcello's Market & Deli","Toronto","ON","M5H 1P9",43.6491542,-79.382896,"1","Delis, Restaurants, Caterers, Event Planning & Services, Buffets"
"383",187468,"Sister's Great Buffet","Toronto","ON","M1E",43.7742323,-79.1841061,"0","Restaurants, Buffets"
"384",138608,"Breakfast Buffet at Trump International Tower","Las Vegas","NV","89109",36.1296278,-115.1726598,"1","Restaurants, Tapas/Small Plates, Buffets"
"385",69832,"Bombay Palace","Toronto","ON","M5C 2H2",43.6511338416,-79.3720099007,"1","Pakistani, Middle Eastern, Restaurants, Buffets, Event Planning & Services, Party & Event Planning, Indian, Caterers"
"386",34673,"iCook","Markham","ON","L3R",43.8206768,-79.3248349,"0","Buffets, Chinese, Dim Sum, Hot Pot, Restaurants"
"387",156346,"China Buffet","Charlotte","NC","28205",35.1972547,-80.7693723,"1","Buffets, Restaurants, Japanese, Chinese, Sushi Bars"
"388",24575,"Peter Piper Pizza","Surprise","AZ","85378",33.6378724709,-112.3373625103,"1","Restaurants, Pizza, Buffets, Chicken Wings"
"389",31866,"Bombay Palace","Brampton","ON","L6T 4V4",43.6912646,-79.6952513,"1","Buffets, Restaurants, Indian"
"390",131851,"Krazy Buffet","Las Vegas","NV","89117",36.1432784,-115.2674831,"1","Chinese, Asian Fusion, Buffets, Restaurants"
"391",32326,"New China Buffet","Mentor-on-the-Lake","OH","44060",41.7094114366,-81.3593401015,"1","Restaurants, Sushi Bars, Buffets, Chinese"
"392",126555,"Nabe Hotpot","Las Vegas","NV","89103",36.125635,-115.2024865,"1","Restaurants, Hot Pot, Korean, Asian Fusion, Buffets"
"393",105082,"Kabob n Kurry Restaurant","Gilbert","AZ","85233",33.3362723,-111.8219235,"0","Restaurants, Buffets, Indian, Pakistani"
"394",36464,"China Star Super Buffet","Phoenix","AZ","85073",33.5674031,-112.1350865,"0","Asian Fusion, Restaurants, Chinese, Buffets"
"395",78464,"Little Dumpling Asian Buffet","North Las Vegas","NV","89032",36.2392191,-115.1768961,"0","Buffets, Restaurants, Asian Fusion"
"396",161694,"Fiesta Rancho","Las Vegas","NV","89130",36.2032027,-115.1986936,"1","Hotels & Travel, Hotels, Mexican, Event Planning & Services, Restaurants, Buffets, Steakhouses, Casinos, Arts & Entertainment"
"397",169856,"Eat'n Park","Pittsburgh","PA","15217",40.4364519,-79.9231479,"1","Breakfast & Brunch, Restaurants, American (Traditional), Diners, Buffets"
"398",177490,"Anjappar Chettinad Restaurants","Brampton","ON","L6W 3T7",43.667904,-79.7345417,"1","Restaurants, Indian, Buffets"
"399",97610,"Wasabi Japanese Buffet","Richmond Hill","ON","L4B 3Y9",43.8443428712,-79.3874122202,"0","Japanese, Restaurants, Buffets"
"400",83760,"World Buffet","Madison","WI","53719",43.057758331,-89.5138889074,"1","Buffets, Mongolian, Restaurants, American (New), Chinese"
"401",120273,"Souper Salad","Phoenix","AZ","85008",33.478444,-111.9864838,"0","Restaurants, Soup, Buffets, Salad"
"402",18539,"Sister's Great Buffet","Scarborough","ON","M1E 3J5",43.7739588,-79.1839653,"0","Restaurants, Buffets"
"403",165681,"Sushiro","Las Vegas","NV","89101",36.1719092333,-115.115041472,"1","Buffets, Seafood, Sushi Bars, Japanese, Restaurants"
"404",188257,"Peter Piper Pizza","Avondale","AZ","85323",33.4532025636,-112.3403165351,"1","Restaurants, Chicken Wings, Pizza, Buffets"
"405",98494,"Mantang Hong","Brossard","QC","J4X 2S6",45.4490759,-73.4705071,"0","Chinese, Buffets, Restaurants"
"406",119589,"Dragon House Chinese Buffet","Charlotte","NC","28209",35.1772095,-80.876766,"1","Restaurants, Chinese, Buffets, Specialty Food, Food, Ethnic Food"
"407",166745,"Pasand","Tempe","AZ","85283",33.3773276,-111.9086062,"0","Buffets, Indian, Restaurants, Pakistani"
"408",35173,"Bolero","Calgary","AB","T2H 0L3",50.9921485,-114.070811,"1","Barbeque, Brazilian, Buffets, Restaurants, Steakhouses"
"409",169860,"Camros Organic Eatery","Toronto","ON","M4Y 2P2",43.6695258,-79.3855113,"0","Shopping, Gluten-Free, Specialty Food, Food, Vegetarian, Buffets, Health Markets, Persian/Iranian, Restaurants, Vegan"
"410",1789,"Vig Deli","Henderson","NV","89044",35.964660358,-115.1686297116,"1","Delis, Buffets, Seafood, Restaurants, American (New), Sandwiches"
"411",74090,"Market District Buffet","Cleveland","OH","44113",41.4985057,-81.6929531,"0","Buffets, Restaurants"
"412",55826,"The Original Las Vegas Buffet","Henderson","NV","89014",36.0722723705,-115.0796275102,"1","Chinese, Restaurants, Buffets, Asian Fusion"
"413",115918,"Peter Piper Pizza","Phoenix","AZ","85018",33.47989,-111.9961148,"1","Restaurants, Buffets, Pizza, Chicken Wings"
"414",176082,"Buffet Queen","Ajax","ON","L1Z",43.8626248,-79.0262318,"1","Restaurants, Buffets, Chinese"
"415",192353,"China City Super Buffet","Mesa","AZ","85209",33.3749476,-111.6870796,"1","Chinese, Ethnic Food, Food, Specialty Food, Restaurants, Buffets, Imported Food"
"416",7770,"Ryan's","Champaign","IL","61821",40.136306,-88.2619969,"0","Steakhouses, Restaurants, American (New), Breakfast & Brunch, Buffets"
"417",158140,"Ming Wah","Saint-Jérôme","QC","J7Z 7L3",45.7554254193,-73.9801319833,"1","Chinese, Home & Garden, Shopping, Kitchen & Bath, Buffets, Restaurants"
"418",3441,"Cannery Row Buffet","Las Vegas","NV","89122",36.1084168,-115.0570842,"0","Restaurants, Buffets, Diners"
"419",170433,"Golden Corral Buffet & Grill","Henderson","NV","89014",36.0630881274,-115.0484267388,"1","Buffets, Restaurants"
"420",18817,"Mandarin Seafood Buffet","Twinsburg","OH","44087",41.3074614,-81.4364227,"1","Buffets, Seafood, Restaurants, Chinese"
"421",164744,"Crown of India","Strongsville","OH","44136",41.3114006,-81.8361247,"1","Buffets, Restaurants, Seafood, Soup, Indian"
"422",14045,"Cynthia's Paradise","Newmarket","ON","L3X 1X4",44.0361597383,-79.475154429,"1","Buffets, Sushi Bars, Thai, Restaurants, Asian Fusion, Chinese, Japanese"
"423",108940,"Old Country Buffet","Mesa","AZ","85204",33.380894,-111.806864,"0","Restaurants, Buffets, Breakfast & Brunch, American (New)"
"424",163821,"Richtree Natural Market Restaurants","North York","ON","M2L 1L3",43.7472928,-79.3855919,"0","Grocery, American (Traditional), Buffets, American (New), Health Markets, Restaurants, Specialty Food, Beer, Wine & Spirits, Canadian (New), Food"
"425",166182,"Yong Super Buffet","Pickering","ON","L1V 1B5",43.8279946,-79.0976787,"0","Restaurants, Buffets"
"426",180960,"Jumbo Super Buffet","Las Vegas","NV","89102",36.1526204,-115.207511,"1","Sushi Bars, Buffets, Restaurants, Chinese"
"427",182089,"Lotus of Siam","Las Vegas","NV","89104",36.1436636,-115.1418906,"0","Car Dealers, Nightlife, Automotive, Buffets, Wine Bars, Bars, Thai, Restaurants, Seafood"
"428",50779,"Bistro Buffet","Las Vegas","NV","89103",36.115137,-115.195433,"0","Hotels & Travel, Hotels, Restaurants, Italian, Buffets, American (Traditional), Arts & Entertainment, Event Planning & Services, Casinos"
"429",99392,"Hot Million Indian Cuisine","Calgary","AB","T1Y 5S3",51.0720653,-113.9828214,"1","Beer, Wine & Spirits, Food, Indian, Restaurants, Buffets"
"430",84337,"Tokyo Grill & Buffet","Charlotte","NC","28213",35.2973802,-80.7473433,"0","Asian Fusion, Sushi Bars, Buffets, Restaurants, Japanese"
"431",115971,"Nozomi Sushi","Las Vegas","NV","89102",36.1596729161,-115.1720037505,"1","Sushi Bars, Seafood, Nightlife, Bars, Japanese, Buffets, Restaurants"
"432",185322,"Princess Mediterranean Market & Deli","Mesa","AZ","85202",33.407997,-111.887898,"1","Building Supplies, Middle Eastern, Buffets, Grocery, Restaurants, Arabian, Food, Home Services, Mediterranean, Lebanese"
"433",61056,"Asian King Buffet","Mississauga","ON","L5J 2B4",43.5125352,-79.6487822,"1","Sushi Bars, Chinese, Barbeque, Buffets, Restaurants, Asian Fusion"
"434",71369,"Hibachi Buffet & Grill","Matthews","NC","28105",35.133062,-80.709116,"1","Chinese, Japanese, Buffets, Restaurants"
"435",25524,"Cicis","North Las Vegas","NV","89030",36.2165221,-115.1189671,"0","Pizza, Restaurants, Buffets, American (Traditional)"
"436",75342,"Glory of India","Calgary","AB","T1Y 5S4",51.0721116,-113.9827264,"0","Indian, Buffets, Restaurants"
"437",160976,"Aryana Cuisine","Calgary","AB","T3J 5H2",51.106866667,-113.9701020246,"1","Halal, Afghan, Restaurants, Kebab, Buffets, Persian/Iranian"
"438",23877,"Grand View Buffet","Pittsburgh","PA","15212",40.447428,-80.022353,"1","Restaurants, Buffets, Food, Barbeque, American (New)"
"439",28224,"Debu's Biryani House","Toronto","ON","M5V 1K1",43.6458616,-79.3925945,"0","Restaurants, Buffets, Indian"
"440",135932,"Persis Biryani Indian Grill","Charlotte","NC","28202",35.2334513,-80.848997,"0","Buffets, Bars, Indian, Nightlife, Restaurants"
"441",145591,"Osaka Buffet","Concord","NC","28027",35.37292,-80.727223,"0","Buffets, Japanese, Chinese, Restaurants"
"442",78486,"YC's Mongolian Grill","Chandler","AZ","85286",33.2788302,-111.7904534,"1","Restaurants, Asian Fusion, Vegan, Chinese, Specialty Food, Mongolian, Food, Buffets, Ethnic Food, Vegetarian"
"443",117441,"Ryan's","Concord","NC","28027",35.373437,-80.725888,"0","American (Traditional), Breakfast & Brunch, Restaurants, Buffets, American (New)"
"444",155586,"Sushi Neko","Las Vegas","NV","89146",36.1259263543,-115.2118369524,"1","Japanese, Sushi Bars, Restaurants, Food, Buffets, Asian Fusion"
"445",160017,"Mandarin Restaurant - Toronto","Toronto","ON","M4S 2C6",43.7060318,-79.3985138,"1","Chinese, Restaurants, Food, Buffets, Ethnic Food, Specialty Food"
"446",191376,"H2O Sushi & Izakaya","Las Vegas","NV","89169",36.1153683,-115.1586233,"1","Japanese, Food, Izakaya, Sushi Bars, Buffets, Desserts, Restaurants"
"447",83742,"Pinoy Resto Buffet","Las Vegas","NV","89102",36.15936,-115.160712,"0","Restaurants, Buffets, Asian Fusion, Filipino"
"448",112978,"Golden Corral","Mesa","AZ","85205",33.4499533,-111.684937,"1","American (Traditional), Buffets, Restaurants"
"449",13427,"Sushi Mon","Las Vegas","NV","89183",36.0117316499,-115.1359823122,"1","Sushi Bars, Salad, Restaurants, Buffets, Japanese"
"450",100378,"Anacapa Restaurant","Sun City West","AZ","85375",33.6866963676,-112.3441433997,"1","Buffets, American (New), Restaurants, Breakfast & Brunch"
"451",93640,"Wandering Horse Buffet","Scottsdale","AZ","85256",33.5409028387,-111.8697237968,"1","Breakfast & Brunch, Buffets, Restaurants, Food"
"452",22800,"Casa Di Amore","Las Vegas","NV","89121",36.1003398063,-115.1116881446,"1","Italian, Seafood, Restaurants, American (New), Buffets, Salad, Pizza"
"453",46089,"Afghan Kabob Restaurant & Bakery","Las Vegas","NV","89103",36.115157,-115.2320144,"0","Restaurants, Caterers, Bakeries, Event Planning & Services, Halal, Buffets, Afghan, Middle Eastern, Food, Mediterranean"
"454",43258,"Flavors of India","North Olmsted","OH","44070",41.419077,-81.920427,"0","Restaurants, Indian, Himalayan/Nepalese, Buffets"
"455",9800,"Five Rivers Indian Cuisine","Calgary","AB","T3J",51.0995970748,-113.9589991718,"1","Buffets, Restaurants, Indian"
"456",159621,"Sweet Tomatoes","Phoenix","AZ","85050",33.6769879109,-111.9762262207,"1","Vegetarian, Restaurants, Soup, Buffets, Salad"
"457",50740,"Mediterranean Buffet","Phoenix","AZ","85014",33.508282,-112.048136,"0","Buffets, Restaurants"
"458",93896,"Cafe Piccolo","Avon","OH","44011",41.4579754,-82.0113766,"1","Wine Bars, Bars, Nightlife, Italian, Buffets, Restaurants"
"459",105022,"Cicis","Las Vegas","NV","89183",36.0101477628,-115.1363325119,"0","Pizza, Restaurants, Buffets, American (Traditional)"
"460",191097,"Xtreme Sushi","Las Vegas","NV","89141",35.995344,-115.2069805,"0","Japanese, Sushi Bars, Restaurants, Buffets"
"461",28082,"Buffet Maharaja","Montréal","QC","H3G 1T8",45.4944659,-73.5747893,"0","Buffets, Restaurants, Middle Eastern, Indian, Pakistani"
"462",67033,"Fuji Grill Buffet","Parma","OH","44134",41.4061381,-81.6973022,"1","Japanese, Buffets, Chinese, Restaurants"
"463",6075,"Paradise Buffet & Cafe Restaurant","Las Vegas","NV","89101",36.1709271,-115.1431516,"1","Restaurants, Sushi Bars, Buffets, Breakfast & Brunch"
"464",126287,"Pizza Pit","Mesa","AZ","85202",33.3787775945,-111.8789935112,"0","Breakfast & Brunch, Pizza, Buffets, Restaurants"
"465",29194,"I Love Sushi","Etobicoke","ON","M9A 1B7",43.6483207,-79.5293513,"1","Japanese, Restaurants, Sushi Bars, Buffets, Asian Fusion"
"466",112034,"Memories of Japan","North York","ON","M3C 1V6",43.7268964,-79.3422374,"1","Sushi Bars, Restaurants, Caterers, Buffets, Event Planning & Services, Japanese"
"467",71444,"Taj Palace","Las Vegas","NV","89123",36.015472516,-115.1171127611,"1","Specialty Food, Restaurants, Indian, Food, Beer, Wine & Spirits, Ethnic Food, Buffets, Halal"
"468",60710,"Savor the Buffet","Las Vegas","NV","89109",36.0990448,-115.1704519,"0","Buffets, Restaurants"
"469",15380,"Manna Cafe and Catering","Painesville Township","OH","44077",41.7488834,-81.2107724,"1","Food, Burgers, Event Planning & Services, American (New), Breakfast & Brunch, Caterers, Restaurants, Buffets, Cafes, Food Delivery Services, Coffee & Tea"
"470",17779,"Brar's-Trinity Common","Brampton","ON","L6R 2K7",43.7299559,-79.7653087,"1","Event Planning & Services, Restaurants, Fast Food, Buffets, Vegetarian, Caterers, Indian"
"471",185112,"China Lobster","New Kensington","PA","15068",40.585867,-79.709536,"1","Buffets, Restaurants, Chinese"
"472",48052,"Haweli Indian Grill & Bar","Scottsdale","AZ","85254",33.5825378,-111.9290887,"0","Buffets, Restaurants, Indian"
"473",168158,"Raj Palace Restaurant","Calgary","AB","T2P 0T9",51.0478816,-114.0779007,"0","Restaurants, Indian, Pakistani, Buffets, Middle Eastern"
"474",137810,"India Palace","Phoenix","AZ","85053",33.638853,-112.123114,"1","Restaurants, Indian, Pakistani, Buffets, Vegetarian"
"475",179474,"Buffet Chinois Mandarin","Lasalle","QC","H8N 1S2",45.4326611,-73.6341689,"1","Buffets, Restaurants"
"476",88874,"Five Guys","Huntersville","NC","28078",35.4062675,-80.8643534,"1","Fast Food, Restaurants, American (New), Burgers, Buffets"
"477",42687,"Golden Palace Buffet","Pittsburgh","PA","15222",40.4427692,-79.9970479,"0","Buffets, Chinese, Restaurants"
"478",80230,"Elements Bar & Bistro","Calgary","AB","T2G 0C6",51.0490702,-114.0593758,"1","Restaurants, American (Traditional), Buffets"
"479",167247,"Aztec Inn","Las Vegas","NV","89102",36.1461273,-115.1560756,"1","Bars, Nightlife, Arts & Entertainment, Casinos, Restaurants, Buffets"
"480",170955,"Hong Kong King Buffet","Brooklyn","OH","44144",41.424721,-81.736211,"0","Chinese, Buffets, Restaurants"
"481",130585,"Namaste Cuisine","Kent","OH","44240",41.1396841,-81.3592442,"1","Indian, Buffets, Himalayan/Nepalese, Restaurants, Halal"
"482",103523,"Pink Pepper Thai Cusine","Mesa","AZ","85202",33.3629395,-111.8752823,"0","Thai, Restaurants, Chinese, Vietnamese, Buffets"
"483",174491,"Lin's Seafood Buffet","Glendale","AZ","85308",33.6377527364,-112.1680049741,"0","Buffets, Restaurants"
"484",107248,"YC's Mongolian Grill","Gilbert","AZ","85296",33.3221715,-111.6875461,"1","Mongolian, Vegan, Buffets, Chinese, Asian Fusion, Restaurants"
"485",80621,"China Asia Super Buffet","Phoenix","AZ","85031",33.4944863,-112.1737689,"0","Chinese, Restaurants, Buffets"
"486",65145,"Crown China Super Buffet","Phoenix","AZ","85014",33.5167768,-112.0646478,"0","Restaurants, Chinese, Buffets"
"487",14996,"Makino","Las Vegas","NV","89106",36.1636910086,-115.1570606232,"0","Restaurants, Japanese, Buffets, Seafood"
"488",158866,"La Capannina Restaurant","Brampton","ON","L6X 1R3",43.6854103,-79.7622206,"1","Restaurants, Bars, Buffets, Nightlife, Italian, Wine Bars"
"489",110913,"Panda Buffet","Willoughby","OH","44094",41.6266903,-81.4339502,"1","Restaurants, Buffets"
"490",48998,"Medley Buffet","North Las Vegas","NV","89084",36.2922295932,-115.179667336,"1","Restaurants, Breakfast & Brunch, Buffets"
"491",182838,"Spring Rolls","Brampton","ON","L6T 3R5",43.7155387,-79.7220217,"0","Sushi Bars, Chinese, Restaurants, Buffets"
"492",163719,"Amazing Jake's Food & Fun","Mesa","AZ","85204",33.3800841817,-111.7910089576,"0","Mini Golf, Playgrounds, Restaurants, Amusement Parks, Bowling, Active Life, Venues & Event Spaces, Pizza, Buffets, Event Planning & Services"
"493",53062,"Golden Corral","Gilbert","AZ","85233",33.3737956921,-111.8077701002,"1","American (Traditional), Buffets, Restaurants"
"494",177716,"Peter Piper Pizza","Phoenix","AZ","85051",33.5734409,-112.1256961,"1","Chicken Wings, Restaurants, Buffets, Pizza"
"495",140198,"Delhi Darbar","Calgary","AB","T2E 1J5",51.0672367831,-114.0612602234,"0","Pakistani, Restaurants, Buffets, Middle Eastern, Indian"
"496",75735,"Phoenicia Cafe","Gilbert","AZ","85296",33.329291,-111.7903,"1","Restaurants, Halal, Greek, Mediterranean, Middle Eastern, Buffets, American (New)"
"497",33448,"Le Gras Dur","Montréal","QC","H2E 1B3",45.5527105,-73.6192828,"1","Burgers, Buffets, Restaurants, German, Food, Internet Cafes, Breakfast & Brunch, Gastropubs, Poutineries, Fast Food"
"498",152747,"Blazin Mongolian BBQ","Phoenix","AZ","85051",33.5734409,-112.1256961,"1","Barbeque, Mongolian, Chinese, Gluten-Free, Restaurants, Food, Asian Fusion, Buffets, Do-It-Yourself Food"
"499",34039,"Peter Piper Pizza","Mesa","AZ","85201",33.4300004,-111.8720821,"1","Pizza, Chicken Wings, Buffets, Restaurants"
"500",182831,"Chang's Chinese Buffet","Glendale","AZ","85302",33.5688824,-112.1520101,"1","Chinese, Buffets, Restaurants"
"501",13118,"Nanay Gloria","Las Vegas","NV","89146",36.1261011509,-115.2233785859,"1","Fast Food, Filipino, Restaurants, Buffets"
"502",136245,"Pitchforks Restaurant","Tempe","AZ","85281",33.417703,-111.934353,"1","Restaurants, Buffets"
"503",55699,"Kathmandu Restaurant","Toronto","ON","M4W 1J5",43.671054,-79.3879436,"1","Buffets, Himalayan/Nepalese, Indian, Restaurants, Halal"
"504",3794,"China Star","North Las Vegas","NV","89032",36.2389252,-115.1566315,"1","Seafood, Buffets, Chinese, Restaurants"
"505",34617,"Wasabi Grand Buffet","Mississauga","ON","L5T 2Y3",43.6379947341,-79.6925715322,"0","Restaurants, Japanese, Food, Buffets, Sushi Bars"
"506",17854,"Cho Buffet","Pittsburgh","PA","15205",40.4526444,-80.1602414,"0","Restaurants, Buffets"
"507",57260,"Buffet des Continents","Brossard","QC","J4W",45.4620291,-73.467741,"1","Restaurants, Buffets"
"508",174021,"Kohinoor Cuisine of India","Tempe","AZ","85281",33.4167343,-111.9220042,"0","Restaurants, Buffets, Indian"
"509",128265,"Market Street Buffet & Bakery","Gastonia","NC","28052",35.2308941,-81.1966666,"1","Food, Restaurants, Buffets, Bakeries"
"510",115812,"Souper Salad","Phoenix","AZ","85051",33.5764166,-112.1180035,"1","Soup, Buffets, Salad, Restaurants"
"511",884,"Peter Piper Pizza","Phoenix","AZ","85042",33.390943,-112.074797,"1","Chicken Wings, Pizza, Buffets, Restaurants"
"512",99241,"56 West","Lakewood","OH","44107",41.485548,-81.811176,"0","Buffets, Breakfast & Brunch, American (New), Burgers, Restaurants"
"513",129533,"The Box Car Buffet","Henderson","NV","89002",35.9725193,-114.9119698,"1","Buffets, Restaurants, Mexican"
"514",43851,"Mustard Seed Market & Cafe","Akron","OH","44303",41.138337,-81.638676,"1","Health Markets, Organic Stores, Specialty Food, Restaurants, Food, Buffets, Cafes, Vegetarian"
"515",184162,"Eat'n Park","Homestead","PA","15120",40.4118304,-79.9138428,"1","Breakfast & Brunch, Diners, American (New), Restaurants, Buffets, American (Traditional)"
"516",75244,"India Bazaar Sweets","Brampton","ON","L6Z 4N7",43.7242668,-79.7872826,"1","Restaurants, Buffets, Indian"
"517",36656,"China City Super Buffet","Avondale","AZ","85392",33.465545,-112.276636,"1","Buffets, Chinese, Restaurants"
"518",154567,"Inaka Sushi","Las Vegas","NV","89178",36.0196553,-115.2712159,"1","Restaurants, Ramen, Buffets, Sushi Bars, Japanese"
"519",156343,"Chen's Bistro","Charlotte","NC","28262",35.3042746,-80.7487266,"0","Restaurants, Chinese, Buffets, Sushi Bars"
"520",131409,"Wicked Chili","Calgary","AB","T3P 0A3",51.1614545,-114.1254633,"0","Indian, Pakistani, Restaurants, Buffets"
"521",74443,"Chima Steakhouse","Charlotte","NC","28202",35.226268,-80.843786,"1","Venues & Event Spaces, Vegetarian, Buffets, Restaurants, Event Planning & Services, Brazilian, Nightlife, Bars, Steakhouses, Cocktail Bars"
"522",8035,"Hikari","Las Vegas","NV","89147",36.1128939,-115.2613934,"1","Buffets, Teppanyaki, Japanese, Steakhouses, Sushi Bars, Restaurants, Asian Fusion"
"523",35240,"Oriental Garden Super Buffet","Scottsdale","AZ","85250",33.5382049,-111.8894906,"0","Food, Restaurants, Buffets, Do-It-Yourself Food"
"524",99992,"Crystal Buffet","Scarborough","ON","M1R 2T6",43.7674555,-79.3020157,"0","Restaurants, Buffets, Chinese"
"525",166218,"Vaigai","Glendale","AZ","85308",33.6368740353,-112.183147673,"1","Restaurants, Food, Seafood, Indian, Buffets, Desserts"
"526",70123,"Sushi St-Jean","Montréal","QC","H1B 4A2",45.6426472249,-73.5040307217,"1","Restaurants, Buffets, Sushi Bars, Japanese"
"527",162859,"Le Pois Chiche","Saint-Jean-sur-Richelieu","QC","J3A 1L2",45.3335540971,-73.2689933851,"1","Middle Eastern, Buffets, Restaurants, Mediterranean"
"528",185573,"Sun Star Buffet","Phoenix","AZ","85009",33.4514049,-112.1328543,"1","Restaurants, Buffets"
"529",10879,"Aldo's Restaurant Peruvian Food","Toronto","ON","M3N 2Z4",43.7515877876,-79.5266440138,"1","Peruvian, Restaurants, Buffets"
"530",143504,"Dragon Pearl Buffet","Toronto","ON","M3B 1Y8",43.755169,-79.349892,"1","Chinese, Restaurants, Buffets"
"531",167556,"Jerusalem Restaurant","Toronto","ON","M2J 2K8",43.778882,-79.363849,"1","Middle Eastern, Mediterranean, Buffets, Event Planning & Services, Restaurants, Caterers"
"532",11821,"Feast Buffet","Henderson","NV","89014",36.0607848791,-115.0405527582,"1","Restaurants, Buffets, Food, Breakfast & Brunch"
"533",149620,"China Olive","Phoenix","AZ","85018",33.480827,-112.007051,"0","Restaurants, Buffets, Chinese"
"534",44312,"Le Village Buffet","Las Vegas","NV","89109",36.1128421245,-115.1705693105,"1","Sandwiches, French, Breakfast & Brunch, Buffets, Restaurants"
"535",134966,"Old Country Buffet","Mesa","AZ","85206",33.3932989,-111.688711,"1","Breakfast & Brunch, American (New), Buffets, Restaurants, American (Traditional)"
"536",43623,"Vinnie Zucchini's Italian Eatery","Vaughan","ON","L4K 0A4",43.828576802,-79.5349471307,"1","Restaurants, Venues & Event Spaces, Event Planning & Services, Buffets, Italian"
"537",67309,"Pizza Hut","Phoenix","AZ","85040",33.4052285,-111.9788482,"1","Fast Food, Pizza, Buffets, Italian, Restaurants, Chicken Wings"
"538",25758,"Airport Bukhara","Mississauga","ON","L4T 2H2",43.706867,-79.647283,"1","Restaurants, Buffets, Indian"
"539",16862,"Hunan VIII Oriental Buffet","Mesa","AZ","85204",33.3906411,-111.7881532,"0","Education, Chinese, Buffets, Restaurants"
"540",1424,"South China Buffet","Phoenix","AZ","85013",33.5026862,-112.0821589,"0","Chinese, Buffets, Restaurants"
"541",7157,"Indian Flame Restaurant","Cleveland","OH","44106",41.511437,-81.602844,"1","Buffets, Indian, Restaurants"
"542",170751,"Round Table Pizza","Las Vegas","NV","89128",36.19697,-115.256147,"1","Buffets, Pizza, Restaurants"
"543",141143,"Carnival World & Seafood Buffet","Las Vegas","NV","89103",36.117506,-115.188844,"0","Restaurants, Buffets, Seafood"
"544",79700,"China Buffet","Pineville","NC","28134",35.0844084,-80.8846038,"1","Chinese, Buffets, Restaurants"
"545",29079,"Jin's Buffet","Denver","NC","28037",35.4474073,-81.0023873,"1","Chinese, Sushi Bars, Restaurants, Buffets"
"546",12346,"Madras Cafe","Charlotte","NC","28269",35.3424757,-80.7706758,"1","Restaurants, Indian, Vegetarian, Vegan, Buffets"
"547",109686,"Tj Buffet Sushi & Grill","Mayfield Heights","OH","44124",41.5195502972,-81.46807082,"1","Restaurants, Sushi Bars, Chinese, Buffets"
"548",156081,"Hyderabadi Biryani Corner","Parma Heights","OH","44130",41.3912879,-81.7586283,"0","Restaurants, Halal, Buffets, Indian"
"549",119410,"Curry Garden","Gilbert","AZ","85233",33.3492371,-111.8223441,"1","Restaurants, Indian, Buffets"
"550",19731,"168 Sushi Japan Buffet","Mississauga","ON","L5K 1R7",43.5297620746,-79.6731489741,"1","Sushi Bars, Asian Fusion, Japanese, Buffets, Restaurants"
"551",147138,"China City Super Buffet","Phoenix","AZ","85031",33.494228,-112.173698,"0","Chinese, Buffets, Restaurants"
"552",73404,"Hibachi Grill & Supreme Buffet","Phoenix","AZ","85033",33.4816205654,-112.2189157489,"1","Buffets, Restaurants, Chinese"
"553",36742,"Red Rock Bar & Grill","Calgary","AB","T3G 3J9",51.1260293,-114.1974154,"1","Restaurants, Italian, Nightlife, Buffets, Pizza, American (Traditional), Breakfast & Brunch, Bars, Canadian (New), Pubs"
"554",160600,"Shangri-La Palace","Calgary","AB","T2P 4M4",51.0513505,-114.0653301,"0","Asian Fusion, Buffets, Restaurants"
"555",167849,"Marquis Ballroom","Fitchburg","WI","53719",43.0116111,-89.4769544,"1","Restaurants, Venues & Event Spaces, Buffets, Event Planning & Services"
"556",46301,"Vegas Buffet","Las Vegas","NV","89119",36.115618,-115.132772,"0","Seafood, Buffets, Chinese, Asian Fusion, Restaurants"
"557",147995,"Creekside Chinese","Airdrie","AB","T4A",51.292096,-113.998273,"1","Restaurants, Buffets, Chinese"
"558",92856,"HuHot Mongolian Grill","Champaign","IL","61822",40.1470254,-88.2586659,"0","Food, Mongolian, Buffets, Asian Fusion, Restaurants, Desserts"
"559",45232,"Sushi Moto","Las Vegas","NV","89102",36.1264133,-115.1949565,"0","Restaurants, Japanese, Buffets, Sushi Bars"
"560",29928,"Saffron Patch","Beachwood","OH","44122",41.4638308,-81.5343715,"1","Indian, Vegetarian, Buffets, Restaurants"
"561",50365,"Favourites Dining Room","Toronto","ON","M9W 5L2",43.715969,-79.6034145,"1","Buffets, Restaurants"
"562",32045,"Tin Tin","Charlotte","NC","28210",35.0950538,-80.8641131,"0","Buffets, Japanese, Food, Restaurants, Korean, Chinese, Food Delivery Services, Asian Fusion"
"563",52336,"Golden Light Buffet","Toronto","ON","M2H 3S3",43.8055046692,-79.33797741,"0","Do-It-Yourself Food, Buffets, Restaurants, Food"
"564",116189,"Jen Buffet","Chandler","AZ","85225",33.33563,-111.854277,"0","Restaurants, Chinese, Buffets"
"565",104316,"Scarborough Buffet","Toronto","ON","M1H 3E2",43.7786531,-79.2321322,"1","Restaurants, Chinese, Buffets"
"566",68374,"LJ's Pizza Restaurant","Mesa","AZ","85203",33.4159602,-111.8084871,"1","Buffets, Pizza, Restaurants, Caterers, Event Planning & Services"
"567",22578,"The Buffet at ARIA","Las Vegas","NV","89109",36.107069,-115.17764,"1","Restaurants, Buffets"
"568",44278,"Buffet Sultan","Montréal","QC","H2X 3L7",45.5181326,-73.5705522,"1","Restaurants, Halal, Buffets, Indian"
"569",170843,"Taylor Place Cafeteria","Phoenix","AZ","85004",33.4535069,-112.0722782,"1","Restaurants, Buffets"
"570",14176,"Souper Salad","Phoenix","AZ","85016",33.5082758,-112.0372054,"0","Buffets, American (New), Restaurants"
"571",99231,"La Sani Grill","Mississauga","ON","L5V 0B7",43.6089211,-79.6966007,"1","Pakistani, Buffets, Restaurants"
"572",53386,"Mandarin Restaurant - Erin Mills","Mississauga","ON","L5L 3R8",43.5218855324,-79.685382843,"1","Restaurants, Ethnic Food, Food, Chinese, Specialty Food, Buffets"
"573",100847,"Dragon Buffet","Las Vegas","NV","89110",36.1622362,-115.0621037,"0","Chinese, Buffets, Restaurants"
"574",123584,"Journey Sushi & Seafood Buffet","Madison","WI","53704",43.120559,-89.305994,"1","Restaurants, Sushi Bars, Seafood, Buffets"
"575",54123,"Mon Ami - Korean BBQ","Montréal","QC","H4V 1S7",45.4678344,-73.6386551,"1","Restaurants, Barbeque, Buffets, Korean"
"576",41578,"John Anthony's Restaurant Lounge & Banquets","Pittsburgh","PA","15239",40.4784732,-79.7587108,"1","Diners, Buffets, Bars, Restaurants, Nightlife, Italian, Lounges"
"577",141271,"Eat'n Park","North Versailles","PA","15137",40.3852016135,-79.8244071007,"1","Restaurants, American (Traditional), Diners, Buffets, Breakfast & Brunch"
"578",144200,"NASHA Indian Cuisine","Chandler","AZ","85224",33.3287709,-111.8690996,"0","Buffets, Indian, Restaurants"
"579",191788,"China Dragon Buffet","Middlefield","OH","44062",41.461098,-81.0844702,"0","Chinese, Restaurants, Buffets"
"580",154188,"Charlie's Market Buffet","Las Vegas","NV","89121",36.1242508,-115.0756976,"1","Burgers, Salad, Breakfast & Brunch, Delis, Restaurants, Seafood, Buffets"
"581",123495,"Pizza Ranch","Verona","WI","53593",42.9945036348,-89.5178887086,"1","Chicken Shop, Buffets, Pizza, Restaurants"
"582",43085,"Round Table Pizza","Las Vegas","NV","89119",36.0597198,-115.1192616,"1","Restaurants, Buffets, Pizza"
"583",176600,"Golden Coin","Phoenix","AZ","85018",33.4807982,-112.0116573,"1","Restaurants, Buffets, Chinese"
"584",79776,"La Rosita Mexican Buffet","Monona","WI","53716",43.0544295,-89.3260679,"1","Restaurants, Mexican, Buffets"
"585",180885,"Royal Buffet & Grill","Akron","OH","44310",41.1155648,-81.4732174,"1","Seafood, Restaurants, Chinese, Buffets"
"586",105967,"Juree's Thai Place","Calgary","AB","T2M 0M3",51.06652,-114.108219,"1","Buffets, Restaurants, Thai, Noodles"
"587",161014,"Sizzler","Mesa","AZ","85210",33.395974,-111.8406513,"1","Buffets, Steakhouses, Salad, Restaurants, American (Traditional), Seafood"
"588",67845,"China Buffet","West Mifflin","PA","15122",40.3474293,-79.9491155,"0","Restaurants, Buffets, Chinese"
"589",60340,"Schatz Dining Hall","Pittsburgh","PA","15213",40.443081,-79.942568,"1","Restaurants, Buffets"
"590",94396,"Indian Delhi Palace","Phoenix","AZ","85008",33.4657562,-111.9718284,"1","Venues & Event Spaces, Indian, Event Planning & Services, Party & Event Planning, Pakistani, Restaurants, Buffets"
"591",61589,"Ichiban Buffet","Champaign","IL","61821",40.1170483,-88.2783637,"0","Chinese, Sushi Bars, Restaurants, Buffets"
"592",146662,"HomeTown Buffet","Mentor","OH","44060",41.6760394,-81.3133632,"0","Restaurants, American (New), Buffets, Breakfast & Brunch"
"593",116617,"Karaikudi Palace","Scottsdale","AZ","85260",33.582486,-111.8923957,"0","Indian, Restaurants, Buffets"
"594",51553,"Tulips Indian Cuisine","Charlotte","NC","28262",35.311359,-80.746403,"0","Restaurants, Indian, Pakistani, Buffets, Halal"
"595",55656,"Golden Corral","Northfield","OH","44067",41.313518,-81.525408,"1","Buffets, Restaurants"
"596",139627,"Royal Buffet & Grille","Medina","OH","44256",41.1698995068,-81.8600339442,"1","American (Traditional), Buffets, Restaurants"
"597",141427,"Oriental Palace Buffet","Cleveland","OH","44111",41.4624927,-81.8032376,"1","Buffets, Chinese, Restaurants"
"598",75986,"New Peking Express","Streetsboro","OH","44241",41.2434926,-81.3562765,"1","Restaurants, Chinese, Buffets"
"599",73485,"Chinatown Buffet","Indian Trail","NC","28079",35.078603,-80.653423,"1","Buffets, Chinese, Restaurants"
"600",30657,"Super Moon Buffet","Phoenix","AZ","85013",33.487608,-112.082516,"0","Buffets, Restaurants"
"601",18352,"Glenmel Cuisine","Las Vegas","NV","89104",36.1585318595,-115.1341469605,"1","Restaurants, Buffets, Event Planning & Services, Filipino, Caterers"
"602",145285,"Al Omda","Mississauga","ON","L5B 3B2",43.575112,-79.6229796,"1","Restaurants, Bars, Lounges, Nightlife, Middle Eastern, Buffets"
"603",190219,"China Rose Restaurant","Calgary","AB","T2A 6J9",51.050224,-113.99266,"1","Buffets, Food, Specialty Food, Chinese, Ethnic Food, Restaurants"
"604",176627,"Imperial Buffet","Scarborough","ON","M1L 4V9",43.7230416,-79.2936901,"0","Buffets, Restaurants, Chinese"
"605",174797,"Golden Corral","Monroeville","PA","15146",40.4385171,-79.7749072,"1","Restaurants, Buffets"
"606",17836,"Golden Nugget","Las Vegas","NV","89101",36.1697807,-115.1455339,"1","Event Planning & Services, Arts & Entertainment, Buffets, Hotels & Travel, Casinos, Restaurants, Hotels"
"607",133327,"China Buffet King","Pittsburgh","PA","15205",40.4284987,-80.0524882,"1","Restaurants, Buffets, Chinese"
"608",19553,"CiCi's Pizza","Phoenix","AZ","85018",33.4804297,-111.9974992,"0","Buffets, Restaurants, Pizza"
"609",130321,"Kabab Palace","Tempe","AZ","85284",33.349623236,-111.9473032708,"0","Restaurants, Buffets, Indian, Afghan"
"610",35419,"Deer Valley Airport Restaurant","Phoenix","AZ","85027",33.6855035583,-112.0829097661,"1","Buffets, Restaurants, American (Traditional)"
"611",56887,"New China","Phoenix","AZ","85042",33.3914398,-112.0491149,"1","Restaurants, Seafood, Buffets, Chinese"
"612",182968,"Lydia's La Canasta Mexican Food","Phoenix","AZ","85009",33.4509096,-112.113354,"1","Breakfast & Brunch, Restaurants, Mexican, Buffets"
"613",81544,"Fun Buffet","Streetsboro","OH","44241",41.2412573166,-81.3525039173,"1","Chinese, Asian Fusion, Buffets, Restaurants"
"614",68679,"Yes Buffet","Fitchburg","WI","53713",43.0252681,-89.4139259,"0","Restaurants, Buffets"
"615",145471,"Dakshin Indian Bistro","Cleveland","OH","44130",41.3912879,-81.7586283,"0","Restaurants, Halal, Buffets, Indian"
"616",74118,"Genghis Grill","Phoenix","AZ","85032",33.5986921,-111.9783076,"0","Restaurants, Buffets, Mongolian"
"617",192298,"Eat'n Park","Pittsburgh","PA","15235",40.4675589448,-79.8252390686,"1","Diners, American (Traditional), American (New), Restaurants, Buffets, Breakfast & Brunch"
"618",185622,"World's Fare Buffet","Las Vegas","NV","89109",36.135387,-115.159248,"0","Restaurants, Buffets"
"619",165411,"Charlie's Market Buffet","Las Vegas","NV","89107",36.1636834,-115.207039,"1","Buffets, Restaurants"
"620",134724,"Buffet At Asia","Las Vegas","NV","89146",36.1447113,-115.2422221,"1","Seafood, Sushi Bars, Korean, Restaurants, Chinese, Buffets, Dim Sum, Japanese"
"621",189035,"Sakura Grill & Supreme Buffet","Scottsdale","AZ","85257",33.4656197,-111.9284182,"0","Buffets, Restaurants"
"622",27749,"The Buffet at Excalibur","Las Vegas","NV","89109",36.09882,-115.1752059,"1","Restaurants, Buffets, Breakfast & Brunch"
"623",93315,"India's Taste","Markham","ON","L3R 1C1",43.8247265,-79.3395006,"1","Restaurants, Indian, Buffets"
"624",86541,"Imperial Wok","Akron","OH","44313",41.1127402,-81.5756281,"1","Buffets, Chinese, Asian Fusion, Restaurants"
"625",146946,"China Restaurant II","Indian Trail","NC","28079",35.0682535,-80.640658,"1","Chinese, Restaurants, Buffets"
"626",150489,"Ruchi Taste Of India","Aurora","OH","44202",41.3521591524,-81.3846842728,"1","Buffets, Indian, Restaurants"
"627",17348,"Hibachi Grill & Supreme Buffet","Las Vegas","NV","89110",36.1674186472,-115.0637319618,"1","Chinese, Buffets, Sushi Bars, Restaurants"
"628",187210,"Tipps Thai Buffet & Live Cooking Station","Las Vegas","NV","89146",36.1260199,-115.219839,"0","Thai, Restaurants, Buffets"
"629",89772,"Bayside Buffet at Mandalay Bay","Las Vegas","NV","89109",36.0912192601,-115.1758038998,"1","Casinos, American (Traditional), Restaurants, Buffets, Arts & Entertainment"
"630",29084,"Dragon Buffet","Denver","NC","28037",35.4474657,-81.0020427,"0","Buffets, Restaurants"
"631",133801,"Ginseng Korean BBQ II","Las Vegas","NV","89109",36.1049965,-115.1717319,"1","Barbeque, Restaurants, Korean, Buffets"
"632",21121,"Barrio Fiesta of Manila","Chandler","AZ","85224",33.3497229,-111.8576517,"0","Restaurants, Buffets, Filipino"
"633",37313,"Pacific Seafood Super Buffet","Avondale","AZ","85323",33.451818,-112.340391,"0","Buffets, Restaurants"
"634",116116,"Mandarin Restaurant - Markham","Markham","ON","L3R 2N2",43.83017,-79.353634,"1","Specialty Food, Restaurants, Chinese, Food, Ethnic Food, Buffets"
"635",123098,"Butter Chicken Factory","Toronto","ON","M4X 1P6",43.6670275015,-79.369179998,"1","Indian, Restaurants, Food, Buffets, Food Delivery Services"
"636",6730,"Buffet Asia","Henderson","NV","89014",36.0725902,-115.0799169,"0","Buffets, Chinese, Sushi Bars, Japanese, Seafood, Restaurants, Asian Fusion, Dim Sum, Korean, Thai"
"637",35821,"Sushi Hana","Las Vegas","NV","89118",36.0944424,-115.2079863,"0","Japanese, Sushi Bars, Buffets, Restaurants"
"638",92315,"Takumi","Montréal","QC","H2L 1J9",45.5173266,-73.5676287,"1","Asian Fusion, Restaurants, Japanese, Buffets"
"639",137317,"Sushi Katsu","Las Vegas","NV","89121",36.099155426,-115.1162948608,"0","Restaurants, Sushi Bars, Japanese, Buffets"
"640",130833,"Yummy Buffet","Chandler","AZ","85224",33.33563,-111.854277,"0","Buffets, Restaurants, Chinese"
"641",73852,"Madras Ananda Bhavan","Phoenix","AZ","85032",33.6391935,-112.0121148,"0","Indian, Restaurants, Vegetarian, Buffets"
"642",84196,"Peter Piper Pizza","Chandler","AZ","85286",33.2631795727,-111.8564323724,"1","Chicken Wings, Buffets, Pizza, Restaurants"
"643",139570,"India's Taste","Brampton","ON","L6Y 5H7",43.6429174,-79.7469265,"1","Indian, Buffets, Restaurants"
"644",43905,"Old Country Buffet","Phoenix","AZ","85051",33.5743434,-112.1259291,"1","American (Traditional), American (New), Buffets, Restaurants, Breakfast & Brunch"
"645",183198,"The Highwood","Calgary","AB","T2M 4W7",51.064799,-114.086583,"1","Food, American (Traditional), Restaurants, Buffets, Breakfast & Brunch, Diners, Beer, Wine & Spirits"
"646",142495,"Ichiban Buffet Sushi & Hibachi","Concord","NC","28027",35.372799,-80.7271223,"1","Buffets, Japanese, Restaurants, Sushi Bars, Chinese"
"647",95382,"Golden Corral","Gastonia","NC","28054",35.2622327,-81.1379639,"1","Comfort Food, American (Traditional), Restaurants, Buffets"
"648",152190,"Oriental Buffet Grill & Sushi","Peoria","AZ","85382",33.6761682,-112.2760197,"0","Restaurants, Chinese, Buffets"
"649",7448,"Miele's Italian and Banquet Hall","Mesa","AZ","85202",33.3647941,-111.8783309,"1","Restaurants, Italian, Food, Buffets, Desserts, Venues & Event Spaces, Pizza, Event Planning & Services, Sandwiches"
"650",158584,"Gate of India","Calgary","AB","T3K 5H2",51.1554214655,-114.0567956521,"1","Buffets, Restaurants, Indian"
"651",6003,"Thai E-San","Phoenix","AZ","85013",33.4951554,-112.0822129,"1","Food, Buffets, Beer, Wine & Spirits, Thai, Restaurants"
"652",76117,"Seven Roses","Cleveland","OH","44105",41.4562949,-81.6459971,"1","Sandwiches, Delis, Polish, Restaurants, Buffets"
"653",64540,"Mandarin Restaurant - Brampton","Brampton","ON","L6W 4S1",43.6773094769,-79.7082919249,"1","Buffets, Restaurants, Chinese"
"654",132424,"Panda King's Buffet","Mesa","AZ","85201",33.4153049,-111.869177,"0","Sushi Bars, Buffets, Chinese, Restaurants"
"655",107111,"Tara Thai","Phoenix","AZ","85023",33.631458,-112.11195,"0","Buffets, Restaurants, Thai"
"656",101392,"J J North's Country Buffet","Scottsdale","AZ","85257",33.4626163,-111.9269743,"0","Restaurants, Buffets"
"657",155640,"Souper Salad","Matthews","NC","28105",35.130916,-80.712255,"0","American (Traditional), Restaurants, Buffets"
"658",81964,"Sithara","Charlotte","NC","28262",35.3171887,-80.7391541,"1","Event Planning & Services, Buffets, Caterers, Vegetarian, Indian, Restaurants"
"659",154779,"New China Buffet","Mesa","AZ","85204",33.3925741,-111.7902014,"1","Chinese, Restaurants, Buffets"
"660",135004,"George & Son's Asian Cuisine","Phoenix","AZ","85027",33.6667301603,-112.1243880755,"1","Chinese, Asian Fusion, Restaurants, Buffets, Thai"
"661",178501,"York Buffet","Pittsburgh","PA","15205",40.4523845427,-80.1599621773,"0","Restaurants, Japanese, Buffets"
"662",29961,"New China Buffet","Las Vegas","NV","89119",36.1152974,-115.132796,"0","Buffets, Restaurants, Chinese"
"663",174943,"The Buffet","Las Vegas","NV","89109",36.1268872232,-115.1655900478,"1","Beauty & Spas, Food, Event Planning & Services, Hotels, Buffets, Casinos, Day Spas, Restaurants, Arts & Entertainment, Hotels & Travel"
"664",123343,"S7 Buffet","Las Vegas","NV","89169",36.1137276,-115.1523206,"1","Buffets, Restaurants"
"665",63807,"Buffet Chinois Fu Lam","Dollard-des-Ormeaux","QC","H9B 1Z8",45.4843127,-73.7956505,"0","Buffets, Restaurants, Chinese"
"666",98725,"Double Dragon Buffet","Cleveland","OH","44130",41.3910348,-81.7637795,"1","Chinese, Buffets, Restaurants"
"667",179872,"Sweet Tomatoes","Henderson","NV","89014",36.0556942302,-115.0469222101,"1","Food, American (Traditional), Restaurants, Buffets, Soup, Vegetarian, Do-It-Yourself Food, Salad"
"668",177858,"Havelly Grill","Mississauga","ON","L5S 1W7",43.6807285,-79.6808595,"1","Halal, Pakistani, Restaurants, Buffets, Indian"
"669",132859,"Mission Grille","Tempe","AZ","85281",33.4266911015,-111.939145228,"1","American (New), Breakfast & Brunch, Restaurants, Tex-Mex, Buffets, American (Traditional)"
"670",184533,"Ka Lo Hin","Montréal","QC","H3B 2S7",45.498807,-73.5726573,"0","Sushi Bars, Chinese, Buffets, Restaurants"
"671",50731,"Guadalajara","Las Vegas","NV","89121",36.132771,-115.085169,"1","Buffets, American (Traditional), Italian, Restaurants, Seafood, Steakhouses, Mexican"
"672",57140,"Nipa Hut Oriental Food Mart","Cleveland","OH","44130",41.37954,-81.7843625,"1","Filipino, Specialty Food, Buffets, Restaurants, Food, Seafood Markets"
"673",184344,"Sizzler","Phoenix","AZ","85031",33.4952826,-112.1684039,"1","Seafood, American (Traditional), Steakhouses, Buffets, Restaurants, Salad"
"674",103983,"Atrium Cafe & Skylight Lounge","Calgary","AB","T2J 5X5",50.9650007,-114.0689227,"1","Restaurants, Nightlife, Lounges, Buffets, Cafes, Bars"
"675",161917,"Fu Lam","Montréal","QC","H1S 1J9",45.5694982286,-73.5892123156,"1","Chinese, Restaurants, Buffets, Barbeque"
"676",49441,"Passion Grill","Gastonia","NC","28054",35.2606566,-81.1501218,"0","Japanese, Chinese, Buffets, Sushi Bars, Restaurants, American (New), Asian Fusion"
"677",107197,"World Buffet","Monona","WI","53713",43.046421,-89.352063,"1","Buffets, Mongolian, Restaurants, Chinese"
"678",157427,"Amber Indian Cuisine","Middleton","WI","53562",43.0965982657,-89.5009513583,"1","Restaurants, Indian, Buffets"
"679",21528,"Mandarin Buffet","Scottsdale","AZ","85257",33.4656197,-111.9284182,"0","Buffets, Restaurants"
"680",47090,"No 1 Buffet","North Olmsted","OH","44070",41.406773,-81.9425009,"0","Chinese, Restaurants, Buffets"
"681",67025,"Annabelle's Dining & Lounge","Mesa","AZ","85206",33.407622,-111.68323,"1","Restaurants, Hotels, Event Planning & Services, Hotels & Travel, Bars, Seafood, Lounges, Nightlife, Buffets, American (New)"
"682",154806,"Mizuki Sushi","North York","ON","M2H 3N3",43.794097,-79.355029,"1","Restaurants, Sushi Bars, Buffets, Japanese"
"683",123829,"Continental Grand Buffet","Mississauga","ON","L4W 1V5",43.625224,-79.6040702,"1","Salad, Mediterranean, Barbeque, Restaurants, Buffets"
"684",178424,"China Buffet","Monroe","NC","28110",35.0053645,-80.5572022,"0","Chinese, Buffets, Restaurants, Sushi Bars"
"685",160974,"Le Méchant Loup","Saint-Hubert","QC","J3Y 3N5",45.5047351,-73.423786,"1","French, Restaurants, Buffets, Comfort Food, Canadian (New), Bistros"
"686",19816,"China Town Buffet","Tempe","AZ","85283",33.377321,-111.9075112,"1","Food, Buffets, Ice Cream & Frozen Yogurt, Restaurants, Chinese"
"687",38167,"China Harvest Buffet","Phoenix","AZ","85029",33.5974554,-112.1197812,"1","Buffets, Restaurants, Chinese"
"688",69730,"Apollo Cafe","Phoenix","AZ","85040",33.412207,-112.014327,"0","Buffets, Restaurants"
"689",142475,"China Buffet King","Richmond Hill","ON","L4C 8S7",43.8654706,-79.4349919,"0","Ethnic Food, Chinese, Restaurants, Buffets, Food, Specialty Food"
"690",191418,"Cicis","Las Vegas","NV","89102",36.1580065234,-115.2001382411,"1","Pizza, Chicken Wings, Desserts, Restaurants, Food, Buffets, American (Traditional)"
"691",158540,"Seoul Garden","Parma","OH","44129",41.4171998,-81.7301328,"1","Restaurants, Barbeque, Korean, Buffets"
"692",114292,"Eclipse Restaurant","Dorval","QC","H9P 1B7",45.453336,-73.741778,"1","Bars, Restaurants, Buffets, Nightlife, American (Traditional)"
"693",69560,"Ichiban Sushi and Hibachi Buffet","Charlotte","NC","28208",35.2415406233,-80.9199866381,"1","Restaurants, Sushi Bars, Buffets"
"694",68971,"Mandarin - Brampton West","Brampton","ON","L6X 0Y7",43.6910366,-79.8022699,"1","Chinese, Restaurants, Buffets"
"695",140002,"Eastern Buffet","Lorain","OH","44053",41.4266004,-82.1850342,"0","Restaurants, Chinese, Buffets"
"696",6627,"Crazy Buffet","Champaign","IL","61820",40.1431418,-88.2547899,"0","Buffets, Restaurants, Sushi Bars, Chinese"
"697",4211,"Buffet Chinois Fu Lam","Longueuil","QC","J4V 2H7",45.491491,-73.4766821,"1","Chinese, Buffets, Restaurants"
"698",159881,"The Spice Room","Concord","ON","L4K 2N1",43.822123,-79.504007,"1","Indian, Buffets, Restaurants"
"699",22111,"Souper Salad","Mesa","AZ","85208",33.3903866,-111.6819183,"1","Soup, Restaurants, American (New), Buffets, Salad"
"700",72081,"21 Buffet","Henderson","NV","89014",36.0655752,-115.0453713,"0","Restaurants, Buffets"
"701",69263,"Graze Restaurant & Grill","Calgary","AB","T2E 8T4",51.0775684,-114.0033189,"1","Event Planning & Services, Buffets, Hotels, Hotels & Travel, Restaurants"
"702",79117,"Bombay BBQ Hut","Richmond Hill","ON","L4B 2N2",43.8486496,-79.3776941,"0","Himalayan/Nepalese, Restaurants, Indian, Buffets"
"703",28833,"Sushi Kaya","Las Vegas","NV","89102",36.12592,-115.198097,"1","Buffets, Restaurants, Japanese, Salad, Korean, Sushi Bars"
"704",129187,"Feast Buffet","North Las Vegas","NV","89084",36.292489,-115.180625,"0","Food, Buffets, Restaurants"
"705",69587,"Daal Roti","Mississauga","ON","L4Z 2Z1",43.6217351,-79.6725755,"1","Buffets, Indian, Restaurants"
"706",25033,"Bawarchi Indian Cuisine","Chandler","AZ","85224",33.3350307,-111.877439,"0","Indian, Buffets, Restaurants"
"707",105396,"New China Super Buffet","Sun City","AZ","85351",33.603332,-112.294278,"0","Restaurants, Chinese, Buffets"
"708",121118,"E-san Sab Sab Thai Cuisine","Phoenix","AZ","85020",33.5959571,-112.0391851,"0","Buffets, Restaurants, Thai"
"709",110233,"Aji Sai Japanese Restaurant","Toronto","ON","M5V",43.6483773,-79.3974007,"1","Japanese, Restaurants, Buffets, Food"
"710",132410,"Panda Peng","Laval","QC","H7N 0A8",45.556643432,-73.7255270873,"1","Buffets, Restaurants, Chinese"
"711",136123,"Chennai Fusion Grill","Chandler","AZ","85226",33.3047369,-111.927051,"1","Restaurants, Buffets, Indian"
"712",167277,"Fresh Harvest Buffet","Northfield","OH","44067",41.3484663,-81.5243276,"1","Breakfast & Brunch, Buffets, Restaurants"
"713",136900,"Todai Restaurant","Las Vegas","NV","89109",36.1083080499,-115.1681642202,"0","Buffets, Restaurants, Japanese"
"714",156275,"Sweet Tomatoes","Phoenix","AZ","85044",33.3194479165,-111.9833421707,"1","Restaurants, Vegetarian, Soup, Salad, Buffets"
"715",176447,"Arem Restaurant","Montréal","QC","H3J 1R1",45.4883504,-73.5660372,"1","Wine Bars, Restaurants, Turkish, Bars, Breakfast & Brunch, Buffets, Cocktail Bars, Nightlife, Middle Eastern"
"716",177671,"Tokyo Sushi Buffet","Pittsburgh","PA","15237",40.5248575,-80.0077479,"0","Buffets, Restaurants, Sushi Bars, Japanese"
"717",6709,"Feast Buffet","Las Vegas","NV","89130",36.2498922,-115.2441383,"1","Buffets, Food, Restaurants"
"718",123408,"Crazy Buffet","Tempe","AZ","85284",33.3481953214,-111.9652456496,"0","Buffets, Chinese, Asian Fusion, Restaurants"
"719",83828,"Cicis","Cleveland","OH","44144",41.4234291,-81.7352941,"1","Pizza, American (Traditional), Restaurants, Buffets"
"720",17994,"Island Buffet","Las Vegas","NV","89109",36.0993783,-115.1710285,"0","Buffets, Restaurants"
"721",2815,"Kumo Japanese Seafood Buffet","Strongsville","OH","44136",41.307263,-81.833857,"0","Specialty Food, Buffets, Restaurants, Seafood Markets, Chinese, American (Traditional), Sushi Bars, Food, Japanese"
"722",36470,"Golden Corral","Concord","NC","28025",35.441451,-80.607065,"1","Restaurants, Buffets, Chinese"
"723",108931,"Peter Piper Pizza","Peoria","AZ","85345",33.575457,-112.256756,"1","Buffets, Restaurants, Pizza, Chicken Wings"
"724",55746,"Sushi Legend","North York","ON","M2H 1S8",43.7924108418,-79.3648910522,"1","Asian Fusion, Japanese, Food, Restaurants, Specialty Food, Sushi Bars, Buffets"
"725",187712,"Jumbo II Chinese Food","North Olmsted","OH","44070",41.41943,-81.917283,"0","Restaurants, Buffets, Chinese"
