"","business_id","name","city","state","postal_code","latitude","longitude","is_open","categories"
"1",79167,"Naya Mediterranean Cuisine","Scottsdale","AZ","85253",33.5659638976,-111.9250339642,"0","Specialty Food, Food, Bars, Italian, Nightlife, Ethnic Food, Restaurants, Cocktail Bars, Mediterranean"
"2",133490,"The Cure","Toronto","ON","M6K 1T5",43.6497245738,-79.4315845899,"0","Sandwiches, Breakfast & Brunch, Nightlife, Cocktail Bars, Food, Bars, Restaurants, American (Traditional), Canadian (New), Diners, Specialty Food, Delis, Meat Shops, Delicatessen"
"3",66452,"Tarbell's The Tavern","Phoenix","AZ","85018",33.5091229429,-112.0126287829,"1","American (Traditional), Lounges, American (New), Mexican, Wine Bars, Restaurants, Nightlife, Bars, Cocktail Bars"
"4",161100,"Sienna Mercato","Pittsburgh","PA","15222",40.4439496,-79.9964366,"1","Cocktail Bars, Italian, American (New), Nightlife, Bars, Pizza, Restaurants"
"5",75692,"Bathurst Local","Toronto","ON","M5T 2S3",43.6514918,-79.4058339,"1","Beer, Wine & Spirits, Whiskey Bars, Coffee & Tea, Beer Bar, Breakfast & Brunch, Bars, Cocktail Bars, Food, Cafes, Wine Bars, Restaurants, Local Flavor, Nightlife"
"6",134959,"Le Royal","Montréal","QC","H2J 1Y1",45.5291171691,-73.5780065665,"1","Champagne Bars, Nightlife, Cocktail Bars, Bars"
"7",191965,"The Pickle Barrel","Toronto","ON","M6A 2T9",43.7246888,-79.4538904,"1","Restaurants, Cocktail Bars, Canadian (New), Bars, Nightlife, Diners"
"8",62449,"Chasse Galerie","Montréal","QC","H2W 2M5",45.5208770821,-73.5764918849,"1","Canadian (New), Cocktail Bars, Bars, Nightlife, Restaurants"
"9",160929,"Le Ballpark","Montréal","QC","H2S 3E7",45.5313097,-73.6126688,"1","Canadian (New), Coffee & Tea, Italian, Food, Cocktail Bars, Comfort Food, Restaurants, Bars, Nightlife, Wine Bars"
"10",24497,"Bonfyre American Grille","Madison","WI","53713",43.034735369,-89.4225611388,"1","Bars, Cocktail Bars, Nightlife, American (New), American (Traditional), Restaurants, Beer Bar"
"11",45437,"I'll Be Seeing You","Toronto","ON","M4M 1H3",43.6589928,-79.3480738,"1","Bars, Wine Bars, Comfort Food, Cocktail Bars, Restaurants, Nightlife"
"12",12793,"Cafe 157","Matthews","NC","28105",35.1165629,-80.7222425,"1","Cafes, Bars, Seafood, American (Traditional), Cocktail Bars, Restaurants, Nightlife"
"13",15810,"Azuza Hookah Lounge & Cafe","Las Vegas","NV","89169",36.108898,-115.151261,"1","Beer, Wine & Spirits, Bars, Ethnic Food, Cafes, Specialty Food, Restaurants, Cocktail Bars, Arts & Entertainment, Hookah Bars, Tea Rooms, Food, Nightlife, Mediterranean, Coffee & Tea, Music Venues"
"14",115412,"Andys Wine Bar","Pittsburgh","PA","15222",40.4414335,-80.0020533,"1","Bars, Nightlife, Restaurants, Jazz & Blues, Cocktail Bars, Wine Bars, Arts & Entertainment"
"15",63046,"Bob Taylor's Ranch House","Las Vegas","NV","89130",36.2747255482,-115.2457870358,"1","American (Traditional), Restaurants, Steakhouses, Nightlife, Bars, Cocktail Bars, Seafood"
"16",19714,"Earls Kitchen + Bar","Calgary","AB","T2P 1C4",51.0455991,-114.0690246,"1","Restaurants, Cocktail Bars, Bars, Nightlife, Canadian (New)"
"17",110104,"Cleaver -  Butchered Meats, Seafood & Cocktails","Las Vegas","NV","89169",36.1188165,-115.1542185,"1","Seafood, Bars, Restaurants, Steakhouses, Cocktail Bars, Nightlife"
"18",192544,"The Coronado PHX","Phoenix","AZ","85006",33.4713,-112.064761,"1","Nightlife, American (New), Restaurants, Vegan, Coffee & Tea, Cafes, Cocktail Bars, Vegetarian, Bars, Bakeries, Food"
"19",71121,"Pitchforks & Corks","Tempe","AZ","85281",33.4234904,-111.935169,"1","Food, Bars, Restaurants, Sandwiches, Beer, Wine & Spirits, Nightlife, Wine Bars, Coffee & Tea, Cocktail Bars"
"20",185769,"Lazy Dog Restaurant & Bar","Las Vegas","NV","89119",36.0701464765,-115.1738562678,"1","Comfort Food, American (New), Restaurants, Bars, Breakfast & Brunch, Wine Bars, Tapas/Small Plates, Burgers, Nightlife, Cocktail Bars, Beer, Wine & Spirits, Food, Beer Bar"
"21",139377,"Le Tigre Lounge","Madison","WI","53711",43.0379864,-89.4525263,"1","Dive Bars, Cocktail Bars, Arts & Entertainment, Nightlife, Jazz & Blues, Bars"
"22",139811,"Cien Agaves Tacos & Tequila - Old Town Scottsdale","Scottsdale","AZ","85251",33.494448,-111.925354,"1","Venues & Event Spaces, Cocktail Bars, Nightlife, Bars, Mexican, Event Planning & Services, Sports Bars, Restaurants"
"23",85791,"Bar Louie","Pittsburgh","PA","15219",40.4343272666,-80.0052834277,"0","Cocktail Bars, Restaurants, American (New), American (Traditional), Bars, Nightlife"
"24",13269,"Blvd. Cocktail Company","Las Vegas","NV","89109",36.1182919,-115.170409,"0","Cocktail Bars, Bars, Nightlife"
"25",128579,"Lemon Bistro","Markham","ON","L3P 1X5",43.8768818,-79.2608495,"1","Bars, Italian, Cocktail Bars, Nightlife, Bistros, American (Traditional), French, Restaurants"
"26",138191,"W XYZ Bar","Tempe","AZ","85281",33.434731,-111.9244426,"0","Tapas/Small Plates, Cocktail Bars, Restaurants, Lounges, Nightlife, Bars, Event Planning & Services, Venues & Event Spaces"
"27",25817,"Kage Restobar","Mississauga","ON","L5B 3B9",43.5809503862,-79.617787999,"1","Japanese, Restaurants, Asian Fusion, Bars, Nightlife, Tapas Bars, Latin American, Cocktail Bars"
"28",87786,"Miracle on Market","Pittsburgh","PA","15222",40.440985,-80.0019946,"1","Cocktail Bars, Nightlife, Shopping, Pop-up Shops, Bars"
"29",38412,"Table 49","Chandler","AZ","85248",33.2339148,-111.8584479,"0","Restaurants, American (New), Bars, Wine Bars, Nightlife, Cocktail Bars"
"30",149304,"Alida's Woodfire Cucina","Pittsburgh","PA","15201",40.4626419,-79.9677704,"1","Pizza, Restaurants, Italian, Nightlife, Bars, Cocktail Bars"
"31",116275,"Earls Kitchen + Bar","Calgary","AB","T2J 0P8",50.9579509,-114.0708429,"1","Cocktail Bars, American (New), Bars, Comfort Food, Restaurants, Nightlife, Canadian (New)"
"32",145030,"Sky Beach Club","Las Vegas","NV","89119",36.0993836753,-115.1699106477,"1","Hotels & Travel, Active Life, Bars, Nightlife, Swimming Pools, Resorts, Cocktail Bars"
"33",188352,"Onyx Bar","Las Vegas","NV","89135",36.1564004,-115.3335562,"1","Cocktail Bars, Nightlife, Bars"
"34",22127,"Thazard","Montréal","QC","H2T 1S5",45.5248818,-73.5963661,"1","Bars, Restaurants, Cocktail Bars, Tapas/Small Plates, Japanese, Pan Asian, Asian Fusion, Nightlife"
"35",41691,"Fin & Fino","Charlotte","NC","28202",35.2248537,-80.8486127,"1","American (New), Restaurants, Seafood, Cocktail Bars, Bars, Nightlife"
"36",67070,"The Mixx Grill and Lounge","Las Vegas","NV","89145",36.1643423,-115.2897075,"0","American (New), American (Traditional), Arts & Entertainment, Lounges, Restaurants, Tapas/Small Plates, Breakfast & Brunch, Tapas Bars, Bars, Nightlife, Cocktail Bars, Music Venues"
"37",120832,"Canteen","Madison","WI","53703",43.0726537,-89.3840615,"1","Bars, Cocktail Bars, Restaurants, Mexican, Tacos, Nightlife"
"38",125045,"Reyna","Toronto","ON","M5H 3K6",43.6503522,-79.3837951,"1","Salad, Shopping, Public Markets, Mediterranean, Tapas/Small Plates, Spanish, Food, Restaurants, Nightlife, Cocktail Bars, Bars"
"39",168153,"Painted Mountain Golf Club","Mesa","AZ","85215",33.4528318,-111.696707,"1","Nightlife, Golf, American (Traditional), Restaurants, Bars, Lounges, Cocktail Bars, Active Life, Seafood, Breakfast & Brunch"
"40",67211,"The Dorsey","Las Vegas","NV","89109",36.1222206958,-115.1706601386,"1","Lounges, Cocktail Bars, Bars, Nightlife"
"41",184863,"Lobby Bar","Henderson","NV","89052",36.020696,-115.0901928,"1","Nightlife, Beer Bar, Bars, Wine Bars, Cocktail Bars"
"42",10523,"Blue Velvet Lounge","Madison","WI","53703",43.0743301,-89.3945051,"1","Bars, Nightlife, Dance Clubs, Cocktail Bars, Lounges"
"43",154175,"Oak Room","Charlotte","NC","28203",35.2162959,-80.8549333,"1","Bars, Nightlife, Cocktail Bars, Dance Clubs"
"44",183980,"Power Up Game Bar","Toronto","ON","M5E 1C7",43.6484287505,-79.3751142919,"1","Arts & Entertainment, Cocktail Bars, Bars, Restaurants, Arcades, Nightlife"
"45",159353,"Pub l'Île Noire","Montréal","QC","H2X 3K4",45.515216,-73.5633803,"1","Nightlife, Bars, Lounges, Cocktail Bars, Pubs, Restaurants, Gastropubs"
"46",185851,"Chief's Cafe","Pittsburgh","PA","15213",40.4520561,-79.952299,"1","Food, Bars, Nightlife, Coffee & Tea, Dive Bars, Cocktail Bars, Bar Crawl"
"47",127119,"Hy's Steakhouse & Cocktail Bar","Toronto","ON","M5H 1T1",43.6497314445,-79.3829549791,"1","Steakhouses, Cocktail Bars, Nightlife, Bars, Seafood, Restaurants"
"48",134035,"Bâton Rouge Steakhouse & Bar","North York","ON","M2N 7E9",43.7663522603,-79.4128442067,"1","Restaurants, Nightlife, Bars, Food, Desserts, Steakhouses, Cocktail Bars"
"49",4096,"Modern Margarita","Phoenix","AZ","85054",33.6759107,-111.9644412,"1","Restaurants, Bars, Cocktail Bars, Wine Bars, Local Flavor, Nightlife, Tapas/Small Plates, Mexican"
"50",126827,"Steve's Espresso","Tempe","AZ","85281",33.3772372,-111.9085834,"1","Food, Restaurants, Breakfast & Brunch, Cafes, Bars, Coffee & Tea, Nightlife, Cocktail Bars"
"51",146499,"BRAVO! Cucina Italiana","West Homestead","PA","15120",40.4068186,-79.9169862,"1","Bars, Nightlife, Italian, Cocktail Bars, Restaurants, Gluten-Free"
"52",172393,"Bootlegger l'Authentique","Montréal","QC","H2X 2T6",45.5131942,-73.5706793,"1","Cocktail Bars, Jazz & Blues, Piano Bars, Arts & Entertainment, Bars, Whiskey Bars, Nightlife"
"53",108194,"Bar Vinedo","Queen Creek","AZ","85142",33.2852033191,-111.6845115989,"1","American (Traditional), Cocktail Bars, Restaurants, Music Venues, American (New), Salad, Nightlife, Sandwiches, Arts & Entertainment, Bars"
"54",180228,"Center Bar","Las Vegas","NV","89109",36.1415756,-115.1582418,"1","Lounges, Nightlife, Bars, Cocktail Bars"
"55",63773,"Datcha","Montréal","QC","H2T 2N4",45.5218678,-73.5936202,"1","Nightlife, Music Venues, Russian, Arts & Entertainment, Restaurants, Dance Clubs, Bars, Cocktail Bars"
"56",48707,"Sparks Premium Grill + Bar","Vaughan","ON","L4K 0H1",43.8345209687,-79.5207216312,"1","Breakfast & Brunch, Sports Bars, Steakhouses, Seafood, Lounges, Bars, Nightlife, Burgers, Cocktail Bars, American (Traditional), Restaurants, Canadian (New), International"
"57",1537,"Blue Agave","Madison","WI","53703",43.0756163,-89.3793937,"1","Nightlife, Cocktail Bars, Bars, Restaurants, Seafood, Mexican, Latin American"
"58",69291,"Bâton Rouge Steakhouse & Bar","Saint-Sauveur","QC","J0R 1R6",45.8967006,-74.1472566,"1","Cocktail Bars, Gluten-Free, Bars, Seafood, Nightlife, Restaurants, Steakhouses, Italian"
"59",183604,"The Packhouse","Charlotte","NC","28202",35.2170979,-80.8480233,"1","American (Traditional), Bars, Restaurants, Cocktail Bars, Nightlife, Southern"
"60",189018,"The Steakhouse at Treasures","Las Vegas","NV","89109",36.140012,-115.173705,"1","Cocktail Bars, Food, Wineries, Nightlife, Restaurants, Arts & Entertainment, Bars, Seafood, Steakhouses"
"61",14224,"Field Table","Madison","WI","53703",43.075545,-89.3859118,"1","Bars, American (New), Restaurants, Cocktail Bars, Nightlife, Coffee & Tea, Food"
"62",48859,"Zeppelin","Charlotte","NC","28203",35.2105564938,-80.8633849868,"1","Cocktail Bars, Bars, Tapas/Small Plates, Nightlife, Restaurants"
"63",103301,"The Bourbon Cellar","Scottsdale","AZ","85255",33.7007791,-111.9239862,"1","Seafood, Restaurants, Nightlife, Burgers, Cocktail Bars, American (Traditional), Steakhouses, Bars"
"64",114579,"Peachtree Southern Kitchen & Cocktails","Hudson","OH","44236",41.242705,-81.440705,"0","Cocktail Bars, American (New), Nightlife, Restaurants, Bars, Food"
"65",181599,"Lobby Bar","Las Vegas","NV","89119",36.09551,-115.1760672,"1","Nightlife, Cocktail Bars, Arts & Entertainment, Bars, Casinos"
"66",114120,"Rejuven8 at Four Points By Sheraton","Mississauga","ON","",43.5890452,-79.6441198,"1","Lounges, Cocktail Bars, American (New), Restaurants, Nightlife, Bars"
"67",168634,"La Locanda Ristorante Italiano","Scottsdale","AZ","85251",33.4957952,-111.9330128,"1","Seafood, Restaurants, Wine Bars, Nightlife, Cocktail Bars, Italian, Bars"
"68",38252,"Boardwalk Billy's Raw Bar-river & Ribs - Crown Point","Charlotte","NC","28270",35.138449,-80.736385,"1","Seafood, Sandwiches, Sports Bars, Barbeque, Bars, Nightlife, Restaurants, American (Traditional), Beer Bar, Cocktail Bars"
"69",5769,"El Hefe","Tempe","AZ","85281",33.4241943584,-111.9403724608,"1","Mexican, Sports Bars, Bars, Nightlife, Dance Clubs, Cocktail Bars, Restaurants, Lounges"
"70",178131,"Bonus Round","Phoenix","AZ","85013",33.5097847184,-112.0757409717,"1","Restaurants, Arts & Entertainment, American (Traditional), Nightlife, Arcades, Cocktail Bars, Bars"
"71",134086,"SideBar","Phoenix","AZ","85007",33.465324,-112.082798,"1","Bars, Nightlife, Cocktail Bars, Karaoke, Lounges"
"72",184798,"Mango Tango Nightclub","Las Vegas","NV","89102",36.1486301,-115.2093281,"1","Bars, Restaurants, Dance Clubs, Latin American, Cocktail Bars, Nightlife"
"73",149190,"Olive Lounge","Madison","WI","53703",43.0727363,-89.3805435,"1","Lounges, Breakfast & Brunch, Cocktail Bars, Bars, Restaurants, Nightlife"
"74",106754,"Q & Brew","Tempe","AZ","85282",33.3919532,-111.9407446,"1","Beer Bar, Bars, Pool Halls, Nightlife, Cocktail Bars"
"75",24768,"Avenue Club and the Bubble Up Bar","Madison","WI","53703",43.0855391,-89.3694044,"1","Nightlife, Cocktail Bars, Restaurants, American (Traditional), Bars"
"76",84605,"The Whippoorwill Restaurant & Tavern","Toronto","ON","M6H 1N7",43.6583044,-79.4425187,"0","Canadian (New), Bars, Breakfast & Brunch, Beer, Wine & Spirits, Cocktail Bars, Food, Restaurants, Diners, Nightlife"
"77",61603,"Blue Ribbon Brasserie - Las  Vegas","Las Vegas","NV","89109",36.1099462,-115.1753911,"1","Cocktail Bars, Restaurants, Seafood, Comfort Food, Venues & Event Spaces, Event Planning & Services, Nightlife, Bars, American (New)"
"78",31955,"Thompson Rooftop","Toronto","ON","M5V 2V4",43.6431345,-79.4019893,"1","Cocktail Bars, Bars, Lounges, Nightlife"
"79",114556,"Cafe Monarch","Scottsdale","AZ","85251",33.494225,-111.931461,"1","American (New), Wine Bars, Bars, Nightlife, American (Traditional), Cocktail Bars, Desserts, Food, Restaurants, Breakfast & Brunch"
"80",42560,"South Point Tavern","Akron","OH","44313",41.1142998,-81.5779365,"1","Lounges, Wine Bars, Bars, Nightlife, Cocktail Bars, Pubs, Whiskey Bars"
"81",135308,"Bâton Rouge Steakhouse & Bar","Vaughan","ON","L4L 9L9",43.7861437846,-79.5486037345,"1","Gluten-Free, Seafood, Steakhouses, Restaurants, Cocktail Bars, Nightlife, Bars"
"82",169294,"Maison Close 1888","Toronto","ON","M5T 2J8",43.6531924,-79.3999578,"1","Nightlife, Gastropubs, Bars, Cocktail Bars, Canadian (New), Restaurants, Pubs"
"83",103022,"Bjs Cocktail Lounge Decatur","Las Vegas","NV","89139",36.0432366,-115.2086926,"1","Restaurants, Food, Lounges, Beer, Wine & Spirits, Bars, Cocktail Bars, Nightlife, American (New)"
"84",36445,"Bar 107","Berea","OH","44017",41.368261,-81.8533864,"1","Bars, American (New), Restaurants, Nightlife, Lounges, Cocktail Bars"
"85",158536,"Bunny's","Toronto","ON","M4M 1J5",43.6607361,-79.3423123,"0","Restaurants, Canadian (New), Cocktail Bars, Breakfast & Brunch, Bars, Nightlife"
"86",76629,"Mezze","Madison","WI","53703",43.0745706,-89.3940617,"0","American (New), Cocktail Bars, Restaurants, Beer, Wine & Spirits, Food, Mediterranean, Pizza, Bars, Tapas/Small Plates, Nightlife"
"87",156564,"Baldwin Barmacie","Montréal","QC","H2T 2N6",45.5216406,-73.5941173,"0","Nightlife, Restaurants, Cocktail Bars, Canadian (New), Bars"
"88",120157,"Lucky Shrike","Toronto","ON","M6J 1V5",43.6515536,-79.4103059,"1","Dive Bars, Bars, Cocktail Bars, Nightlife"
"89",42099,"Pretty Ugly","Toronto","ON","M6K 1L4",43.6416888883,-79.4303486869,"1","Bars, Nightlife, Cocktail Bars"
"90",60139,"Mme Lee","Montréal","QC","H2X 1H5",45.512976,-73.566384,"1","Dance Clubs, Sushi Bars, Tapas Bars, Bars, Cocktail Bars, Lounges, Nightlife, Restaurants, Asian Fusion"
"91",139767,"Parry's Pizzeria & Bar","Charlotte","NC","28216",35.352549,-80.851181,"1","Restaurants, Nightlife, Cocktail Bars, American (Traditional), Sandwiches, Pizza, Beer Bar, Bars"
"92",1611,"Vintner Grill","Las Vegas","NV","89135",36.1594376869,-115.3166287189,"1","American (New), Wine Bars, Sandwiches, Cocktail Bars, Bars, Nightlife, American (Traditional), Restaurants"
"93",100374,"Northwood","Toronto","ON","M6G 1M1",43.662508,-79.4220581,"1","Food, Restaurants, Nightlife, Sandwiches, Chinese, Cocktail Bars, Cafes, Bars, Coffee & Tea"
"94",175777,"Metro Sportz Bar","Phoenix","AZ","85051",33.5795497516,-112.1188126634,"1","Sports Bars, Pool Halls, Bars, Nightlife, Cocktail Bars"
"95",70447,"Distill - A Local Bar","Las Vegas","NV","89149",36.2777832,-115.2863335,"1","Restaurants, Food, American (New), Desserts, Cocktail Bars, Bars, Breakfast & Brunch, Nightlife"
"96",96870,"Bonefish Grill","Upper St Clair","PA","15241",40.3451178158,-80.056861396,"1","Seafood, Restaurants, Bars, Nightlife, American (New), Cocktail Bars"
"97",136446,"Casa Amigos","Coraopolis","PA","15108",40.5017951536,-80.2113790625,"1","Mexican, Nightlife, Cocktail Bars, Tacos, Restaurants, Vegetarian, Bars, Seafood, New Mexican Cuisine"
"98",156753,"Fav Cafe and Bar","Markham","ON","L3R 6E1",43.8505814,-79.3577321,"1","Restaurants, Cafes, Nightlife, Bars, Cocktail Bars, Diners, Chinese, Asian Fusion"
"99",167925,"The Standard Kitchen & Cocktails","Scottsdale","AZ","85253",33.5781536125,-111.9275842352,"0","American (New), Food, Gluten-Free, Nightlife, Breakfast & Brunch, Restaurants, Beer, Wine & Spirits, Bars, Cocktail Bars, Juice Bars & Smoothies"
"100",187347,"Dave & Buster's","Glendale","AZ","85305",33.535204,-112.262687,"1","American (Traditional), Sports Bars, Eatertainment, Cocktail Bars, Arts & Entertainment, Restaurants, Nightlife, Arcades, Bars"
"101",48924,"Caravan Taproom","Phoenix","AZ","85015",33.5088966,-112.0909792,"1","Bars, Dive Bars, Nightlife, Cocktail Bars"
"102",157787,"Dolly's Mojito Bar","Toronto","ON","M6H 1N7",43.6582991,-79.4424949,"1","Cocktail Bars, Bars, Mexican, Nightlife, Filipino, Restaurants"
"103",165379,"Paperplane","Montréal","QC","H4C 1R3",45.4778791,-73.5844922,"1","Bars, Nightlife, Cocktail Bars"
"104",44638,"El Cactus","Châteauguay","QC","J6J 4J3",45.3615938,-73.7477481,"1","Bars, Cocktail Bars, Nightlife, Restaurants, Mexican"
"105",75014,"The Breadfruit & Rum Bar","Phoenix","AZ","85004",33.4557075,-112.0720114,"1","Cocktail Bars, Restaurants, Caribbean, Nightlife, Bars, Vegan, Lounges, Active Life, Seafood"
"106",29376,"Bar Raval","Toronto","ON","M6G 1A4",43.6559438483,-79.4100996852,"1","Restaurants, Nightlife, Spanish, Bars, Tapas Bars, Cocktail Bars, Tapas/Small Plates"
"107",29481,"SPIN Toronto","Toronto","ON","M5V 1K4",43.6447886395,-79.3963426352,"1","Nightlife, Sports Clubs, American (Traditional), Bars, Cocktail Bars, Tapas/Small Plates, Social Clubs, Restaurants, Arts & Entertainment, Active Life"
"108",52780,"The Daughter","Toronto","ON","M6P 3S6",43.665269,-79.4540472,"0","Comfort Food, Cocktail Bars, Restaurants, Seafood, Canadian (New), Nightlife, Breakfast & Brunch, Gastropubs, Bars"
"109",72531,"BQM King West","Toronto","ON","M5V 3H5",43.641859,-79.4112192,"0","Cocktail Bars, Sandwiches, Burgers, Food, Restaurants, Nightlife, Bars, Beer, Wine & Spirits"
"110",32321,"Premier Club Tours","Las Vegas","NV","89101",36.1689461,-115.1410324,"1","Adult Entertainment, Nightlife, Bars, Party Bus Rentals, Hotels & Travel, Party & Event Planning, Tours, Event Planning & Services, Cocktail Bars, Dance Clubs"
"111",20241,"56 Kitchen","Solon","OH","44139",41.3864229,-81.440083,"1","Bars, Cocktail Bars, Restaurants, Nightlife, Wine Bars, Pizza, Sandwiches, American (New)"
"112",178586,"The Calvin Bar","Toronto","ON","M5H 3C2",43.6495049,-79.3799351,"0","Lounges, Cocktail Bars, Nightlife, Bars"
"113",186424,"Pobrecito","Phoenix","AZ","85004",33.4578099024,-112.0721598342,"1","Nightlife, Cocktail Bars, Bars"
"114",108969,"Ajo Al's Mexican Cafe","Glendale","AZ","85308",33.6389993,-112.2197265,"1","Mexican, Bars, Restaurants, Nightlife, Latin American, Cocktail Bars"
"115",149156,"Scratch Food & Beverage","Pittsburgh","PA","15212",40.4644877,-79.9822923,"1","Nightlife, Restaurants, American (New), Bars, Cocktail Bars, Comfort Food"
"116",8054,"Boca Taqueria","Mesa","AZ","85205",33.4384301,-111.7355217,"1","Event Planning & Services, Mexican, Restaurants, Bars, Nightlife, Seafood, Caterers, Cocktail Bars"
"117",81443,"Citizen Public House","Scottsdale","AZ","85251",33.49821,-111.927963,"1","Cocktail Bars, Bars, Nightlife, American (New), Local Flavor, Gastropubs, Salad, Restaurants"
"118",27089,"The Herb Box","Phoenix","AZ","85014",33.5177861735,-112.0654553175,"0","Bars, Restaurants, Food, American (New), Nightlife, Desserts, Cocktail Bars"
"119",73078,"JoBeck's Bar","Madison","WI","53716",43.0836295,-89.3172126,"1","Wine Bars, Sports Bars, Party Bus Rentals, Event Planning & Services, Nightlife, Bars, Cocktail Bars, Dive Bars"
"120",146725,"India Rosa","Montréal","QC","H2J 1Y2",45.5294525042,-73.5784870015,"1","Nightlife, Bars, Restaurants, Indian, Cocktail Bars"
"121",104705,"MATCH Restaurant & Lounge","Phoenix","AZ","85003",33.460344,-112.0744177,"1","American (New), Nightlife, Bars, Cocktail Bars, Restaurants, Lounges"
"122",96242,"Eighth & Hays","Homestead","PA","15120",40.4052422,-79.9129219,"1","Bars, Wine Bars, Pizza, Restaurants, Cocktail Bars, Nightlife"
"123",140093,"Bazille","Toronto","ON","M6A 2T9",43.7246843,-79.4541729,"1","French, American (New), Restaurants, Bars, Nightlife, Brasseries, Cocktail Bars, Canadian (New)"
"124",39311,"LAVO Casino Club","Las Vegas","NV","89109",36.1243401394,-115.1692626682,"0","Lounges, Bars, Casinos, Nightlife, Arts & Entertainment, Cocktail Bars"
"125",168824,"Loft & Cellar","Charlotte","NC","28202",35.2282036723,-80.8464987203,"1","Bars, Wine Bars, Tapas Bars, American (New), Cocktail Bars, Restaurants, Nightlife, Tapas/Small Plates, Lounges, Music Venues, Arts & Entertainment, Breakfast & Brunch"
"126",14628,"Burgatory","Murrysville","PA","15668",40.4278278251,-79.7010137947,"1","Restaurants, Juice Bars & Smoothies, Food, Cocktail Bars, Burgers, Bars, Beer Bar, American (New), Nightlife"
"127",7798,"Brio Tuscan Grille","Gilbert","AZ","85295",33.3084164925,-111.7432331008,"1","Bars, Nightlife, Italian, Pizza, Cocktail Bars, Food, Restaurants"
"128",149274,"Lustre Bar","Phoenix","AZ","85004",33.4474607,-112.0736676,"1","Cocktail Bars, American (Traditional), American (New), Lounges, Bars, Restaurants, Nightlife"
"129",85150,"Garden Bar Lounge","Pittsburgh","PA","15236",40.3458277,-80.0073113,"1","Restaurants, Cocktail Bars, American (Traditional), Bars, Nightlife"
"130",183752,"Gokudo","Montréal","QC","H3B 0C3",45.5031859,-73.568353,"1","Restaurants, Japanese, Cocktail Bars, Nightlife, Bars, Speakeasies"
"131",151417,"Door FiftyFive","Mississauga","ON","L5G 1C9",43.5522949,-79.5845307,"1","Cocktail Bars, Nightlife, Restaurants, Gastropubs, Southern, Bars"
"132",81652,"Bar le Sénateur","Montréal","QC","H3B 4C9",45.497457,-73.567265,"1","Nightlife, Bars, Cocktail Bars"
"133",94272,"Flight","Las Vegas","NV","89119",36.0953785353,-115.1750607266,"1","Cocktail Bars, Beer Bar, Nightlife, Bars"
"134",143946,"Liquid","Cornelius","NC","28031",35.4480801,-80.8901362,"1","Hookah Bars, Nightlife, Bars, Lounges, Cocktail Bars"
"135",49936,"Anthony's Trattoria","Boulder City","NV","89005",35.9713894,-114.8512532,"1","Cocktail Bars, Italian, Bars, Nightlife, Seafood, Restaurants"
"136",10636,"Counter Intuitive","Scottsdale","AZ","85251",33.4992384392,-111.9274678929,"0","Cocktail Bars, Nightlife, American (Traditional), Sandwiches, Restaurants, Bars"
"137",182781,"Suki Akor","Charlotte","NC","28202",35.221917,-80.842555,"0","Steakhouses, Japanese, Nightlife, Restaurants, Sushi Bars, Bars, Cocktail Bars"
"138",41975,"Socialite Restaurant & Bar","Toronto","ON","M5T 2L9",43.6568352,-79.4032301,"1","Sports Bars, Tapas Bars, Nightlife, Cocktail Bars, Asian Fusion, Lounges, Restaurants, Bars"
"139",124407,"The Pennsylvania Market","Pittsburgh","PA","15222",40.4508934,-79.9850882,"1","Nightlife, Restaurants, Food, Specialty Food, Cocktail Bars, Bars, American (New), Food Stands"
"140",102558,"The Street Eatery","Calgary","AB","T2P 0K4",51.0501231,-114.0807025,"1","Nightlife, Burgers, Comfort Food, Mexican, Food, Canadian (New), Vegan, Indian, Vietnamese, Korean, Sandwiches, Street Vendors, Cocktail Bars, Bars, Beer Bar, Restaurants, Barbeque, Thai"
"141",183272,"Miss Things","Toronto","ON","M6K 1L6",43.6414601,-79.431879,"1","Nightlife, Hawaiian, Restaurants, Bars, Cocktail Bars, Asian Fusion"
"142",11406,"The Grille","Brunswick","OH","44212",41.2256428,-81.841467,"1","Bars, American (Traditional), Caterers, Event Planning & Services, Beer, Wine & Spirits, Nightlife, Sports Bars, Pizza, Cocktail Bars, Food, Mediterranean, Restaurants, Sandwiches"
"143",74855,"Umami","Chagrin Falls","OH","44022",41.430982,-81.391463,"1","Nightlife, Bars, Cocktail Bars, Salad, Asian Fusion, Seafood, Restaurants"
"144",84384,"Grey Tiger","Toronto","ON","M6H 1N2",43.6594557,-79.4378984,"1","Restaurants, Cafes, Vegan, Nightlife, Cocktail Bars, Bars"
"145",152029,"Founder Bar","Toronto","ON","M6J 1X7",43.64956,-79.425389,"1","Nightlife, Restaurants, Canadian (New), Bars, International, Tapas Bars, Cocktail Bars"
"146",170949,"Mariscos Ensenada","Phoenix","AZ","85006",33.4701425,-112.0474274,"1","Fish & Chips, Cocktail Bars, Mexican, Seafood, Bars, Restaurants, Nightlife"
"147",63231,"Sorso Wine Room","Scottsdale","AZ","85254",33.6251587937,-111.9235111423,"1","Breakfast & Brunch, Specialty Food, American (Traditional), Grocery, Meat Shops, Nightlife, Cheese Shops, Bars, Italian, Mediterranean, Lounges, Wine Bars, Cocktail Bars, American (New), Food, Restaurants"
"148",189193,"Brio","Charlotte","NC","28210",35.1520694,-80.8396464,"1","Pizza, Nightlife, Bars, Seafood, Italian, Restaurants, American (New), Cocktail Bars"
"149",167441,"Kyoto Scottsdale","Scottsdale","AZ","85251",33.5001825,-111.9268576,"1","Teppanyaki, Sushi Bars, Breakfast & Brunch, Restaurants, Japanese, Bars, Cocktail Bars, Nightlife"
"150",161716,"Bar Zoe Karaoke Et Cocktails","Montréal","QC","H2A 1W3",45.5595758,-73.597479,"1","Nightlife, Cocktail Bars, Karaoke, Bars"
"151",143178,"Breeze Daiquiri Bar","Las Vegas","NV","89109",36.1175831,-115.1703446,"1","Nightlife, Beer Bar, Bars, Cocktail Bars"
"152",36433,"Bodega 13","Carefree","AZ","85377",33.8258928,-111.9244293,"0","Nightlife, Restaurants, Modern European, Tapas Bars, Tapas/Small Plates, Cocktail Bars, Spanish, Bars"
"153",172318,"California Pizza Kitchen at Summerlin","Las Vegas","NV","89135",36.151547,-115.331923,"1","American (Traditional), Nightlife, Salad, Cocktail Bars, Pizza, American (New), Restaurants, Bars"
"154",72880,"Geraldine","Toronto","ON","M6R 1A6",43.6399626,-79.4403278,"0","Seafood, Restaurants, Cocktail Bars, Food, Bars, Nightlife, Beer, Wine & Spirits"
"155",76471,"Downtown Grand Hotel & Casino, an Ascend Hotel Collection Member","Las Vegas","NV","89101",36.1724073419,-115.1418440671,"1","Arts & Entertainment, Event Planning & Services, Nightlife, Hotels & Travel, Piano Bars, Hotels, Cocktail Bars, Casinos, American (New), Restaurants, Bars"
"156",122443,"SoSoBa","Phoenix","AZ","85003",33.4587456624,-112.0772053934,"1","Restaurants, Japanese, Nightlife, Food, Cocktail Bars, Bars, Ramen"
"157",36789,"The Avenue Restaurant & Lounge","Scarborough","ON","M1H 3C7",43.7754726,-79.2415026,"1","American (Traditional), Caribbean, Nightlife, Lounges, Cocktail Bars, Bars, Restaurants, Chinese"
"158",30814,"The Blind Pig","Las Vegas","NV","89103",36.1073888656,-115.1815900952,"0","Beer, Wine & Spirits, Restaurants, Gastropubs, Sports Bars, American (Traditional), Cocktail Bars, Bars, Food, Lounges, Cafes, Nightlife, Breakfast & Brunch, Bakeries"
"159",20633,"The Burnham Restaurant","Cleveland","OH","44114",41.5030718,-81.6956723,"1","Seafood, Breakfast & Brunch, Cocktail Bars, American (New), Nightlife, Local Flavor, Cajun/Creole, Restaurants, Bars, Tapas/Small Plates"
"160",112543,"The Belfast Mill","Charlotte","NC","28202",35.226008,-80.846744,"1","Nightlife, Cocktail Bars, Bars, Irish Pub"
"161",12053,"Run Pig Run","Calgary","AB","T2S 0A9",51.0376174,-114.0733081,"0","Restaurants, Nightlife, American (New), Cocktail Bars, American (Traditional), Bars"
"162",152476,"Bar Plan B","Montréal","QC","H2T 1P8",45.5232527,-73.5837327,"1","Cocktail Bars, Nightlife, Bars"
"163",186202,"Bound","Las Vegas","NV","89109",36.1147602343,-115.171189119,"1","Cocktail Bars, Bars, Nightlife"
"164",89791,"Corduroy","Las Vegas","NV","89101",36.168728,-115.140222,"1","Nightlife, Bars, Cocktail Bars, Arts & Entertainment, Music Venues, Breakfast & Brunch, Restaurants, Lounges"
"165",148725,"Reign Restaurant & Lounge","Charlotte","NC","28202",35.225217,-80.8362889,"0","Cocktail Bars, Tapas/Small Plates, Bars, Nightlife, Lounges, Restaurants, Asian Fusion"
"166",180454,"The Lola","Glendale","AZ","85305",33.532918,-112.2607092,"1","Cocktail Bars, Bars, Specialty Food, Fruits & Veggies, Restaurants, Food, Nightlife, American (New)"
"167",139373,"The Laundry Room","Las Vegas","NV","89101",36.1690086067,-115.1396983489,"1","Lounges, Speakeasies, Bars, Cocktail Bars, Nightlife"
"168",119280,"Salty Senorita","Scottsdale","AZ","85251",33.4915225,-111.9264281,"1","Nightlife, Mexican, Cocktail Bars, Restaurants, Bars"
"169",162392,"Kitchen Bar","Scottsdale","AZ","85257",33.466931,-111.906094,"0","Food, Nightlife, Cocktail Bars, Bars, Beer, Wine & Spirits"
"170",3163,"Stateside Lounge","Las Vegas","NV","89101",36.1820872895,-115.1345434295,"1","Dive Bars, Arts & Entertainment, Karaoke, Nightlife, Lounges, Bars, Cocktail Bars, Sports Bars"
"171",131319,"The Cloak Bar","Toronto","ON","M5V 1E9",43.6435936,-79.3985027,"1","Cocktail Bars, Restaurants, Tapas Bars, Bars, Nightlife"
"172",167478,"F Pigalle","Las Vegas","NV","89101",36.169109022,-115.1400624588,"0","Restaurants, Lounges, Fondue, Bars, Cocktail Bars, Nightlife"
"173",128788,"Cantina Laredo","Las Vegas","NV","89145",36.1667009,-115.2870029,"0","Specialty Food, Food, Restaurants, Mexican, Cocktail Bars, Nightlife, Bars"
"174",124327,"Chicago's Home of Chicken & Waffles","Cleveland","OH","44115",41.499168,-81.682721,"1","Soul Food, Nightlife, Breakfast & Brunch, Cocktail Bars, Restaurants, Waffles, Bars"
"175",4954,"Earls Kitchen + Bar","Toronto","ON","V5H 1J9",43.6480134621,-79.3839246431,"1","Cocktail Bars, Nightlife, Comfort Food, American (New), Bars, American (Traditional), Restaurants, Canadian (New)"
"176",160452,"Urban Turban","Las Vegas","NV","89169",36.1189093605,-115.1543320479,"0","Bars, Halal, Vegetarian, Cocktail Bars, Indian, Restaurants, Nightlife, Tapas Bars, Buffets, Vegan, Food, Desserts"
"177",80090,"Bar Häagen-Dazs","Toronto","ON","M5V 1M3",43.6446458972,-79.3996110153,"0","Ice Cream & Frozen Yogurt, Nightlife, Food, Cocktail Bars, Desserts, Bars"
"178",124721,"Bar Louie","Lyndhurst","OH","44124",41.5032902,-81.5022549033,"1","Cocktail Bars, American (New), Nightlife, Bars, Restaurants"
"179",22822,"Old City Libations","Cleveland","OH","44102",41.4837540686,-81.7316226661,"0","Nightlife, Food, Bars, Pretzels, Cocktail Bars"
"180",78738,"Roxu Fusion","Lakewood","OH","44107",41.4771295248,-81.8059138865,"0","French, Nightlife, Bars, Asian Fusion, Japanese, Sushi Bars, Cocktail Bars, Seafood, Restaurants"
"181",30795,"Donna Jeans Libations","Glendale","AZ","85308",33.6383999,-112.2019363,"0","Bars, Arts & Entertainment, Cocktail Bars, Music Venues, Nightlife"
"182",106081,"Pomelo","Phoenix","AZ","85020",33.5402485919,-112.0566335651,"1","Bars, American (New), Restaurants, Cocktail Bars, Pizza, Italian, Breakfast & Brunch, Nightlife"
"183",159794,"Caffè Art Java","Montréal","QC","H2X 1L4",45.5127197,-73.5616129,"0","Lounges, Coffee & Tea, Cocktail Bars, Nightlife, Bars, Food"
"184",123540,"Duckworth's Grill & Taphouse","Charlotte","NC","28202",35.22924,-80.83971,"1","Bars, Nightlife, American (Traditional), Sports Bars, Beer, Wine & Spirits, Food, Gastropubs, Chicken Wings, Cocktail Bars, Cheesesteaks, Restaurants"
"185",45222,"SUGARCANE Raw Bar Grill","Las Vegas","NV","89109",36.121179,-115.169653,"1","Nightlife, Bars, Coffee & Tea, Tapas/Small Plates, Wine Bars, American (Traditional), Cocktail Bars, American (New), Tapas Bars, Desserts, Food, Restaurants"
"186",190574,"Aroojis Wine Room","Charlotte","NC","28277",35.0622318,-80.7733554,"1","Restaurants, Bars, Nightlife, Italian, Wine Bars, Cocktail Bars"
"187",160767,"Weslodge","Toronto","ON","M5V 1L7",43.6454236,-79.3962213,"1","Canadian (New), Food, Specialty Food, Restaurants, Nightlife, Cocktail Bars, Bars"
"188",107872,"583 Bistro","Bay Village","OH","44140",41.47915,-81.92073,"0","Food, Bars, Nightlife, Cocktail Bars, Sandwiches, Desserts, American (New), Soup, Beer, Wine & Spirits, Diners, Restaurants"
"189",113658,"Sammy's Beach Bar & Grill","Cleveland","OH","44135",41.4124053237,-81.8386494597,"1","Restaurants, Cocktail Bars, American (Traditional), Nightlife, Bars"
"190",99668,"Pub Bishop & Bagg","Montréal","QC","H2T 2K8",45.5250592935,-73.5994327883,"1","Nightlife, Bars, Breakfast & Brunch, Beer, Wine & Spirits, Comfort Food, British, Food, Restaurants, Pubs, Cocktail Bars, American (Traditional)"
"191",114233,"The Park Kitchen & Bar","Calgary","AB","T2C 5E1",50.9631349179,-114.0112974208,"1","Food, Pizza, Cocktail Bars, Bars, Nightlife, Burgers, Restaurants, Sandwiches, Canadian (New)"
"192",46709,"The Wheelhouse","St Joseph","IL","61873",40.111951,-88.0423837,"1","Restaurants, Nightlife, Breakfast & Brunch, Cocktail Bars, Bars, American (New)"
"193",27439,"Parcae","Toronto","ON","M5V 1R7",43.6472265,-79.3932255,"0","Modern European, Nightlife, Canadian (New), Cocktail Bars, Bars, Restaurants"
"194",66414,"ACE Hotel Pittsburgh","Pittsburgh","PA","15206",40.4612819,-79.9264254,"1","Hotels & Travel, Restaurants, Nightlife, Bars, American (Traditional), Hotels, Food, Cocktail Bars, American (New), Event Planning & Services, Coffee & Tea, Venues & Event Spaces"
"195",54489,"The Womack","Phoenix","AZ","85014",33.5217412,-112.0646603,"1","Nightlife, Arts & Entertainment, Music Venues, Bars, Cocktail Bars, Lounges"
"196",189106,"Salmon Dave's Pacific Grille","Rocky River","OH","44116",41.483264,-81.833091,"1","Bars, Cocktail Bars, American (Traditional), Sandwiches, Nightlife, Restaurants, Seafood"
"197",32942,"George","Toronto","ON","M5C 1S2",43.6533063,-79.3741304,"1","Bars, Cocktail Bars, Restaurants, Canadian (New), American (New), Nightlife, Vegetarian"
"198",45072,"Talon Club","Las Vegas","NV","89109",36.1097544,-115.1738726,"1","Food, Lounges, Cocktail Bars, Beer, Wine & Spirits, Nightlife, Bars, Champagne Bars"
"199",168104,"Planta","Toronto","ON","M5R 3P5",43.6702150962,-79.3894335574,"1","Salad, Restaurants, Bars, Vegan, Nightlife, Tapas/Small Plates, Pizza, Vegetarian, Cocktail Bars"
"200",145171,"Yama Izakaya","Charlotte","NC","28205",35.2205641897,-80.8156105215,"1","Nightlife, Tapas Bars, Cocktail Bars, Ramen, Teppanyaki, Japanese, Tapas/Small Plates, Bars, Asian Fusion, Restaurants, Sushi Bars, Gastropubs, Izakaya"
"201",160295,"Tavernakaya","Madison","WI","53703",43.074343,-89.381956,"1","Japanese, Asian Fusion, Restaurants, Bars, Taiwanese, Cocktail Bars, Pubs, Nightlife, Chinese, Sushi Bars"
"202",23516,"West Shore Bar & Grill","Pickering","ON","L1W 3Y4",43.8203319,-79.1061977,"1","Cocktail Bars, American (Traditional), Karaoke, Bars, Restaurants, Nightlife"
"203",189775,"Margarita's House","Calgary","AB","T2R 0V3",51.0408538,-114.0660068,"0","Bars, Restaurants, Mexican, Nightlife, Cocktail Bars"
"204",8150,"Earls Kitchen + Bar","Calgary","AB","T2M 0K8",51.0672962172,-114.0858471339,"1","American (New), American (Traditional), Bars, Comfort Food, Restaurants, Cocktail Bars, Canadian (New), Nightlife"
"205",27494,"Nest Restaurant & Lounge","Charlotte","NC","28202",35.225217,-80.8362889,"0","Cocktail Bars, Event Planning & Services, Restaurants, American (New), Venues & Event Spaces, Nightlife, Breakfast & Brunch, Lounges, Bars"
"206",113553,"Mulberry Bar","Toronto","ON","M6G 1M2",43.6625933,-79.423443,"1","Nightlife, Cocktail Bars, Bars"
"207",89946,"MOB social club","Phoenix","AZ","85004",33.449164,-112.0728342,"1","Bars, Cocktail Bars, Nightlife"
"208",47530,"Earls Kitchen + Bar","Calgary","AB","T3H 3C8",51.0166808,-114.1673072,"1","Restaurants, Nightlife, Comfort Food, Shopping Centers, Bars, Cocktail Bars, Canadian (New), Shopping, American (New)"
"209",41169,"Rosewood","Montréal","QC","H2Y 1L5",45.5055011209,-73.55716968,"1","Bars, Pubs, Nightlife, Cocktail Bars, Breakfast & Brunch, Restaurants, Burgers, Canadian (New)"
"210",6296,"Bar 145 - Avon","Avon","OH","44011",41.458028,-82.0108703,"0","Nightlife, Bars, Cocktail Bars, American (New), Arts & Entertainment, Music Venues, Burgers, Restaurants"
"211",73114,"Cannibale Bar","Calgary","AB","T2E 0C2",51.053115485,-114.044661573,"1","Beauty & Spas, Barbers, Canadian (New), Nightlife, Restaurants, Cocktail Bars, Bars"
"212",166169,"Tonic Bar","Las Vegas","NV","89103",36.1141275,-115.1965118,"1","Cocktail Bars, Bars, Nightlife"
"213",77355,"SakeBomber Sushi & Grill","Tempe","AZ","85282",33.4071184,-111.9114942,"1","Bars, Cocktail Bars, Nightlife, Seafood, Sushi Bars, Japanese, Restaurants"
"214",76775,"T Cook's","Phoenix","AZ","85018",33.5045359155,-111.9689169742,"1","Nightlife, American (Traditional), Bars, Breakfast & Brunch, Tapas/Small Plates, Mediterranean, American (New), Lounges, Cocktail Bars, Restaurants"
"215",117138,"Distrikt Hotel Pittsburgh","Pittsburgh","PA","15219",40.437424579,-79.9989692362,"1","Cocktail Bars, Hotels & Travel, Event Planning & Services, Bars, Hotels, Nightlife"
"216",56720,"Zen 8 Grill","Calgary","AB","T2G",51.0408876,-114.0550098,"1","Restaurants, Japanese, Asian Fusion, Bars, Cocktail Bars, Nightlife"
"217",51105,"Golden Stool Restaurant and Lounge","Brampton","ON","L6X 1B6",43.6861517801,-79.7622923258,"1","Bars, Restaurants, African, Nightlife, Lounges, Caterers, Event Planning & Services, Cocktail Bars, Caribbean"
"218",62723,"The Coup","Calgary","AB","T2T 0A2",51.038019,-114.0832001,"1","Bars, Cocktail Bars, Vegetarian, Restaurants, Nightlife, Breakfast & Brunch"
"219",164827,"Marben","Toronto","ON","M5V 1E3",43.6435936,-79.3985027,"1","American (New), British, Restaurants, Canadian (New), Bars, Breakfast & Brunch, Cocktail Bars, Nightlife"
"220",173449,"Docktails","Scottsdale","AZ","85256",33.5556735,-111.8769802,"1","Bars, Tacos, Cocktail Bars, Nightlife, Gastropubs, Restaurants, American (New), Tapas/Small Plates, Mexican"
"221",26289,"Craft City","Charlotte","NC","28204",35.2168687,-80.8385574,"1","Nightlife, Cocktail Bars, Bars, Latin American, Beer Bar, Social Clubs, Arts & Entertainment, Restaurants, Sports Bars"
"222",63822,"Upper Crust Bar & Social Club","Davidson","NC","28036",35.4979941,-80.8494036,"0","Seafood, Nightlife, Cocktail Bars, Bars, Restaurants, Sports Bars"
"223",95126,"Parma Italian Roots","Scottsdale","AZ","85255",33.6762908,-111.9231242,"1","Italian, Restaurants, Cocktail Bars, Nightlife, Tapas/Small Plates, Bars"
"224",104546,"Cuco's Mexican Fusion","Madison","WI","53703",43.0744019,-89.379518,"0","Sushi Bars, Cocktail Bars, Bars, Restaurants, Nightlife, Mexican"
"225",58347,"Evening Call","Las Vegas","NV","89109",36.1142224,-115.1708505,"1","Food, Bars, Nightlife, Cocktail Bars, Ice Cream & Frozen Yogurt"
"226",84143,"The Imperial","Charlotte","NC","28202",35.2278,-80.8394472,"1","Nightlife, Bars, Arts & Entertainment, Jazz & Blues, Lounges, Cocktail Bars"
"227",117972,"Skyfall Lounge","Las Vegas","NV","89119",36.093007763,-115.1772339933,"1","Lounges, Nightlife, Champagne Bars, Cocktail Bars, Bars"
"228",14443,"4th Street Bar & Grill","Cleveland","OH","44114",41.4995555,-81.6899323,"0","Bars, American (Traditional), Restaurants, Cocktail Bars, Nightlife"
"229",165153,"Alambika","Montréal","QC","H2V 1L4",45.5304888,-73.6093814,"1","Home & Garden, Cocktail Bars, Beer, Wine & Spirits, Wine Tasting Classes, Kitchen & Bath, Bars, Food, Nightlife, Shopping, Education, Tasting Classes"
"230",11119,"Sérénité Restaurant","Medina","OH","44256",41.1389406,-81.8723983,"1","Brasseries, Seafood, Restaurants, Bars, Nightlife, Cocktail Bars, Steakhouses, Beer, Wine & Spirits, Wine Bars, Food, French"
"231",80882,"Hanny's","Phoenix","AZ","85004",33.449228,-112.072853,"1","Bars, Pizza, Restaurants, Lounges, Cocktail Bars, Nightlife"
"232",48229,"Cully's Cocktail Lounge","Stoughton","WI","53589",42.9175359,-89.2216333,"1","Bars, Nightlife, Cocktail Bars"
"233",182752,"Cirq Nightclub","Scottsdale","AZ","85251",33.4997699,-111.9236974,"1","Dance Clubs, Cocktail Bars, Nightlife, Bars"
"234",140767,"Highside","Phoenix","AZ","85020",33.5731009,-112.0649397,"1","Arts & Entertainment, Lounges, Event Planning & Services, Wine Bars, Nightlife, Beer Bar, Venues & Event Spaces, Music Venues, Bars, Cocktail Bars"
"235",153920,"The Standard","Cleveland","OH","44119",41.5862603,-81.549568,"1","Cocktail Bars, American (New), Arts & Entertainment, Food, Restaurants, Bars, Wineries, Nightlife"
"236",855,"FlipSide","Chagrin Falls","OH","44022",41.4308030774,-81.3910149708,"1","Burgers, Beer Bar, Cocktail Bars, Nightlife, Juice Bars & Smoothies, Bars, Food, Restaurants, American (New), Sandwiches"
"237",111776,"Fox Cigar Bar","Gilbert","AZ","85295",33.3074068,-111.7586177,"1","Shopping, Tobacco Shops, Pubs, Cigar Bars, Adult Entertainment, Bars, Lounges, Nightlife, Cocktail Bars"
"238",130220,"Los Diablos","Phoenix","AZ","85014",33.4949396,-112.0594211,"1","Bars, Gay Bars, Cocktail Bars, Nightlife"
"239",145849,"Cartel","Montréal","QC","H2T 2M4",45.5226496925,-73.5957384109,"0","Cocktail Bars, Mexican, Tapas/Small Plates, Bars, Latin American, Restaurants, Nightlife"
"240",140420,"The Cocktail Parlor","Toronto","ON","M5V 3M2",43.6474337,-79.3881932,"0","Bars, Cocktail Bars, Nightlife"
"241",143659,"Oscar's Steakhouse","Las Vegas","NV","89101",36.1718351907,-115.1465995795,"1","Italian, Restaurants, Bars, Cocktail Bars, Steakhouses, Nightlife"
"242",93163,"STK Las Vegas","Las Vegas","NV","89109",36.1098294728,-115.1736184143,"1","Steakhouses, Bars, Nightlife, Restaurants, American (New), Cocktail Bars"
"243",191488,"Mile Public House Laval","Laval","QC","H7P 5Z6",45.5695735662,-73.7569015031,"1","Nightlife, Bars, Pubs, Cocktail Bars"
"244",69659,"Azure Restaurant & Bar","Toronto","ON","M5V 2X3",43.6444547,-79.3854827,"1","Arts & Entertainment, Cocktail Bars, Jazz & Blues, Restaurants, Bars, Nightlife, Buffets, Canadian (New), American (New)"
"245",161447,"Loaded Pierogi","Toronto","ON","M6J 1G4",43.6458497542,-79.4100153105,"1","Comfort Food, Bars, Cocktail Bars, Restaurants, Polish, Nightlife, Canadian (New)"
"246",151995,"Gaslight Cafe","Glendale","AZ","85301",33.5383147,-112.1833071,"0","Salad, Restaurants, Sandwiches, Cafes, Food, Cocktail Bars, Nightlife, Tea Rooms, Bars"
"247",119737,"DOMA","Toronto","ON","M6G 2Y3",43.6555223,-79.4141588,"1","Cocktail Bars, Bars, Korean, Restaurants, Nightlife, Asian Fusion, Canadian (New)"
"248",114820,"The Bar at 316","Charlotte","NC","28203",35.213696,-80.854301,"1","Gay Bars, Bars, Nightlife, Cocktail Bars, Piano Bars, Lounges, Dance Clubs"
"249",144910,"Mollys Bar","Las Vegas","NV","89148",36.0949332009,-115.2973151976,"1","Cocktail Bars, Bars, Nightlife"
"250",107608,"La Comida","Las Vegas","NV","89101",36.1683311,-115.1399425,"1","Bars, Tacos, Mexican, Restaurants, Cocktail Bars, Nightlife"
"251",131207,"Nora's Italian Cuisine","Las Vegas","NV","89103",36.1150515442,-115.2202835693,"1","Caterers, Nightlife, Bars, Wine Bars, Venues & Event Spaces, Pizza, Cocktail Bars, Italian, Restaurants, Event Planning & Services"
"252",5199,"Le Paradis Brasserie Bistro","Toronto","ON","M5R 2K9",43.6750027,-79.4002993,"1","Brasseries, Breakfast & Brunch, Nightlife, French, Bars, Cocktail Bars, Restaurants"
"253",31588,"Momo San","Toronto","ON","M5T 1L2",43.6561388094,-79.3933851206,"1","Restaurants, Nightlife, Cocktail Bars, Bars, Sushi Bars, Japanese"
"254",172855,"Terrace Lounge","Las Vegas","NV","89109",36.1267672,-115.1651078,"0","Nightlife, Lounges, Cocktail Bars, Bars"
"255",6373,"Sparrow + Wolf","Las Vegas","NV","89102",36.1267301,-115.2013207,"1","American (New), Caterers, Bars, Cocktail Bars, Nightlife, Event Planning & Services, Restaurants"
"256",162324,"PRESS Bar & Lounge","Las Vegas","NV","89119",36.0911164,-115.1744397,"1","Coffee & Tea, Juice Bars & Smoothies, Bars, Food, Nightlife, Cocktail Bars"
"257",167323,"Bonefish Grill","Westlake","OH","44145",41.4624403,-81.9513079,"1","American (Traditional), Restaurants, Seafood, Cocktail Bars, Bars, American (New), Nightlife"
"258",29291,"Bri","Phoenix","AZ","85006",33.471983,-112.0648,"1","Cocktail Bars, Restaurants, Bars, Tapas/Small Plates, American (Traditional), Nightlife"
"259",115150,"W XYZ Bar","Phoenix","AZ","85034",33.4485807,-111.985924,"1","Nightlife, Bars, Event Planning & Services, Tapas/Small Plates, Venues & Event Spaces, Cocktail Bars, Restaurants"
"260",166076,"Les Incorruptibles","Montréal","QC","H2C 1S1",45.561529,-73.656989,"0","Nightlife, Lounges, Bars, Wine Bars, Restaurants, Gastropubs, Cocktail Bars, French"
"261",49756,"The Lodge Coffee House & Tavern","Las Vegas","NV","89113",36.0842838,-115.2798544,"1","Coffee & Tea, Food, Arts & Entertainment, Cocktail Bars, Nightlife, Casinos, Breakfast & Brunch, Cafes, Restaurants, Bars"
"262",163966,"Cactus Club Cafe","Toronto","ON","M9C 1B8",43.6129439368,-79.5599403109,"1","Canadian (New), Nightlife, Restaurants, Bars, Cocktail Bars"
"263",134103,"Twisted Grove Parlor + Bar","Scottsdale","AZ","85258",33.555796,-111.898942,"1","American (New), Diners, Gastropubs, Bars, Nightlife, Seafood, Restaurants, Cocktail Bars"
"264",169677,"Somwhr Liquor Lounge","Montréal","QC","H2Y 1V2",45.501583,-73.559375,"1","Dance Clubs, Lounges, Pubs, Arts & Entertainment, Social Clubs, Cocktail Bars, Nightlife, Bars"
"265",177447,"Mezcaleros","Montréal","QC","H2V 4H3",45.5238658,-73.6063598,"1","Tapas Bars, Tapas/Small Plates, Nightlife, Mexican, Restaurants, Cocktail Bars, Bars"
"266",45511,"Nacho Bar","Toronto","ON","M4J 1L2",43.6789261,-79.3436472,"1","Tex-Mex, Nightlife, Bars, Cocktail Bars, Street Vendors, Food, Restaurants"
"267",168482,"The Robin Room","Madison","WI","53703",43.0836078,-89.3771076,"1","Bars, Cocktail Bars, Lounges, Nightlife"
"268",79914,"Sofrita","Fountain Hills","AZ","85268",33.6040137,-111.7166851,"1","Food, Tapas Bars, Mexican, Latin American, Coffee & Tea, Cocktail Bars, Nightlife, Caterers, Bars, Event Planning & Services, Restaurants"
"269",176492,"Needle and Pin","Pittsburgh","PA","15216",40.3894540925,-80.0419438716,"1","Burgers, British, Restaurants, Tapas/Small Plates, Indian, Breakfast & Brunch, Bars, Cocktail Bars, Nightlife"
"270",86478,"Carrburritos In Davidson","Davidson","NC","28036",35.4948371,-80.8530443,"1","Mexican, Restaurants, Cocktail Bars, Arts & Entertainment, Bars, Music Venues, Sports Bars, Lounges, Nightlife"
"271",82095,"Cake Nightclub","Scottsdale","AZ","85251",33.501648,-111.922392,"0","Nightlife, Dance Clubs, Adult Entertainment, Cocktail Bars, Bars"
"272",185543,"Holy Spirits","Scottsdale","AZ","85251",33.4998,-111.923509,"0","Food, Beer, Wine & Spirits, Restaurants, Cocktail Bars, Spanish, Bars, Tapas Bars, Nightlife, Tapas/Small Plates"
"273",128951,"70 Down","Toronto","ON","M5R 1B9",43.6713528,-79.3909664,"0","Tapas/Small Plates, Bars, Tapas Bars, Lounges, Middle Eastern, Nightlife, Cocktail Bars, Mediterranean, Restaurants"
"274",19040,"La Distillerie No.2","Montréal","QC","H2H 1J7",45.53514,-73.572777,"1","Pubs, Nightlife, Bars, Cocktail Bars"
"275",140170,"Storys Building","Toronto","ON","M5V 3M2",43.6475294,-79.3880142,"1","Cocktail Bars, Venues & Event Spaces, Nightlife, Event Planning & Services, Bars"
"276",2547,"High Roller Pizzeria","Las Vegas","NV","89123",36.0406419,-115.1706429,"0","Gay Bars, Restaurants, Nightlife, Cafes, Cocktail Bars, Bars, Pizza"
"277",8466,"McCormick & Schmick's Seafood & Steaks","Las Vegas","NV","89169",36.1150754866,-115.1569413254,"0","Steakhouses, American (Traditional), Bars, Nightlife, Cocktail Bars, Seafood, Salad, Restaurants"
"278",62570,"Mixtape","Pittsburgh","PA","15224",40.4654464,-79.9448679,"1","Arts & Entertainment, Food, Restaurants, Vegan, Venues & Event Spaces, Music Venues, Cocktail Bars, Event Planning & Services, Lounges, Juice Bars & Smoothies, Cafes, Coffee & Tea, Dance Clubs, Nightlife, Bars"
"279",34502,"Citrine","Tempe","AZ","85281",33.4257727,-111.9369164,"0","Nightlife, Pizza, Restaurants, Cocktail Bars, Italian, Bars"
"280",166738,"Fuji Japan","Rock Hill","SC","29732",34.9702063086,-80.9926740825,"1","Nightlife, Cocktail Bars, Steakhouses, Sushi Bars, Restaurants, Japanese, Bars"
"281",31970,"Carson Kitchen","Las Vegas","NV","89101",36.1678783157,-115.1406404749,"1","Bars, Restaurants, Nightlife, Cocktail Bars, American (New), Seafood, Gastropubs, Food, Comfort Food, Salad, Tapas/Small Plates, Burgers, Desserts, Vegan"
"282",68959,"The Flats on Carson","Pittsburgh","PA","15203",40.4289167733,-79.9828482301,"1","Bars, Restaurants, American (Traditional), Gastropubs, Cocktail Bars, Pizza, Nightlife, Dance Clubs"
"283",22724,"BRAVO! Cucina Italiana","Pittsburgh","PA","15237",40.5313703051,-80.009091914,"1","Nightlife, Gluten-Free, Restaurants, Bars, Italian, Cocktail Bars"
"284",179014,"MercBar","Phoenix","AZ","85016",33.50873,-112.027564,"1","Wine Bars, Cocktail Bars, American (New), Restaurants, Bars, Nightlife, Lounges"
"285",48494,"Hurricane Bay","Phoenix","AZ","85053",33.638685,-112.1476425,"0","Cocktail Bars, Nightlife, Bars, Dance Clubs, Karaoke"
"286",15445,"Eliot's Bar","Cleveland","OH","44114",41.5030718,-81.6956723,"1","Bars, Cocktail Bars, Nightlife, Food, Coffee & Tea, Juice Bars & Smoothies"
"287",44852,"90 Ninety Bar + Grill","Las Vegas","NV","89145",36.1691517,-115.2913521,"1","American (New), Restaurants, Cocktail Bars, Nightlife, Bars, Pubs"
"288",170517,"Arriba Mexican Grill","Goodyear","AZ","85395",33.46491,-112.389818,"1","Restaurants, Cocktail Bars, Nightlife, Mexican, Bars"
"289",166570,"Starboard Tack","Las Vegas","NV","89121",36.1423547356,-115.1146937907,"1","Bars, Cocktail Bars, Nightlife, American (New), Asian Fusion, Restaurants, Tiki Bars"
"290",154735,"D.W. Alexander","Toronto","ON","M5E 1M2",43.647989,-79.373396,"1","Tapas Bars, Restaurants, Bars, Nightlife, Cocktail Bars"
"291",167959,"Creekside Restaurant & Bar","Brecksville","OH","44141",41.3222428,-81.6260276,"1","Nightlife, Restaurants, Cocktail Bars, Pizza, American (New), Bars"
"292",108198,"Brio Tuscan Grille","Scottsdale","AZ","85254",33.6254092922,-111.9251276157,"1","Venues & Event Spaces, Nightlife, Pizza, Event Planning & Services, Cocktail Bars, Italian, Seafood, Bars, Breakfast & Brunch, Wine Bars, Restaurants"
"293",180696,"Elixir - A Local Lounge","Henderson","NV","89014",36.0763752282,-115.0817549339,"1","Bars, Music Venues, Lounges, Cocktail Bars, Local Flavor, Arts & Entertainment, Casinos, Restaurants, Nightlife, American (New), American (Traditional)"
"294",179292,"The Ivy","Chandler","AZ","85286",33.2766511,-111.8740924,"1","Pizza, Mediterranean, Bars, Restaurants, Lounges, Cocktail Bars, Nightlife, Greek, Wine Bars"
"295",109668,"Le North End","Montréal","QC","H2S 2C8",45.5356347,-73.5945771,"0","Nightlife, Cocktail Bars, Bars"
"296",175891,"Commonwealth","Las Vegas","NV","89101",36.1686775068,-115.1398015913,"1","Arts & Entertainment, Nightlife, Music Venues, Bars, Cocktail Bars"
"297",166106,"Bâton Rouge Steakhouse & Bar","Oakville","ON","L6H 6P5",43.5089643,-79.6664146,"1","Gluten-Free, Cajun/Creole, Cocktail Bars, Steakhouses, Nightlife, Restaurants, Bars, Seafood"
"298",132174,"La Belle et la Boeuf","Montréal","QC","H3H",45.4939778,-73.5790686,"1","Cocktail Bars, Bars, Nightlife, Burgers, Restaurants, American (Traditional)"
"299",64525,"Bar Louie","Tempe","AZ","85281",33.4334240833,-111.9015310238,"1","Bars, Burgers, Cocktail Bars, American (New), Nightlife, Beer, Wine & Spirits, Restaurants, Food"
"300",40153,"Starlite Family Restaurant","Toronto","ON","M1P 3R1",43.7671591,-79.2704479,"1","Cocktail Bars, Bars, Caribbean, Nightlife, Restaurants, Karaoke"
"301",116331,"Second Story Restaurant & Liquor Bar","Scottsdale","AZ","85251",33.4966118344,-111.9263542816,"1","Whiskey Bars, Food, Restaurants, American (New), Cocktail Bars, Beer, Wine & Spirits, Bars, Lounges, Gluten-Free, Gastropubs, Seafood, Nightlife"
"302",22277,"Pallets Food and Bar","Phoenix","AZ","85004",33.459054,-112.068953,"0","Japanese, Nightlife, Bars, Vietnamese, Cocktail Bars, Sushi Bars, Restaurants"
"303",121713,"Kona Grill","Vaughan","ON","L4H 4G3",43.773387002,-79.624633491,"1","Bars, Nightlife, Restaurants, American (New), Sushi Bars, Cocktail Bars"
"304",43531,"Luwan Bar","Montréal","QC","H2Z 1K3",45.507722572,-73.5605510689,"0","Cocktail Bars, Nightlife, Bars"
"305",74055,"One Red Door","Hudson","OH","44236",41.241365927,-81.4429209591,"1","American (New), Cocktail Bars, Restaurants, Breakfast & Brunch, Bars, Nightlife"
"306",8537,"Hemmingway Lounge & Cigar Bar","Fitchburg","WI","53711",43.017048,-89.422717,"0","Bars, Tobacco Shops, Shopping, Lounges, Cocktail Bars, Nightlife"
"307",15206,"MEXITACO","Toronto","ON","M4B 2K2",43.7086181,-79.2956833,"1","Restaurants, Nightlife, Cocktail Bars, Mexican, Bars, Latin American"
"308",91325,"Rounders Lounge","Mentor","OH","44060",41.6768705,-81.3113687,"1","Cocktail Bars, Bars, American (Traditional), Nightlife, Restaurants"
"309",132605,"Bentley's Pub","Champaign","IL","61820",40.119931,-88.243878,"1","Bars, Nightlife, Pubs, Cocktail Bars"
"310",164571,"Born and Raised Craft Pub","Las Vegas","NV","89109",36.113963,-115.171614,"1","Nightlife, Beer Bar, Cocktail Bars, Pubs, Sports Bars, Bars"
"311",29174,"Burwood Distillery","Calgary","AB","T2E 6V5",51.0889376765,-114.0491412292,"1","Landmarks & Historical Buildings, Public Services & Government, Distilleries, Cocktail Bars, Food, Restaurants, Bars, Canadian (New), Nightlife"
"312",96794,"La P'tite Grosse","Montréal","QC","H3G 1Z1",45.4973726,-73.5745699,"1","Nightlife, Cocktail Bars, Sandwiches, Bars, Restaurants, Burgers, Tapas/Small Plates"
"313",27151,"Against the Grain","Toronto","ON","M5A 1B5",43.6435672,-79.3663994,"1","Bars, Restaurants, Cocktail Bars, Canadian (New), Nightlife, American (New)"
"314",97842,"Blanco Cantina","Calgary","AB","T2S 0B6",51.0376774183,-114.078627862,"1","Tex-Mex, Pubs, Beer, Wine & Spirits, Food, Nightlife, Bars, Mexican, Restaurants, Cocktail Bars"
"315",85462,"Lucidi Distilling","Peoria","AZ","85345",33.5801412576,-112.2380521148,"1","Bars, Cocktail Bars, Distilleries, Nightlife, Hotels & Travel, Food, Wine Tasting Room, Local Flavor, Tours, Wine Tours, Arts & Entertainment, Beer, Wine & Spirits, Wineries"
"316",59346,"Switch Restaurant & Wine Bar","Phoenix","AZ","85004",33.477031,-112.073616,"1","Sandwiches, Delis, Cocktail Bars, Comfort Food, Food, Modern European, Bars, Nightlife, Restaurants, American (Traditional), Burgers, Wine Bars, Breakfast & Brunch, American (New)"
"317",187796,"Las Micheladas Bar and Grill","Las Vegas","NV","89121",36.1292626,-115.091297,"1","Bars, Nightlife, Mexican, Cocktail Bars, Seafood, Restaurants"
"318",131823,"Bouchon","Las Vegas","NV","89109",36.1209554593,-115.1698532494,"1","French, Bars, Cocktail Bars, Nightlife, Breakfast & Brunch, Cafes, Venues & Event Spaces, Restaurants, Event Planning & Services"
"319",109350,"The Punch Room","Charlotte","NC","28202",35.2261709,-80.84149,"1","Nightlife, Cocktail Bars, Lounges, Bars"
"320",64556,"Red Line Grill","Surprise","AZ","85374",33.6392554,-112.3904521,"0","Restaurants, Breakfast & Brunch, American (New), Nightlife, Sports Bars, Bars, Cocktail Bars"
"321",151060,"The Urban Lounge Las Vegas","Las Vegas","NV","89104",36.1591487,-115.152673,"1","Nightlife, Hookah Bars, Lounges, Cocktail Bars, Restaurants, Bars, Burgers"
"322",88949,"Dot Dot Dot","Charlotte","NC","28209",35.174487,-80.8484579,"1","American (New), Speakeasies, Restaurants, Nightlife, Social Clubs, Cocktail Bars, Lounges, Bars, Tapas Bars, Arts & Entertainment"
"323",86931,"Weldon Park","Toronto","ON","M6G 1B1",43.6554129,-79.4128456,"1","Arts & Entertainment, Nightlife, Beer, Wine & Spirits, Cocktail Bars, Music Venues, Bars, Food"
"324",79360,"Olive or Twist","Pittsburgh","PA","15222",40.4429033,-80.0025614,"1","Champagne Bars, Bars, American (New), Lounges, Nightlife, Cocktail Bars, Restaurants"
"325",130635,"Reposado Bar & Lounge","Toronto","ON","M6J 2Z5",43.6472981,-79.4201652,"1","Mexican, Restaurants, Event Planning & Services, Cocktail Bars, Arts & Entertainment, Tapas/Small Plates, Music Venues, Food, Lounges, Bars, Jazz & Blues, Venues & Event Spaces, Nightlife"
"326",109329,"Ghost Donkey","Las Vegas","NV","89109",36.1094184,-115.1731333,"1","Mexican, Bars, Nightlife, Restaurants, Cocktail Bars"
"327",77204,"MAS","Tempe","AZ","85281",33.4508727,-111.9250589,"0","Peruvian, Seafood, Nightlife, Restaurants, Breakfast & Brunch, Cocktail Bars, Bars, Latin American, Sandwiches"
"328",97779,"Ajo Al's Mexican Cafe","Phoenix","AZ","85016",33.5113014,-112.0471247,"1","Restaurants, Latin American, Nightlife, Tacos, Cocktail Bars, Tex-Mex, Mexican, Bars"
"329",15007,"Matteo's Casual Italian","Olmsted Falls","OH","44138",41.3747475,-81.9017388,"1","Caterers, Bars, Cocktail Bars, Wine Bars, Event Planning & Services, Restaurants, Italian, Nightlife, Pizza"
"330",169538,"Super Tech","Markham","ON","L6G 0A9",43.844189,-79.3560497,"1","Bars, Nightlife, Restaurants, Cafes, Internet Cafes, Shopping, Tabletop Games, Cocktail Bars, Food"
"331",172642,"Great Wall Of China South","Charlotte","NC","28226",35.08565,-80.847489,"1","Asian Fusion, Chinese, Restaurants, Seafood, Buffets, Event Planning & Services, Cocktail Bars, Nightlife, Bars, Caterers"
"332",7706,"Nuevo Modern Mexican & Tequila Bar","Cleveland","OH","44114",41.510561,-81.695971,"1","New Mexican Cuisine, Nightlife, Bars, Cocktail Bars, Restaurants"
"333",138759,"Infuse Cafe Bar","Toronto","ON","M5B 1S5",43.6580847,-79.3819495,"0","Nightlife, Coffee & Tea, Food, Beer, Wine & Spirits, Cafes, Restaurants, Cocktail Bars, Bars"
"334",64080,"Pennsylvania Libations","Pittsburgh","PA","15222",40.4518759633,-79.9830417805,"1","Whiskey Bars, Bars, Cocktail Bars, Beer, Wine & Spirits, Food, Distilleries, Nightlife"
"335",132770,"Metropolis","Scottsdale","AZ","85251",33.5074361578,-111.9285819395,"1","American (New), Cocktail Bars, Beer Bar, Vegetarian, American (Traditional), Nightlife, Bars, Restaurants"
"336",73948,"Squeeze","Las Vegas","NV","89109",36.1176611,-115.1727833,"0","Cocktail Bars, Food, Bars, Juice Bars & Smoothies, Nightlife"
"337",28095,"Merchant","Madison","WI","53703",43.0742365,-89.3810119,"1","Cocktail Bars, Grocery, Wine Bars, Sandwiches, Nightlife, Food, Restaurants, American (New), Bars, American (Traditional)"
"338",21925,"Grassroots Kitchen & Tap","Scottsdale","AZ","85258",33.5551676,-111.899058,"1","Cocktail Bars, Restaurants, Southern, American (Traditional), American (New), Nightlife, Bars"
"339",93325,"Death & Taxes Free House","Toronto","ON","M6J 1J5",43.6431286,-79.4249599,"1","American (Traditional), Nightlife, Cocktail Bars, Pubs, Restaurants, Beer Bar, Bars"
"340",72434,"Casey's Draft House","Pittsburgh","PA","15203",40.4289561,-79.9799623,"1","American (Traditional), Sports Bars, Bars, Wine Bars, Burgers, Restaurants, Nightlife, Cocktail Bars"
"341",141262,"Que Onda Cantina Highland Creek","Huntersville","NC","28078",35.3843662,-80.7861663,"1","Restaurants, Cocktail Bars, Mexican, Bars, Nightlife"
"342",138961,"Bootleggers Modern American Smokehouse","Scottsdale","AZ","85251",33.4922045,-111.9255493,"1","Smokehouse, American (New), Cocktail Bars, Food, Nightlife, Bars, Comfort Food, Barbeque, Restaurants"
"343",25788,"Brassaii","Toronto","ON","M5V 1K4",43.6444564,-79.3960911,"1","Mediterranean, Wine Bars, Bars, Breakfast & Brunch, Cocktail Bars, Nightlife, Restaurants, French"
"344",99907,"CEDAR ROOM Fine Cigars & Lounge","Scottsdale","AZ","85255",33.6738685159,-111.8883673315,"1","Nightlife, Tobacco Shops, Shopping, Bars, Lounges, Cocktail Bars"
"345",165173,"Provo FoodBar","Toronto","ON","M5T 1G4",43.6544343,-79.3917783,"1","Restaurants, Bars, Cocktail Bars, Tapas/Small Plates, Food, Nightlife"
"346",129743,"Stumptown Station","Matthews","NC","28105",35.1162328,-80.7223712,"1","Wine Bars, Beer Bar, Nightlife, Cocktail Bars, Bars, Speakeasies"
"347",43913,"Roll Play","Toronto","ON","M5G 1C9",43.656977,-79.3815536,"0","Restaurants, Chinese, Cafes, Lounges, Food, Asian Fusion, Coffee & Tea, Bars, Nightlife, Arts & Entertainment, Canadian (New), Cocktail Bars"
"348",64281,"Notorious Burgers","Scottsdale","AZ","85253",33.564852,-111.9255724,"0","Nightlife, American (New), Burgers, Comfort Food, Cocktail Bars, Restaurants, Food, Bars, American (Traditional)"
"349",139932,"RED","Madison","WI","53703",43.0728649,-89.388095,"1","Bars, Restaurants, Nightlife, Lounges, Sushi Bars, Food, Cocktail Bars, American (New), Desserts"
"350",116095,"Angeline's","Charlotte","NC","28202",35.226292,-80.8464332,"1","Salad, Nightlife, Cocktail Bars, Bars, Restaurants, Pizza, Italian"
"351",147880,"Minus 5º Ice Bar","Las Vegas","NV","89109",36.1039513638,-115.1730835228,"0","Venues & Event Spaces, Bars, Lounges, Cocktail Bars, Nightlife, Event Planning & Services, Dance Clubs"
"352",175202,"Tiradito","Montréal","QC","H2Z 1N1",45.5045353,-73.5634405,"1","Cocktail Bars, Nightlife, Bars, Peruvian, Restaurants"
"353",18549,"Breeze Daiquiri Bar","Las Vegas","NV","89109",36.1200742,-115.1711957,"1","Beer Bar, Cocktail Bars, Lounges, Nightlife, Bars"
"354",29930,"Saltlik Calgary","Calgary","AB","T2P 1B4",51.0452993,-114.0633359,"1","Malaysian, Nightlife, Restaurants, Cocktail Bars, Bars, Steakhouses, Venues & Event Spaces, Event Planning & Services"
"355",49584,"Civil Liberties","Toronto","ON","M6G 1M2",43.662099,-79.4251403,"1","Cocktail Bars, Bars, Nightlife"
"356",131,"Yuzu Kitchen","Pittsburgh","PA","15222",40.439707,-80.001261,"1","Japanese, Bars, Korean, Cocktail Bars, Venues & Event Spaces, Izakaya, Ramen, Nightlife, Event Planning & Services, Restaurants, Chinese"
"357",119088,"2601 on Central","Phoenix","AZ","85004",33.476879,-112.0734163,"1","New Mexican Cuisine, Pubs, American (Traditional), American (New), Restaurants, Sandwiches, Cocktail Bars, Comfort Food, Mexican, Nightlife, Bars"
"358",50630,"De Fer Coffee & Tea","Pittsburgh","PA","15222",40.4517992695,-79.9844576619,"1","Bars, Restaurants, Desserts, Nightlife, Cafes, Coffee Roasteries, Patisserie/Cake Shop, Food, Cocktail Bars, Coffee & Tea"
"359",165847,"Matt's Big Breakfast","Phoenix","AZ","85034",33.4369339893,-111.9966363992,"1","Nightlife, Sandwiches, Bars, Cocktail Bars, Restaurants, Food, Breakfast & Brunch"
"360",93036,"Davidoff Of Geneva Cigar Bar","Las Vegas","NV","89109",36.1266344458,-115.1690341342,"1","Bars, Lounges, Shopping, Tobacco Shops, Cigar Bars, Nightlife, Cocktail Bars"
"361",41387,"Pasqual's Cantina","Madison","WI","53703",43.0885766,-89.3649736,"1","Cocktail Bars, Bars, Nightlife, Mexican, Tex-Mex, Restaurants"
"362",47734,"Bin 110","Cornelius","NC","28031",35.4816828954,-80.8825221285,"1","Wine Bars, Beer Bar, Whiskey Bars, Bars, Cocktail Bars, Nightlife"
"363",57961,"Tequila Restaurante","Las Vegas","NV","89169",36.1022497,-115.1568604,"0","Bars, Cocktail Bars, Restaurants, Hotels & Travel, Food, Sports Bars, Desserts, Mexican, Nightlife, Lounges"
"364",34565,"The Queen and Glass","Charlotte","NC","28203",35.2018125,-80.8437902,"1","Nightlife, Bars, Tapas/Small Plates, Restaurants, Cajun/Creole, Cocktail Bars"
"365",189622,"Lil' Brew Hops","Newmarket","ON","L3Y 3Y9",44.0530751694,-79.457157366,"1","Restaurants, Seafood, Tapas Bars, Bars, Nightlife, Cocktail Bars"
"366",30485,"Merchant Oyster Company","Pittsburgh","PA","15201",40.470236,-79.9608412,"1","Seafood Markets, Food, Nightlife, Restaurants, Specialty Food, Cocktail Bars, Bars, Sandwiches, Seafood"
"367",10221,"Bravo! Cucina Italiana","Pittsburgh","PA","15228",40.356525,-80.051222,"1","Gluten-Free, Nightlife, Restaurants, Bars, Italian, Wine Bars, Cocktail Bars"
"368",59357,"Sky Mediterranean Lounge & Cuisine","Parma Heights","OH","44130",41.3862993,-81.7677218,"1","Bars, Nightlife, Mediterranean, Cocktail Bars, Restaurants"
"369",185314,"Insomnia Restaurant & Lounge","Toronto","ON","M5S 1Y6",43.6651314099,-79.4108515895,"1","French, Bars, Caterers, Canadian (New), Breakfast & Brunch, Lounges, Restaurants, Cocktail Bars, International, Mediterranean, Event Planning & Services, Nightlife, Comfort Food"
"370",80172,"The Local Bar","Strongsville","OH","44136",41.3077299,-81.8333257,"1","Arts & Entertainment, Cocktail Bars, Beer Bar, Music Venues, Restaurants, Bars, American (Traditional), Nightlife"
"371",8407,"Lipstick & Dynamite","Toronto","ON","M6J 1H1",43.6444125,-79.4183518,"1","Restaurants, Bars, Nightlife, Dive Bars, Cocktail Bars, Vegetarian"
"372",106165,"5030 Cocktail Lounge","Glendale","AZ","85302",33.5823224,-112.1676587,"1","Cocktail Bars, Bars, Lounges, Nightlife"
"373",74687,"The Underground - The Mob Museum","Las Vegas","NV","89101",36.1728228,-115.1412524,"1","Bars, Nightlife, Speakeasies, Cocktail Bars"
"374",185968,"The Glass House","Glendale","AZ","85301",33.5533622,-112.1709188,"1","Nightlife, Restaurants, Lounges, American (New), Cocktail Bars, Bars"
"375",21102,"Sasha's Kitchen & Cocktails","Chandler","AZ","85225",33.3020089,-111.8424046,"1","Nightlife, Bars, American (New), Restaurants, Cocktail Bars, Salad, Lounges"
"376",98993,"Bacán Restobar","Carefree","AZ","85377",33.8260231,-111.9234184,"0","Restaurants, Latin American, Cocktail Bars, Tapas/Small Plates, Bars, Nightlife"
"377",123582,"Canal Lounge","Montréal","QC","H4C 3L8",45.478667,-73.57522,"1","Nightlife, Cocktail Bars, Restaurants, Cafes, Bars"
"378",125083,"Boar & Barrel","Madison","WI","53703",43.0766274,-89.3839725,"1","Tapas Bars, Bars, Nightlife, Cocktail Bars, Whiskey Bars, Restaurants, Wine Bars"
"379",97386,"Tonic Bar & Grill","Pittsburgh","PA","15222",40.4438693,-79.995512,"0","Bars, Restaurants, Cocktail Bars, American (Traditional), Nightlife"
"380",6896,"The X Club","Mississauga","ON","L4W 1V6",43.6432732,-79.6255588,"1","Lounges, Nightlife, Dance Clubs, Cocktail Bars, Bars"
"381",112734,"Winking Lizard Tavern","Beachwood","OH","44122",41.4671716,-81.493731,"1","Bars, Restaurants, American (Traditional), Cocktail Bars, Burgers, Beer, Wine & Spirits, Nightlife, Pubs, Sandwiches, Food"
"382",152739,"Bitters Bar & Food","Scottsdale","AZ","85257",33.4644255891,-111.9257825865,"1","Tapas/Small Plates, Nightlife, Bars, Beer Bar, Cocktail Bars, Restaurants, Gastropubs"
"383",97117,"Bonefish Grill","Matthews","NC","28105",35.1302942813,-80.7118407022,"1","Seafood, American (New), Cocktail Bars, Restaurants, Bars, Nightlife"
"384",153016,"AVA Bar & Lounge","Pittsburgh","PA","15206",40.4603426,-79.9250006,"0","Music Venues, Lounges, Arts & Entertainment, Cocktail Bars, Nightlife, Bars"
"385",171621,"Elite Cabaret","Tempe","AZ","85281",33.4394126,-111.910309,"1","Arts & Entertainment, Strip Clubs, Nightlife, Bars, Cabaret, Adult Entertainment, Cocktail Bars, Dance Clubs"
"386",170455,"The Vig McCormick","Scottsdale","AZ","85258",33.5430289,-111.9052457,"1","Breakfast & Brunch, Beer Bar, Gastropubs, Cocktail Bars, Nightlife, American (New), Food, Bars, Restaurants, Beer, Wine & Spirits, American (Traditional)"
"387",75281,"Carmella's Plates & Pints","Pittsburgh","PA","15203",40.4283922158,-79.9787491187,"1","Nightlife, Restaurants, Breakfast & Brunch, Burgers, Cocktail Bars, American (New), Bars"
"388",41736,"Provenance","Cleveland","OH","44106",41.509041,-81.6120703,"1","Restaurants, Cafes, Arts & Entertainment, American (New), Beer Bar, Breakfast & Brunch, Nightlife, Museums, Cocktail Bars, Bars"
"389",85271,"Spork Pit","Pittsburgh","PA","15224",40.4648998995,-79.936539866,"1","Restaurants, American (Traditional), Cocktail Bars, Desserts, Dinner Theater, Food, Nightlife, Barbeque, Bars"
"390",76818,"Meritage - An Urban Tavern","Phoenix","AZ","85054",33.6835743,-111.965985,"1","Beer Bar, Restaurants, Food, Desserts, Bars, Cocktail Bars, Lounges, Steakhouses, Nightlife, American (New), Wine Bars, Sports Bars, Beer, Wine & Spirits"
"391",127306,"Draco Markham","Markham","ON","L6G 1B3",43.849865,-79.3241989,"1","Nightlife, Restaurants, Canadian (New), Bars, Cocktail Bars, Asian Fusion, Lounges"
"392",62392,"Le Dorchester Cuisine et Complicités","Saint-Jean-sur-Richelieu","QC","J3B 6X9",45.306856,-73.2512184,"1","Canadian (New), Bars, Nightlife, Cocktail Bars, Pubs, Restaurants"
"393",62044,"Fiore Travel Lounge","Las Vegas","NV","89119",36.0693282,-115.1765954,"1","Travel Services, Bars, Hotels & Travel, Cocktail Bars, Nightlife"
"394",53517,"Cactus Club Cafe","Toronto","ON","M5H 1P9",43.6493839,-79.3825073,"1","Restaurants, Cocktail Bars, Nightlife, Canadian (New), Bars"
"395",6962,"Wunderbar","Montréal","QC","H2Z 1R1",45.5020911,-73.5619261,"0","Nightlife, Local Flavor, Bars, Event Planning & Services, Hotels, Cocktail Bars, Lounges, Dance Clubs, Hotels & Travel"
"396",136103,"Hy's Steakhouse & Cocktail Bar","Calgary","AB","T2P 4K8",51.0459732605,-114.0707984939,"1","Bars, Nightlife, Restaurants, Lounges, Cocktail Bars, Steakhouses"
"397",42892,"Piccolina's","Pittsburgh","PA","15241",40.34659,-80.0831979,"0","American (New), Italian, Nightlife, Restaurants, Bars, Wine Bars, Cocktail Bars"
"398",9032,"The Golden Tiki","Las Vegas","NV","89102",36.1261397025,-115.1922846883,"1","Nightlife, Tiki Bars, Lounges, Venues & Event Spaces, Cocktail Bars, Bars, Arts & Entertainment, Event Planning & Services, Music Venues"
"399",148597,"Kindred Restaurant","Davidson","NC","28036",35.499909804,-80.8483528619,"1","Restaurants, Nightlife, American (New), Diners, Cocktail Bars, Bars"
"400",105604,"The Yard at Farmer Arts District","Tempe","AZ","85281",33.4287157292,-111.9441233359,"1","American (New), Beer Gardens, Restaurants, Bars, Nightlife, Cocktail Bars, American (Traditional)"
"401",179988,"Ufficio","Toronto","ON","M6J 3B1",43.6494871,-79.4230537,"1","Vegetarian, Restaurants, Cocktail Bars, Nightlife, Bars, Seafood"
"402",53466,"East Thirty-Six","Toronto","ON","M5E 1C7",43.6484529,-79.3750706,"1","Cocktail Bars, Breakfast & Brunch, Nightlife, Bars, Canadian (New), Restaurants"
"403",144010,"Randolph Pub Ludique","Montréal","QC","H2G 2J8",45.5478324076,-73.5928204673,"1","Shopping, Cocktail Bars, Restaurants, Social Clubs, Arts & Entertainment, Bars, Food, Pubs, Cafes, Breweries, Hobby Shops, Nightlife"
"404",150842,"Zócalo Tequilería","Cleveland","OH","44115",41.4987176,-81.6899059,"1","Mexican, Restaurants, Bars, Cocktail Bars, Seafood, Nightlife"
"405",17889,"Pray Tell","Toronto","ON","M6H 1A2",43.6544412,-79.4230321,"1","Restaurants, Tapas/Small Plates, Nightlife, Tapas Bars, Breakfast & Brunch, Bars, Cocktail Bars"
"406",152420,"Thirsty Scholar Bar & Grille","Pittsburgh","PA","15213",40.4414823439,-79.9586161226,"1","Bars, Cocktail Bars, Sports Bars, Food, Beer, Wine & Spirits, Beer Bar, Nightlife, American (Traditional), Restaurants"
"407",66394,"Beverly on Main","Scottdale","AZ","85251",33.4932189,-111.929765,"1","Bars, American (New), Cocktail Bars, Restaurants, Nightlife"
"408",57580,"Nightowl","Toronto","ON","M6G 1B7",43.6546916,-79.4157868,"1","Nightlife, Restaurants, Music Venues, Canadian (New), Bars, Arts & Entertainment, Arcades, Cocktail Bars"
"409",68583,"Momofuku Nikai","Toronto","ON","M5H 0A3",43.6493689,-79.3859219,"0","Event Planning & Services, Venues & Event Spaces, Nightlife, Cocktail Bars, Lounges, Beer, Wine & Spirits, Desserts, Food, Bars"
"410",189587,"Merchant & Trade","Charlotte","NC","28202",35.226305,-80.846672,"1","Bars, American (New), Nightlife, Restaurants, Cocktail Bars, Lounges"
"411",167243,"Maison June Rose","Montréal","QC","H2W 1N3",45.5152754,-73.5747548,"0","Buffets, Bars, Cocktail Bars, Restaurants, Nightlife, Chinese"
"412",108811,"The Roof","Las Vegas","NV","89101",36.168984,-115.1407265,"1","Nightlife, Lounges, Bars, Cocktail Bars"
"413",13622,"Figures","Toronto","ON","M5R 2H7",43.6739721,-79.396012,"1","Restaurants, Lounges, Cocktail Bars, Nightlife, Bars, Tapas/Small Plates"
"414",112339,"Hand Cut Burgers & Chophouse","Scottsdale","AZ","85251",33.5012802443,-111.9285190939,"1","American (New), Restaurants, Steakhouses, Cocktail Bars, Burgers, Bars, Nightlife"
"415",21615,"Gallery Grill","Toronto","ON","M5S 3H3",43.6639483,-79.3941405,"0","Venues & Event Spaces, Event Planning & Services, American (New), Bars, Cocktail Bars, Restaurants, Nightlife, Canadian (New)"
"416",146168,"ROCKSALT - Charlotte","Charlotte","NC","28209",35.172816,-80.8468823,"1","Restaurants, Breakfast & Brunch, Seafood, American (Traditional), Nightlife, Bars, Cocktail Bars"
"417",55415,"Green Forest Churrascaria","Pittsburgh","PA","15235",40.446357054,-79.826819346,"1","Lounges, Bars, Nightlife, Brazilian, Steakhouses, Latin American, Restaurants, Cocktail Bars"
"418",122262,"Tempe Public Market Cafe","Tempe","AZ","85284",33.3353306334,-111.9278180972,"1","Bars, Cafes, Cocktail Bars, Restaurants, American (New), Internet Cafes, Nightlife, Breakfast & Brunch, Food"
"419",117374,"Earls Kitchen + Bar","Woodbridge","ON","L4L 0B7",43.7871184,-79.5434402,"1","Bars, Canadian (New), American (New), Comfort Food, Cocktail Bars, Nightlife, Restaurants"
"420",93113,"The Local","Phoenix","AZ","85004",33.459054,-112.068953,"0","Bars, Nightlife, Restaurants, Cocktail Bars, American (New)"
"421",190839,"Famous Last Words","Toronto","ON","M6P 2R1",43.6652340801,-79.4688493626,"1","Nightlife, Cocktail Bars, Bars"
"422",159253,"Hambar","Montréal","QC","H2Y 2E8",45.500091,-73.556718,"1","Event Planning & Services, Hotels, Restaurants, Wine Bars, Cocktail Bars, Hotels & Travel, Food, Bars, Nightlife, Modern European, Canadian (New)"
"423",110489,"The Wickson Social","Toronto","ON","M4Y 1Z3",43.6659578,-79.3854723,"1","Bars, Beer, Wine & Spirits, Restaurants, Cocktail Bars, Nightlife, Food, Canadian (New)"
"424",32731,"Eggspectation","Longueuil","QC","J4N 1A3",45.538662,-73.473353,"1","Nightlife, Restaurants, Cafes, Cocktail Bars, Bars, Breakfast & Brunch"
"425",140637,"Midway","Montréal","QC","H2X 2S6",45.50974,-73.563279,"1","Beer Bar, Nightlife, Bars, Cocktail Bars, Restaurants, Brasseries"
"426",104563,"Pastina Rustic Italian","Mentor","OH","44060",41.6781850213,-81.30492948,"1","Italian, Cocktail Bars, Bars, Restaurants, Wine Bars, Nightlife"
"427",159444,"Kemestre Bar Gourmet","Montréal","QC","H3G",45.4954302,-73.5771811,"1","Bistros, Bars, Restaurants, Nightlife, Cocktail Bars, Lounges"
"428",192530,"Fuel Bar","Las Vegas","NV","89109",36.112272,-115.1727964,"1","Nightlife, Cocktail Bars, Bars"
"429",17645,"Drink. Bar & Grill","Cleveland","OH","44109",41.439904,-81.7067,"0","Tapas/Small Plates, Nightlife, Restaurants, Cocktail Bars, Bars, American (New), Lounges"
"430",2482,"Bar Sake & Robata Grill","Las Vegas","NV","89109",36.1362611,-115.1512539,"1","Sushi Bars, Nightlife, Cocktail Bars, Bars, Japanese, Restaurants"
"431",101773,"Arcadian Food & Drink","Cleveland","OH","44102",41.4843199,-81.7301109,"0","Breakfast & Brunch, Bars, Pizza, Restaurants, Seafood, Nightlife, Cocktail Bars"
"432",27686,"Corduroy","Phoenix","AZ","85004",33.4768373225,-112.0735914633,"0","Breakfast & Brunch, Burgers, Mediterranean, Spanish, Modern European, Sandwiches, Comfort Food, Cocktail Bars, American (Traditional), Tapas/Small Plates, Restaurants, Bars, Nightlife"
"433",152904,"Prohibition Gaming Bar & Grill","Las Vegas","NV","89103",36.1079925,-115.1992921,"0","Bars, Sports Bars, Nightlife, Cocktail Bars, American (Traditional), Restaurants, Food"
"434",180464,"The Rustic Social House","Toronto","ON","M8V",43.6300462551,-79.476598056,"1","Cocktail Bars, Nightlife, Gastropubs, Bars, Restaurants"
"435",125837,"Bravo! Cucina Italiana","Woodmere","OH","44122",41.4627137,-81.4738726,"1","Bars, Gluten-Free, Restaurants, Italian, Cocktail Bars, Nightlife"
"436",90199,"Casbah","Pittsburgh","PA","15206",40.4581413,-79.9248403,"1","Restaurants, Bars, Cocktail Bars, Wine Bars, Diners, Mediterranean, Nightlife, Greek, Breakfast & Brunch"
"437",167524,"Savoy","Toronto","ON","M6J 1J5",43.6430513,-79.4253981,"1","Bars, Restaurants, Cocktail Bars, Nightlife"
"438",164139,"Bakersfield","Pittsburgh","PA","15222",40.444065,-79.996632,"1","Nightlife, Bars, Tacos, Cocktail Bars, American (New), Seafood, Mexican, Restaurants"
"439",45625,"Spago by Wolfgang Puck","Las Vegas","NV","89109",36.113867,-115.174148,"1","Restaurants, Nightlife, Bars, American (Traditional), American (New), Pizza, Cocktail Bars, Italian"
"440",152593,"Primo Prime","Charlotte","NC","28207",35.1975303,-80.8255385,"1","Bars, Seafood, Restaurants, Italian, Nightlife, Steakhouses, Cocktail Bars, Wine Bars"
"441",96025,"The Spotted Owl","Cleveland","OH","44113",41.4806366,-81.683927,"1","Cocktail Bars, Bars, Nightlife"
"442",80505,"The Men's Club of Charlotte","Charlotte","NC","28217",35.1600389263,-80.8864329815,"1","American (Traditional), Restaurants, Nightlife, Cocktail Bars, American (New), Adult Entertainment, Bars"
"443",158442,"Habitant","Toronto","ON","M6A 2T9",43.7246843,-79.4541729,"1","Tapas/Small Plates, Cocktail Bars, Tapas Bars, Nightlife, American (New), Restaurants, Bars"
"444",63881,"Bar Boulevard","Las Vegas","NV","89120",36.0857525,-115.1037743,"1","Cocktail Bars, Nightlife, Sports Bars, Vegan, Restaurants, Bars"
"445",187699,"Helles & Dunkel","Charlotte","NC","28203",35.2160363,-80.8538011,"0","Cocktail Bars, Pizza, American (New), Sushi Bars, Music Venues, Barbeque, Food, Bars, Nightlife, Restaurants, Sports Bars, Arts & Entertainment, Sandwiches, Karaoke, Breweries, Pubs"
"446",62171,"The Bar","Phoenix","AZ","85016",33.4960222,-112.0140681,"1","Bars, Nightlife, Gastropubs, Cocktail Bars, Dive Bars, Sports Bars, American (Traditional), Restaurants"
"447",9714,"Farm & Craft","Phoenix","AZ","85014",33.5177994,-112.0654413,"1","American (New), Restaurants, Bars, Juice Bars & Smoothies, Food, Salad, Nightlife, Breakfast & Brunch, Vegetarian, Cocktail Bars"
"448",8007,"7th & Carson","Las Vegas","NV","89101",36.1674011,-115.1394534,"1","Tapas Bars, Bars, Cocktail Bars, Restaurants, Burgers, Pubs, American (New), Breakfast & Brunch, Nightlife"
"449",81010,"Reverie at The Park","Toronto","ON","M6G 1B2",43.6551596,-79.412779,"1","Nightlife, Canadian (New), Cocktail Bars, Restaurants, Bars"
"450",132337,"Atomic Liquors","Las Vegas","NV","89101",36.1667913,-115.1355082,"1","Beer Bar, Dive Bars, Cocktail Bars, Wine Bars, Bars, Nightlife, Pubs, Food, Beer, Wine & Spirits"
"451",151233,"Juniper Cocktail Lounge","Las Vegas","NV","89109",36.104611,-115.176034,"1","Bars, Nightlife, Cocktail Bars"
"452",41317,"Re:bar","Cleveland","OH","44115",41.4985717391,-81.6853002459,"1","Wine Bars, Bars, Nightlife, Cocktail Bars, Beer Bar"
"453",143794,"Irene's Cocktail Lounge","Las Vegas","NV","89146",36.1262998,-115.2161954,"1","Bars, Cocktail Bars, Restaurants, Lounges, American (Traditional), Nightlife"
"454",160309,"Rebol","Cleveland","OH","44113",41.4991435,-81.694455,"1","Nightlife, Coffee & Tea, Cocktail Bars, Cafes, Food, Beer Bar, Breakfast & Brunch, Restaurants, Bars"
"455",171491,"EVO","Scottsdale","AZ","85251",33.4966639,-111.9299885,"1","Pizza, Italian, Nightlife, Restaurants, Bars, American (New), Cocktail Bars"
"456",110456,"The Fairmount","Cleveland Heights","OH","44106",41.5008841,-81.5926564,"1","Nightlife, Cocktail Bars, Bars, Wine Bars, Restaurants, American (New)"
"457",159300,"Valdez","Toronto","ON","M5V 1M6",43.6444801,-79.4005463,"0","Bars, Latin American, Barbeque, Cocktail Bars, Restaurants, Nightlife"
"458",94486,"Nuit Social","Toronto","ON","M6J 1J5",43.6429593,-79.4254188,"1","Diners, Restaurants, Wine Bars, Nightlife, Canadian (New), Cocktail Bars, Modern European, Bars, French"
"459",127316,"Refinery Public House","Toronto","ON","M8V 1K5",43.5997903,-79.5091289,"1","Burgers, Pubs, Gastropubs, Restaurants, Bars, Nightlife, Diners, Salad, Cocktail Bars"
"460",10563,"Tropicalyyc","Calgary","AB","T2T 0E3",51.0381349,-114.094277,"1","Nightlife, Restaurants, Mexican, Cocktail Bars, Tex-Mex, Latin American, Bars, Colombian"
"461",64635,"Inspire","Las Vegas","NV","89101",36.1690188918,-115.1403762773,"1","Venues & Event Spaces, Internet Cafes, Newspapers & Magazines, Dance Clubs, Coffee & Tea, Food, Cultural Center, Arts & Entertainment, Cinema, Event Planning & Services, Cocktail Bars, Performing Arts, Shopping, Nightlife, Books, Mags, Music & Video, Lounges, Bars, Music Venues"
"462",188158,"Bazille","Toronto","ON","M9C 1B8",43.6116933,-79.557183,"1","Restaurants, Cocktail Bars, Bars, Brasseries, Canadian (New), American (Traditional), French, Nightlife"
"463",140103,"Blue Olive Lounge Ballantyne","Charlotte","NC","28277",35.0557995,-80.8536497,"1","Hookah Bars, Lounges, Nightlife, Bars, Cocktail Bars"
"464",36380,"Franks'pub & Grill 88","Bethel Park","PA","15102",40.3247133,-80.0260237,"0","Bars, Pubs, Cocktail Bars, Nightlife, American (Traditional), Restaurants"
"465",50400,"Mojito Hut","Las Vegas","NV","89109",36.115138,-115.1736082344,"1","Food, Beer, Wine & Spirits, Asian Fusion, Nightlife, Bars, Cocktail Bars, Restaurants"
"466",76630,"The Glass House","Charlotte","NC","28209",35.1746489,-80.8397621,"0","Bars, Cocktail Bars, Wine Bars, Local Flavor, Nightlife"
"467",71047,"ALIBI Ultra Lounge","Las Vegas","NV","89109",36.1074417493,-115.1770343687,"1","Nightlife, Cocktail Bars, Lounges, Bars"
"468",153732,"Akron City Tavern","Akron","OH","44310",41.1064302921,-81.5108124912,"0","Restaurants, Food, Bars, Beer Bar, American (New), Gluten-Free, Lounges, Nightlife, Seafood, Beer, Wine & Spirits, American (Traditional), Cocktail Bars, Hot Dogs"
"469",105456,"Maezo - Modern Indian Cuisine","Toronto","ON","M5H 1W2",43.650911,-79.3819568,"1","Asian Fusion, Pakistani, Halal, Bars, Canadian (New), Indian, International, Nightlife, Cocktail Bars, Restaurants"
"470",166278,"Bang Sue Bar","Toronto","ON","M5V 2H5",43.6464107,-79.3934801,"1","Restaurants, Beer Bar, Bars, Cocktail Bars, Nightlife, Thai"
"471",45658,"JIAO","Montréal","QC","H2Y 1V2",45.5016064,-73.5593092,"1","Cocktail Bars, Bars, Nightlife, Restaurants, Chinese, Dim Sum"
"472",186451,"LoPan","Toronto","ON","M6G 1A5",43.655849,-79.4098724,"1","Bars, Nightlife, Chinese, Restaurants, Cocktail Bars, Asian Fusion"
"473",150939,"Kitchen 56","Phoenix","AZ","85018",33.4885902682,-111.9603502024,"1","Restaurants, American (New), Breakfast & Brunch, Nightlife, Bars, Cocktail Bars"
"474",168254,"Dolce Vita Wine Bar","Charlotte","NC","28205",35.247357,-80.8056579,"0","Beer, Wine & Spirits, Cocktail Bars, Wine Bars, Pizza, Food, Restaurants, Bars, Nightlife"
"475",15597,"Villa Peru Restaurant & Bar","Tempe","AZ","85281",33.4508772606,-111.9251943202,"0","Cocktail Bars, Bars, Restaurants, Nightlife, Peruvian, Latin American, Sandwiches"
"476",154821,"Whisky River ","Charlotte","NC","28202",35.2255945397,-80.8419853935,"1","Dance Clubs, Nightlife, Bars, American (Traditional), Cocktail Bars, Restaurants, Arts & Entertainment, Venues & Event Spaces, Event Planning & Services, Food, Music Venues, Sports Bars, Lounges, Beer, Wine & Spirits"
"477",184981,"LOT 41","Toronto","ON","M9W 1J3",43.6894228,-79.5780783,"1","Nightlife, Cocktail Bars, Lounges, Restaurants, Tapas/Small Plates, Bars, Canadian (New)"
"478",165208,"The Bees Knees","Phoenix","AZ","85016",33.5084731,-112.0294726,"1","Event Planning & Services, Wedding Planning, Venues & Event Spaces, Valet Services, Hotels, Cocktail Bars, Bars, Hotels & Travel, Party & Event Planning, Nightlife, Lounges"
"479",153704,"Whats Crackin Cafe","Mesa","AZ","85215",33.4659371,-111.6864275,"1","Beer Bar, Breakfast & Brunch, Barbeque, Caterers, Bars, Event Planning & Services, Nightlife, Acai Bowls, Wine Bars, Cafes, Restaurants, American (Traditional), Cocktail Bars, Food, Pubs, Coffee & Tea"
"480",158742,"Blue Clover Distillery","Scottsdale","AZ","85251",33.4952352,-111.9292135,"1","Bars, Nightlife, Food, Cocktail Bars, Breakfast & Brunch, Distilleries, Restaurants, American (New)"
"481",128435,"The Melting Pot - Fairview Park","Fairview Park","OH","44126",41.4613978,-81.8498051,"0","Salad, Cocktail Bars, Gluten-Free, Bars, Vegetarian, Fondue, Nightlife, Wine Bars, Restaurants"
"482",165438,"Zeppelin","Montréal","QC","H3T 1M1",45.497235138,-73.6228780076,"1","Bars, French, Nightlife, Restaurants, Cocktail Bars"
"483",23882,"Presidio Cocina Mexicana","Phoenix","AZ","85013",33.4799789,-112.0812875,"1","Cafes, Cocktail Bars, Mexican, Nightlife, Breakfast & Brunch, Food, Restaurants, Bars, Coffee & Tea, Beer, Wine & Spirits"
"484",56335,"Muramoto Downtown","Madison","WI","53703",43.0747897,-89.3812071306,"1","Cocktail Bars, Nightlife, Bars, Restaurants, Asian Fusion, Sushi Bars"
"485",106094,"Sanctum","Phoenix","AZ","85004",33.456008,-112.0741465,"1","Speakeasies, Bars, Restaurants, Breakfast & Brunch, Cocktail Bars, Nightlife"
"486",57742,"Bestellen","Toronto","ON","M6H 1A5",43.6535007,-79.427609,"0","Bars, Restaurants, Modern European, Cocktail Bars, Nightlife, Wine Bars"
"487",161027,"the 9","Cleveland","OH","44115",41.4997879,-81.6858092,"1","Lounges, Nightlife, Bars, Cocktail Bars"
"488",88135,"Zizzy","Las Vegas","NV","89102",36.125925,-115.197904,"1","Bars, Restaurants, Nightlife, Korean, Cocktail Bars, Karaoke"
"489",141306,"Rosina","Las Vegas","NV","89109",36.1242284,-115.1684696,"1","Bars, Cocktail Bars, Nightlife"
"490",114427,"Tequila Taqueria","Las Vegas","NV","89109",36.11386,-115.168798,"1","Cocktail Bars, Mexican, Nightlife, Beer Bar, Restaurants, Bars, Tex-Mex, Burgers"
"491",92810,"Kandy Bar","Charlotte","NC","28202",35.2253792,-80.8419644,"1","Cocktail Bars, Venues & Event Spaces, Wine Bars, Desserts, Food, Nightlife, Bars, Event Planning & Services"
"492",86095,"Hop Nuts Brewing","Las Vegas","NV","89104",36.157897,-115.153959,"1","Bars, Nightlife, Pubs, Beer, Wine & Spirits, Food, Breweries, Beer Bar, Cocktail Bars, Local Flavor"
"493",10321,"Dirty Diablo","Mesa","AZ","85204",33.4074511,-111.803846,"0","Sports Bars, Bars, Nightlife, Dive Bars, Cocktail Bars"
"494",163129,"Silver Wing's Grill","Scottsdale","AZ","85260",33.6215659,-111.9177355,"1","Cocktail Bars, Bars, American (Traditional), Nightlife, Restaurants"
"495",112260,"Sip Coffee & Beer Garage","Phoenix","AZ","85018",33.4954355191,-112.0035115621,"1","Cocktail Bars, Bars, Nightlife, Food, Restaurants, Coffee & Tea, Beer Bar, Gastropubs, Beer, Wine & Spirits"
"496",5873,"Pinkerton Snack Bar","Toronto","ON","M4M 1Z5",43.6689715,-79.337279,"1","Cocktail Bars, Restaurants, Pubs, Nightlife, Tapas/Small Plates, Bars"
"497",141278,"The Maharaja","Mississauga","ON","L5R 1Y3",43.5985631,-79.6606921,"1","Lounges, Indian, Nightlife, Caterers, Restaurants, Event Planning & Services, Bars, Beer, Wine & Spirits, Pakistani, Food, Diners, Halal, Cocktail Bars, Wine Bars"
"498",173656,"Slick's Garage","Peoria","AZ","85382",33.6354989,-112.2348482,"0","Cocktail Bars, Nightlife, Restaurants, Bars, New Mexican Cuisine, Pubs, Sandwiches, Burgers"
"499",13076,"Squirly's","Toronto","ON","M6J 1G1",43.6460948,-79.4088935,"1","Comfort Food, Lounges, Restaurants, Pubs, Dive Bars, Bars, American (Traditional), Nightlife, Chicken Wings, Cocktail Bars"
"500",11582,"Larb Thai Restaurant","Brunswick","OH","44212",41.2630106222,-81.8416246343,"1","Restaurants, Bars, Nightlife, Cocktail Bars, Thai"
"501",139278,"Cantina 1511","Charlotte","NC","28202",35.227290112,-80.8407104457,"0","Nightlife, Cocktail Bars, Sports Bars, New Mexican Cuisine, Bars, Restaurants, Mexican"
"502",37211,"The Cellar at Duckworth's","Charlotte","NC","28202",35.22924,-80.83971,"1","Bars, Nightlife, Tapas/Small Plates, Restaurants, Tapas Bars, Cocktail Bars, Lounges, Gastropubs, American (New)"
"503",53883,"The Smokery Kitchen & Bar","Whitchurch-Stouffville","ON","L4A 1A5",43.970551,-79.2510948,"1","Cocktail Bars, Nightlife, Breakfast & Brunch, Restaurants, Barbeque, Canadian (New), Southern, Bars, Food, Beer, Wine & Spirits, Sandwiches"
"504",118214,"Yard House","Phoenix","AZ","85050",33.6762340435,-111.9711772712,"1","American (Traditional), Asian Fusion, Bars, Steakhouses, Restaurants, Vegetarian, Beer Bar, Seafood, American (New), Cocktail Bars, Wine Bars, Nightlife"
"505",46093,"Burgatory","Pittsburgh","PA","15237",40.5695679669,-80.0216548944,"1","Bars, Burgers, Nightlife, American (New), Juice Bars & Smoothies, Beer Bar, Cocktail Bars, Food, Restaurants"
"506",82545,"SouthBound","Charlotte","NC","28203",35.2032555,-80.8639402,"1","Mexican, Restaurants, Cocktail Bars, Bars, Tapas/Small Plates, Nightlife, Tex-Mex"
"507",153416,"7-Eleven Bar","Las Vegas","NV","89102",36.1437867,-115.2002977,"1","Food, Nightlife, Cocktail Bars, Convenience Stores, Sports Bars, Bars"
"508",189826,"Cube","Toronto","ON","M5V 2A2",43.6494766,-79.3942329,"1","Dance Clubs, Nightlife, Bars, Party & Event Planning, Lounges, Cocktail Bars, Event Planning & Services"
"509",50632,"The Rum Exchange","Toronto","ON","M5H 1Z5",43.6510505788,-79.3815592651,"0","Cocktail Bars, Bars, Nightlife, Lounges"
"510",81535,"O'Grady's Restaurant","Toronto","ON","M4Y 2C8",43.6644698518,-79.3806802952,"1","Pubs, Breakfast & Brunch, Bars, Cocktail Bars, Restaurants, Canadian (New), Nightlife"
"511",20469,"Blu Burger Grille","Scottsdale","AZ","85266",33.780022,-111.925077,"1","Fish & Chips, Restaurants, Fast Food, Sandwiches, American (Traditional), Cocktail Bars, Bars, Vegetarian, Burgers, Nightlife, Hot Dogs"
"512",126865,"P O Box 1192 Snack Bar","Toronto","ON","M4M 1L1",43.6630512586,-79.331557313,"0","Bars, Cocktail Bars, Lounges, Canadian (New), Nightlife, Restaurants"
"513",122465,"Bier's Pub","Pittsburgh","PA","15233",40.4520412,-80.0167679,"1","Brewpubs, Gastropubs, Breweries, Restaurants, Bars, Burgers, Food, Pubs, Nightlife, Cocktail Bars"
"514",153884,"Revolu Modern Taqueria Bar","Peoria","AZ","85382",33.6271972,-112.236954,"1","Cocktail Bars, Restaurants, Bars, Nightlife, Tacos, Breakfast & Brunch, Mexican"
"515",15947,"Poncho's Mexican Food and Cantina","Phoenix","AZ","85042",33.3811278489,-112.0736575958,"1","Nightlife, Mexican, Bars, Restaurants, Cocktail Bars"
"516",158259,"Eclipse Theaters","Las Vegas","NV","89101",36.1620239723,-115.1484273059,"1","Nightlife, American (New), Cinema, Arts & Entertainment, Bars, Cocktail Bars, Restaurants, Dinner Theater"
"517",11010,"Julio's Too","Scottsdale","AZ","85251",33.5019477,-111.9230686,"1","Mexican, Restaurants, Bars, Cocktail Bars, Nightlife"
"518",166637,"Le Parva","Montréal","QC","H2L 5C4",45.5156800161,-73.5626163166,"1","Food, Nightlife, Cafes, Coffee & Tea, Desserts, Cocktail Bars, Bistros, Restaurants, Breakfast & Brunch, Bars"
"519",24903,"Avenue Bar","Madison","WI","53703",43.085589,-89.3694529,"0","Fish & Chips, Cocktail Bars, Restaurants, Nightlife, American (Traditional), Bars"
"520",140461,"Modern Grove Views","Scottsdale","AZ","85256",33.5556735,-111.8769802,"1","Gastropubs, Nightlife, Bars, Event Planning & Services, Wine Bars, Sandwiches, Pizza, Breakfast & Brunch, American (Traditional), American (New), Restaurants, Venues & Event Spaces, Cocktail Bars"
"521",120627,"Yard House","Las Vegas","NV","89135",36.1567959455,-115.3343868256,"1","Food, American (Traditional), Vegetarian, Nightlife, Beer Bar, American (New), Wine Bars, Restaurants, Cocktail Bars, Asian Fusion, Beer, Wine & Spirits, Seafood, Bars, Steakhouses"
"522",171076,"L'Gros Luxe Plateau","Montréal","QC","H2L 1A5",45.5215356836,-73.5754337451,"1","Restaurants, Cocktail Bars, Vegan, Canadian (New), Diners, Bars, Vegetarian, Nightlife, Breakfast & Brunch, Burgers, Sandwiches"
"523",49932,"Pearlz Oyster Bar","Charlotte","NC","28277",35.060801,-80.814302,"1","Seafood, Bars, Restaurants, Nightlife, Cocktail Bars"
"524",110744,"1923 Bourbon Bar","Las Vegas","NV","89119",36.0931872364,-115.1763031335,"1","Venues & Event Spaces, Cocktail Bars, Arts & Entertainment, Lounges, Nightlife, Restaurants, Bars, American (Traditional), Event Planning & Services, Music Venues"
"525",148463,"Prohibition Gastrohouse","Toronto","ON","M4P 3A4",43.7070968174,-79.3972781559,"1","Restaurants, Gastropubs, Sports Bars, Bars, American (Traditional), Cocktail Bars, Nightlife"
"526",98960,"Campus Inn","Madison","WI","53703",43.075514,-89.395657,"0","Bed & Breakfast, Nightlife, Bars, American (Traditional), Cocktail Bars, Restaurants, Event Planning & Services, Hotels & Travel, Hotels"
"527",102404,"The Saguaro Restaurant","Scottsdale","AZ","85251",33.4941213,-111.9227616,"0","Sandwiches, Restaurants, Nightlife, Salad, Bars, Venues & Event Spaces, American (Traditional), Event Planning & Services, Cocktail Bars"
"528",115097,"The Delightfully Peculiar Cocktail Academy","Phoenix","AZ","85016",33.5089836,-112.0339775,"0","Nightlife, Education, Local Flavor, Adult Education, Bars, Cocktail Bars"
"529",64185,"Loveless","Toronto","ON","M6J 1Y5",43.6497122618,-79.4298768596,"1","Canadian (New), Cocktail Bars, Cafes, Lounges, Restaurants, Nightlife, Bars"
"530",100767,"Catalyst Bar","Las Vegas","NV","",36.1146471473,-115.1728159189,"1","Cocktail Bars, Nightlife, Bars"
"531",31195,"Gegus In Four Points by Sheraton Phoenix Mesa Gateway","Mesa","AZ","85212",33.3080199132,-111.6851402659,"1","Food, Bars, Coffee & Tea, Nightlife, Breakfast & Brunch, American (Traditional), Cocktail Bars, Restaurants"
"532",105890,"Slate Billiards","Charlotte","NC","28203",35.216576,-80.854651,"1","Event Planning & Services, Nightlife, Cocktail Bars, Party & Event Planning, Pool Halls, Bars"
"533",57732,"The French Creek Grill & Tavern","Avon","OH","44011",41.4516222,-82.0354909,"0","American (New), Food, Bars, Restaurants, Nightlife, Cocktail Bars"
"534",6244,"The Summit","Pittsburgh","PA","15211",40.4307117137,-80.0074910503,"1","Bars, Restaurants, American (New), Lounges, Cocktail Bars, Wine Bars, Nightlife, Pubs"
"535",62537,"Bar Louie","Cleveland","OH","44113",41.4992728414,-81.6986650228,"1","Italian, Restaurants, Bars, Nightlife, Cocktail Bars, American (New)"
"536",105697,"Monterey Bay Fish Grotto","Pittsburgh","PA","15211",40.439059,-80.021242,"1","Cocktail Bars, Wine Bars, Nightlife, Seafood, Bars, Restaurants"
"537",153782,"El Pequeño Bar","Montréal","QC","H2Y 1G8",45.5071216,-73.553145,"1","Sandwiches, Cocktail Bars, Nightlife, Bars, Cuban, Restaurants"
"538",62288,"Pink Rhino Cabaret","Phoenix","AZ","85008",33.4503086,-112.0034168,"0","Adult Entertainment, Nightlife, Bars, Sports Bars, Cocktail Bars, Champagne Bars"
"539",38547,"Bonefish Grill","Charlotte","NC","28226",35.088748,-80.8451741,"1","Seafood, Restaurants, American (New), Nightlife, Bars, Cocktail Bars"
"540",29642,"Surreal Nightlife & Bottle Service","Las Vegas","NV","89109",36.128561,-115.1711298,"1","Event Planning & Services, Arts & Entertainment, Nightlife, Cocktail Bars, Ticket Sales, Party Supplies, Bars, Dance Clubs, Party & Event Planning, Adult Entertainment"
"541",32838,"R-Time At Rene's","East Mc Keesport","PA","15035",40.3829966,-79.8102765,"1","Beer, Wine & Spirits, Restaurants, Mexican, Bars, American (Traditional), Lounges, Food, Cocktail Bars, Nightlife, Seafood, Italian"
"542",1650,"Pinstripes","Orange Village","OH","44022",41.4545137971,-81.4867730786,"1","Nightlife, American (New), Event Planning & Services, Active Life, Restaurants, Bowling, Cocktail Bars, Venues & Event Spaces, Bars"
"543",48269,"Esther's Kitchen","Las Vegas","NV","89104",36.1575507132,-115.152820746,"1","Cocktail Bars, Bars, Pizza, American (New), Nightlife, Breakfast & Brunch, Italian, Tuscan, Soul Food, Restaurants"
"544",100632,"Le Lab","Montréal","QC","H2X 1L5",45.5127197,-73.5616129,"1","Nightlife, Restaurants, Tapas/Small Plates, Cocktail Bars, Bars"
"545",123134,"UnderTow","Phoenix","AZ","85018",33.4956335313,-112.0034688279,"1","Tiki Bars, Nightlife, Bars, Cocktail Bars"
"546",3903,"Lili.Co","Montréal","QC","H2T 1K8",45.5215058,-73.5892091,"0","Breakfast & Brunch, Canadian (New), Nightlife, Cocktail Bars, Diners, Bars, Restaurants"
"547",183956,"Partage","Las Vegas","NV","89102",36.1261759,-115.1909378,"1","French, Bars, Wine Bars, Nightlife, Restaurants, Cocktail Bars"
"548",31508,"Scullery","Las Vegas","NV","89101",36.1701490234,-115.1390696686,"0","Bars, Nightlife, Cocktail Bars, Music Venues, Arts & Entertainment, Cinema"
"549",187766,"Hawker Bar","Toronto","ON","M6J 2Z7",43.6482809,-79.4203829,"0","Australian, Nightlife, Bars, Restaurants, Cocktail Bars, Asian Fusion, Singaporean"
"550",96956,"Taco Guild","Phoenix","AZ","85012",33.4877467396,-112.0656646769,"1","Restaurants, Gastropubs, Mexican, Tex-Mex, Nightlife, Cocktail Bars, Bars"
"551",158335,"Gas Light Inn","Glendale","AZ","85301",33.5384602,-112.1833889,"0","Guest Houses, Sports Bars, Food, Cocktail Bars, Hotels & Travel, Nightlife, Hotels, Event Planning & Services, Coffee & Tea, Cafes, Restaurants, Venues & Event Spaces, Bed & Breakfast, Bars"
"552",146790,"Stoke Charlotte","Charlotte","NC","28202",35.2279912,-80.843388,"1","Southern, Bars, Cocktail Bars, Nightlife, American (New), Restaurants"
"553",67253,"Jukebox","Cleveland","OH","44113",41.4895582,-81.7108939,"1","Nightlife, Cocktail Bars, Arts & Entertainment, Music Venues, Bars, Restaurants"
"554",161219,"Across The Pond","Phoenix","AZ","85012",33.4975038,-112.0740325,"1","Cocktail Bars, Restaurants, Bars, Sushi Bars, Nightlife"
"555",68655,"Black Magic Wednesdays","Las Vegas","NV","89101",36.1688156,-115.1403259,"1","Nightlife, Comedy Clubs, Cocktail Bars, Bars, Performing Arts, Arts & Entertainment"
"556",101764,"CC Lounge & Whisky Bar","Toronto","ON","M5E 1B3",43.6479658,-79.3745153,"1","Bars, Nightlife, Lounges, Dance Clubs, Cocktail Bars, American (Traditional), Restaurants, Whiskey Bars"
"557",42162,"Libertine Social","Las Vegas","NV","89119",36.091256278,-115.1767653721,"1","Bars, Cocktail Bars, Gastropubs, Nightlife, Beer, Wine & Spirits, Food, American (New), Restaurants"
"558",5478,"Cluny Bistro & Boulangerie","Toronto","ON","M5A 3C4",43.6505879,-79.3578962,"1","Nightlife, Restaurants, Bars, Wine Bars, Cocktail Bars, French"
"559",19092,"Draft House","Munhall","PA","15120",40.3857397006,-79.9032932147,"1","Bars, Food, Breweries, Nightlife, Cocktail Bars"
"560",189665,"Panevino Italian Grille","Las Vegas","NV","89119",36.0708262285,-115.1628910428,"1","Italian, Nightlife, Beer, Wine & Spirits, Food, Vegan, Restaurants, Bars, Cocktail Bars"
"561",143777,"HY Lounge","Toronto","ON","M2N 5N4",43.7642857,-79.4115552,"0","Bars, Nightlife, Pubs, Lounges, Hookah Bars, Cocktail Bars"
"562",74984,"Mona's Lounge","Mooresville","NC","28117",35.5270946,-80.8670019,"0","Tapas Bars, Music Venues, Restaurants, Cocktail Bars, Bars, Arts & Entertainment, Nightlife, Sushi Bars"
"563",40793,"The Daily Tavern","Charlotte","NC","28202",35.2294337656,-80.8419475619,"1","Restaurants, Bars, Cocktail Bars, American (New), Pubs, Nightlife, Beer Bar"
"564",136375,"Market Street Kitchen","Scottsdale","AZ","85255",33.6748775,-111.888578,"0","Wine Bars, Bars, Nightlife, American (New), Chicken Shop, Seafood, American (Traditional), Steakhouses, Restaurants, Southern, Cocktail Bars"
"565",189824,"Club Copacabana","Montréal","QC","H3A 1M7",45.5006568,-73.574959,"0","Comedy Clubs, Shopping, Cocktail Bars, Bars, Nightlife, Dance Clubs, Adult Entertainment"
"566",150185,"Soco Kitchen and Bar","Toronto","ON","M5J 3A6",43.6426531323,-79.383846535,"1","Bars, Cocktail Bars, Canadian (New), Sports Bars, Mediterranean, Restaurants, Nightlife"
"567",69332,"Beer2Beer","Toronto","ON","M5T 2M2",43.6569165,-79.402666,"1","Pubs, Canadian (New), Nightlife, Gastropubs, Restaurants, Bars, Breakfast & Brunch, Beer Bar, Cocktail Bars"
"568",71447,"The Chocolate Bar","South Las Vegas","NV","89109",36.1023786,-115.1745465,"1","Bars, Nightlife, Cocktail Bars"
"569",184844,"Bar Six40","Scottsdale","AZ","85258",33.548747,-111.915692,"1","Beer, Wine & Spirits, Breakfast & Brunch, Lounges, American (Traditional), Nightlife, Food, Bars, Cocktail Bars, Restaurants, Coffee & Tea"
"570",30029,"Briggs Kitchen + Bar","Calgary","AB","T2R 0A5",51.04312345,-114.0696722441,"1","Nightlife, Sandwiches, Cocktail Bars, French, Canadian (New), Restaurants, American (New), Bars, Comfort Food"
"571",152272,"Miss Wong","Laval","QC","H7T 2Z1",45.561345,-73.743048,"1","Pan Asian, Cocktail Bars, Bars, Restaurants, Chinese, Nightlife"
"572",191245,"Essex Bar & Bistro","Charlotte","NC","28280",35.2264845,-80.8427089,"1","Mediterranean, Gastropubs, American (New), Cocktail Bars, Bars, Restaurants, Nightlife"
"573",183521,"Mother Tongue","Toronto","ON","M5W 1R7",43.6473654,-79.3932983,"1","Asian Fusion, Cocktail Bars, Nightlife, Bars, Restaurants"
"574",38384,"Good Food on Montford","Charlotte","NC","28209",35.1709628,-80.8483093,"1","Tapas/Small Plates, Cocktail Bars, American (New), Tapas Bars, Restaurants, Bars, Nightlife"
"575",32322,"Saveeda's American Bistro","Wesley Chapel","NC","28104",34.9997055,-80.6994116,"1","Restaurants, American (New), Cocktail Bars, Steakhouses, Food, Beer, Wine & Spirits, Seafood, Nightlife, Bars"
"576",162676,"5Church","Charlotte","NC","28202",35.2283622,-80.8427789,"1","Nightlife, Breakfast & Brunch, Desserts, Food, Cocktail Bars, American (New), Bars, Restaurants"
"577",81490,"Heck's Café","Avon","OH","44011",41.457915,-82.010263,"1","Cocktail Bars, Bars, Venues & Event Spaces, Burgers, American (New), Event Planning & Services, Breakfast & Brunch, Nightlife, Restaurants"
"578",120248,"Martini Bar","North Las Vegas","NV","89032",36.1977963,-115.1918552,"1","Bars, Cocktail Bars, Nightlife"
"579",180832,"Mayfair","Montréal","QC","H2J 2H1",45.5225329,-73.577701,"1","Lounges, Tea Rooms, Bars, Nightlife, Cocktail Bars, Food"
"580",104675,"New Bamboo","Phoenix","AZ","85022",33.6080928,-112.0663045,"0","Nightlife, Cocktail Bars, Bars, Chinese, Restaurants, Seafood"
"581",126679,"Sub Rosa","Calgary","AB","T2P 1B5",51.046049,-114.0661432,"1","Nightlife, Bars, Cocktail Bars, Lounges"
"582",58197,"Mr Flamingo","Toronto","ON","M6J 1X6",43.6493445,-79.4245016,"0","Bars, Nightlife, Canadian (New), Cocktail Bars, Restaurants"
"583",52731,"The Carbon Bar","Toronto","ON","M5C 1S2",43.6531872634,-79.3747868766,"1","Restaurants, Bars, Barbeque, Southern, Cocktail Bars, Canadian (New), American (Traditional), Nightlife"
"584",143977,"No Regrets Bar","Las Vegas","NV","89113",36.0668534,-115.2727308,"1","Sports Bars, Breakfast & Brunch, Cocktail Bars, Restaurants, Vegan, Bars, Nightlife"
"585",79037,"Earls Kitchen + Bar","Calgary","AB","T2Z",50.9314092847,-113.9613628237,"1","Restaurants, Comfort Food, American (New), Nightlife, Cocktail Bars, Canadian (New), Bars"
"586",59537,"Red Sauce","Toronto","ON","M6G 2Y3",43.6555203,-79.4141069,"0","Cocktail Bars, Nightlife, Restaurants, Bars, Italian"
"587",8218,"The Korean Kitchen","Toronto","ON","M6G 1L5",43.6636777,-79.4174415,"1","Cocktail Bars, Restaurants, Korean, Nightlife, Bars, Asian Fusion"
"588",71582,"Island Time Tiki Bar","Las Vegas","NV","89109",36.1141872929,-115.1714501104,"1","Nightlife, Cocktail Bars, Tiki Bars, Bars"
"589",166371,"Gorilla Whale","Calgary","AB","T2G 0T1",51.0419801509,-114.0359244123,"1","Restaurants, Cocktail Bars, Nightlife, Bars, Ramen, Japanese"
"590",106384,"Huis Clos","Montréal","QC","H2R 2E5",45.5407763,-73.622352,"1","Cocktail Bars, Bars, Canadian (New), Nightlife, Restaurants"
"591",109928,"Heist Brewery","Charlotte","NC","28205",35.2454231,-80.8094402,"1","Bars, Nightlife, Breweries, American (New), Beer Bar, Cocktail Bars, Food, Restaurants"
"592",152071,"Gonzalez Y Gonzalez Restaurant","Las Vegas","NV","89109",36.1030101,-115.1735187,"1","Desserts, Nightlife, Food, Cocktail Bars, Mexican, Restaurants, Bars"
"593",161619,"No Què No Mexican Grill","Scottsdale","AZ","85257",33.4749764662,-111.92538701,"0","Restaurants, Mexican, Cocktail Bars, Pizza, Bars, Nightlife, Breakfast & Brunch, Sports Bars"
"594",64152,"Montecristo Cigar Bar","Las Vegas","NV","89109",36.1167748465,-115.1753676902,"1","Shopping, Lounges, Bars, Tobacco Shops, Nightlife, Cocktail Bars"
"595",21096,"Three Hands","Toronto","ON","M6K 1T5",43.6498281723,-79.4330010104,"0","Soul Food, Restaurants, Nightlife, Bars, Cocktail Bars, Comfort Food"
"596",86470,"Bullocks Country Attitudes","Phoenix","AZ","85017",33.523626,-112.114287,"1","Cocktail Bars, Nightlife, Bars"
"597",9308,"Jekyll & Hyde Taphouse and Grill","Matthews","NC","28105",35.1189062,-80.7191897,"1","Cocktail Bars, Bars, American (New), Beer Bar, British, Restaurants, Nightlife, Gastropubs"
"598",80390,"Le White Rabbit","Longueuil","QC","J4K 2Y1",45.509409,-73.491529,"1","Pubs, Lounges, Bars, Beer Bar, Nightlife, Cocktail Bars"
"599",169928,"DW Bistro","Las Vegas","NV","89148",36.0842933813,-115.293878168,"1","New Mexican Cuisine, Caribbean, Cocktail Bars, American (Traditional), American (New), Restaurants, Nightlife, Bars"
"600",164509,"Silk Thai","Chandler","AZ","85248",33.2334016,-111.857963,"1","Thai, Bars, Vegan, Cocktail Bars, Gluten-Free, Nightlife, Restaurants, Asian Fusion"
"601",73645,"Atomic Koi","Fitchburg","WI","53711",43.0003778,-89.4258729,"1","Cocktail Bars, Bars, Lounges, Nightlife"
"602",134818,"SO Lounge","Glendale","AZ","85304",33.584254,-112.186859,"0","Lounges, Wine Bars, Cocktail Bars, Bars, Nightlife"
"603",152599,"Top Brass Restaurant & Cocktail Lounge","Calgary","AB","T2E 7C8",51.0804793,-114.0173933,"1","Restaurants, American (Traditional), Bars, Cocktail Bars, Chinese, Nightlife, Pool Halls, Sports Bars"
"604",163963,"Quintana's Speakeasy","Cleveland Heights","OH","44118",41.4998017,-81.5563647,"1","Lounges, Nightlife, Speakeasies, Bars, Arts & Entertainment, Jazz & Blues, Cocktail Bars"
"605",114461,"Linger Longer Lounge","Phoenix","AZ","85016",33.5318669,-112.047759,"1","Lounges, American (New), Bars, Cocktail Bars, Nightlife, Restaurants"
"606",120680,"Perché","Montréal","QC","H2Y 1E7",45.507285,-73.553193,"1","Restaurants, Seafood, Nightlife, Cocktail Bars, Bars"
"607",157220,"Hundred North Bar & Kitchen","Gilbert","AZ","85234",33.3517742628,-111.7897477307,"1","Sports Bars, Cocktail Bars, Restaurants, Bars, Nightlife"
"608",188995,"El Segundo Sol","Las Vegas","NV","89109",36.1275122369,-115.168868991,"1","Venues & Event Spaces, Bars, Nightlife, Restaurants, Food, Mexican, Event Planning & Services, Cocktail Bars"
"609",23996,"Big Grove Tavern","Champaign","IL","61820",40.1183809,-88.2429963,"1","Gastropubs, Cocktail Bars, Breakfast & Brunch, Pubs, Restaurants, Bars, American (New), Nightlife"
"610",152505,"811 Kitchen Bar Lounge","Cleveland","OH","44115",41.4989509,-81.6869719,"0","Restaurants, Lounges, Bars, American (New), Cocktail Bars, Nightlife"
"611",167877,"Le Jockey","Montréal","QC","H2G 1G7",45.5417719,-73.6030624,"1","Nightlife, Beer Bar, Cocktail Bars, Bars"
"612",71442,"Embers","Las Vegas","NV","89145",36.163671152,-115.2892949254,"0","Bars, Steakhouses, American (New), Cocktail Bars, Nightlife, Restaurants"
"613",7036,"Voodoo Child","Toronto","ON","M5T 1S7",43.6570499,-79.4055143,"1","Cafes, Breakfast & Brunch, Restaurants, Cocktail Bars, Nightlife, Food, Bars, Coffee & Tea"
"614",15312,"Bar Frenchman","Pittsburgh","PA","15206",40.4605376,-79.9270228,"0","French, Brasseries, Wine Bars, Nightlife, Bars, Restaurants, Cocktail Bars"
"615",158366,"Adam's Lounge","Glendale","AZ","85308",33.6532028,-112.2338633,"1","Cocktail Bars, Bars, Sports Bars, Nightlife, Lounges"
"616",74206,"Raw Bar","Calgary","AB","T2R 0G8",51.041094038,-114.0645044865,"1","Pan Asian, Cocktail Bars, Bars, Event Planning & Services, Canadian (New), Shopping, Vietnamese, Asian Fusion, American (New), Restaurants, Nightlife, Hotels, Hotels & Travel"
"617",106653,"The Monarch Tavern","Toronto","ON","M6J 2N8",43.6540394837,-79.4136736854,"1","Bars, Pubs, Comfort Food, Barbeque, Gluten-Free, Lounges, Sandwiches, Venues & Event Spaces, Restaurants, Event Planning & Services, Music Venues, Dive Bars, Cocktail Bars, Nightlife, Arts & Entertainment"
"618",175156,"Saint-Houblon","Montréal","QC","H3T 1X5",45.4975393,-73.6230179,"1","Brewpubs, Breweries, Nightlife, Food, Bars, Cocktail Bars, Restaurants, Pubs, Wine Bars, Brasseries"
"619",60802,"El Rey Mezcal Bar","Toronto","ON","M5T 2J7",43.6528135234,-79.4000687707,"1","Nightlife, Gastropubs, Mexican, Food, Specialty Food, Restaurants, Cocktail Bars, Bars"
"620",24225,"Plaza Bonita","Phoenix","AZ","85085",33.7977862,-112.120899,"1","Cocktail Bars, Mexican, Nightlife, Bars, Restaurants"
"621",82338,"Bandito Latin Kitchen & Cantina","Las Vegas","NV","89169",36.1153683,-115.1586233,"1","Tacos, Bars, Latin American, Restaurants, Cocktail Bars, Nightlife, Mexican"
"622",6606,"GoodFellas Restaurant & Tavern","Pittsburgh","PA","15218",40.422497,-79.8873228,"1","American (Traditional), Cocktail Bars, Restaurants, Nightlife, Bars"
"623",132653,"Twenty6","Phoenix","AZ","85054",33.6834408,-111.9660359,"1","Gelato, Nightlife, Cocktail Bars, Bars, Food, Lounges, Restaurants"
"624",39043,"Cloakroom Bar","Montréal","QC","H3G 1Z8",45.4994717,-73.5778401,"1","Bars, Nightlife, Cocktail Bars, Lounges"
"625",171572,"Idole","Montréal","QC","H2S 2M2",45.5357354602,-73.6024843138,"1","Bars, Nightlife, Cocktail Bars"
"626",86277,"Jade Bar","Paradise Valley","AZ","85253",33.5220578,-111.9592241,"1","Bars, Wine Bars, Nightlife, Beer Bar, Lounges, Cocktail Bars"
"627",102997,"Westside Les'","Glendale","AZ","85301",33.5096636473,-112.1691176668,"1","Nightlife, Cocktail Bars, Bars"
"628",130316,"SouthPark Grill","Charlotte","NC","28209",35.1546655668,-80.8375291311,"1","Nightlife, Cocktail Bars, Restaurants, Steakhouses, American (New), Beer, Wine & Spirits, American (Traditional), Wine Bars, Bars, Food, Breakfast & Brunch"
"629",145907,"Halcyon","Charlotte","NC","28202",35.224421,-80.848247,"1","Restaurants, American (New), Modern European, Burgers, Nightlife, Tapas/Small Plates, Cocktail Bars, Diners, Bars"
"630",104188,"NoMad Bar","Las Vegas","NV","89109",36.1042449,-115.1731709,"1","Bars, Cocktail Bars, Nightlife, Breakfast & Brunch, Restaurants, American (New), American (Traditional)"
"631",107606,"Browns Socialhouse Erin Mills","Oakville","ON","L6H 6C8",43.5202846151,-79.6834472939,"1","Burgers, Restaurants, Nightlife, Bars, Pubs, Canadian (New), Cocktail Bars, Asian Fusion"
"632",58770,"The International Bar","Las Vegas","NV","89109",36.1362611,-115.1512539,"1","Nightlife, Cocktail Bars, Bars"
"633",12994,"Yuzu","Lakewood","OH","44107",41.4768282,-81.7869709,"1","Japanese, Gastropubs, Tapas/Small Plates, Restaurants, Comfort Food, Asian Fusion, Nightlife, Cocktail Bars, Izakaya, Bars"
"634",109055,"Cocktail House","Durham Regional Municipality","ON","L0C",43.8584515007,-79.0794181824,"1","Cocktail Bars, Bars, Nightlife"
"635",124577,"Beach Club Cantina","Peoria","AZ","85345",33.5514914,-112.2701358,"0","Mexican, Nightlife, Bars, Cocktail Bars, Restaurants, Sports Bars"
"636",172009,"HEXX kitchen + bar","Las Vegas","NV","89109",36.112279,-115.172397,"1","Bars, Desserts, Food, American (New), Nightlife, Restaurants, Cocktail Bars"
"637",103752,"Zen Kitchen","Las Vegas","NV","89158",36.1062631042,-115.17428644,"1","Nightlife, Restaurants, Breakfast & Brunch, Asian Fusion, Bars, Cocktail Bars, Japanese, Sushi Bars"
"638",57369,"Evening Call - Hawaiian Marketplace","Las Vegas","NV","89109",36.1065513,-115.1721069,"0","Cocktail Bars, Bars, Nightlife, Music Venues, Arts & Entertainment"
"639",121523,"The Nosh Restaurant & Bar","Glendale","AZ","85308",33.6668156,-112.2017444,"0","Wine Bars, Bars, Italian, Restaurants, American (Traditional), Seafood, Cocktail Bars, Tex-Mex, Nightlife"
"640",130241,"Herbs & Rye","Las Vegas","NV","89102",36.1439242153,-115.1917272624,"1","Lounges, Bars, Food, Italian, Steakhouses, Restaurants, Tapas Bars, Nightlife, Cocktail Bars, Beer, Wine & Spirits"
"641",24851,"3535 Bar","Las Vegas","NV","89109",36.118056,-115.171636,"1","Nightlife, Lounges, Cocktail Bars, Bars"
"642",153536,"Camden Cocktail Lounge","Las Vegas","NV","89103",36.1141275,-115.1965118,"1","Bars, Cocktail Bars, Nightlife"
"643",57213,"Jack Potter's Quarter Club & Cafe","Las Vegas","NV","89103",36.1075542,-115.225715,"0","Nightlife, Restaurants, Bars, Cafes, Cocktail Bars"
"644",62397,"Spark Espresso and Fresh Bar","Toronto","ON","M6G 3T8",43.66228,-79.4255755,"1","Tapas Bars, Cocktail Bars, Vegetarian, Food, Nightlife, Coffee & Tea, Bars, Salad, Restaurants, Cafes, Tapas/Small Plates, Juice Bars & Smoothies"
"645",101541,"TABOO Cuisine Rebelle","L'Assomption","QC","J5W 3E1",45.8269303,-73.4244339,"1","Poutineries, Lounges, Burgers, Nightlife, Cocktail Bars, Dance Clubs, Restaurants, Bars"
"646",14545,"SS106 Aperitivo Bar","Calgary","AB","T2E 3J6",51.0592309,-114.0541527,"1","Cocktail Bars, Italian, Bars, Vegetarian, Nightlife, Restaurants, Wine Bars, Cafes"
"647",113548,"Sip Coffee & Beer Kitchen","Scottsdale","AZ","85254",33.5826214,-111.9236043,"1","Nightlife, Food, Bars, Cocktail Bars, Coffee & Tea, Beer Bar"
"648",47891,"Ricks Cafe","Chagrin Falls","OH","44022",41.4320881,-81.3921514,"0","Burgers, Restaurants, Nightlife, American (Traditional), Bars, Cocktail Bars, Cafes"
"649",55681,"Augie's Tavern","Madison","WI","53703",43.0792634,-89.3898652,"1","American (New), Beer Bar, Bars, Cocktail Bars, Pubs, Restaurants, Nightlife"
"650",102240,"Paul Martin's American Grill","Scottsdale","AZ","85253",33.5282184126,-111.926276476,"1","American (Traditional), Nightlife, Seafood, Cocktail Bars, American (New), Bars, Restaurants, Steakhouses"
"651",133856,"Double Helix Wine & Whiskey Lounge","Las Vegas","NV","89119",36.068132,-115.17776,"1","Wine Bars, Nightlife, American (New), Tapas/Small Plates, Bars, Tapas Bars, Cocktail Bars, Restaurants, Lounges, Whiskey Bars"
"652",169499,"Metropolitan at The 9, Autograph Collection","Cleveland","OH","44115",41.499892,-81.68582,"1","Nightlife, American (New), Hotels, Venues & Event Spaces, Cocktail Bars, Hotels & Travel, Bars, Event Planning & Services, Restaurants"
"653",190244,"Bite Bar","Toronto","ON","M5G 1H3",43.6572517,-79.3845265,"0","Bakeries, Cocktail Bars, Food, Nightlife, Bars"
"654",140816,"Plaza Bar","Scottsdale","AZ","85255",33.6451261215,-111.9172017905,"1","Cocktail Bars, Nightlife, Bars"
"655",13910,"Velveteen Rabbit","Las Vegas","NV","89104",36.156592376,-115.1538902521,"1","Bars, Nightlife, Arts & Entertainment, Music Venues, Lounges, Cocktail Bars, Champagne Bars"
"656",137072,"Swizzle Stick","Glendale","AZ","85302",33.5682541,-112.1709164,"1","Sports Bars, Dive Bars, Nightlife, Cocktail Bars, Bars, Music Venues, Arts & Entertainment"
"657",139070,"70 Down","Toronto","ON","M5R 1B9",43.6715929,-79.3908687,"1","Tapas/Small Plates, Restaurants, Nightlife, Mediterranean, Bars, Cocktail Bars"
"658",21157,"Crumb & Spigot","Chagrin Falls","OH","44023",41.4124715315,-81.3380002225,"1","Nightlife, Restaurants, Bars, American (New), Cocktail Bars, Pizza"
"659",161527,"Maya Day and Nightclub","Scottsdale","AZ","85251",33.5012952,-111.9231405,"1","Cocktail Bars, Music Venues, Nightlife, Arts & Entertainment, Dance Clubs, Bars"
"660",131892,"Container Bar","Calgary","AB","T2N 1V5",51.0523914186,-114.0878039352,"1","Cocktail Bars, Nightlife, Bars, Dive Bars, Restaurants, Canadian (New)"
"661",118111,"O Resto Lounge","Toronto","ON","M5C 3C5",43.6490655,-79.37693,"0","Burgers, Bars, American (Traditional), Cocktail Bars, Restaurants, Nightlife, Lounges"
"662",111292,"El Jefe","Mississauga","ON","L5G 1E1",43.552781,-79.584874,"1","Restaurants, Nightlife, Bars, Mexican, Cocktail Bars"
"663",133313,"Flyght Bar and Lounge","Urbana","IL","61801",40.1112511,-88.2071812,"0","Pizza, Restaurants, Nightlife, Salad, Bars, Cocktail Bars, Lounges"
"664",164747,"The Angry Butcher","Las Vegas","NV","89122",36.1128952,-115.0623534,"1","Restaurants, Bars, Steakhouses, Nightlife, Cocktail Bars"
"665",161877,"Wedge Tequila Bar & Grill","Champaign","IL","61822",40.083446,-88.297332,"0","Bars, Nightlife, Restaurants, Cocktail Bars, Spanish"
"666",7298,"Breakwater","Monona","WI","53713",43.0489157,-89.3370316,"1","Pizza, Bars, Burgers, Cocktail Bars, American (New), Restaurants, Nightlife"
"667",94350,"Matisse Restaurant + Bar","Toronto","ON","M4W 3G9",43.6709215,-79.3850612,"1","Restaurants, American (New), Nightlife, Bars, Cocktail Bars, Canadian (New)"
"668",126579,"Chez Dallaire","Montréal","QC","H3K 1W7",45.4787125,-73.5590876,"0","Cocktail Bars, Nightlife, Restaurants, Bars, Canadian (New), Pubs, Gastropubs"
"669",125644,"Heart and Soul Cafe and Saloon","Cave Creek","AZ","85331",33.7977587107,-111.9797480106,"1","Salad, Cocktail Bars, American (New), Breakfast & Brunch, Arts & Entertainment, Restaurants, Bars, Nightlife, Country Dance Halls, Pool Halls, American (Traditional), Music Venues"
"670",5970,"M&J Bistro","Pittsburgh","PA","15203",40.4287193,-79.9769083,"0","Noodles, Sushi Bars, Restaurants, Cocktail Bars, American (New), Asian Fusion, Chinese, Bars, Nightlife"
"671",14483,"Safe House","Montréal","QC","H2Y 1L9",45.5033111,-73.558567,"0","Nightlife, Bars, Cocktail Bars, Restaurants"
"672",160987,"Casetta Kitchen and Counter","Madison","WI","53703",43.0734362651,-89.3867407926,"1","Delis, Italian, Cocktail Bars, Breakfast & Brunch, Wine Bars, Bars, Restaurants, Nightlife, Sandwiches"
"673",185044,"Savona Bistro","Las Vegas","NV","89109",36.115025,-115.1658493,"0","Cocktail Bars, Nightlife, Breakfast & Brunch, American (Traditional), Bars, Restaurants"
"674",83254,"Tres Potrillos","Beachwood","OH","44122",41.465043,-81.497114,"1","Salad, Vegetarian, Tacos, Restaurants, Mexican, Bars, Cocktail Bars, Nightlife"
"675",70160,"Dirty Martini","Fort Mill","SC","29708",35.027868,-80.968044,"1","Cocktail Bars, Lounges, Nightlife, Bars"
"676",184174,"Modern Steak","Calgary","AB","T2N 4M7",51.0522813118,-114.0874240276,"1","Cocktail Bars, Nightlife, Seafood, Bars, Steakhouses, Restaurants"
"677",190181,"Maggie's Farm Rum","Pittsburgh","PA","15201",40.4617996,-79.9701224,"1","Nightlife, Beer, Wine & Spirits, Bars, Food, Distilleries, Cocktail Bars"
"678",153181,"Cactus Club Cafe","Calgary","AB","T2H 0L3",50.99126693,-114.0708911779,"1","Canadian (New), Restaurants, Cocktail Bars, Nightlife, American (New), Bars"
"679",75303,"One18 Empire","Calgary","AB","T2G 5J2",51.045078,-114.0627204,"1","Restaurants, Breakfast & Brunch, Bars, Diners, Nightlife, Cocktail Bars, Canadian (New)"
"680",53347,"Salute Ristorante Italiano","Phoenix","AZ","85022",33.606332,-112.066095,"0","Bars, Restaurants, Yelp Events, Italian, Cocktail Bars, Comfort Food, Nightlife, Local Flavor"
"681",79248,"Nineteen10","Kent","OH","44240",41.1521348,-81.3561211,"1","Nightlife, Cocktail Bars, Restaurants, Bars, Steakhouses, Lounges, American (New)"
"682",51432,"Borracha Mexican Cantina","Henderson","NV","89052",36.020481,-115.088674,"1","Bars, Mexican, Restaurants, Cocktail Bars, Nightlife"
"683",50076,"Bonefish Grill","Independence","OH","44131",41.397167158,-81.6506751484,"1","Seafood, Restaurants, Nightlife, American (New), Cocktail Bars, Bars"
"684",133860,"Freezer's Sports Bar & Grill","Tempe","AZ","85282",33.407093,-111.938671,"1","Nightlife, Restaurants, Pool Halls, Dance Clubs, Sports Bars, Cocktail Bars, Bars"
"685",26415,"Miracle on Liberty","Pittsburgh","PA","15222",40.4416623195,-80.0022388596,"0","Cocktail Bars, Nightlife, Bars"
"686",149029,"Acacia","Pittsburgh","PA","15203",40.4282821,-79.9758829,"1","Cocktail Bars, Nightlife, Bars, Lounges"
"687",39770,"Oak and Ivy","Las Vegas","NV","89101",36.167881,-115.138332,"1","Food, Cocktail Bars, Bars, Nightlife, Beer, Wine & Spirits"
"688",54317,"Condado Tacos","Pittsburgh","PA","15222",40.4438683,-79.9955165,"1","Restaurants, Tacos, Bars, Cocktail Bars, Nightlife, Mexican"
"689",115653,"Monkey Bar","Las Vegas","NV","89109",36.1423694,-115.156034,"1","Bars, Cocktail Bars, Nightlife"
"690",124930,"El Fogón Dominican Restaurant","Gastonia","NC","28054",35.2613685105,-81.1703234911,"1","Restaurants, Caribbean, Nightlife, Cocktail Bars, Specialty Food, Ethnic Food, Dominican, Bars, Food"
"691",98197,"La P'tite Place","Montréal","QC","H2S 1G5",45.5383470153,-73.6110550026,"1","Bars, Nightlife, Karaoke, Cocktail Bars"
"692",135106,"Beerhive","Mississauga","ON","L5P 1B2",43.6777176,-79.6248197,"1","Nightlife, Bars, Cocktail Bars"
"693",145931,"Artizen","Phoenix","AZ","85016",33.508891245,-112.0292887464,"1","Breakfast & Brunch, Nightlife, Bars, Cocktail Bars, Restaurants, American (New)"
"694",78345,"Upper Deck Bar","Centre Island","ON","",43.6236766256,-79.3813701907,"1","Restaurants, Cocktail Bars, Bars, Nightlife, American (Traditional)"
"695",103861,"Casa Amigos","Scottsdale","AZ","85251",33.5016732,-111.9230873,"1","Burgers, Mexican, Bars, Cocktail Bars, Restaurants, Nightlife, Venues & Event Spaces, Active Life, Tacos, Bowling, Event Planning & Services"
"696",137102,"Untitled Champagne Lounge","Calgary","AB","T2P 1G6",51.0461598,-114.0749449,"1","Nightlife, Bars, Cocktail Bars, Lounges"
"697",39674,"Bar C","Calgary","AB","T2S 0A3",51.0379438134,-114.0708509861,"0","Tapas/Small Plates, Restaurants, Breakfast & Brunch, Cocktail Bars, Local Flavor, Bars, Canadian (New), Nightlife, Wine Bars"
"698",14238,"Jack Tan's","Toronto","ON","M5G 2J9",43.6601367,-79.3858692,"0","Cafes, Nightlife, Bars, Lounges, Chinese, Cocktail Bars, Restaurants, Asian Fusion, Tapas Bars"
"699",74443,"Chima Steakhouse","Charlotte","NC","28202",35.226268,-80.843786,"1","Venues & Event Spaces, Vegetarian, Buffets, Restaurants, Event Planning & Services, Brazilian, Nightlife, Bars, Steakhouses, Cocktail Bars"
"700",15737,"Libre Mexican Cantina","Las Vegas","NV","89135",36.1569658,-115.3335939,"0","Nightlife, Cocktail Bars, Fast Food, Bars, Mexican, Restaurants"
"701",117329,"Palo Verde Lounge","Scottsdale","AZ","85256",33.5385093,-111.8695928,"1","Mexican, Lounges, Cocktail Bars, Bars, Restaurants, Nightlife"
"702",136341,"Mercadito","Las Vegas","NV","89135",36.1571094692,-115.3351285459,"0","Cocktail Bars, Bars, Restaurants, Mexican, Nightlife"
"703",137211,"Collision Bend Brewing Company","Cleveland","OH","44113",41.4987861,-81.7040533,"1","Food, Beer Gardens, Cocktail Bars, Breweries, Bars, Nightlife"
"704",93484,"Marion's Mediterranean Restaurant and Tapas Bar","Mentor","OH","44060",41.6614015,-81.3763406,"1","Restaurants, Cocktail Bars, Nightlife, Bars, Mediterranean, Tapas Bars"
"705",137905,"Waldorf Astoria Las Vegas","Las Vegas","NV","89109",36.106212,-115.174213,"1","Apartments, Bars, Real Estate, Hotels, Nightlife, Event Planning & Services, Shopping, Cocktail Bars, Venues & Event Spaces, Hotels & Travel, Home Services"
"706",117068,"Hole in the Rock Lounge","Scottsdale","AZ","85257",33.4653114,-111.9298456,"1","Restaurants, Nightlife, Cocktail Bars, Bars, American (New), Lounges, Breakfast & Brunch"
"707",12621,"The Barrymore","Las Vegas","NV","89109",36.1319294,-115.1626532,"1","Nightlife, American (New), Bars, Cocktail Bars, Steakhouses, Restaurants"
"708",68269,"Sandbar Mexican Grill","Chandler","AZ","85226",33.3204996528,-111.9663091602,"1","Bars, Nightlife, Restaurants, Sports Bars, Cocktail Bars, Mexican"
"709",184234,"Symons Roadhouse","Calgary","AB","T3R 1E7",51.1828463,-114.1348634,"0","Breakfast & Brunch, Canadian (New), Restaurants, Comfort Food, Barbeque, Salad, Bars, Chicken Wings, Cocktail Bars, Nightlife"
"710",75907,"The Bevy In Birdtown","Lakewood","OH","44107",41.477205,-81.773628,"0","Music Venues, Cocktail Bars, Bars, Nightlife, Arts & Entertainment"
"711",23208,"Alumni Sandwich & Liquor Bar","Calgary","AB","T2S 0B6",51.0376888028,-114.0787187219,"1","Nightlife, Cocktail Bars, Sandwiches, Bars, Restaurants"
"712",113990,"Sea Level NC","Charlotte","NC","28202",35.227593,-80.8410996,"1","Restaurants, American (New), Seafood, Cocktail Bars, Breakfast & Brunch, Bars, Live/Raw Food, Nightlife"
"713",44455,"Squid Ink Sushi - Phoenix","Phoenix","AZ","85004",33.4474724189,-112.073668381,"1","Asian Fusion, Sushi Bars, Bars, Cocktail Bars, Nightlife, Restaurants"
"714",101415,"Fizz Las Vegas","Las Vegas","NV","89109",36.1161559,-115.1750576,"0","Bars, Nightlife, Dance Clubs, Adult Entertainment, Cocktail Bars"
"715",36586,"Eggspectation","Montréal","QC","H3P 3E9",45.4955178,-73.6204556,"1","Restaurants, Cocktail Bars, Nightlife, Breakfast & Brunch, Bars, Burgers"
"716",1077,"Fiesta Mexicana Las Vegas","Las Vegas","NV","89103",36.1244215,-115.243702,"1","Event Planning & Services, Restaurants, Mexican, Caterers, Nightlife, Cocktail Bars, Bars"
"717",135893,"Zizzy","Las Vegas","NV","89102",36.125908,-115.197904,"0","Korean, Bars, Karaoke, Cocktail Bars, Vietnamese, Restaurants, Nightlife"
"718",123371,"Boulevard 1820","Charlotte","NC","28203",35.2112095,-80.8587549,"0","Cocktail Bars, Restaurants, Lounges, Gay Bars, Arts & Entertainment, Bars, American (New), Performing Arts, Music Venues, Nightlife, Tapas Bars, American (Traditional)"
"719",146838,"Casa Corazon Restaurant","Phoenix","AZ","85006",33.4769368,-112.0473809,"1","Mexican, Caterers, Cocktail Bars, Restaurants, Event Planning & Services, Latin American, Nightlife, Bars"
"720",77324,"Mahjong Bar","Toronto","ON","M6J 1X7",43.6495637,-79.4251249,"1","Bars, Chinese, Tapas/Small Plates, Nightlife, Pan Asian, Restaurants, Cocktail Bars"
"721",27233,"Burgers & Brews","Henderson","NV","89044",35.9651113583,-115.1705799557,"1","Burgers, Bars, Beer Bar, Cocktail Bars, Nightlife, Lounges, Restaurants, Breweries, Food"
"722",85881,"Guaca & Molé","Dollard-des-Ormeaux","QC","H9B 2R8",45.4851422,-73.803744,"1","Venues & Event Spaces, Cocktail Bars, Sports Bars, Nightlife, Restaurants, Mexican, Bars, Event Planning & Services"
"723",138882,"Woody's Macayo","Phoenix","AZ","85012",33.4916689184,-112.0734833333,"1","Bars, Mexican, Breakfast & Brunch, Cocktail Bars, Nightlife, Restaurants"
"724",24391,"The Little Woody","Phoenix","AZ","85018",33.4951657676,-111.9898844138,"1","Bars, Lounges, American (New), Dive Bars, Cocktail Bars, Restaurants, Nightlife"
"725",169252,"Prohibition Freehouse","Calgary","AB","T2N 1X7",51.0520329894,-114.08884909,"1","Bars, Nightlife, Restaurants, Cocktail Bars, Gastropubs"
"726",122185,"Winter's Village Ice Rink","Henderson","NV","89052",36.0224056535,-115.0919600529,"1","Cocktail Bars, Arts & Entertainment, Festivals, Lounges, Active Life, Nightlife, Skating Rinks, Bars"
"727",25999,"Recess Diner","Toronto","ON","M6J 3C2",43.6414682,-79.4216844,"0","Food, Bars, Restaurants, Diners, Ice Cream & Frozen Yogurt, Nightlife, Cocktail Bars"
"728",16705,"Cabaret Mado","Montréal","QC","H2L 2G2",45.5178024,-73.5569761,"1","Nightlife, Cocktail Bars, Bars, Arts & Entertainment, Cabaret, Pubs"
"729",7450,"Bâton Rouge Steakhouse & Bar","Thornhill","ON","L3T 7Y3",43.8435304,-79.3767323,"1","Cocktail Bars, Restaurants, Seafood, Bars, Nightlife, Steakhouses, Gluten-Free"
"730",133955,"Station","Pittsburgh","PA","15224",40.4611146,-79.9485427,"1","Restaurants, Bars, Nightlife, American (New), Cocktail Bars, Gastropubs"
"731",182134,"Other Mama","Las Vegas","NV","89147",36.1229130301,-115.2799369767,"1","Cocktail Bars, Bars, Restaurants, Sushi Bars, Seafood, Live/Raw Food, Nightlife"
"732",96204,"Evening Call","Las Vegas","NV","89103",36.118699,-115.186442,"0","Lounges, Bars, Nightlife, Cocktail Bars"
"733",190703,"Fat City Blues","Toronto","ON","M6H 1A3",43.6540339,-79.4250039,"0","Nightlife, Restaurants, Cajun/Creole, Arts & Entertainment, Bars, Jazz & Blues, Cocktail Bars"
"734",69626,"Chill'm Bar Mixed Drinks and Frozen Cocktails","Las Vegas","NV","89109",36.099649,-115.171361,"1","Shopping, Bars, Cocktail Bars, Beer, Wine & Spirits, Food, Nightlife"
"735",22088,"Stand Up Scottsdale Comedy Club","Scottsdale","AZ","85251",33.5108302,-111.9256584,"0","Nightlife, Performing Arts, Bars, Mexican, Arts & Entertainment, Comedy Clubs, Restaurants, Cocktail Bars"
"736",161109,"Minus 5 Ice Lounge","Las Vegas","NV","89109",36.0933030998,-115.1754076521,"1","Nightlife, Lounges, Cocktail Bars, Bars, Dance Clubs"
"737",8949,"Bar Bataviato","Toronto","ON","M4S 2A2",43.7015792,-79.3969905,"1","Restaurants, Bars, Cocktail Bars, Indonesian, Nightlife"
"738",32047,"Cagneys Steakhouse & Wine Bar","Mississauga","ON","L5M 1K8",43.582603,-79.7176393,"1","Seafood, Cocktail Bars, Steakhouses, American (Traditional), Bars, Jazz & Blues, Wine Bars, Nightlife, Restaurants, Arts & Entertainment"
"739",39464,"Proof Cocktail Bar","Calgary","AB","T2R 0V7",51.0404547106,-114.0656367768,"1","Bars, Cocktail Bars, Nightlife"
"740",16402,"Sugo","Toronto","ON","M6H 3Y2",43.6582302,-79.4422233,"1","Italian, Restaurants, Bars, Cocktail Bars, Nightlife, Sandwiches"
"741",23358,"Ocean Prime","Phoenix","AZ","85054",33.675081923,-111.9631719589,"1","Nightlife, Restaurants, Seafood, Cocktail Bars, Bars, American (New), Steakhouses"
"742",141777,"Park Social Lounge","Cleveland","OH","44113",41.4993125473,-81.7003483604,"1","Cocktail Bars, Bars, Nightlife, Dance Clubs, Lounges"
"743",182911,"Méchant Bœuf Bar & Brasserie","Montréal","QC","H2Y 1Z3",45.5038725,-73.5544901,"1","Nightlife, Restaurants, Brasseries, Gastropubs, Burgers, Bars, Cocktail Bars"
"744",152016,"Canteen Modern Tequila Bar","Tempe","AZ","85281",33.4241272,-111.9405173,"0","Mexican, Nightlife, Bars, Cocktail Bars, Restaurants"
"745",189882,"Atwater Cocktail Club","Montréal","QC","H4C 2G5",45.4814386,-73.5782002,"1","Cocktail Bars, Nightlife, Bars"
"746",8446,"Hidden Harbor","Pittsburgh","PA","15217",40.4376509,-79.9195142,"1","Restaurants, Cocktail Bars, Nightlife, Bars, Hawaiian"
"747",103431,"Moose Bawr","Montréal","QC","H3H 1M2",45.4935237544,-73.5798063906,"1","Cocktail Bars, Nightlife, Pubs, Bars"
"748",79278,"Streets On Carson","Pittsburgh","PA","15203",40.428606088,-79.986632131,"1","Cocktail Bars, Sandwiches, Food, Nightlife, Bars, French, Restaurants, Tapas/Small Plates, Desserts"
"749",41430,"Bar Pesce","Phoenix","AZ","85018",33.4942271024,-112.0031128735,"1","Restaurants, American (Traditional), Cocktail Bars, American (New), Nightlife, Bars, Italian"
"750",152415,"The Citizen","Toronto","ON","M5V 1K4",43.645304,-79.3976214,"1","Bars, Restaurants, Comfort Food, American (Traditional), Pubs, Canadian (New), Cocktail Bars, Nightlife"
"751",92941,"Luke Wholey's Wild Alaskan Grille","Pittsburgh","PA","15222",40.4519212353,-79.982807323,"1","Sushi Bars, Bars, Cocktail Bars, Seafood, Restaurants, Nightlife, Dance Clubs"
"752",185718,"The Warren Bar and Burrow","Pittsburgh","PA","15222",40.4426526,-79.9998171,"1","Sushi Bars, Cocktail Bars, Bars, Restaurants, Nightlife"
"753",156536,"Cu Copper","Charlotte","NC","28203",35.2015373204,-80.843914208,"0","Bars, Cocktail Bars, Nightlife"
"754",136648,"Oxbow","Calgary","AB","T2N 3E3",51.0519017195,-114.0874978669,"1","Cocktail Bars, Restaurants, Bars, Canadian (New), Lounges, Nightlife, Wine Bars, Breakfast & Brunch"
"755",134602,"DLUX","Madison","WI","53703",43.0735626221,-89.3824691772,"1","Burgers, Bars, Restaurants, Cocktail Bars, American (New), Nightlife, Breakfast & Brunch"
"756",116698,"Restaurant Épik","Montréal","QC","H2Y 1Z5",45.5032338,-73.555286,"1","Tapas/Small Plates, Wine Bars, Cocktail Bars, Italian, Nightlife, Mediterranean, Restaurants, Bars"
"757",125063,"Shokunin","Calgary","AB","T2S 1W3",51.03493,-114.0713453,"1","Japanese, Restaurants, Tapas/Small Plates, Nightlife, Bars, Cocktail Bars"
"758",103401,"Branca","Toronto","ON","M6K 1V4",43.6499275,-79.4390283,"0","Cocktail Bars, Restaurants, Barbeque, Steakhouses, Argentine, Nightlife, Bars"
"759",89691,"Ease Modern Comfort Cuisine","Pittsburgh","PA","15218",40.4327021,-79.8941907,"1","Breakfast & Brunch, Salad, Bars, Diners, Comfort Food, Nightlife, Burgers, American (New), Cocktail Bars, Restaurants"
"760",59631,"Gib's Bar","Madison","WI","53703",43.0856273,-89.3613518,"1","Nightlife, Bars, Cocktail Bars"
"761",184519,"Bavette's Steakhouse & Bar","Las Vegas","NV","89109",36.10433,-115.1755933333,"1","Bars, Cocktail Bars, Restaurants, African, Seafood, American (New), Steakhouses, Nightlife"
"762",110312,"Bâton Rouge Steakhouse & Bar","Scarborough","ON","M1P 2K2",43.7792849,-79.2571404,"1","American (Traditional), Gluten-Free, American (New), Steakhouses, Cocktail Bars, Desserts, Restaurants, Food, Bars, Nightlife, Seafood, Canadian (New)"
"763",105611,"Brio Tuscan Grille","Westlake","OH","44145",41.4598523374,-81.9520182548,"1","Cocktail Bars, Nightlife, Italian, Bars, Pizza, Gluten-Free, Restaurants"
"764",108454,"WILD","Las Vegas","NV","89101",36.1700878,-115.1396153,"0","Cocktail Bars, American (New), Juice Bars & Smoothies, Pizza, Bars, Restaurants, Nightlife, Food"
"765",33558,"Hookah Master's Lounge","Las Vegas","NV","89146",36.159949,-115.22221,"0","Food, Shopping, American (Traditional), Dance Clubs, Burgers, Restaurants, Cocktail Bars, Middle Eastern, Lounges, Tobacco Shops, Coffee & Tea, Hookah Bars, Nightlife, Bars"
"766",147036,"Lorelei","Pittsburgh","PA","15206",40.4603833133,-79.9254375324,"1","Nightlife, Beer Bar, Bars, Tapas Bars, Cocktail Bars, Restaurants"
"767",166886,"Rum Diaries","Ajax","ON","L1S 6M3",43.8412297063,-79.0323671872,"1","Restaurants, Soul Food, Music Venues, Sports Bars, Arts & Entertainment, Caribbean, Nightlife, Cocktail Bars, Bars"
"768",131216,"Bar Chez Roger","Montréal","QC","H2G 1M9",45.547082,-73.592978,"1","Bars, Cocktail Bars, Nightlife"
"769",73356,"Earls 67","Calgary","AB","T2P 1C4",51.0455468,-114.0689742,"0","Canadian (New), Bars, Nightlife, Cocktail Bars, Restaurants"
"770",65828,"Yard House","Glendale","AZ","85305",33.534123,-112.261268,"1","Bars, Cocktail Bars, American (Traditional), Vegetarian, Wine Bars, American (New), Nightlife, Seafood, Restaurants, Beer Bar, Asian Fusion, Steakhouses"
"771",108390,"Bonefish Grill","Las Vegas","NV","89117",36.158502,-115.285179,"1","Soup, Seafood, American (New), Cocktail Bars, Restaurants, Nightlife, Bars"
"772",118318,"Über Cafbar","Montréal","QC","H2C 2M9",45.557981,-73.659398,"1","Nightlife, Coffee & Tea, Bars, Food, Pubs, Lounges, Cocktail Bars"
"773",70665,"The South Paw","Pittsburgh","PA","15203",40.428189,-79.974064,"0","Karaoke, Sports Bars, Arts & Entertainment, Pubs, Cocktail Bars, Nightlife, Bars, Beer, Wine & Spirits, Music Venues, Food"
"774",120194,"Sparrow","Toronto","ON","M6S",43.6513515582,-79.4751622754,"0","Cocktail Bars, Bars, Seafood, Vegetarian, Nightlife, Wine Bars, Restaurants, Canadian (New), Tapas/Small Plates, Event Planning & Services, French, Venues & Event Spaces"
"775",99703,"Famoso Neapolitan Pizzeria","Calgary","AB","T2S 2S7",51.0321985,-114.0719307,"1","Restaurants, Cocktail Bars, Pizza, Bars, Nightlife, Italian, Vegan"
"776",168460,"Tacos & Beer","Las Vegas","NV","89169",36.11926,-115.154634,"1","Tapas/Small Plates, Latin American, Nightlife, Mexican, Bars, Cocktail Bars, Restaurants"
"777",19988,"Goldie","Toronto","ON","M5V 1M5",43.6441352,-79.401074,"1","Tapas Bars, Bars, Lounges, Nightlife, Restaurants, Cocktail Bars"
"778",82992,"September's","Mesa","AZ","85210",33.3938006,-111.8428096,"1","Eatertainment, American (Traditional), Pubs, Nightlife, Karaoke, Restaurants, Cocktail Bars, Bars, Arts & Entertainment"
"779",73007,"Polpetta","Rocky River","OH","44116",41.4800612,-81.8419343,"1","Italian, Restaurants, Bars, Nightlife, Cocktail Bars"
"780",35515,"BURN By Rocky Patel","Pittsburgh","PA","15212",40.446224,-80.0109877,"1","Cocktail Bars, Nightlife, Bars, Cigar Bars, Lounges"
"781",164091,"Buzz'N Brushes","Las Vegas","NV","89103",36.1025204881,-115.201984455,"0","Cocktail Bars, Art Galleries, Shopping, Paint & Sip, Arts & Entertainment, Bars, Nightlife"
"782",101760,"ABBIOCCO","Toronto","ON","M6G 1B3",43.6552816,-79.413522,"0","Desserts, Wine Bars, Italian, French, Bars, Cocktail Bars, Food, Restaurants, Seafood, Nightlife"
"783",132776,"Bitter & Twisted Cocktail Parlour","Phoenix","AZ","85003",33.4469954665,-112.0738730959,"1","Asian Fusion, Restaurants, Lounges, Nightlife, Bars, Cocktail Bars"
"784",100319,"Bobby Q - Biltmore","Phoenix","AZ","85016",33.510151,-112.0137937,"1","Restaurants, Nightlife, Cocktail Bars, Steakhouses, Bars, Barbeque, American (Traditional)"
"785",82774,"Tinto Bar De Tapas","East York","ON","M4G 3B5",43.7058471,-79.3751845,"0","Nightlife, Bars, Restaurants, Tapas Bars, Wine Bars, Cocktail Bars, Seafood, Spanish"
"786",172045,"Pot Masson","Montréal","QC","H1Y 1X9",45.549719,-73.57414,"1","Canadian (New), Restaurants, Breakfast & Brunch, Tapas/Small Plates, Bars, Nightlife, Cocktail Bars"
"787",79475,"Sugar Factory","Las Vegas","NV","89109",36.12677,-115.169178,"1","Nightlife, American (New), Shopping, Restaurants, Cocktail Bars, Flowers & Gifts, American (Traditional), Gift Shops, Food, Candy Stores, Desserts, Chocolatiers & Shops, Bars, Specialty Food"
"788",150235,"Tributary","Cleveland","OH","44102",41.4861099,-81.723517,"1","Sports Bars, Cocktail Bars, Bars, Nightlife, Wine Bars"
"789",183256,"Sophia's Gentlemens Club","Las Vegas","NV","89103",36.1068395449,-115.1862523285,"1","Nightlife, Dance Clubs, Cabaret, Transportation, Limos, Bars, Hotels & Travel, Arts & Entertainment, Adult Entertainment, Cocktail Bars"
"790",128574,"Bar Kabinet","Montréal","QC","H2T 2N4",45.5219723775,-73.5938597635,"1","Restaurants, Cocktail Bars, Food, Coffee & Tea, Nightlife, Russian, Bars"
"791",95120,"QC Social Lounge","Charlotte","NC","28202",35.2278,-80.8394472,"1","Cocktail Bars, Lounges, Bars, Nightlife"
"792",3746,"Nuvolé Rooftop TwentyTwo","Charlotte","NC","28202",35.2254381998,-80.841412644,"1","Bars, Cocktail Bars, Nightlife, American (New), Lounges, Restaurants"
"793",6535,"The Terrace","Las Vegas","NV","89109",36.1031209,-115.1756691,"1","Cocktail Bars, Nightlife, Lounges, Bars"
"794",10422,"Le Bureau","Montréal","QC","H3J 1M1",45.4894241,-73.5676719,"1","Tapas/Small Plates, Dive Bars, Bars, Nightlife, Lounges, Cocktail Bars, Gastropubs, Restaurants, Tapas Bars"
"795",147206,"Lobby Lounge at Thompson Toronto","Toronto","ON","M5V 2V4",43.6431345,-79.4019893,"1","Lounges, Cocktail Bars, Nightlife, Bars"
"796",117633,"B&B Burger & Beer","Las Vegas","NV","89109",36.122727,-115.170355,"0","Nightlife, Restaurants, Cocktail Bars, Bars, Burgers, Beer Bar, Italian, Barbeque"
"797",172909,"Vegas Pink Hummer Limo","Las Vegas","NV","89118",36.0811324,-115.190676,"1","Restaurants, Bars, Nightlife, Cocktail Bars, Transportation, Limos, Hotels & Travel"
"798",161206,"Bonefish Grill","Madison","WI","53717",43.0601717613,-89.5085259603,"1","Seafood, Restaurants, Wine Bars, American (New), Bars, Nightlife, Cocktail Bars"
"799",63896,"Table and Market McAdenville","McAdenville","NC","28101",35.258633,-81.0773259401,"1","Food, Bars, Cocktail Bars, American (New), Restaurants, Beer, Wine & Spirits, Nightlife"
"800",29799,"Ros & Lina","Montréal","QC","H3B 4W5",45.4981757,-73.5663859,"1","Wine Bars, Italian, Cocktail Bars, Bars, Restaurants, Nightlife"
"801",77298,"Bar le Cocktail","Montréal","QC","H2L 2J5",45.5222175,-73.5528852,"1","Karaoke, Bars, Nightlife, Gay Bars, Cocktail Bars"
"802",156135,"Industry Public House","Pittsburgh","PA","15201",40.4707828,-79.9602498,"1","Beer, Wine & Spirits, Bars, Restaurants, American (New), Food, Beer Bar, Nightlife, Cocktail Bars"
"803",185365,"Lux Lounge","Montréal","QC","H3G 2H6",45.4960817,-73.577267,"0","Restaurants, Lounges, Nightlife, Dance Clubs, Hookah Bars, Bars, Cocktail Bars, French"
"804",77564,"SEA: The Thai Experience","Las Vegas","NV","89109",36.1137571281,-115.1688201804,"1","Thai, Vietnamese, Nightlife, Restaurants, Bars, Asian Fusion, Cocktail Bars"
"805",172733,"Bar Henrietta","Montréal","QC","H2T 1E7",45.5216406,-73.5941173,"1","Wine Bars, Cocktail Bars, Bars, Nightlife, Portuguese, Restaurants"
"806",62344,"Teahouse","Calgary","AB","T2R 0V3",51.0409809,-114.0661764,"1","Nightlife, Chinese, Bars, Restaurants, Karaoke, Cocktail Bars"
"807",59485,"La Distillerie No.3","Montréal","QC","H1Y 1W2",45.546028,-73.575917,"1","Nightlife, Cocktail Bars, Pubs, Bars"
"808",181452,"Neighbors","Peoria","AZ","85345",33.5819904,-112.2215894,"1","Local Flavor, Dive Bars, Karaoke, Cocktail Bars, Pubs, Bars, Nightlife, Sports Bars"
"809",48782,"Bailiwick","Las Vegas","NV","89103",36.1022086676,-115.2024850128,"1","Gastropubs, Bars, Cocktail Bars, Nightlife, Restaurants"
"810",71807,"204 North Kitchen & Cocktails","Charlotte","NC","28202",35.2278951201,-80.8415232516,"1","Event Planning & Services, Venues & Event Spaces, American (Traditional), Bars, Nightlife, Cocktail Bars, Restaurants, Breakfast & Brunch, American (New)"
"811",159780,"TABOO Cuisine Rebelle","Montréal","QC","H3G 1W6",45.4997747,-73.5762741,"1","Poutineries, Restaurants, Burgers, Nightlife, Cocktail Bars, Bars"
"812",130142,"Church On Church","Toronto","ON","M4Y 2C8",43.6642892,-79.3803656,"0","Bars, Churches, Cocktail Bars, Gay Bars, Nightlife, Religious Organizations"
"813",62259,"Clébard","Montréal","QC","H2J 2L4",45.5245609,-73.5836851,"1","Restaurants, Bistros, Whiskey Bars, Nightlife, Cocktail Bars, Bars, Dance Clubs"
"814",38084,"Urban Craft","Tempe","AZ","85282",33.3836219,-111.9276757,"1","Beer, Wine & Spirits, Mexican, Food, Restaurants, American (New), Nightlife, Cocktail Bars, Desserts, Bars"
"815",28380,"Bar Louie","Glendale","AZ","85305",33.5335774,-112.2610591,"1","Restaurants, Cocktail Bars, Bars, American (New), Nightlife"
"816",61752,"Alchemy Food & Drink","Toronto","ON","M6H 1A3",43.6540339,-79.4250039,"1","Bars, Restaurants, Gastropubs, Wine Bars, Burgers, Cocktail Bars, Nightlife, Comfort Food"
"817",137413,"Starlite BBQ","Scottsdale","AZ","85251",33.4949703,-111.916354,"1","Bars, Cocktail Bars, Nightlife, American (Traditional), Restaurants, Barbeque, Breakfast & Brunch"
"818",183657,"All American Modern Sports Grill","Scottsdale","AZ","85255",33.6745555678,-111.8882175638,"1","Nightlife, Bars, Restaurants, American (Traditional), Sports Bars, Cocktail Bars"
"819",99074,"N Sur Mackay","Montréal","QC","H3G 2H5",45.4953075,-73.5762235,"1","Cocktail Bars, Bars, Lounges, Nightlife"
"820",119157,"8.2.0 Pizzeria & Bar","Charlotte","NC","28206",35.2394197,-80.8458352,"1","Karaoke, Event Planning & Services, Pizza, Nightlife, Bars, Cocktail Bars, Venues & Event Spaces, Restaurants"
"821",60634,"Bonefish Grill","Huntersville","NC","28078",35.444907,-80.878413,"1","Nightlife, Cocktail Bars, American (New), Restaurants, Bars, Seafood"
"822",166765,"The Broken Spoke","Charlotte","NC","28217",35.1860008,-80.8814186,"1","Restaurants, Tapas Bars, Nightlife, Distilleries, Barbeque, Food, Beer Bar, Venues & Event Spaces, Cocktail Bars, Event Planning & Services, Specialty Food, Bars, Whiskey Bars, American (New)"
"823",96408,"Table 21 Kitchen & Wine Bar","Toronto","ON","M8X 1G2",43.6481585463,-79.5084975176,"1","Gastropubs, Diners, Nightlife, Cocktail Bars, Breakfast & Brunch, Wine Bars, Canadian (New), Bars, American (Traditional), Lounges, Restaurants"
"824",100816,"Yard House","Las Vegas","NV","89109",36.1175416594,-115.1686615124,"1","American (Traditional), Restaurants, American (New), Cocktail Bars, Steakhouses, Beer Bar, Seafood, Bars, Wine Bars, Nightlife, Vegetarian, Asian Fusion"
"825",22408,"Desert Rose Steakhouse","Glendale","AZ","85301",33.536647,-112.1820031,"1","Restaurants, Nightlife, Italian, Steakhouses, Bars, Seafood, Cocktail Bars"
"826",124761,"Muddy Waters Oyster Bar","Pittsburgh","PA","15206",40.4602070145,-79.925226,"1","Cocktail Bars, Bars, Nightlife, Cajun/Creole, Restaurants, Seafood"
"827",1383,"Earls Kitchen + Bar","Calgary","AB","T2E 8R7",51.0810949897,-114.0027985493,"1","Comfort Food, Nightlife, Cocktail Bars, American (New), Bars, Restaurants, Canadian (New)"
"828",189043,"Burgatory","Pittsburgh","PA","15238",40.489444,-79.892937,"1","American (Traditional), Food, Juice Bars & Smoothies, Burgers, Nightlife, Cocktail Bars, Restaurants, American (New), Beer Bar, Bars, Fast Food"
"829",13402,"Tru Sushi","Scottsdale","AZ","85251",33.497292,-111.9223571,"0","DJs, Restaurants, Cocktail Bars, Nightlife, Event Planning & Services, Bars, Sushi Bars"
"830",82364,"Drake One Fifty","Toronto","ON","M5H 3S5",43.6493542,-79.3846843,"1","Food, Brasseries, Bars, Breakfast & Brunch, Nightlife, Restaurants, Cocktail Bars, Canadian (New)"
"831",113803,"J Karaoke Bar","Las Vegas","NV","89102",36.1261962,-115.1917155,"1","Bars, Korean, Restaurants, Asian Fusion, Cocktail Bars, Nightlife, Karaoke, American (New)"
"832",90198,"Burgatory","Pittsburgh","PA","15275",40.4489936971,-80.1743562497,"1","Restaurants, Burgers, Bars, American (New), Nightlife, Juice Bars & Smoothies, Cocktail Bars, Food, Beer Bar"
"833",63292,"The Peace Pipe","Charlotte","NC","28217",35.1815097,-80.8838257,"1","Beer Bar, Lounges, Gay Bars, Coffee & Tea, Bars, Nightlife, Wine Bars, Hookah Bars, Cocktail Bars, Food"
"834",26307,"The Suffolk Punch","Charlotte","NC","28203",35.200406,-80.8690417,"1","Restaurants, Cocktail Bars, Food, American (New), American (Traditional), Nightlife, Coffee & Tea, Breakfast & Brunch, Breweries, Gastropubs, Pubs, Bars, Beer Bar"
"835",4883,"Native Tongues Taqueria","Calgary","AB","T2R 1H7",51.0413854,-114.0675588,"1","Restaurants, Nightlife, Mexican, Latin American, Cocktail Bars, Bars"
"836",186245,"The Pickle Barrel","Newmarket","ON","L3Y 5L8",44.0477631,-79.4778651,"1","American (New), American (Traditional), Canadian (New), Delicatessen, Bars, Restaurants, Cocktail Bars, Food, Nightlife, Gluten-Free, Salad, Sandwiches, Breakfast & Brunch"
"837",101844,"The Emerald","Montréal","QC","H2V 4G9",45.5212774,-73.5995767,"1","Cocktail Bars, Bars, Nightlife"
"838",81865,"3 Amigos","Montréal","QC","H2Z 2A7",45.5036148,-73.5605384,"1","Restaurants, Nightlife, Tex-Mex, Noodles, Cocktail Bars, Bars, Seafood, Mexican"
"839",128126,"The Livermore","Pittsburgh","PA","15206",40.4604323,-79.9252567,"0","Bars, Tapas/Small Plates, Cocktail Bars, Nightlife, Restaurants, Wine Bars"
"840",46336,"Westwood Tap & Grill","Phoenix","AZ","85021",33.5388637,-112.0982639,"1","Nightlife, American (New), American (Traditional), Bars, Dive Bars, Cocktail Bars, Restaurants, Pubs, Sports Bars"
"841",54378,"The Office Bistro Bar","Cuyahoga Falls","OH","44221",41.1306168745,-81.4838998706,"0","Beer, Wine & Spirits, Restaurants, Nightlife, Seafood, Sandwiches, Comfort Food, Food, Bars, American (New), Lounges, Cocktail Bars"
"842",137106,"Bord'Elle Boutique Bar and Eatery","Montréal","QC","H2Y 1S1",45.5018794,-73.5595176,"1","Cocktail Bars, Restaurants, Nightlife, Tapas Bars, Bars"
"843",169719,"Ajo Al's Mexican Cafe","Scottsdale","AZ","85254",33.5839064228,-111.9311819497,"1","Latin American, Pizza, Tex-Mex, Bars, Tacos, Nightlife, Cocktail Bars, Restaurants, Breakfast & Brunch, Salad, Mexican, Desserts, Food"
"844",75603,"Cordova","Montréal","QC","H4C 1S4",45.4734862,-73.5879583,"1","Specialty Food, Tapas Bars, Coffee & Tea, Nightlife, Food, Seafood, Bars, Cocktail Bars, Restaurants"
"845",28329,"Cantine","Broadview Heights","OH","44147",41.314715,-81.687027,"1","Nightlife, American (Traditional), Bars, Beer, Wine & Spirits, Cocktail Bars, Wine Bars, Food, Beer Bar, Restaurants"
"846",192496,"Pueblo Real","Chesterland","OH","44026",41.5213473,-81.354589,"1","Mexican, Restaurants, Nightlife, Bars, Cocktail Bars"
"847",129379,"Franklin Hotel Bar","Kent","OH","44240",41.1535164,-81.356653,"1","Restaurants, Bars, Nightlife, American (New), Cocktail Bars, American (Traditional)"
"848",169657,"Grand Bazaar Shops","Las Vegas","NV","89109",36.1140948,-115.1719891,"1","Shopping Centers, Restaurants, Cocktail Bars, Pubs, Shopping, Bars, Nightlife, Professional Services, Wholesalers"
"849",149256,"Bonefish Grill","Las Vegas","NV","89119",36.0700432228,-115.1746754672,"1","Seafood, Restaurants, Nightlife, American (New), Cocktail Bars, Bars"
"850",100927,"Vilka Bistro","Bethel Park","PA","15102",40.3499478,-80.0227077,"1","Nightlife, American (Traditional), Cocktail Bars, Restaurants, Seafood, Bars, American (New)"
"851",132050,"Bar Sixty","Toronto","ON","M5V 2P4",43.642307,-79.4025206,"1","Bars, Asian Fusion, Sandwiches, Restaurants, Breakfast & Brunch, Food, Nightlife, Coffee & Tea, Cocktail Bars"
"852",166683,"Mimi' & Coco' Bistro","Henderson","NV","89011",36.1032374358,-114.92991945,"1","Bars, Nightlife, French, Wine Bars, Restaurants, Food, Cocktail Bars"
"853",33615,"The Green Room","Las Vegas","NV","89113",36.066815452,-115.2726768294,"0","Cocktail Bars, Nightlife, Bars, Shopping, Videos & Video Game Rental, Books, Mags, Music & Video"
"854",78814,"Midwood Country Club","Charlotte","NC","28205",35.2200799812,-80.8046227374,"1","Pubs, Arts & Entertainment, Sports Bars, Pool Halls, Cocktail Bars, Nightlife, Wine Bars, Bars, Country Clubs, Dive Bars"
"855",168740,"Riverview Raw Bar and Chill","Charlotte","NC","28214",35.246588,-81.00496,"0","Dance Clubs, Local Flavor, Bars, Cocktail Bars, Restaurants, American (New), Nightlife, Seafood"
"856",15609,"Bar Reyna","Toronto","ON","M5R 1A8",43.6700667,-79.3934093,"1","Nightlife, Bars, Mediterranean, Cocktail Bars, Restaurants, Lounges"
"857",38308,"Itsy Bitsy","Las Vegas","NV","89101",36.1700878,-115.1396153,"0","Asian Fusion, Cocktail Bars, Nightlife, Japanese, Sushi Bars, Ramen, Restaurants, Bars"
"858",91055,"dabu","Lorain","OH","44052",41.462836,-82.172165,"0","Cocktail Bars, Specialty Food, Asian Fusion, Bars, Food, Restaurants, Ethnic Food, Nightlife"
"859",152579,"Boku Noodle Bar","Toronto","ON","M5A 3C4",43.6500621,-79.3602226,"1","Ramen, Restaurants, Tapas/Small Plates, Cocktail Bars, Bars, Pan Asian, Nightlife, Japanese"
"860",131845,"Echo Karaoke and Bar","Toronto","ON","M5T 0A1",43.6523986,-79.398554,"1","Dance Clubs, Bars, Karaoke, Nightlife, Cocktail Bars"
"861",71230,"Lookout Tavern","Phoenix","AZ","85022",33.6381446,-112.0626808,"1","Sports Bars, Restaurants, Nightlife, Cocktail Bars, Bars, American (New)"
"862",165582,"Bakersfield","Cleveland","OH","44113",41.4832899915,-81.7029820383,"1","Whiskey Bars, Tex-Mex, Cocktail Bars, Nightlife, Tacos, Mexican, Restaurants, Bars"
"863",105274,"Warren's Spirited Kitchen","Burton","OH","44021",41.4710188384,-81.1441246793,"1","American (Traditional), Restaurants, Bars, American (New), Wine Bars, Nightlife, Supper Clubs, Cocktail Bars, Gastropubs"
"864",57380,"Melindas Alley","Phoenix","AZ","85004",33.449931,-112.0728807,"1","Nightlife, Bars, Cocktail Bars"
"865",53891,"Hola Tapas Bar","Toronto","ON","M4L 1C4",43.6638814,-79.3305676,"0","Cafes, Wine Bars, Restaurants, Breakfast & Brunch, Nightlife, Cocktail Bars, Bars, Spanish, Tapas Bars"
"866",126929,"Braised Restaurant & Bar","Toronto","ON","M4M 1J2",43.6605789,-79.3430586,"0","Bars, Sandwiches, Canadian (New), Breakfast & Brunch, Restaurants, Cocktail Bars, Nightlife"
"867",111197,"Banknote Bar","Toronto","ON","M5V 1M5",43.6438454,-79.4023616,"1","Pubs, Italian, Food, Cocktail Bars, Bars, Restaurants, Pizza, American (Traditional), Nightlife, Beer, Wine & Spirits"
"868",142837,"Soul Gastrolounge","Charlotte","NC","28205",35.2202754,-80.8133228,"1","Restaurants, Tapas Bars, Bars, Lounges, Nightlife, Gastropubs, Cocktail Bars"
"869",26084,"Tuck Shop","Phoenix","AZ","85006",33.4728423,-112.056137,"1","Tea Rooms, Breakfast & Brunch, American (Traditional), Cocktail Bars, Nightlife, Restaurants, Food, American (New), Bars"
"870",41561,"Momofuku Las Vegas","Las Vegas","NV","89109",36.1099462,-115.1753911,"1","Seafood, Restaurants, American (New), Noodles, Asian Fusion, Cocktail Bars, Bars, Nightlife"
"871",46381,"Fusion Latino","Montréal","QC","H1W 1P7",45.542647,-73.5462,"1","Cocktail Bars, Restaurants, Bars, Mexican, Nightlife"
"872",38107,"Earls Kitchen + Bar","Calgary","AB","T3A 5R8",51.1054845757,-114.1632669885,"1","Bars, American (New), Canadian (New), Nightlife, Comfort Food, American (Traditional), Restaurants, Cocktail Bars"
"873",89448,"The Wigwam Bar","Litchfield Park","AZ","85340",33.4953851182,-112.3555743847,"1","Nightlife, Cocktail Bars, Lounges, Bars"
"874",191205,"Bastille","Las Vegas","NV","89104",36.1545348,-115.1514996,"1","Dive Bars, Nightlife, Bars, Cocktail Bars, Gay Bars"
"875",70987,"Chateau Nightclub & Rooftop","Las Vegas","NV","89109",36.1124340072,-115.1726016775,"1","Cocktail Bars, Adult Entertainment, Music Venues, Event Planning & Services, Bars, Nightlife, Dance Clubs, Venues & Event Spaces, Local Flavor, Arts & Entertainment"
"876",141783,"HIT Lounge and Bar","Las Vegas","NV","89109",36.1056561,-115.1735898,"0","Cocktail Bars, Nightlife, Bars"
"877",111635,"Osaka Sushi & Chinese Restaurant","Pittsburgh","PA","15220",40.3907468,-80.0704386,"1","Chinese, Cocktail Bars, Nightlife, Bars, Sushi Bars, Asian Fusion, Restaurants"
"878",81999,"Remiix","Las Vegas","NV","89119",36.1001961,-115.1269689,"0","American (New), Cocktail Bars, Bars, Tapas/Small Plates, Asian Fusion, Restaurants, Nightlife"
"879",153108,"Candi Bar","Montréal","QC","H2J 1X9",45.528484,-73.5785119,"1","Bars, Nightlife, Cocktail Bars, Lounges"
"880",179620,"Moxie's Grill & Bar","Toronto","ON","M5J 2M4",43.6464472846,-79.3843205981,"1","Restaurants, Steakhouses, Canadian (New), Bars, Nightlife, Cocktail Bars, American (Traditional), Lounges"
"881",4124,"Eiffel Tower","Las Vegas","NV","89109",36.112477,-115.172189,"1","Cocktail Bars, French, Bars, Nightlife, Steakhouses, Restaurants"
"882",162013,"Jargo","Montréal","QC","H2X 4C9",45.5122302,-73.569465,"0","Restaurants, Nightlife, Steakhouses, Seafood, Cocktail Bars, Bars"
"883",142582,"Pallantia Tapas de España","Pittsburgh","PA","15232",40.451213,-79.932284,"0","Bars, Restaurants, Cocktail Bars, Nightlife, Tapas Bars, Spanish, Tapas/Small Plates, Wine Bars"
"884",4948,"Jatoba","Montréal","QC","H3B 3C8",45.503313,-73.567344,"1","Asian Fusion, Cocktail Bars, Nightlife, Japanese, Mediterranean, Restaurants, Chinese, Bars"
"885",148320,"Turquoise Bar @ The Andaz","Scottsdale","AZ","85253",33.5270828,-111.928609,"1","Food, Active Life, Swimming Pools, Hotels & Travel, Nightlife, Cocktail Bars, Resorts, Restaurants, Ice Cream & Frozen Yogurt, Breakfast & Brunch, Bars"
"886",93344,"STK Toronto","Toronto","ON","M5R 1C4",43.6703902,-79.394312,"1","American (Traditional), Restaurants, Bars, Desserts, Food, Nightlife, Lounges, Steakhouses, Cocktail Bars"
"887",175187,"Needle Rock Kitchen and Tap","Rio Verde","AZ","85263",33.7461895,-111.7009654,"1","Restaurants, Nightlife, Pizza, Cocktail Bars, Wraps, Bars, American (New), Sandwiches"
"888",162717,"Cabana Club","Phoenix","AZ","85016",33.523584592,-112.0208803366,"1","Cocktail Bars, Seafood, Bars, Nightlife, Restaurants, Resorts, Sandwiches, Hotels & Travel"
"889",144953,"Owens Landing","Calgary","AB","T2P 0H7",51.049544,-114.06837,"1","Cocktail Bars, Food, Nightlife, Restaurants, Canadian (New), Bars"
"890",2364,"Plateau Lounge","Montréal","QC","H2Z 1R1",45.50209,-73.561927,"0","Bars, Nightlife, Cocktail Bars, Lounges"
"891",147042,"South East Gears & Cheers Restaurant & Bar","Bedford Heights","OH","44146",41.4175121,-81.5145101,"1","Restaurants, Sports Bars, Music Venues, Nightlife, Bars, Burgers, Beer, Wine & Spirits, Sandwiches, Arts & Entertainment, Soup, Breakfast & Brunch, American (Traditional), Food, Wine Bars, American (New), Cocktail Bars"
"892",114334,"Nordstrom Grill","Beachwood","OH","44122",41.497625,-81.495192,"1","Nightlife, Restaurants, Bars, Comfort Food, American (New), Cocktail Bars, Cafes"
"893",95994,"Milk Bar","Phoenix","AZ","85004",33.456756,-112.069608,"0","Restaurants, Bars, Lounges, Tapas/Small Plates, Modern European, Nightlife, Polish, Cocktail Bars"
"894",184836,"Soohyang - Korean Traditional Tea & Alcohol","Thornhill","ON","L3T 2A6",43.7995302042,-79.4201107146,"0","Bars, Korean, Restaurants, Food, Coffee & Tea, Cocktail Bars, Nightlife, Tea Rooms"
"895",49000,"Diablos BBQ","Montréal","QC","H2X 3K4",45.5154735,-73.5639579,"0","Southern, Restaurants, Barbeque, Bars, Nightlife, Cocktail Bars"
"896",72711,"The Iron Gate Inn","Pittsburgh","PA","15222",40.438991,-80.004707,"0","Cocktail Bars, Bars, American (New), Cafes, Restaurants, Nightlife"
"897",4288,"Whooli's Grill","Charlotte","NC","28227",35.1631678,-80.7414058,"1","Breakfast & Brunch, American (New), American (Traditional), Sandwiches, Food, Chicken Wings, Nightlife, Sports Bars, Burgers, Karaoke, Beer, Wine & Spirits, Irish Pub, Cocktail Bars, Restaurants, Bars"
"898",180241,"The Wednesday Room","Calgary","AB","T2P 1B3",51.045689,-114.064111,"1","Tapas/Small Plates, Bars, Canadian (New), Lounges, Nightlife, Restaurants, Cocktail Bars"
"899",175671,"Rhum Corner","Toronto","ON","M6J 1W3",43.6508775,-79.4131316,"1","Caribbean, Cocktail Bars, Bars, Restaurants, Nightlife, Canadian (New), Salad"
"900",75245,"Eno Vino Downtown","Madison","WI","53703",43.076451736,-89.3823144212,"1","American (New), Restaurants, Nightlife, Cocktail Bars, Seafood, Wine Bars, Bars"
"901",79598,"Agrikol","Montréal","QC","H2L 3L6",45.5197118,-73.5621687,"1","Caribbean, Restaurants, Haitian, Cocktail Bars, Nightlife, Bars"
"902",144697,"TOCA","Toronto","ON","M5V 3G7",43.6454311773,-79.387058589,"1","Breakfast & Brunch, Restaurants, Bars, American (New), Dinner Theater, French, Cocktail Bars, Wine Bars, Canadian (New), Italian, Nightlife"
"903",75837,"Mike Morey's Sip'n'Tip","Las Vegas","NV","89101",36.1685717355,-115.1407657689,"1","Speakeasies, Bars, Cocktail Bars, Nightlife"
"904",59031,"Bonefish Grill","Concord","NC","28027",35.3705844,-80.7219181,"1","Seafood, Restaurants, Bars, American (Traditional), Nightlife, Cocktail Bars, American (New)"
"905",69157,"SpiritHouse Montreal","Montréal","QC","H2Y 1L9",45.5034944039,-73.5586525015,"0","Cocktail Bars, Restaurants, Bars, Comfort Food, Nightlife"
"906",106304,"Nico Heirloom Kitchen","Gilbert","AZ","85234",33.356545,-111.789999,"1","Nightlife, Cocktail Bars, Breakfast & Brunch, Italian, Restaurants, Bars"
"907",126811,"Caifan Tacos Bar","Montréal","QC","H2S 1R1",45.5312235,-73.6077996,"1","Mexican, Bars, Nightlife, Cocktail Bars, Restaurants"
"908",121252,"PT's Gold","Las Vegas","NV","89149",36.29691,-115.289392,"1","Breakfast & Brunch, Pubs, Beer Bar, Restaurants, Pizza, Sports Bars, Nightlife, Bars, Cocktail Bars, American (Traditional)"
"909",125403,"Bywater Tavern","Cleveland","OH","44111",41.459145,-81.7767144,"0","Cajun/Creole, Bars, Chicken Wings, Jazz & Blues, Breakfast & Brunch, Cocktail Bars, Arts & Entertainment, Mexican, Tacos, American (New), Pubs, Nightlife, Restaurants"
"910",105010,"Entice Restaurant & Lounge","Toronto","ON","M6J 1H7",43.6440657,-79.4203072,"1","Lounges, Wine Bars, Cocktail Bars, Bars, Comfort Food, Breakfast & Brunch, American (Traditional), Nightlife, Restaurants"
"911",21233,"Zombie Den: Bar Of The Dead","Pittsburgh","PA","15222",40.440985,-80.0020039,"1","Cocktail Bars, Nightlife, Bars, Restaurants, Pop-Up Restaurants"
"912",2253,"Alder & Birch","Las Vegas","NV","89103",36.1025627391,-115.2011897042,"1","Nightlife, Cocktail Bars, Steakhouses, American (Traditional), Bars, Restaurants"
"913",39361,"Original Gravity","Phoenix","AZ","85014",33.5057937197,-112.0569326477,"1","Tapas Bars, Breakfast & Brunch, Nightlife, American (New), Food, Wine Bars, Restaurants, Beer Bar, Burgers, Bars, Tapas/Small Plates, Cocktail Bars"
"914",54264,"The Lobby Bar","Las Vegas","NV","89109",36.1074801944,-115.1693610082,"1","Tapas Bars, Restaurants, Cocktail Bars, Bars, Nightlife"
"915",150400,"D's Sixpax & Dogz","Monroeville","PA","15146",40.43369,-79.750897,"0","Restaurants, Beer, Wine & Spirits, Food, Hot Dogs, Cocktail Bars, Nightlife, Bars"
"916",101452,"Black Hoof","Toronto","ON","M6J 1W3",43.6509775,-79.4132797,"0","Bars, Nightlife, Champagne Bars, Gastropubs, Restaurants, Cocktail Bars"
"917",30985,"595 Craft And Kitchen","Las Vegas","NV","89118",36.0987812631,-115.2425049511,"1","Restaurants, Asian Fusion, Bars, Cocktail Bars, Nightlife, Gastropubs, Beer Bar"
"918",47409,"Speakeasy","Cleveland","OH","44113",41.484623,-81.704413,"1","Food, Speakeasies, Nightlife, Beer, Wine & Spirits, Arts & Entertainment, Bars, Music Venues, Cocktail Bars"
"919",26203,"Pie Bar","Toronto","ON","M5J",43.6382664028,-79.380467319,"1","Nightlife, Bars, Gelato, Italian, Food, Restaurants, Cocktail Bars, Pizza"
"920",57573,"Pistolero","Montréal","QC","H3G 2E3",45.4960365,-73.5757063,"0","Pubs, Bars, Southern, Restaurants, Nightlife, Barbeque, Cocktail Bars"
"921",153512,"Atami Japan","Irwin","PA","15642",40.3312155962,-79.743302594,"1","Steakhouses, Cocktail Bars, Sushi Bars, Nightlife, Restaurants, Japanese, Bars"
"922",48611,"Lopez","Cleveland Heights","OH","44118",41.5000418634,-81.5655199726,"1","Gluten-Free, Latin American, Spanish, Mexican, Local Flavor, Bars, Nightlife, Restaurants, Cocktail Bars"
"923",69151,"Bar Verde","Toronto","ON","M5B 2L9",43.6549077,-79.3808739,"1","Canadian (New), Restaurants, Nightlife, Cocktail Bars, American (New), Bars"
"924",56094,"Zen Culinary","Scottsdale","AZ","85260",33.6271613,-111.8914566,"0","Cocktail Bars, American (New), Nightlife, Japanese, Sushi Bars, Asian Fusion, Bars, Restaurants"
"925",161490,"Rush Lane & Co","Toronto","ON","M5V 2B3",43.6478512,-79.4006604,"1","Gastropubs, Bars, Nightlife, Lounges, Restaurants, Cocktail Bars"
"926",119926,"CliQue","Las Vegas","NV","89109",36.1096312432,-115.1751317547,"1","Lounges, Nightlife, Cocktail Bars, Dance Clubs, Bars"
"927",120734,"Loaded Pierogi","Toronto","ON","M4M 1Z8",43.6691861,-79.3364947,"0","Nightlife, Food, Desserts, Polish, Restaurants, Comfort Food, Bars, Cocktail Bars, Canadian (New)"
"928",111735,"Tiki Underground","Hudson","OH","44236",41.2289339759,-81.4908255208,"1","Cocktail Bars, Sandwiches, Wine Bars, Restaurants, Tiki Bars, Bars, Nightlife"
"929",164264,"Vida Cafe","Richmond Hill","ON","L4C 9S7",43.8816611,-79.4296123,"1","Cocktail Bars, Lounges, Persian/Iranian, Restaurants, Nightlife, Bars, Middle Eastern"
"930",141533,"Do Not Disturb","Toronto","ON","M5V 2A4",43.6496328,-79.3921465,"0","Cocktail Bars, Restaurants, Canadian (New), Bars, Nightlife"
"931",143828,"Weft & Warp Art Bar + Kitchen","Scottsdale","AZ","85253",33.5271161409,-111.9285528783,"1","Breakfast & Brunch, Nightlife, Bars, Tapas/Small Plates, American (New), Cocktail Bars, Restaurants"
"932",167386,"Tony's Cocktail Lounge","Glendale","AZ","85306",33.6267143739,-112.1867855487,"1","Bar Crawl, Nightlife, Lounges, Restaurants, American (New), Beer Bar, Bars, Cocktail Bars"
"933",58102,"Gabby's Bar & Grill","Mesa","AZ","85201",33.4266127,-111.8392986,"1","Nightlife, Sports Bars, Cocktail Bars, American (Traditional), Bars, Dive Bars, Restaurants, Karaoke"
"934",125953,"Cervantes Bistro At Royal Palms Resort","Phoenix","AZ","85018",33.5044082,-111.9691642,"0","Bars, Cocktail Bars, Restaurants, Nightlife, American (New)"
"935",179997,"Deli Tavern","Phoenix","AZ","85004",33.4499524,-112.0740511,"1","Restaurants, American (Traditional), Delis, Bars, Nightlife, Cocktail Bars"
"936",153307,"Klein Harris","Calgary","AB","T2P 0W5",51.0458336,-114.0636743,"1","Nightlife, Cocktail Bars, Canadian (New), Restaurants, Bars, Desserts, Food"
"937",145818,"Cactus Club Cafe","Calgary","AB","T2P 2Y9",51.04592,-114.070107,"1","Restaurants, Canadian (New), Cocktail Bars, Bars, Nightlife"
"938",33537,"Name Removed In Response to Trademark Complaint","Berea","OH","44017",41.3712756,-81.8678552,"0","Nightlife, Cocktail Bars, Sports Bars, American (Traditional), Bars, Restaurants"
"939",130076,"Furlough","Toronto","ON","M6J 1G6",43.6448978,-79.415899,"0","Restaurants, Canadian (New), Brasseries, Nightlife, Cocktail Bars, Bars"
"940",19599,"Metropolitan Resto Bar","Toronto","ON","M5C",43.6499935,-79.3772003,"1","Restaurants, Italian, Bars, Nightlife, Brasseries, Cocktail Bars"
"941",107100,"Le Mal Nécessaire","Montréal","QC","H2Z 1J5",45.5085754,-73.5612698,"1","Nightlife, Cocktail Bars, Bars"
"942",41952,"Le Red Tiger","Montréal","QC","H2L 2A1",45.519202,-73.557836,"1","Pubs, Bars, Cocktail Bars, Vietnamese, Nightlife, Restaurants"
"943",66669,"Sasaki Sushi & Bar","Scottsdale","AZ","85251",33.492301,-111.923019,"1","Soup, Japanese, Nightlife, Restaurants, Cocktail Bars, Sushi Bars, Bars"
"944",75798,"Wood Fired Pizzeria Gelato Spot","Phoenix","AZ","85028",33.5828882,-112.0131968,"1","Desserts, Pizza, Nightlife, Restaurants, Bars, Food, Cocktail Bars, Gelato"
"945",43407,"Sparrow","Montréal","QC","H2T 1A5",45.524609,-73.5965301,"1","Gastropubs, American (New), Cocktail Bars, Bars, Nightlife, Breakfast & Brunch, Restaurants, Lounges, Canadian (New)"
"946",185904,"The Lockhart","Montréal","QC","H2W 2M4",45.5206090625,-73.5751708564,"1","Bars, Nightlife, Poutineries, Cocktail Bars, Restaurants"
"947",26466,"Tres Rios","Pittsburgh","PA","15203",40.4288635668,-79.981051866,"1","Cocktail Bars, Bars, Restaurants, Mexican, Nightlife"
"948",100187,"Hacienda De Rosa's Restaurante","Mesa","AZ","85213",33.450917,-111.7633758,"1","Nightlife, Event Planning & Services, Restaurants, Bars, Cocktail Bars, Food, Venues & Event Spaces, Mexican"
"949",139204,"Troika Vodka Boutique","Toronto","ON","M5C 1G3",43.6497331973,-79.3748815366,"0","Restaurants, Bars, Italian, Nightlife, Cocktail Bars, Lounges"
"950",74261,"Tango Cocktails","Laval","QC","H7T 0B3",45.5612388,-73.7455709,"0","Bars, Food, Lounges, Ice Cream & Frozen Yogurt, Creperies, Cocktail Bars, Restaurants, Nightlife, Salad"
"951",137952,"Cotton & Copper","Tempe","AZ","85284",33.3354902,-111.9272373,"1","Nightlife, American (Traditional), Beer, Wine & Spirits, American (New), Restaurants, Gastropubs, Bars, Cocktail Bars, Food"
"952",81589,"Bazille-Nordstrom","Calgary","AB","T2H 0K8",51.0008176764,-114.0736424299,"1","Restaurants, American (New), American (Traditional), Brasseries, French, Canadian (New), Bars, Comfort Food, Nightlife, Cocktail Bars"
"953",65279,"Suite 114","Toronto","ON","M5G 1C3",43.6557306,-79.3843386,"1","Lounges, Venues & Event Spaces, Cocktail Bars, Nightlife, Event Planning & Services, Bars"
"954",55205,"D'Aurias","Fort Mill","SC","29708",35.0475155,-80.9898164,"1","Bars, Nightlife, Cocktail Bars, Music Venues, Arts & Entertainment"
"955",53509,"Rita's Kitchen & R Bar","Scottsdale","AZ","85253",33.5336178335,-111.9648550451,"1","Comfort Food, Nightlife, Breakfast & Brunch, Mexican, Hotel bar, Bars, Restaurants, Cocktail Bars, Tex-Mex"
"956",19587,"Luma","Toronto","ON","M5V 3X5",43.6466224,-79.3903325,"1","Cocktail Bars, Religious Organizations, Bars, Restaurants, Wine Bars, American (New), Lounges, Nightlife, Canadian (New)"
"957",140386,"Hades Hookah Lounge","Las Vegas","NV","89146",36.1433265,-115.2193446,"1","Cocktail Bars, Bars, Nightlife, Hookah Bars"
"958",180899,"Cactus Club Cafe","Calgary","AB","T1Y 7J9",51.0895171414,-114.0008133006,"1","Canadian (New), Bars, Restaurants, Nightlife, Cafes, American (New), Cocktail Bars"
"959",10535,"Loup Garou","Montréal","QC","H2X 3K4",45.5157348,-73.5648766,"0","Bars, Nightlife, Cocktail Bars"
"960",141854,"Sugar and Smoke","Pittsburgh","PA","15224",40.463001,-79.9521026,"1","Cajun/Creole, Restaurants, Event Planning & Services, Cocktail Bars, Bars, Caterers, Nightlife, Southern"
"961",34793,"Vault","Cleveland","OH","44115",41.499798,-81.685802,"1","Lounges, Nightlife, Cocktail Bars, Venues & Event Spaces, Event Planning & Services, Bars, Speakeasies"
"962",89465,"Pier 54","Tempe","AZ","85283",33.3755635248,-111.9197692534,"1","Arts & Entertainment, American (New), Restaurants, Beer, Wine & Spirits, Wine Bars, Bars, Italian, Cocktail Bars, Breakfast & Brunch, Food, Nightlife, Burgers, Music Venues, Lounges, Mediterranean"
"963",54550,"Union Standard","Pittsburgh","PA","15219",40.440242,-79.9971511,"1","American (New), Seafood, Restaurants, Bars, Nightlife, Cocktail Bars"
"964",96732,"Backyard Bocce","Cleveland","OH","44113",41.4997109,-81.7065365,"1","Bars, Cocktail Bars, Sports Bars, Restaurants, Italian, Nightlife, Pubs, Pizza"
"965",95260,"M's","Cornelius","NC","28031",35.4817178,-80.882529,"0","American (New), Wine Bars, Music Venues, Mexican, Arts & Entertainment, Cocktail Bars, Nightlife, Restaurants, Bars"
"966",79203,"Ritz Bar","Toronto","ON","M5V 3G7",43.6453554682,-79.3871778221,"1","Breakfast & Brunch, Dinner Theater, Arts & Entertainment, Restaurants, Bars, International, Italian, Cocktail Bars, Music Venues, Nightlife, Seafood"
"967",183610,"Tipsy Tea Party","Phoenix","AZ","85016",33.4939198773,-111.9263523074,"1","Party & Event Planning, Food, Tea Rooms, Event Planning & Services, Wedding Planning, Nightlife, Cocktail Bars, Bars, Adult Entertainment, Lounges, Unofficial Yelp Events, Restaurants, Tapas/Small Plates, Local Flavor, Venues & Event Spaces"
"968",156889,"Good Game Bar","Toronto","ON","M4S 2A4",43.7030666,-79.3974093,"0","Cocktail Bars, Beer, Wine & Spirits, Food, Bars, Sports Bars, Nightlife"
"969",131045,"Apostrophe Bar","Las Vegas","NV","89109",36.1158668113,-115.1767223191,"1","Cocktail Bars, Bars, Nightlife"
"970",121527,"The Toasted Cork","Scottsdale","AZ","85251",33.499172,-111.921134,"0","Restaurants, Venues & Event Spaces, Wine Bars, Bars, Event Planning & Services, Cocktail Bars, Beer Gardens, Nightlife, Tapas/Small Plates"
"971",29390,"Siegel's 1941","Las Vegas","NV","89101",36.16884864,-115.1390386295,"1","Nightlife, Restaurants, American (New), Cocktail Bars, Steakhouses, Bars, Sandwiches, Breakfast & Brunch, American (Traditional)"
"972",11722,"The Commoner","Pittsburgh","PA","15219",40.4416755559,-79.9962055882,"1","Breakfast & Brunch, American (New), Cocktail Bars, Bars, Nightlife, Restaurants, American (Traditional)"
"973",51354,"T-Bird Lounge & Restaurant","Las Vegas","NV","89123",36.0176758,-115.1188775,"0","Nightlife, Bars, Restaurants, American (Traditional), Cocktail Bars, Breakfast & Brunch"
"974",23777,"Senor Frog's","Las Vegas","NV","89109",36.1247576879,-115.1706174407,"1","Mexican, Pubs, Nightlife, Personal Shopping, Shopping, Restaurants, Cocktail Bars, Bars"
"975",130090,"Sarah B.","Montreal","QC","H2Y 3X4",45.502393,-73.56031,"1","Nightlife, Cocktail Bars, Bars"
"976",171668,"The Creek Patio Grill","Cave Creek","AZ","85331",33.742285,-111.979619,"1","Nightlife, Cocktail Bars, Breakfast & Brunch, American (Traditional), Bars, Restaurants, Wine Bars, American (New), Burgers"
"977",101145,"Beer Park","Las Vegas","NV","89109",36.1119930831,-115.1724253893,"1","Sandwiches, American (Traditional), Cocktail Bars, Bars, Sports Bars, Food Stands, Restaurants, Beer Bar, Steakhouses, Nightlife, Burgers"
"978",120455,"Pigeonhole","Calgary","AB","T2S 0A8",51.0380119,-114.0689151,"1","Canadian (New), Bars, Tapas/Small Plates, Cocktail Bars, Nightlife, Restaurants, Wine Bars"
"979",176447,"Arem Restaurant","Montréal","QC","H3J 1R1",45.4883504,-73.5660372,"1","Wine Bars, Restaurants, Turkish, Bars, Breakfast & Brunch, Buffets, Cocktail Bars, Nightlife, Middle Eastern"
"980",26612,"Rooftop Bar @ Simmons","Calgary","AB","T2G 0G1",51.0479225,-114.0498307,"1","Nightlife, Restaurants, Cocktail Bars, Wine Bars, Bars, Canadian (New)"
"981",75160,"Ace Bar","Montréal","QC","H3A 1B4",45.5069307,-73.5714356,"1","Delis, Bars, Pubs, Comfort Food, Cocktail Bars, Nightlife, Restaurants, Sandwiches, Burgers, Venues & Event Spaces, Event Planning & Services, Dance Clubs"
"982",64427,"W XYZ Bar","Cleveland","OH","44113",41.5000304428,-81.7055074679,"1","American (New), Venues & Event Spaces, Lounges, Event Planning & Services, Restaurants, Bars, Nightlife, Tapas/Small Plates, Cocktail Bars"
"983",54918,"Infused","Charlotte","NC","28202",35.2228987,-80.8331511,"1","Sports Bars, Bars, Cocktail Bars, Dive Bars, Pubs, Lounges, Nightlife"
"984",133971,"Whiff Waff Bar & Lounge","Richmond Hill","ON","L4B 3B4",43.846867,-79.3779693,"1","Food, Social Clubs, Lounges, Nightlife, Bars, Poutineries, Desserts, Asian Fusion, Arts & Entertainment, Cocktail Bars, Restaurants"
"985",109783,"American Junkie","Scottsdale","AZ","85251",33.500169,-111.919817,"0","Restaurants, American (Traditional), Nightlife, Bars, Sports Bars, Cocktail Bars"
"986",35236,"Eddie's Tavern","Phoenix","AZ","85032",33.5982552,-112.0133874,"1","Cocktail Bars, Nightlife, Sports Bars, Bars, Dive Bars"
"987",61441,"Rose. Rabbit. Lie","Las Vegas","NV","89109",36.109759,-115.176655,"1","Diners, Nightlife, Restaurants, Bars, Social Clubs, American (New), Performing Arts, Cocktail Bars, Arts & Entertainment"
"988",138366,"Nesta","Montréal","QC","H2X 2T6",45.5134587,-73.5712428,"1","Dance Clubs, Cocktail Bars, Nightlife, Bars, Lounges"
"989",177812,"Carlos'n Charlie's","Las Vegas","NV","89109",36.1164183797,-115.1713448437,"1","Nightlife, Cocktail Bars, Restaurants, Bars, Mexican"
