"","business_id","name","city","state","postal_code","latitude","longitude","is_open","categories"
"1",24340,"Marathon Diner","Pittsburgh","PA","15231",40.4961769456,-80.2460112364,"1","Sandwiches, Salad, Restaurants, Burgers, Comfort Food"
"2",153313,"Nathan's Famous","Champlain","NY","12919",44.9811404098,-73.458718434,"1","Convenience Stores, Hot Dogs, Gas Stations, Burgers, Automotive, Food Stands, Restaurants, Comfort Food, Food, Fast Food"
"3",72222,"Eggspectation","Montréal","QC","H2X 2X3",45.507291,-73.565672,"1","Burgers, American (Traditional), Cafes, Breakfast & Brunch, Restaurants, Sandwiches, Comfort Food"
"4",48959,"Swiss Chalet Rotisserie & Grill","Ajax","ON","L1T 0J9",43.8980699691,-79.0290136315,"1","Comfort Food, Restaurants, American (Traditional)"
"5",28928,"Milestones Restaurants","Toronto","ON","M1P 4P5",43.7767555,-79.2590081,"1","Restaurants, Nightlife, Bars, American (Traditional), Comfort Food, Canadian (New)"
"6",160929,"Le Ballpark","Montréal","QC","H2S 3E7",45.5313097,-73.6126688,"1","Canadian (New), Coffee & Tea, Italian, Food, Cocktail Bars, Comfort Food, Restaurants, Bars, Nightlife, Wine Bars"
"7",184989,"Choco Choc Café","Lacolle","QC","J0J 1J0",45.0816015064,-73.3726096256,"1","Restaurants, Cafes, Comfort Food"
"8",9270,"Second Helping","Charlotte","NC","28205",35.2184940549,-80.7950326357,"0","Soul Food, American (Traditional), Comfort Food, Restaurants"
"9",45437,"I'll Be Seeing You","Toronto","ON","M4M 1H3",43.6589928,-79.3480738,"1","Bars, Wine Bars, Comfort Food, Cocktail Bars, Restaurants, Nightlife"
"10",97168,"Bob Evans","Stow","OH","44224",41.1644441723,-81.476444006,"1","Food, Breakfast & Brunch, Hotels & Travel, Desserts, Bed & Breakfast, Salad, American (Traditional), Comfort Food, Restaurants"
"11",176262,"Patsy's Place","Bethel Park","PA","15102",40.3105892,-80.0331978,"1","Comfort Food, Restaurants, American (New)"
"12",13597,"Bob Evans","Pittsburgh","PA","15237",40.5417427189,-80.0121000409,"1","Hotels & Travel, American (Traditional), Bed & Breakfast, Restaurants, Breakfast & Brunch, Salad, Comfort Food, American (New)"
"13",136890,"Boston Market","Cleveland","OH","44144",41.4255732,-81.7350157,"1","Caterers, American (Traditional), Restaurants, Comfort Food, Event Planning & Services"
"14",146611,"Swiss Chalet Rotisserie & Grill","East Gwillimbury","ON","L3Y 4V8",44.0715414,-79.481693,"0","Comfort Food, American (Traditional), Restaurants, Canadian (New)"
"15",154214,"Sticky Iggy's","Las Vegas","NV","89148",36.068215,-115.1539278,"1","Food Trucks, Restaurants, Waffles, Event Planning & Services, Caterers, Fast Food, Comfort Food, American (Traditional), Food, Party & Event Planning"
"16",185769,"Lazy Dog Restaurant & Bar","Las Vegas","NV","89119",36.0701464765,-115.1738562678,"1","Comfort Food, American (New), Restaurants, Bars, Breakfast & Brunch, Wine Bars, Tapas/Small Plates, Burgers, Nightlife, Cocktail Bars, Beer, Wine & Spirits, Food, Beer Bar"
"17",53047,"Dunkin' Donuts","Gilbert","AZ","85298",33.23437,-111.722122,"1","Restaurants, Donuts, Food, Comfort Food"
"18",26330,"Montana's BBQ & Bar","Calgary","AB","T3H 3P8",51.0195819431,-114.1679570385,"1","Restaurants, Steakhouses, Canadian (New), Barbeque, Comfort Food"
"19",116275,"Earls Kitchen + Bar","Calgary","AB","T2J 0P8",50.9579509,-114.0708429,"1","Cocktail Bars, American (New), Bars, Comfort Food, Restaurants, Nightlife, Canadian (New)"
"20",116471,"Milestones Restaurants","Richmond Hill","ON","L4B 4L9",43.8419930049,-79.4293430602,"1","Bars, Canadian (New), Comfort Food, American (Traditional), Restaurants, Nightlife"
"21",142411,"Cracker Barrel Old Country Store","Sheffield Village","OH","44054",41.4258406,-82.0809292,"1","Caterers, Event Planning & Services, Southern, Comfort Food, American (Traditional), Breakfast & Brunch, Restaurants"
"22",16209,"Aprilé Bambina","Toronto","ON","M4M 1Z8",43.6692354,-79.33609,"0","Comfort Food, Food, Gluten-Free, Breakfast & Brunch, Canadian (New), Restaurants, Italian, Beer, Wine & Spirits, Pizza"
"23",22814,"The Bagel Cafe","Las Vegas","NV","89145",36.1761018,-115.2602821,"1","Breakfast & Brunch, Bagels, Delis, Coffee & Tea, Comfort Food, Cafes, Bakeries, Food, Restaurants"
"24",124115,"Le Cheese - Le Casse Croûte","Montréal","QC","H4A 1G8",45.4713644,-73.626436,"1","Comfort Food, Restaurants"
"25",48601,"Swiss Chalet Rotisserie & Grill","Calgary","AB","T3H 3P8",51.019123,-114.169895,"1","Comfort Food, American (Traditional), Restaurants, Fast Food"
"26",43014,"Ranch House Grille","Phoenix","AZ","85018",33.4803042,-111.9602653,"1","Breakfast & Brunch, American (Traditional), Comfort Food, Restaurants, Burgers"
"27",169620,"Swiss Chalet Rotisserie & Grill","Oakville","ON","L6J 4Z2",43.483266,-79.693478,"1","American (Traditional), Comfort Food, Restaurants"
"28",84608,"The Pie Commission","Toronto","ON","M6J 1V9",43.6509535,-79.4117579,"1","Comfort Food, Restaurants, Canadian (New), Do-It-Yourself Food, Fast Food, Food"
"29",55939,"Swiss Chalet","Mississauga","ON","L4W 1S9",43.6809338319,-79.6139825761,"1","Food, Canadian (New), Comfort Food, Restaurants"
"30",138714,"Social Bar & Kitchen","Charlotte","NC","28204",35.2168687,-80.8385574,"1","Seafood, Breakfast & Brunch, Southern, American (New), Tapas/Small Plates, Comfort Food, Diners, Restaurants"
"31",18361,"Bojangles' Famous Chicken 'n Biscuits","Huntersville","NC","28078",35.4124253619,-80.8563901995,"1","Cajun/Creole, Breakfast & Brunch, Fast Food, Restaurants, Chicken Shop, Comfort Food"
"32",42616,"Swiss Chalet Rotisserie & Grill","Toronto","ON","M8X 1B8",43.647743,-79.5083723,"1","Restaurants, Comfort Food, American (Traditional)"
"33",128100,"Pittsburgh Poultry Company","Pittsburgh","PA","15219",40.4386855,-79.9985136,"0","Comfort Food, American (Traditional), Restaurants"
"34",151008,"Good to Go In Stow","Stow","OH","44224",41.157533,-81.443877,"0","Convenience Stores, Comfort Food, Cafes, Restaurants, Food, Breakfast & Brunch"
"35",69848,"Hunter's on Danforth","Toronto","ON","M4J 1L1",43.6792065081,-79.3443701,"1","Pizza, Comfort Food, Restaurants, Greek, Breakfast & Brunch"
"36",95424,"French Quarter","Charlotte","NC","28202",35.2260212,-80.8469951,"1","Cajun/Creole, Food, Beer, Wine & Spirits, American (Traditional), Restaurants, Comfort Food, French, American (New)"
"37",94096,"Ling & Louie's Asian Bar and Grill","Scottsdale","AZ","85260",33.581511,-111.879218,"1","Chinese, American (New), Comfort Food, Thai, Restaurants, Asian Fusion"
"38",184699,"Swiss Chalet Rotisserie & Grill","Toronto","ON","M1B 3C3",43.8001625,-79.1984323,"1","American (Traditional), Restaurants, Comfort Food"
"39",64903,"Streetcar Po-boys","Las Vegas","NV","89102",36.1520371,-115.1632669,"0","Comfort Food, Restaurants, Soul Food, Sandwiches, Cajun/Creole"
"40",111811,"Indigo Cafe","Charlotte","NC","28270",35.137223,-80.734594,"0","Restaurants, Comfort Food, Southern, Food, Specialty Food"
"41",36076,"Jack Astor's Bar & Grill","Missisauga","ON","L5N 0A2",43.5987587,-79.7839203,"1","Bars, Nightlife, Restaurants, Canadian (New), Burgers, Sports Bars, Comfort Food"
"42",142325,"Evan's On Van Buren","Phoenix","AZ","85007",33.4515503,-112.0964669,"0","Soul Food, Comfort Food, Restaurants, Seafood, Southern"
"43",141172,"Georgio's","Cramerton","NC","28032",35.2488388,-81.080506,"1","Comfort Food, Restaurants, Breakfast & Brunch, American (New)"
"44",118650,"Rhema Soul Cuisine","Phoenix","AZ","85034",33.4469064,-112.0567192,"0","Restaurants, Soul Food, Comfort Food, Barbeque"
"45",17974,"Kelseys Original Roadhouse","Brampton","ON","L6S 6E8",43.7420183,-79.6986344,"1","Canadian (New), Restaurants, Comfort Food, Nightlife, American (Traditional), Steakhouses, Bars"
"46",47821,"The Loaded Potato","Phoenix","AZ","85040",33.3932579,-112.0459022,"0","Fast Food, Comfort Food, Restaurants"
"47",190253,"Swiss Chalet Rotisserie & Grill","Uxbridge","ON","L9P 1N7",44.0883611051,-79.1342054259,"1","Chicken Wings, Salad, Sandwiches, Restaurants, Comfort Food, American (Traditional)"
"48",87967,"Jack's New Yorker Deli","Charlotte","NC","28202",35.2301905,-80.8396029,"0","Breakfast & Brunch, Comfort Food, Delis, Sandwiches, Restaurants, Caterers, Event Planning & Services"
"49",109842,"St. Louis Bar & Grill","Vaughan","ON","L4K 5W7",43.796641,-79.533099,"1","Sports Bars, American (New), Bars, Comfort Food, Chicken Wings, Nightlife, American (Traditional), Restaurants, Canadian (New)"
"50",19069,"Cabano's Comfort Food","Toronto","ON","M4Y 0A5",43.6676141,-79.3864589,"1","Burgers, Comfort Food, Sandwiches, Restaurants, American (Traditional)"
"51",69817,"Vincent Sous-Marins","Montréal","QC","H1N 1M1",45.581714,-73.5392823107,"1","Comfort Food, Restaurants, Italian, Poutineries, Pizza"
"52",83113,"Swiss Chalet Rotisserie & Grill","Calgary","AB","T3J 3E8",51.0975103,-113.9568659,"1","Barbeque, Fast Food, Comfort Food, American (Traditional), Restaurants"
"53",8839,"Squarz Bakery & Cafe","Tempe","AZ","85284",33.348714,-111.9266829,"1","Bakeries, Specialty Food, Food, Comfort Food, Restaurants, American (New), Event Planning & Services, Cafes, Caterers"
"54",171746,"Bob Evans","Medina","OH","44256",41.163999,-81.862803,"1","Restaurants, Salad, American (Traditional), Hotels & Travel, Breakfast & Brunch, Bed & Breakfast, Comfort Food"
"55",61603,"Blue Ribbon Brasserie - Las  Vegas","Las Vegas","NV","89109",36.1099462,-115.1753911,"1","Cocktail Bars, Restaurants, Seafood, Comfort Food, Venues & Event Spaces, Event Planning & Services, Nightlife, Bars, American (New)"
"56",97468,"Swiss Chalet Rotisserie & Grill","Mississauga","ON","L5K 2K8",43.5261790974,-79.6518141018,"1","Comfort Food, Restaurants, Fast Food, American (Traditional)"
"57",59636,"Café Touski","Montréal","QC","H2K 1W1",45.5311418,-73.5545896,"1","Breakfast & Brunch, Coffee & Tea, Gluten-Free, Food, Comfort Food, Restaurants"
"58",10047,"New York Pretzel","Las Vegas","NV","89109",36.102723,-115.174286,"1","Comfort Food, Food, Hot Dogs, Bakeries, Restaurants, Pretzels"
"59",101395,"Boston Market","Phoenix","AZ","85022",33.6407726,-112.0702958,"1","American (Traditional), Comfort Food, Event Planning & Services, Caterers, Restaurants"
"60",152661,"Comfort Cravings","Phoenix","AZ","85003",33.4495511,-112.0789355,"0","Food, Food Trucks, Sandwiches, Barbeque, Restaurants, American (Traditional), Cuban, Comfort Food"
"61",137579,"Tilde","Toronto","ON","M4J 1L2",43.6790622976,-79.3438350409,"0","Mexican, Beer, Wine & Spirits, Restaurants, Comfort Food, Food, Nightlife, Bars"
"62",50941,"Mamma Toledo's The Pie Hole","Phoenix","AZ","85022",33.6263543,-112.0663899,"1","Breakfast & Brunch, Food Trucks, Comfort Food, Restaurants, Waffles, Coffee & Tea, Bakeries, Food"
"63",96491,"Hot Oven Bakery","Etobicoke","ON","M9B 3Y8",43.6327916,-79.5546772,"1","Food, Coffee & Tea, Desserts, Delis, Bakeries, Sandwiches, Comfort Food, Restaurants"
"64",167864,"Barabouf","Beloeil","QC","J3G 4K6",45.5712464163,-73.2025226965,"1","Restaurants, Cafes, French, Comfort Food"
"65",167825,"Me Vietnamese Kitchen","Gastonia","NC","28056",35.2613882214,-81.1321284994,"1","Restaurants, Comfort Food, Vietnamese, Bubble Tea, Sandwiches, Gluten-Free, Soup, Noodles, Food"
"66",93545,"Boston Market","Cleveland","OH","44120",41.465185,-81.5619713,"1","Restaurants, Comfort Food, Event Planning & Services, Caterers, American (Traditional)"
"67",175746,"Melt Bar and Grilled","Independence","OH","44131",41.3941325081,-81.6446144208,"1","Restaurants, Nightlife, Sandwiches, Pubs, Food, Comfort Food, American (Traditional), Beer, Wine & Spirits, Bars"
"68",111018,"Cut The Cheese","Toronto","ON","M6P 1Z1",43.6654363825,-79.4661390781,"0","Comfort Food, Restaurants, American (New), Canadian (New)"
"69",49533,"Montana's BBQ & Bar","Thornhill","ON","L3T 7X1",43.8122004,-79.3581215,"0","Comfort Food, Bars, Nightlife, Canadian (New), Restaurants, Barbeque, Steakhouses"
"70",189713,"Fire on the East Side","Toronto","ON","M4Y 1L5",43.6667655,-79.3848359,"0","Canadian (New), American (New), Southern, Comfort Food, Restaurants, Breakfast & Brunch"
"71",31066,"Bob Evans","Huntersville","NC","28078",35.4422202579,-80.8735585213,"1","Comfort Food, Breakfast & Brunch, American (Traditional), Salad, Restaurants, Bed & Breakfast, Hotels & Travel"
"72",141475,"The Monkey Bar","Toronto","ON","M4N 2M6",43.7315022,-79.403663,"1","French, Restaurants, Brasseries, Comfort Food, American (New), Seafood, Canadian (New), Nightlife, Bars, Italian, American (Traditional), Steakhouses, Coffee & Tea, Food"
"73",169919,"Boston Market","Phoenix","AZ","85032",33.6122248985,-111.9954503135,"1","Caterers, Comfort Food, Event Planning & Services, Restaurants, American (Traditional)"
"74",51188,"Cracker Barrel Old Country Store","Pittsburgh","PA","15275",40.449820902,-80.1733296986,"1","Comfort Food, Event Planning & Services, American (Traditional), Caterers, Breakfast & Brunch, Southern, Restaurants, Soul Food"
"75",181184,"Pho Metro","Markham","ON","L6C 0A2",43.8891301,-79.3148597,"1","Comfort Food, Restaurants, Vietnamese, Noodles, Asian Fusion"
"76",59020,"Saturday Dinette","Toronto","ON","M4M 1Y6",43.6670659,-79.3452638,"0","Restaurants, Comfort Food, Diners, Local Flavor"
"77",150665,"Canton Rice Noodle","Toronto","ON","M1S 3L6",43.7978023137,-79.2708323523,"1","Restaurants, Chinese, Specialty Food, Food, Comfort Food"
"78",160369,"Boston Market","Pittsburgh","PA","15220",40.4180836,-80.0460264,"1","Restaurants, Caterers, Comfort Food, Sandwiches, Event Planning & Services, Pizza, Chicken Wings, American (New), American (Traditional)"
"79",99589,"Rockaberry","Saint-Leonard","QC","H1S 2X6",45.5905131,-73.5698141,"1","Desserts, Coffee & Tea, Food, Comfort Food, Restaurants"
"80",52780,"The Daughter","Toronto","ON","M6P 3S6",43.665269,-79.4540472,"0","Comfort Food, Cocktail Bars, Restaurants, Seafood, Canadian (New), Nightlife, Breakfast & Brunch, Gastropubs, Bars"
"81",26256,"Beacher Cafe","Toronto","ON","M4E 1E4",43.6720052,-79.2913423,"1","Comfort Food, Canadian (New), Restaurants, Breakfast & Brunch"
"82",94103,"EAT- Eighth Ave Trattoria","Calgary","AB","T2P 1G2",51.0449719821,-114.072790993,"1","Venues & Event Spaces, Comfort Food, Italian, Restaurants, Caterers, Breakfast & Brunch, Event Planning & Services, Food Court"
"83",186519,"Boston Market","Pittsburgh","PA","15237",40.527215,-80.00568,"0","American (Traditional), Caterers, Event Planning & Services, Comfort Food, Restaurants"
"84",4939,"Bar Homestand","Toronto","ON","M6G 1M2",43.6626004,-79.4237255,"0","Bars, Sports Bars, Comfort Food, Beer Bar, Restaurants, Pubs, Nightlife"
"85",149156,"Scratch Food & Beverage","Pittsburgh","PA","15212",40.4644877,-79.9822923,"1","Nightlife, Restaurants, American (New), Bars, Cocktail Bars, Comfort Food"
"86",189509,"P.A. & Gargantua","Montréal","QC","",45.5016889,-73.567256,"1","Comfort Food, Food, Food Trucks, Sandwiches, Restaurants"
"87",179491,"Mauvais Garçons","Montréal","QC","H3J 1R5",45.4871737,-73.5670123,"1","Restaurants, Tapas/Small Plates, Breakfast & Brunch, Comfort Food"
"88",166198,"Swiss Chalet Rotisserie & Grill","Toronto","ON","M2P 1N9",43.7475448574,-79.40731287,"1","American (Traditional), Comfort Food, Barbeque, Restaurants"
"89",65972,"Public Beer Market","Calgary","AB","T1Y 6Z7",51.0810431479,-113.990272209,"0","Restaurants, Comfort Food, Canadian (New), Bars, Nightlife"
"90",138975,"Kam's","Champaign","IL","61820",40.1080694,-88.2295377,"1","Comfort Food, Pubs, Nightlife, Bars, Restaurants, Sports Bars"
"91",132030,"The Ship Yard","Mesa","AZ","85254",33.4141147,-111.8303394,"0","Restaurants, Local Flavor, Comfort Food"
"92",145262,"Lola 45","Saint-Sauveur","QC","J0R 1R0",45.8955727012,-74.1563833963,"1","Restaurants, Tapas/Small Plates, Bars, Food, Wine Bars, Comfort Food, Nightlife, Bistros"
"93",72332,"Kapetan Restaurant & Salle de Reception","Saint-Lambert","QC","J4P 2J5",45.5009522,-73.5097853,"1","Breakfast & Brunch, Comfort Food, Restaurants, Event Planning & Services, Venues & Event Spaces, Canadian (New)"
"94",131472,"Boston Market","Phoenix","AZ","85021",33.553471,-112.099212,"1","Comfort Food, American (New), American (Traditional), Barbeque, Restaurants"
"95",59699,"La Belle & la Boeuf","St-Bruno-de-Montarville","QC","J3V 5J5",45.5057439582,-73.3768551455,"1","Comfort Food, Restaurants, Poutineries, Burgers"
"96",145493,"Taylor's Landing Bar Grill Hub","Toronto","ON","M3C 0H1",43.733806,-79.3451909,"1","Bars, Restaurants, American (Traditional), Comfort Food, Nightlife, Canadian (New)"
"97",151497,"Famous Dave's Bar-B-Que","Madison","WI","53715",43.0578774,-89.4001047,"1","American (Traditional), Barbeque, Restaurants, Comfort Food"
"98",78349,"Swiss Chalet Rotisserie & Grill","Toronto","ON","M5B 1S5",43.6583169,-79.382174,"1","Barbeque, Comfort Food, Canadian (New), Restaurants, American (Traditional), Chicken Wings"
"99",81728,"Addies","Montréal","QC","H3G 1V7",45.4982373,-73.5736633,"1","Restaurants, Nightlife, Bars, Comfort Food"
"100",61132,"MACS","Sun Prairie","WI","53590",43.1665880375,-89.2706137266,"1","American (New), Comfort Food, Restaurants"
"101",176727,"Slim Chickens","Champaign","IL","61820",40.0905314,-88.2463655,"1","Comfort Food, Chicken Wings, Southern, Restaurants"
"102",52588,"Bob Evans","Lakewood","OH","44107",41.4852862738,-81.7911056802,"0","Breakfast & Brunch, Fast Food, Bed & Breakfast, Hotels & Travel, Food, Salad, American (Traditional), Restaurants, Comfort Food, Cambodian"
"103",102558,"The Street Eatery","Calgary","AB","T2P 0K4",51.0501231,-114.0807025,"1","Nightlife, Burgers, Comfort Food, Mexican, Food, Canadian (New), Vegan, Indian, Vietnamese, Korean, Sandwiches, Street Vendors, Cocktail Bars, Bars, Beer Bar, Restaurants, Barbeque, Thai"
"104",98576,"Magwyers Pub","Ajax","ON","L1S 7K7",43.8419644736,-79.0227875253,"1","Restaurants, Bars, Pubs, American (Traditional), Nightlife, Comfort Food"
"105",150482,"Prohibition Montréal","Montréal","QC","H4A 1E4",45.4744548,-73.6238401,"0","Comfort Food, Restaurants, Breakfast & Brunch"
"106",88563,"SlickMeals","Las Vegas","NV","89113",36.079959,-115.278636,"1","Comfort Food, Restaurants"
"107",56651,"Burgers 2 Beer","Lakewood","OH","44107",41.485043066,-81.7993392487,"0","Beer Bar, Bars, Salad, Chicken Wings, Comfort Food, Restaurants, Burgers, Nightlife"
"108",184332,"Proof","Scottsdale","AZ","85262",33.731835,-111.852751,"1","Restaurants, American (Traditional), Comfort Food, Gluten-Free"
"109",44242,"Harvey's & Swiss Chalet Combo","Toronto","ON","M1L 1E1",43.6943725,-79.2760343,"1","American (Traditional), Burgers, Restaurants, Comfort Food, Fast Food"
"110",76311,"Swiss Chalet Rotisserie & Grill","Calgary","AB","T2Z 0G4",50.9324106717,-113.9625958551,"1","Canadian (New), American (Traditional), Comfort Food, Restaurants"
"111",11417,"Bistro T","Montréal","QC","H2X 2H6",45.5090259841,-73.5726298392,"1","Breakfast & Brunch, Burgers, Comfort Food, Restaurants"
"112",186853,"Bierock","Madison","WI","53704",43.128579,-89.36098,"1","American (Traditional), Sandwiches, Beer Bar, Comfort Food, Bars, Nightlife, Restaurants"
"113",34984,"Bob Evans","Akron","OH","44333",41.1350880914,-81.6459730268,"1","Bed & Breakfast, American (Traditional), Salad, Restaurants, Comfort Food, Hotels & Travel, Breakfast & Brunch"
"114",165728,"Boston Market","Cuyahoga Falls","OH","44221",41.1195121,-81.4742202,"1","Comfort Food, Event Planning & Services, Caterers, American (Traditional), Restaurants"
"115",41406,"Swiss Chalet Rotisserie & Grill","Toronto","ON","M5X 1E1",43.6489768,-79.382409,"1","Food, Comfort Food, Canadian (New), American (Traditional), Restaurants"
"116",2329,"Bob Evans","Brunswick","OH","44212",41.2377666,-81.8005487323,"1","Bed & Breakfast, Breakfast & Brunch, Comfort Food, Salad, Hotels & Travel, Restaurants, American (Traditional)"
"117",190570,"Swiss Chalet Rotisserie & Grill","Toronto","ON","M1J 2E4",43.7405972219,-79.2327468167,"1","American (Traditional), Comfort Food, Restaurants, Swiss Food, Canadian (New)"
"118",25659,"Cracker Barrel Old Country Store","Madison","WI","53704",43.1296147,-89.2934051,"1","Southern, Breakfast & Brunch, Comfort Food, Caterers, Event Planning & Services, American (Traditional), Restaurants"
"119",145855,"Perfect Pear Bistro","Phoenix","AZ","85048",33.3050931742,-112.0566525463,"1","Comfort Food, Food, Bars, Sandwiches, Salad, Wine Bars, Vegetarian, Nightlife, American (New), Soup, Restaurants, Beer, Wine & Spirits, Italian"
"120",37235,"Harpers Landing Grill Hub Restaurant","Oakville","ON","L6J 7S8",43.462363038,-79.6741105959,"1","Restaurants, Canadian (New), Comfort Food, Nightlife, Bars"
"121",51253,"Borrel","Toronto","ON","M4J 1N1",43.6820658457,-79.3290362995,"1","Desserts, Comfort Food, Food, Fast Food, Restaurants, Scandinavian"
"122",103940,"Pizzaria","Las Vegas","NV","89109",36.1371788,-115.1627299,"1","Restaurants, Comfort Food"
"123",71123,"Tina's Grill","Aurora","ON","L4G 6P3",43.9706861773,-79.4869372621,"1","Sports Bars, Comfort Food, Canadian (New), Nightlife, Chicken Wings, Bars, Restaurants"
"124",88666,"Noodles & Company","Madison","WI","53704",43.1254079487,-89.3096987728,"1","Comfort Food, Italian, Asian Fusion, Restaurants, Noodles, Fast Food, Salad, Thai, Food"
"125",179442,"City Hollywood Cafe","Markham","ON","L3R 9V6",43.8254260936,-79.3047921799,"0","Cafes, Chinese, Restaurants, Comfort Food"
"126",9029,"Harvey's & Swiss Chalet Combo","Oakville","ON","L6J 2W9",43.45681,-79.6833863,"1","Restaurants, Comfort Food, Burgers, American (Traditional), Fast Food"
"127",160165,"West Side Coney Island","Akron","OH","44320",41.0913532705,-81.5564814582,"1","Food, American (Traditional), Comfort Food, Hot Dogs, Desserts, Restaurants, Seafood"
"128",171629,"Milestones Restaurants","Calgary","AB","T3A 0E2",51.0862230628,-114.1545041693,"1","Restaurants, Steakhouses, Bars, Canadian (New), Comfort Food, Nightlife"
"129",38518,"Kelseys Original Roadhouse","Richmond Hill","ON","L4S 0B2",43.899739,-79.3927925,"0","American (Traditional), Comfort Food, Bars, Canadian (New), Nightlife, Restaurants"
"130",182747,"Montana's BBQ & Bar","Richmond Hill","ON","L4C 6Z1",43.8408234803,-79.4282240453,"1","Restaurants, Comfort Food, American (Traditional), Steakhouses, Canadian (New)"
"131",105962,"MTO Café","Las Vegas","NV","89101",36.1669213,-115.1498378,"1","Cafes, Breakfast & Brunch, Comfort Food, Restaurants, Food"
"132",133529,"Kojax Souvlaki","Saint-laurent","QC","H4R 1Y8",45.4964525157,-73.7063315728,"1","Comfort Food, Food Court, Restaurants, Greek"
"133",4954,"Earls Kitchen + Bar","Toronto","ON","V5H 1J9",43.6480134621,-79.3839246431,"1","Cocktail Bars, Nightlife, Comfort Food, American (New), Bars, American (Traditional), Restaurants, Canadian (New)"
"134",103557,"Bassline Music Bar","Toronto","ON","M6G 1M5",43.6619962,-79.4247181,"1","Arts & Entertainment, Comfort Food, Nightlife, Bars, Music Venues, Restaurants"
"135",17577,"Street Cafe and Coffee Lounge","Scottsdale","AZ","85253",33.581682,-111.924074,"0","Caterers, Event Planning & Services, Food, Restaurants, Breakfast & Brunch, Comfort Food, Coffee & Tea, Cafes"
"136",77985,"Rockhound Brewing Company","Madison","WI","53715",43.062202,-89.401055,"1","Restaurants, American (Traditional), Bars, Food, Comfort Food, Breweries, Nightlife, Pubs"
"137",164228,"C'est What","Toronto","ON","M5E 1B5",43.6482483,-79.3733593,"1","Music Venues, Breweries, Burgers, Pubs, Nightlife, Comfort Food, Bars, Food, Restaurants, Canadian (New), Arts & Entertainment"
"138",138342,"Country Style Hungarian Restaurant","Toronto","ON","M5S 1X8",43.6657944,-79.4090389,"1","Japanese, Comfort Food, Hungarian, Restaurants"
"139",105089,"Kelseys Original Roadhouse","Whitby","ON","L1N 1C4",43.8675915033,-78.9330899551,"1","Italian, Restaurants, Nightlife, Comfort Food, Bars, Canadian (New)"
"140",86403,"Bobbie Sue's Mac & Cheese","Toronto","ON","M6J 2Z7",43.6478998,-79.4204573,"1","Comfort Food, Restaurants"
"141",134508,"Swiss Chalet Rotisserie & Grill","Brampton","ON","L6T 4P9",43.706683,-79.736149,"1","American (Traditional), Barbeque, Restaurants, Comfort Food"
"142",177922,"Meatballz","Scottsdale","AZ","85260",33.5838048,-111.9234213,"1","Comfort Food, Restaurants, Bars, Pubs, American (New), Nightlife, Sports Bars, Beer Bar"
"143",144933,"Lola's Kitchen","Toronto","ON","M4Y 2G3",43.6697687,-79.382838,"0","Breakfast & Brunch, Canadian (New), Restaurants, Tapas Bars, Gluten-Free, Comfort Food, Vegan"
"144",99668,"Pub Bishop & Bagg","Montréal","QC","H2T 2K8",45.5250592935,-73.5994327883,"1","Nightlife, Bars, Breakfast & Brunch, Beer, Wine & Spirits, Comfort Food, British, Food, Restaurants, Pubs, Cocktail Bars, American (Traditional)"
"145",132880,"Dirty Food Eatery","Toronto","ON","M6P 1Z7",43.6656109,-79.4719056,"1","Caterers, Breakfast & Brunch, Comfort Food, Restaurants, Event Planning & Services"
"146",27071,"Swiss Chalet Rotisserie & Grill","Toronto","ON","M6H 4A9",43.6562242,-79.4355773,"1","Comfort Food, Restaurants, American (Traditional)"
"147",65714,"District: Donuts. Sliders. Brew","Las Vegas","NV","89109",36.1098,-115.174603,"1","Coffee & Tea, Comfort Food, Restaurants, Donuts, Food"
"148",82040,"Swiss Chalet Rotisserie & Grill","Mississauga","ON","L5N 8J4",43.6094454,-79.7505103,"1","Restaurants, American (Traditional), Comfort Food, Canadian (New)"
"149",87596,"Salt 'N Pepper Southern Comfort Bar and Grill","Las Vegas","NV","89145",36.166727198,-115.2868417678,"0","Southern, American (New), Restaurants, American (Traditional), Barbeque, Comfort Food, Nightlife, Bars"
"150",8150,"Earls Kitchen + Bar","Calgary","AB","T2M 0K8",51.0672962172,-114.0858471339,"1","American (New), American (Traditional), Bars, Comfort Food, Restaurants, Cocktail Bars, Canadian (New), Nightlife"
"151",123634,"Brasserie Harricana","Montréal","QC","H2R 2W8",45.5337701,-73.6193709,"1","Breakfast & Brunch, Food, Comfort Food, Bars, Brasseries, Beer, Wine & Spirits, Restaurants, Pubs, Nightlife"
"152",7748,"The Grover Pub","Toronto","ON","M4E 1R4",43.6792427,-79.297302,"1","Food, Bars, Pubs, Nightlife, Beer, Wine & Spirits, Restaurants, Salad, Comfort Food, Pizza"
"153",131191,"The Lodge: A Sportsman's Grill","Charlotte","NC","28226",35.106407,-80.8077349,"1","Bars, Comfort Food, Nightlife, Food, Gluten-Free, Beer, Wine & Spirits, American (Traditional), Burgers, Sports Bars, Restaurants"
"154",47530,"Earls Kitchen + Bar","Calgary","AB","T3H 3C8",51.0166808,-114.1673072,"1","Restaurants, Nightlife, Comfort Food, Shopping Centers, Bars, Cocktail Bars, Canadian (New), Shopping, American (New)"
"155",15064,"Bob Evans","Amherst","OH","44001",41.4154886725,-82.2095829248,"1","Bed & Breakfast, Comfort Food, Salad, Breakfast & Brunch, American (Traditional), Hotels & Travel, Restaurants"
"156",45763,"Jack Saloon","Brossard","QC","J4Y 0A5",45.4422382,-73.4366941,"1","Restaurants, Comfort Food"
"157",33186,"Swiss Chalet Rotisserie & Grill","Mississauga","ON","L4W 4G1",43.6401087,-79.6250323,"1","American (Traditional), Barbeque, Fast Food, Restaurants, Comfort Food"
"158",68672,"Top Gun  Burgers","Toronto","ON","M5T 2L8",43.6550342,-79.4019624,"1","Sandwiches, Burgers, Restaurants, Cheesesteaks, American (Traditional), Comfort Food, Halal, Steakhouses"
"159",150600,"High & Rye","Phoenix","AZ","85054",33.6765403,-111.9663621,"1","Restaurants, Food, Comfort Food, Nightlife, Beer, Wine & Spirits, Bars, Southern"
"160",101083,"Vienna Fine Foods","Scarborough","ON","M1K 1S4",43.7338749,-79.279494,"1","Sandwiches, Caterers, Modern European, Delis, Comfort Food, Restaurants, Food, Ethnic Food, Event Planning & Services, Specialty Food"
"161",87213,"Milky Lane","Richmond Hill","ON","L4C 0M5",43.8639399879,-79.4354499131,"0","South African, African, Diners, Sandwiches, Restaurants, Desserts, Food, Coffee & Tea, Ice Cream & Frozen Yogurt, Comfort Food"
"162",5288,"The Detroiter","Lakewood","OH","44107",41.4848675,-81.7987089,"0","Sports Bars, American (New), Desserts, Comfort Food, Nightlife, Bars, Restaurants, Food"
"163",10610,"The Peasant Table","Toronto","ON","M4M 1H4",43.6595356509,-79.3473240556,"1","Restaurants, Comfort Food, Italian, Gastropubs, Canadian (New), Breakfast & Brunch, American (New)"
"164",905,"Someburros","Tempe","AZ","85283",33.3775286713,-111.9389585456,"1","Comfort Food, Restaurants, Mexican"
"165",173263,"Terrace  - Ballantyne","Charlotte","NC","28277",35.0535664,-80.851867,"1","American (New), Southern, Breakfast & Brunch, Comfort Food, Cafes, Restaurants"
"166",6384,"Swiss Chalet Rotisserie & Grill","Mississauga","ON","L5M 6J3",43.5497754,-79.7175984,"1","Restaurants, American (Traditional), Comfort Food"
"167",129468,"Let's Be Frank","Toronto","ON","M5T 2G8",43.6575542,-79.4000236,"0","Comfort Food, Pubs, Food, Nightlife, Bars, Food Trucks, Hot Dogs, Restaurants, Arts & Entertainment, Music Venues"
"168",93240,"Liam's Fish, Wings & Things","Pittsburgh","PA","15221",40.4447851035,-79.8869266134,"0","Restaurants, Seafood, Chicken Wings, Comfort Food, Southern"
"169",115402,"Mr. Chicken","Cleveland","OH","44129",41.412333,-81.7348797,"1","Restaurants, Chicken Shop, Comfort Food, Chicken Wings"
"170",12259,"Mikes","Laval","QC","H7S 1M9",45.568031,-73.726468,"1","Canadian (New), Breakfast & Brunch, Italian, Restaurants, Comfort Food, Pizza, Noodles"
"171",157687,"Hair of the Dog","Toronto","ON","M4Y 2C3",43.6629468238,-79.3795928702,"1","Breakfast & Brunch, Bars, Comfort Food, Restaurants, Nightlife, Pubs"
"172",187914,"Joe's Island Grindz","Las Vegas","NV","89146",36.1587068,-115.2367353,"0","Barbeque, Restaurants, Comfort Food, Hawaiian"
"173",27903,"Chez Tousignant","Montréal","QC","H2S 2T3",45.5361242,-73.6123335,"1","Canadian (New), Restaurants, Hot Dogs, Comfort Food, Sandwiches, Fast Food, Burgers"
"174",100259,"Nauti Norske","Stoughton","WI","53589",42.9161167,-89.2218511,"1","Burgers, Comfort Food, Pubs, Bars, Nightlife, Arts & Entertainment, Restaurants, Music Venues"
"175",15550,"Milestones Restaurants","Mississauga","ON","L5R 3T2",43.6091794,-79.6909702,"1","Nightlife, Steakhouses, Bars, Comfort Food, Canadian (New), Restaurants"
"176",104564,"Hank's","Toronto","ON","M5E 1M2",43.6468886,-79.3729019,"0","Comfort Food, Food, Local Flavor, Breakfast & Brunch, Restaurants, Event Planning & Services, Coffee & Tea, American (New), Venues & Event Spaces, Canadian (New), Cafes"
"177",63677,"Swiss Chalet Rotisserie & Grill","Stouffville","ON","L4A 8B7",43.9670910878,-79.2706495353,"1","Canadian (New), Comfort Food, Restaurants, Food, American (Traditional)"
"178",179116,"Boston Market","Matthews","NC","28105",35.1364937,-80.7157677,"1","Comfort Food, Event Planning & Services, American (Traditional), Caterers, Restaurants, Fast Food"
"179",1989,"521 Cafe & Bar","Toronto","ON","M4K 1P7",43.6780201,-79.3482498,"1","Comfort Food, Food, Bars, Coffee & Tea, Restaurants, Nightlife"
"180",179747,"Kantene","Mississauga","ON","L5C 1C3",43.558077,-79.6428029,"1","Halal, Burgers, Restaurants, Comfort Food, Sandwiches"
"181",138511,"Coo Coo's Gourmet Coffee Cafe","Henderson","NV","89015",36.0331693,-114.9854515,"1","Breakfast & Brunch, Food, Restaurants, Comfort Food, British, Coffee & Tea"
"182",62603,"Swiss Chalet Rotisserie & Grill","Newmarket","ON","L3Y 8X2",44.0674178967,-79.4318446787,"1","Comfort Food, American (Traditional), Canadian (New), Restaurants"
"183",187888,"DaiKo Indian Kitchen & Nepali Street Food","Toronto","ON","M6R 1A6",43.6399626,-79.4403278,"1","Indian, Restaurants, Beer, Wine & Spirits, Arts & Entertainment, Plumbing, Canadian (New), Asian Fusion, Himalayan/Nepalese, Bars, Home Services, Jazz & Blues, Comfort Food, Dive Bars, Food, Nightlife"
"184",146306,"Hunters Landing Bar Grill Hub Restaurant","Toronto","ON","M5V 4A6",43.6399996,-79.3966205,"1","Restaurants, Comfort Food, Nightlife, Canadian (New), Bars"
"185",161447,"Loaded Pierogi","Toronto","ON","M6J 1G4",43.6458497542,-79.4100153105,"1","Comfort Food, Bars, Cocktail Bars, Restaurants, Polish, Nightlife, Canadian (New)"
"186",2618,"Urban Kitchen & Deli","Cleveland","OH","44106",41.505688,-81.61949,"1","Halal, Restaurants, Desserts, Breakfast & Brunch, Food, Delis, Comfort Food"
"187",161019,"Boston Market","Mentor","OH","44060",41.6793791,-81.3049109,"1","Comfort Food, Event Planning & Services, American (Traditional), Restaurants, Caterers"
"188",146409,"Mochiko Chicken","Las Vegas","NV","89102",36.1487348,-115.2099431,"1","American (New), Hawaiian, Chicken Shop, Chicken Wings, Comfort Food, Asian Fusion, Restaurants, Food, Barbeque, Bubble Tea, American (Traditional), Southern"
"189",100522,"Savor Cafe & Catering","Charlotte","NC","28208",35.2294013,-80.8641978,"0","Restaurants, Burgers, American (New), Southern, Soul Food, Comfort Food, American (Traditional)"
"190",87011,"Dirty Food Catering","Toronto","ON","M6P 1Z7",43.6656109,-79.4719056,"1","Burgers, Caterers, Breakfast & Brunch, Restaurants, Comfort Food, Canadian (New), Event Planning & Services"
"191",78549,"Z Bakery and Cafe","Fort Mill","SC","29715",35.006133,-80.942889,"1","Food, Bakeries, Event Planning & Services, Restaurants, Sandwiches, Coffee & Tea, Venues & Event Spaces, Comfort Food, Custom Cakes"
"192",155186,"Parka Food Co","Toronto","ON","M5V 2A7",43.6484934,-79.3981133,"1","Burgers, Restaurants, Comfort Food, American (Traditional), Vegan"
"193",154896,"Denny's","Champaign","IL","61822",40.1432615061,-88.2547938824,"1","Diners, Breakfast & Brunch, Restaurants, American (Traditional), Comfort Food"
"194",147960,"Viviry Restaurant","Hudson","QC","J0P 1H0",45.4601514,-74.1443631,"1","Comfort Food, Restaurants, Pizza"
"195",34366,"Swiss Chalet Rotisserie & Grill","Mississauga","ON","L5H 1G6",43.5466327,-79.5933174,"1","American (Traditional), Restaurants, Comfort Food"
"196",10871,"Cracker Barrel Old Country Store","Phoenix","AZ","85027",33.6817121,-112.114006,"1","Comfort Food, Event Planning & Services, American (Traditional), Caterers, Salad, Grocery, Breakfast & Brunch, Desserts, Food, Restaurants, Southern"
"197",77130,"Montana's BBQ & Bar","Mississauga","ON","L5N 8E1",43.594732,-79.788843,"1","Canadian (New), Restaurants, Steakhouses, Comfort Food, American (Traditional)"
"198",155861,"7 Senses","Pittsburgh","PA","15208",40.4536691,-79.8984105,"1","Local Services, Soul Food, Caterers, Comfort Food, American (Traditional), Food, Community Service/Non-Profit, Restaurants, Grocery, Food Banks, Event Planning & Services"
"199",109678,"Montana's BBQ & Bar","Mississauga","ON","L4W 1C2",43.644913,-79.63457,"1","Restaurants, Food, Barbeque, Comfort Food, Canadian (New), Steakhouses, Nightlife"
"200",23775,"Swiss Chalet Rotisserie & Grill","Toronto","ON","M3C 1V6",43.7269871,-79.3414943,"1","Comfort Food, Restaurants, American (Traditional)"
"201",157666,"Chuchote Thai Bistro & Desserts","Las Vegas","NV","89102",36.1440225,-115.195896,"1","Thai, Beer, Wine & Spirits, Food, Desserts, Restaurants, Comfort Food"
"202",169833,"Rise and Dine Cafe","Chesterland","OH","44026",41.521437,-81.337442,"1","Diners, Comfort Food, Restaurants, American (Traditional)"
"203",155801,"Lobbys Burgers","Tempe","AZ","85282",33.3950949278,-111.9088796306,"0","Restaurants, Fast Food, American (New), Burgers, Hot Dogs, Comfort Food"
"204",5248,"Joy Bistro","Toronto","ON","M4M 1J3",43.6604177399,-79.3434817648,"0","Venues & Event Spaces, American (Traditional), Gastropubs, American (New), Canadian (New), Bars, Nightlife, Wine Bars, Breakfast & Brunch, French, Comfort Food, Pubs, Event Planning & Services, Restaurants"
"205",116076,"Locos Lounge","Calgary","AB","T2P 0J6",51.0499733,-114.0726126,"1","Comfort Food, Arts & Entertainment, Karaoke, Restaurants, Pizza, Nightlife, Tapas Bars, Music Venues"
"206",77757,"Montana's BBQ & Bar","Whitby","ON","L1N 9S2",43.8691457,-78.912657,"1","Canadian (New), Restaurants, Comfort Food, American (New), Nightlife, Steakhouses"
"207",159409,"Paws","Aurora","OH","44202",41.3347736,-81.3627135,"1","Restaurants, American (New), American (Traditional), Sandwiches, Comfort Food, Burgers"
"208",10562,"Rose and Sons","Toronto","ON","M6G 3G8",43.675786,-79.403665,"1","Mediterranean, Coffee & Tea, Food, Comfort Food, Restaurants, Diners, Canadian (New), Barbeque, Breakfast & Brunch"
"209",14744,"Lucky Strike","Vaughan","ON","L4K 5W4",43.8246198213,-79.5363807678,"0","Lounges, Bars, Comfort Food, Nightlife, Active Life, Bowling, Restaurants"
"210",151956,"Noodles & Company","Pittsburgh","PA","15222",40.440821,-80.001773,"1","Italian, Comfort Food, Restaurants, Noodles, American (New), Mediterranean, Asian Fusion"
"211",31970,"Carson Kitchen","Las Vegas","NV","89101",36.1678783157,-115.1406404749,"1","Bars, Restaurants, Nightlife, Cocktail Bars, American (New), Seafood, Gastropubs, Food, Comfort Food, Salad, Tapas/Small Plates, Burgers, Desserts, Vegan"
"212",77090,"Twisted Italian","Peoria","AZ","85383",33.7108522,-112.2731342,"1","Comfort Food, Breakfast & Brunch, Wine Bars, Italian, American (Traditional), Bars, Nightlife, Restaurants, Polish"
"213",101302,"Swiss Chalet Rotisserie & Grill","Toronto","ON","M9M 2Y9",43.7521872,-79.5367103,"0","Restaurants, Comfort Food, American (Traditional), Food"
"214",164188,"Arts café","Montréal","QC","H2T 2M8",45.5214614,-73.596972,"1","Cafes, Restaurants, Coffee & Tea, Comfort Food, Food, Breakfast & Brunch"
"215",37222,"Plaza Mcgill","Montréal","QC","H2Y 2H2",45.5007149,-73.5595055,"1","Pizza, American (Traditional), Restaurants, Comfort Food, Breakfast & Brunch, Delis"
"216",150208,"John's Country Kitchen","Charlotte","NC","28205",35.2202049237,-80.812662787,"0","Sandwiches, Breakfast & Brunch, Comfort Food, Restaurants, Southern, American (Traditional)"
"217",133774,"Modern Donut","Las Vegas","NV","89144",36.1780112,-115.3133908,"0","Donuts, Bakeries, Flowers & Gifts, Comfort Food, Food, Desserts, Shopping, Restaurants, Food Delivery Services"
"218",144247,"Wingstop","Charlotte","NC","28262",35.3119098063,-80.7446102024,"1","Chicken Wings, American (New), Restaurants, Comfort Food, Food, Fast Food"
"219",148200,"Rashers","Toronto","ON","M6J 2Z7",43.6483668,-79.4206211,"0","Sandwiches, Breakfast & Brunch, Restaurants, Comfort Food"
"220",59346,"Switch Restaurant & Wine Bar","Phoenix","AZ","85004",33.477031,-112.073616,"1","Sandwiches, Delis, Cocktail Bars, Comfort Food, Food, Modern European, Bars, Nightlife, Restaurants, American (Traditional), Burgers, Wine Bars, Breakfast & Brunch, American (New)"
"221",169989,"Boston Market","Charlotte","NC","28213",35.294197,-80.7431378,"1","Caterers, Comfort Food, American (Traditional), Event Planning & Services, Restaurants"
"222",14167,"Chicken Itza","Las Vegas","NV","89107",36.1756008398,-115.2222651619,"0","Mexican, Comfort Food, Restaurants"
"223",70443,"Bob Evans","Bridgeville","PA","15017",40.3667171,-80.1067693,"1","Comfort Food, Breakfast & Brunch, Salad, Hotels & Travel, Restaurants, Bed & Breakfast, Sandwiches, American (Traditional)"
"224",98284,"Beaumont Kitchen","Etobicoke","ON","M9C 1B8",43.611813,-79.5570634,"1","Bars, Beer, Wine & Spirits, Desserts, Comfort Food, American (Traditional), Food, Restaurants, Canadian (New), Nightlife, Breakfast & Brunch"
"225",127687,"Terrace Restaurants","Charlotte","NC","28210",35.1524371765,-80.8395179364,"1","Comfort Food, Breakfast & Brunch, American (Traditional), Cafes, Food, American (New), Desserts, Irish, Southern, French, Restaurants"
"226",134287,"Muncheez","Cleveland","OH","44120",41.480225,-81.5969141,"1","Restaurants, American (Traditional), Seafood, Comfort Food, Soul Food"
"227",47886,"Swiss Chalet Rotisserie & Grill","Ajax","ON","L1S 7K7",43.8419547,-79.0223692,"1","American (Traditional), Comfort Food, Restaurants"
"228",19894,"Buttermilk Fine Waffles","Calgary","AB","T2S 0A8",51.038002,-114.0703168,"1","Belgian, Bakeries, Food, Waffles, Comfort Food, Restaurants"
"229",621,"Chicago Eatery","Toronto","ON","M4K 3V3",43.6854662,-79.3468637,"0","Comfort Food, American (Traditional), Restaurants"
"230",7341,"Montreal Pool Room","Montréal","QC","H2X 2S5",45.5097681,-73.5631655,"1","Hot Dogs, Poutineries, Restaurants, Comfort Food"
"231",70196,"Ma Tante Quiche","Montréal","QC","H3K 1J4",45.4806017,-73.565517,"0","Food, Internet Cafes, Restaurants, Breakfast & Brunch, Comfort Food"
"232",144992,"Bob Evans","Willoughby","OH","44094",41.6055782,-81.4403803647,"1","Breakfast & Brunch, Hotels & Travel, Salad, Restaurants, American (Traditional), Comfort Food, Bed & Breakfast, Diners"
"233",146744,"Milestones Restaurants","Markham","ON","L6G 1B3",43.8491335,-79.3239632,"1","Restaurants, Nightlife, Canadian (New), American (Traditional), Comfort Food, Bars"
"234",143747,"Doughbird","Phoenix","AZ","85018",33.4944994301,-111.9873513472,"1","Pizza, Comfort Food, Restaurants, American (Traditional)"
"235",191137,"Le Robin Square","Montréal","QC","H2Y 1C7",45.5091622,-73.5530674,"1","Restaurants, French, Comfort Food, Canadian (New)"
"236",30516,"Swiss Chalet Rotisserie & Grill","Vaughan","ON","L4H 0R2",43.7732449613,-79.6236266667,"1","Restaurants, American (Traditional), Comfort Food"
"237",138961,"Bootleggers Modern American Smokehouse","Scottsdale","AZ","85251",33.4922045,-111.9255493,"1","Smokehouse, American (New), Cocktail Bars, Food, Nightlife, Bars, Comfort Food, Barbeque, Restaurants"
"238",137947,"Junction Eatery","Toronto","ON","M6P 1Y5",43.6653918,-79.4622766,"0","Specialty Food, Food, Breakfast & Brunch, Soul Food, Comfort Food, Restaurants"
"239",148975,"Moleskine","Montréal","QC","H2X 2H5",45.5083635,-73.5715948,"1","Pizza, Cafes, Nightlife, Italian, Wine Bars, Bars, Comfort Food, Restaurants"
"240",20411,"Boston Market","Pittsburgh","PA","15241",40.3475404,-80.054769,"0","Event Planning & Services, Restaurants, American (Traditional), Comfort Food, Caterers"
"241",57974,"Noodles & Company","Madison","WI","53703",43.0749389,-89.3895566,"1","Mediterranean, Asian Fusion, Italian, Noodles, Chinese, American (New), Restaurants, Comfort Food"
"242",154034,"Norske Nook Restaurant & Bakery","DeForest","WI","53532",43.24795,-89.343562,"1","Desserts, Comfort Food, Food, Restaurants"
"243",40654,"The Hush Puppy","Las Vegas","NV","89115",36.192992,-115.0616559,"1","Restaurants, Southern, Comfort Food, Seafood"
"244",177752,"Focal Resto Lounge","Toronto","ON","M6J 1E3",43.6473873,-79.4044396,"0","Comfort Food, Lounges, Restaurants, Nightlife, Asian Fusion, International, Bars"
"245",64281,"Notorious Burgers","Scottsdale","AZ","85253",33.564852,-111.9255724,"0","Nightlife, American (New), Burgers, Comfort Food, Cocktail Bars, Restaurants, Food, Bars, American (Traditional)"
"246",132017,"Midwood Pies","Charlotte","NC","28205",35.2263714,-80.7990185,"0","Food, Comfort Food, Restaurants, Bakeries, Desserts"
"247",186943,"Kelseys Original Roadhouse","Etobicoke","ON","M8Z 6C7",43.6229606,-79.5163876,"1","Nightlife, Canadian (New), Bars, American (Traditional), Restaurants, Comfort Food"
"248",92621,"Swiss Chalet Rotisserie & Grill","Toronto","ON","M6A 2T1",43.7166493444,-79.4563104015,"1","Chicken Shop, American (Traditional), Restaurants, Comfort Food"
"249",151595,"Alexander Michael's","Charlotte","NC","28202",35.2336176,-80.8407881,"1","Nightlife, Cajun/Creole, Sports Bars, Pubs, Bars, Local Flavor, Restaurants, American (Traditional), Comfort Food"
"250",152439,"The Old Laurel","Toronto","ON","M5T 1R9",43.657691,-79.401671,"0","Nightlife, Comfort Food, Bars, British, Restaurants, Pubs"
"251",3713,"Montana's BBQ & Bar","Brampton","ON","L6S 0B8",43.7456889,-79.6962486,"1","American (Traditional), Restaurants, Steakhouses, Comfort Food, Canadian (New)"
"252",11060,"Bob Evans","Cleveland","OH","44135",41.4190169703,-81.7822426558,"1","Comfort Food, Salad, Hotels & Travel, Restaurants, Breakfast & Brunch, Bed & Breakfast, American (Traditional)"
"253",119088,"2601 on Central","Phoenix","AZ","85004",33.476879,-112.0734163,"1","New Mexican Cuisine, Pubs, American (Traditional), American (New), Restaurants, Sandwiches, Cocktail Bars, Comfort Food, Mexican, Nightlife, Bars"
"254",88066,"Le Bourlingueur","Montréal","QC","H2Y 3P9",45.50273,-73.555096,"1","Restaurants, Comfort Food, French"
"255",183902,"Boston Market","Phoenix","AZ","85012",33.5107343896,-112.073318522,"0","American (Traditional), Event Planning & Services, Caterers, Comfort Food, Restaurants"
"256",10923,"Swiss Chalet Rotisserie & Grill","Toronto","ON","M4W 3J6",43.6718021,-79.3787064,"1","Comfort Food, American (New), American (Traditional), Canadian (New), Restaurants"
"257",128664,"Boston Market","Lakewood","OH","44107",41.4839689,-81.7998615,"1","Caterers, Restaurants, American (Traditional), Event Planning & Services, Comfort Food"
"258",67631,"Swiss Chalet Rotisserie & Grill","Mississauga","ON","L5C 4E6",43.5688421777,-79.6628948674,"1","Canadian (New), Comfort Food, American (Traditional), Restaurants"
"259",167252,"Siggy's Good Food","Charlotte","NC","28205",35.2278929,-80.8209316,"1","Restaurants, Mediterranean, Vegan, Comfort Food, Food, Juice Bars & Smoothies, Gluten-Free, Sandwiches"
"260",185314,"Insomnia Restaurant & Lounge","Toronto","ON","M5S 1Y6",43.6651314099,-79.4108515895,"1","French, Bars, Caterers, Canadian (New), Breakfast & Brunch, Lounges, Restaurants, Cocktail Bars, International, Mediterranean, Event Planning & Services, Nightlife, Comfort Food"
"261",31558,"Homeville Trolley Stop","West Mifflin","PA","15122",40.3918374,-79.8848141,"1","Restaurants, Comfort Food"
"262",16045,"Kelseys Original Roadhouse","East Gwillimbury","ON","L9N 0J3",44.071686,-79.4850952,"1","Comfort Food, Bars, Canadian (New), Nightlife, Restaurants"
"263",142006,"Bob Evans","North Olmsted","OH","44070",41.4207385,-81.9078924,"1","Bed & Breakfast, Grocery, Hotels & Travel, Food, Comfort Food, Salad, Restaurants, American (Traditional), Breakfast & Brunch"
"264",121338,"Swiss Chalet Rotisserie & Grill","Calgary","AB","T2A 6L6",51.0492922,-113.9925353,"1","Comfort Food, American (Traditional), Restaurants"
"265",58207,"Melt University","Cleveland","OH","44106",41.5082981599,-81.6086960584,"1","Restaurants, Sandwiches, Comfort Food, American (New), American (Traditional)"
"266",88408,"Swiss Chalet Rotisserie & Grill","Toronto","ON","M8Z 1S1",43.6203422,-79.5239571,"1","Comfort Food, Restaurants, American (Traditional), Chicken Shop"
"267",61134,"Bob Evans","Moon Township","PA","15108",40.5086522,-80.2225024,"1","Salad, American (Traditional), Bed & Breakfast, Restaurants, Comfort Food, Breakfast & Brunch, Hotels & Travel"
"268",143956,"Kelseys Original Roadhouse","Ajax","ON","L1T 4K8",43.8616363,-79.0266736,"1","Bars, Comfort Food, Restaurants, Nightlife, Food, Canadian (New)"
"269",147872,"Salsitas","Phoenix","AZ","85037",33.4940448535,-112.2825741023,"1","Restaurants, Mexican, Comfort Food"
"270",51114,"Paddy's Barbecue & Brewery","Calgary","AB","T2G 3Z2",51.0228546,-114.0575884,"1","Brewpubs, Barbeque, Food, Breweries, Comfort Food, Restaurants"
"271",79688,"Deon's Restaurant","University Heights","OH","44118",41.50105,-81.53971,"1","Restaurants, Southern, Soul Food, Comfort Food"
"272",11537,"Gushi Japanese Street Food","Toronto","ON","M5V 1Z7",43.6501306,-79.3904119,"0","Food Court, Japanese, Restaurants, Comfort Food, Street Vendors, Food"
"273",21696,"Williams Landing Bar Grill Hub Restaurant","Toronto","ON","M6K 3P6",43.6389515597,-79.4175598995,"1","Gastropubs, Canadian (New), Bars, American (New), Nightlife, Comfort Food, Restaurants"
"274",2035,"Mick & Shirley's Catering and Cafe","Akron","OH","44320",41.0543369,-81.581282,"1","Comfort Food, Vegetarian, Soul Food, American (New), Restaurants, Barbeque, Event Planning & Services, Caterers, Sandwiches"
"275",27013,"Mac'n","Toronto","ON","M5T",43.6514248,-79.4041234,"0","Food, Food Trucks, Street Vendors, American (Traditional), Comfort Food, Restaurants"
"276",189308,"Boston Market","Solon","OH","44139",41.3844108,-81.4340373,"1","American (Traditional), Event Planning & Services, Restaurants, Comfort Food, Caterers"
"277",16383,"Tom's Family Restaurant","Caledon East","ON","L7C 1E7",43.8708611,-79.8678846,"1","Food, Comfort Food, Coffee & Tea, Breakfast & Brunch, Restaurants"
"278",103516,"Retro Bleu Cafe","Las Vegas","NV","89146",36.1586808,-115.2367199,"0","Hawaiian, Comfort Food, Barbeque, Hot Dogs, Asian Fusion, Restaurants"
"279",137449,"Deux - Cave à Manger","Sainte-Thérèse","QC","J7E 3H3",45.6393523,-73.8418159,"1","Restaurants, Coffee & Tea, Food, Tapas Bars, Comfort Food, Breakfast & Brunch, Cafes, Bars, Tapas/Small Plates, Wine Bars, Nightlife"
"280",131566,"Miss Congee","Markham","ON","L3R 0M9",43.8629677425,-79.301337786,"0","Chinese, Restaurants, Comfort Food"
"281",43741,"Swiss Chalet Rotisserie & Grill","East Gwillimbury","ON","L9N 0H9",44.0700033,-79.4835272,"1","Canadian (New), Restaurants, Comfort Food"
"282",69105,"Star Ice Cream","Toronto","ON","M6K 1L9",43.641097,-79.435192,"1","Restaurants, Cafes, Food, Ice Cream & Frozen Yogurt, Comfort Food, Bubble Tea"
"283",42357,"Melrose","Montréal","QC","H2S 3C6",45.5309063,-73.6102742,"1","Bars, Restaurants, Pubs, Italian, Beer, Wine & Spirits, Food, Venues & Event Spaces, Event Planning & Services, Comfort Food, Pizza, Nightlife"
"284",132010,"Frites Alors","Montréal","QC","H3L 2T6",45.5466016,-73.6660281,"1","Restaurants, Comfort Food"
"285",183046,"Ma Douce Moitié","Montréal","QC","H4G 1W8",45.45865,-73.567409,"0","Restaurants, Comfort Food, Breakfast & Brunch, Cafes, Bakeries, Food"
"286",19000,"Harvey's & Swiss Chalet Combo","Toronto","ON","M1E 2N5",43.7684166,-79.1903065,"1","Comfort Food, Restaurants, American (Traditional)"
"287",59436,"The Flipside Cafe","Fort Mill","SC","29715",35.0777216,-80.934358,"1","Coffee & Tea, Comfort Food, Breakfast & Brunch, Cafes, Food, American (New), Restaurants, Southern"
"288",35069,"Swiss Chalet Rotisserie & Grill","Brampton","ON","L7A 3R9",43.7242890142,-79.813195467,"1","Comfort Food, American (Traditional), Barbeque, Restaurants, Food"
"289",124449,"Cracker Barrel Old Country Store","Goodyear","AZ","85395",33.459639,-112.357297,"1","Comfort Food, Southern, Breakfast & Brunch, Food, Desserts, Caterers, American (Traditional), Event Planning & Services, Restaurants"
"290",168718,"Papa Ed's Ice Cream","Glendale","AZ","85301",33.5414931,-112.1839824,"1","Food, Ice Cream & Frozen Yogurt, Restaurants, Coffee & Tea, Comfort Food, Desserts, Acai Bowls"
"291",72223,"Kelseys Original Roadhouse","Bolton","ON","L7E 2Y3",43.862609,-79.713881,"1","Nightlife, Comfort Food, Bars, Canadian (New), Restaurants"
"292",92648,"Stak Shak Table and Taps","Allison Park","PA","15101",40.5899253,-79.9569902,"0","Beer Bar, Comfort Food, Bars, Beer, Wine & Spirits, Restaurants, American (Traditional), Sandwiches, Fish & Chips, Nightlife, Food"
"293",118913,"Searsucker","Las Vegas","NV","89109",36.1168578154,-115.1743240079,"1","Restaurants, Bars, American (New), Nightlife, Comfort Food"
"294",117374,"Earls Kitchen + Bar","Woodbridge","ON","L4L 0B7",43.7871184,-79.5434402,"1","Bars, Canadian (New), American (New), Comfort Food, Cocktail Bars, Nightlife, Restaurants"
"295",167941,"Rashers","Toronto","ON","M4M 1J7",43.6609221,-79.3411326,"1","Food, Restaurants, Sandwiches, Comfort Food, British, Breakfast & Brunch"
"296",7062,"The Royal Oak","Whitby","ON","L1N 0E4",43.8588801153,-78.9441221668,"1","Pubs, Nightlife, Comfort Food, British, Restaurants, Bars"
"297",54572,"Off The Strip at the LINQ","Las Vegas","NV","89109",36.117683,-115.171248,"1","Bars, Comfort Food, American (Traditional), Nightlife, Restaurants, Italian, American (New), Steakhouses"
"298",2384,"Union Chicken","Toronto","ON","M9C 1B8",43.6107487441,-79.5580802597,"1","Comfort Food, Chicken Shop, Restaurants, Breakfast & Brunch"
"299",175500,"The Morehouse Willoughby","Willoughby","OH","44094",41.641489,-81.406855,"1","Southern, Comfort Food, American (Traditional), Restaurants"
"300",9185,"Nathan's Famous","Las Vegas","NV","89109",36.095424,-115.175922,"1","Cheesesteaks, Fast Food, Hot Dogs, Comfort Food, American (New), Restaurants"
"301",131013,"Cozy Kitchen","Calgary","AB","T2H 2W9",51.0039633,-114.0614428,"1","Comfort Food, Cafes, Home Services, Contractors, Desserts, Restaurants, Food, Caterers, Event Planning & Services"
"302",27686,"Corduroy","Phoenix","AZ","85004",33.4768373225,-112.0735914633,"0","Breakfast & Brunch, Burgers, Mediterranean, Spanish, Modern European, Sandwiches, Comfort Food, Cocktail Bars, American (Traditional), Tapas/Small Plates, Restaurants, Bars, Nightlife"
"303",179750,"25 Liberty","Toronto","ON","M6K 3E7",43.6381661,-79.4207992,"0","Comfort Food, Brasseries, Restaurants, French, Mediterranean, Breakfast & Brunch, Canadian (New)"
"304",21722,"Noodles & Company","Madison","WI","53717",43.0614323883,-89.5047939971,"1","Thai, American (New), Comfort Food, Italian, Mediterranean, Noodles, Fast Food, Chinese, Salad, Asian Fusion, Restaurants"
"305",169915,"Noodles & Company","Middleton","WI","53562",43.090539,-89.5267983,"1","Italian, Comfort Food, Asian Fusion, Restaurants, Sandwiches, Noodles"
"306",154766,"The Dirty Bird Chicken + Waffles","Toronto","ON","M5T 2K2",43.6546466,-79.4005612,"1","Gluten-Free, Chicken Shop, Burgers, Fast Food, Comfort Food, Breakfast & Brunch, Restaurants, American (Traditional), Soul Food, Chicken Wings, Canadian (New), Waffles"
"307",29613,"Peg's Glorified Ham n Eggs","Las Vegas","NV","89117",36.1435274815,-115.2757952493,"1","Comfort Food, Breakfast & Brunch, Restaurants"
"308",100723,"Famous Dave's Bar-B-Que","Mesa","AZ","85201",33.4355095953,-111.8691243026,"1","Restaurants, American (Traditional), Comfort Food, Barbeque"
"309",74976,"L'Ancien Chablis","Saint-Lambert","QC","J4P 1R4",45.5010673,-73.5125514,"1","Comfort Food, Restaurants, French"
"310",111555,"Famous Dave's Bar-B-Que","Chandler","AZ","85226",33.298165,-111.8984525,"1","Barbeque, Restaurants, American (Traditional), Comfort Food"
"311",7784,"Flippin' Good Chicken, Burgers, Beer","Las Vegas","NV","89101",36.1688226288,-115.1402339997,"1","Desserts, Local Flavor, Restaurants, Food, Comfort Food, Burgers"
"312",53609,"Troutman's","Concord","NC","28025",35.420995,-80.590048,"1","Barbeque, Restaurants, Comfort Food"
"313",55451,"Antojitos Sinaloa Mexican Restaurant","Las Vegas","NV","89104",36.1585441,-115.121042,"1","Restaurants, Seafood, New Mexican Cuisine, Mexican, Comfort Food"
"314",170824,"Under The Table Restaurant","Toronto","ON","M4X 1P8",43.6674228,-79.3694556,"0","Food, Comfort Food, Restaurants, Breakfast & Brunch, Caribbean"
"315",50024,"Whitty's Chicken & Fish","Waddell","AZ","85355",33.5410308838,-112.4271774292,"1","Restaurants, Comfort Food, Food, Event Planning & Services, Caterers, Personal Chefs, Food Trucks"
"316",117647,"Swiss Chalet Rotisserie & Grill","Bolton","ON","L7E 2Y3",43.8620592,-79.7130376,"1","Restaurants, American (Traditional), Comfort Food"
"317",85856,"Bob Evans","Charlotte","NC","28269",35.3476520145,-80.842204839,"1","Food, Salad, Restaurants, American (Traditional), Comfort Food, Coffee & Tea, Breakfast & Brunch, Hotels & Travel, Bed & Breakfast"
"318",56750,"Ossington Stop","Toronto","ON","M6J 1X4",43.6494615,-79.4215399,"1","Restaurants, Bars, Canadian (New), Nightlife, Comfort Food, Pubs, Russian"
"319",40432,"Swiss Chalet Rotisserie & Grill","Markham","ON","L3R 1A7",43.8230086,-79.3492399,"1","American (Traditional), Restaurants, Barbeque, Comfort Food"
"320",189799,"La Folie","Saint-Sauveur","QC","J0R 1R0",45.8945026,-74.1578531,"1","Wine Bars, Restaurants, Comfort Food, Italian, Nightlife, Bars"
"321",155297,"Bloomfield","Montréal","QC","H2V 1K1",45.5228509,-73.6129965,"1","Burgers, Bistros, Restaurants, Comfort Food"
"322",54667,"Mac-A-Tak","Toronto","ON","M4N 2N3",43.7341939583,-79.4043738395,"0","Breakfast & Brunch, Comfort Food, Restaurants, Specialty Food, Food, Cheese Shops, Salad"
"323",32213,"D'vine Diner","Calgary","AB","T2V 1K2",50.9848325,-114.0831414,"0","Comfort Food, Diners, Steakhouses, Vegetarian, Restaurants, American (Traditional), Breakfast & Brunch"
"324",95351,"Swiss Chalet Rotisserie & Grill","Calgary","AB","T2H 0M4",50.9736705,-114.0703344,"0","Comfort Food, Canadian (New), American (Traditional), Barbeque, Restaurants"
"325",102985,"Grange Vin et Bouffe","Montréal","QC","H2Y 2E5",45.4995742,-73.555701,"0","Comfort Food, Beer, Wine & Spirits, Tapas/Small Plates, Arts & Entertainment, French, Restaurants, Food, Wineries"
"326",184872,"Kelseys Original Roadhouse","Richmond Hill","ON","L4C 6Z1",43.8402598,-79.4292346,"1","Nightlife, Canadian (New), Bars, American (Traditional), Chicken Wings, Restaurants, Comfort Food"
"327",184367,"Red's in Ramsay","Calgary","AB","T2G 2Z6",51.0399197,-114.0420108,"1","Diners, Restaurants, Local Flavor, Comfort Food, Canadian (New), Breakfast & Brunch"
"328",54179,"Milestones Restaurants","Etobicoke","ON","M8Z 6C7",43.6231519,-79.5152455,"1","American (New), Comfort Food, Canadian (New), American (Traditional), Restaurants, Nightlife, Bars"
"329",114352,"McGugan's","Toronto","ON","M4M 1Z8",43.6692562,-79.3359022,"0","Scottish, Pubs, Nightlife, Sandwiches, Restaurants, British, Breakfast & Brunch, Comfort Food, Bars"
"330",91110,"Pacific Island Taste","Las Vegas","NV","89104",36.158478,-115.13427,"1","Sandwiches, Restaurants, Hawaiian, Asian Fusion, Comfort Food, Breakfast & Brunch, Barbeque, Poke, Food"
"331",38131,"Angie's Corner Cafe","Las Vegas","NV","89130",36.2545972,-115.2428704,"0","Restaurants, Comfort Food, Southern, Breakfast & Brunch"
"332",125661,"Twisted Eats","Charlotte","NC","28203",35.2167541,-80.8566764,"1","Restaurants, American (Traditional), Comfort Food, Food, Food Trucks, Food Stands"
"333",16238,"Manna Cafe & Bakery","Madison","WI","53704",43.107431,-89.3636588,"1","Breakfast & Brunch, Food, Bakeries, Cafes, Comfort Food, Event Planning & Services, Soul Food, Caterers, American (New), Restaurants"
"334",31344,"English Bay Fish & Chips","Oakville","ON","L6J 6X8",43.4802433,-79.6567058,"1","Comfort Food, Restaurants, Seafood, Fish & Chips, British, Salad"
"335",74578,"Famous Dave's Bar-B-Que","Las Vegas","NV","89139",36.0372583,-115.1984108,"1","Barbeque, Comfort Food, Restaurants, American (Traditional)"
"336",72228,"Sugar River Pizza","Verona","WI","53593",42.9726372452,-89.5066787302,"1","Sandwiches, Italian, Pizza, Food, Specialty Food, Comfort Food, Restaurants, Salad, Pasta Shops"
"337",26469,"Ted's Restaurant","Charlotte","NC","28212",35.1522363,-80.745476,"1","Comfort Food, American (Traditional), Restaurants"
"338",97450,"Swiss Chalet Rotisserie & Grill","Toronto","ON","M1R 3A6",43.7458273086,-79.2890008893,"1","Comfort Food, American (Traditional), Barbeque, Restaurants"
"339",21210,"Waffle Dawg","Phoenix","AZ","85050",33.6786155701,-111.974609375,"0","Comfort Food, Restaurants"
"340",32046,"Swiss Chalet Rotisserie & Grill","Richmond Hill","ON","L4C 5G2",43.853527,-79.433589,"1","Restaurants, American (New), Canadian (New), American (Traditional), Comfort Food"
"341",131019,"Boston Market","Pittsburgh","PA","15224",40.4555623,-79.9415237,"1","Caterers, American (Traditional), Restaurants, Sandwiches, Comfort Food, Event Planning & Services"
"342",44964,"Montana's BBQ & Bar","Scarborough","ON","M1S 3P6",43.7837853,-79.2531543,"0","Restaurants, Canadian (New), American (Traditional), Comfort Food, Steakhouses"
"343",63081,"Green Forest Family Restaurant","Monona","WI","53716",43.0485365,-89.3154781,"1","Comfort Food, Desserts, Breakfast & Brunch, Restaurants, Food, American (Traditional)"
"344",105851,"Bob Evans","Mayfield Heights","OH","44124",41.5213199235,-81.4485195279,"1","Restaurants, Breakfast & Brunch, Hotels & Travel, Salad, Comfort Food, Bed & Breakfast, American (Traditional)"
"345",43009,"Leon's Caribbean Restaurant","Pittsburgh","PA","15210",40.4219059,-79.9927969,"1","Restaurants, Comfort Food, Seafood, Caribbean"
"346",174874,"Milestones Restaurants","Toronto","ON","M2N 6Z4",43.7687227,-79.4121019,"0","American (Traditional), Canadian (New), Restaurants, Comfort Food, Bars, Nightlife"
"347",162482,"Milestones Restaurants","Toronto","ON","M5V 2E3",43.6487189,-79.3907321,"0","Nightlife, Comfort Food, American (New), Bars, Restaurants, Canadian (New)"
"348",95946,"Villemont Pizza","Laval","QC","H7M 4J5",45.6105304258,-73.7067384691,"1","Restaurants, Fast Food, Comfort Food, Pizza"
"349",108220,"Cluck Clucks","Toronto","ON","M5A 4M8",43.6497687124,-79.3660896961,"1","Soul Food, Chicken Shop, Restaurants, Comfort Food, Sandwiches"
"350",64312,"Rally Sports Bar + Smokehouse","Toronto","ON","M4A 2R4",43.7174661,-79.305012,"1","Sports Bars, Bars, Food, Comfort Food, Nightlife, Restaurants, Smokehouse, Barbeque"
"351",144395,"Honey B Hives Restaurant","Toronto","ON","M1V 4C3",43.8229818717,-79.2479152131,"1","Food, Coffee & Tea, Burgers, Canadian (New), Restaurants, Sandwiches, Breakfast & Brunch, Diners, Comfort Food, Italian, Fast Food"
"352",53800,"Cuzzo's Cuisine","Charlotte","NC","28208",35.2452198706,-80.8842159435,"1","Restaurants, Chicken Wings, Comfort Food, Chicken Shop, Southern, Seafood"
"353",98546,"Simon's Restaurant & Delicatessen","Brecksville","OH","44141",41.3199649751,-81.624532789,"1","Comfort Food, Delis, Restaurants"
"354",14203,"Melt Bar and Grilled","Lakewood","OH","44107",41.485336,-81.799077,"1","Restaurants, American (Traditional), Comfort Food, Bars, Pubs, Sandwiches, Nightlife"
"355",106852,"La Belle Province","Laval","QC","H7S 1Z4",45.572822,-73.740813,"1","Poutineries, Fast Food, Restaurants, Breakfast & Brunch, Comfort Food"
"356",13076,"Squirly's","Toronto","ON","M6J 1G1",43.6460948,-79.4088935,"1","Comfort Food, Lounges, Restaurants, Pubs, Dive Bars, Bars, American (Traditional), Nightlife, Chicken Wings, Cocktail Bars"
"357",183180,"Swiss Chalet Rotisserie & Grill","King City","ON","L7B 1A8",43.895346,-79.557443,"1","American (Traditional), Canadian (New), Restaurants, Comfort Food"
"358",148788,"Milestones Restaurants","Etobicoke","ON","M9W 1J1",43.6908591,-79.5763668,"1","American (New), Comfort Food, Nightlife, Restaurants, Bars, Canadian (New)"
"359",100685,"Boston Market","Fairlawn","OH","44333",41.1329818,-81.6333953,"1","Caterers, Event Planning & Services, Restaurants, Chicken Wings, American (New), American (Traditional), Comfort Food, Sandwiches"
"360",34721,"Brando's Fried Chicken","Toronto","ON","M6G 1B4",43.6551109,-79.4145053,"0","Chicken Shop, Restaurants, American (Traditional), Comfort Food"
"361",101859,"Flipp'n Burgers","Calgary","AB","T2N 1V8",51.0551759376,-114.0857511386,"1","Vegetarian, Restaurants, Comfort Food, Burgers, Halal"
"362",92533,"College St. Q","Toronto","ON","M5T 1P7",43.6589452,-79.3941206,"0","Restaurants, Comfort Food"
"363",153068,"Abe's Restaurant","Airdrie","AB","T4A 0V4",51.268672,-113.996508,"1","Restaurants, Burgers, Comfort Food, Coffee & Tea, Breakfast & Brunch, Diners, Food, Juice Bars & Smoothies, American (Traditional)"
"364",37717,"Mildred's Temple Kitchen","Toronto","ON","M6K 3S3",43.6399108749,-79.4204235077,"1","Venues & Event Spaces, Event Planning & Services, Comfort Food, Breakfast & Brunch, American (New), Restaurants, Vegetarian, Canadian (New)"
"365",28743,"Cracker Barrel Old Country Store","Urbana","IL","61802",40.1334488,-88.1995086,"1","American (Traditional), Caterers, Event Planning & Services, Restaurants, Food, Comfort Food, Desserts, Southern, Breakfast & Brunch, Salad"
"366",130591,"Cheesewerks","Toronto","ON","M5V 2P2",43.6423475,-79.4020412,"0","Restaurants, Comfort Food, Canadian (New), Specialty Food, Cheese Shops, Food, Sandwiches, Fondue"
"367",79796,"Noodles & Company","Canonsburg","PA","15317",40.2731628,-80.1263749,"0","Asian Fusion, Comfort Food, Italian, Noodles, Restaurants, Chinese"
"368",114910,"Bob Evans","Aurora","OH","44202",41.3540190608,-81.3879390759,"1","Comfort Food, Breakfast & Brunch, Salad, Restaurants, Hotels & Travel, American (New), Bed & Breakfast, American (Traditional)"
"369",86366,"Montana's BBQ & Bar","Calgary","AB","T3G 4J8",51.128558078,-114.2028415133,"1","American (Traditional), Canadian (New), Restaurants, Comfort Food, Steakhouses, Barbeque, French"
"370",181085,"Swiss Chalet Rotisserie & Grill","Whitby","ON","L1R 0A1",43.9164009,-78.9544982,"1","Comfort Food, Diners, Restaurants, American (Traditional)"
"371",11758,"Cracker Barrel Old Country Store","Concord","NC","28027",35.3659836,-80.7128223,"1","Southern, Caterers, Diners, Restaurants, American (Traditional), Breakfast & Brunch, Event Planning & Services, Comfort Food"
"372",112651,"Boston Market","Glendale","AZ","85308",33.6378,-112.201868,"1","Restaurants, Comfort Food, American (Traditional), Barbeque, Fast Food"
"373",157582,"Boston Market","Cleveland","OH","44118",41.5002887,-81.5367514,"1","Caterers, Event Planning & Services, Comfort Food, American (Traditional), Restaurants"
"374",180347,"Rachel's Kitchen","Las Vegas","NV","89136",36.080972,-115.135804,"1","Juice Bars & Smoothies, American (Traditional), Comfort Food, Food, Cafes, Vegetarian, Restaurants, American (New)"
"375",139992,"Mike's Kitchen","Baie-d'Urfé","QC","H9X 3B5",45.4109518,-73.911796,"0","Food, Specialty Food, Restaurants, Ethnic Food, Imported Food, Comfort Food"
"376",161647,"120 Diner","Toronto","ON","M5C 2G8",43.6521506,-79.3754775,"1","Comfort Food, Comedy Clubs, Restaurants, Nightlife, Diners, Cabaret, Arts & Entertainment, Jazz & Blues"
"377",24538,"Proof Tavern","Henderson","NV","89011",36.1021168,-114.932846,"1","Restaurants, Seafood, Pubs, American (Traditional), Bars, Salad, Nightlife, Comfort Food, American (New)"
"378",53981,"Swiss Chalet Rotisserie & Grill","Toronto","ON","M1T 1A3",43.7733050681,-79.3217043851,"1","Restaurants, American (Traditional), Comfort Food, Barbeque"
"379",183122,"Cracker Barrel Old Country Store","Twinsburg","OH","44087",41.3120423,-81.4534332,"1","Restaurants, Southern, Event Planning & Services, Breakfast & Brunch, Comfort Food, Diners, American (Traditional), Caterers"
"380",22530,"Strip N Dip Chicken Strips","Las Vegas","NV","89145",36.1714234,-115.2452456,"1","Chicken Shop, Restaurants, Pizza, Comfort Food, Fast Food, American (Traditional)"
"381",82202,"The Loop Eating & Drinking","Calgary","AB","T2T",51.0239797,-114.1074214,"0","Breakfast & Brunch, Comfort Food, Diners, Food, Restaurants"
"382",1275,"chow.","Las Vegas","NV","89101",36.166666,-115.1344046,"0","Southern, Soul Food, Venues & Event Spaces, Event Planning & Services, Chinese, Local Flavor, Caterers, Pop-Up Restaurants, Comfort Food, Restaurants"
"383",149980,"Forth Avenue Kitchen & Bar","Toronto","ON","M4C 1H8",43.684691,-79.318434,"0","Bars, Lounges, Soup, Comfort Food, Burgers, Nightlife, Canadian (New), Restaurants"
"384",100334,"The Korner Pub","Toronto","ON","M1M",43.7262332,-79.230448,"1","Pubs, Bars, Food, Nightlife, Comfort Food, Beer, Wine & Spirits, Restaurants, Sandwiches, Canadian (New)"
"385",3655,"Bob Evans","Avon","OH","44011",41.4595803165,-82.022915259,"1","Salad, Bed & Breakfast, Sandwiches, Hotels & Travel, Comfort Food, Southern, Breakfast & Brunch, American (Traditional), Restaurants"
"386",165736,"Swiss Chalet Rotisserie & Grill","Calgary","AB","T3R 0A1",51.156229,-114.1597301,"1","Comfort Food, American (Traditional), Restaurants"
"387",41287,"Appetite","Toronto","ON","M4M 1H2",43.6590524,-79.3493884,"0","Italian, Soul Food, Sandwiches, Greek, Comfort Food, Restaurants"
"388",85289,"The Little Kitchen Cafe","Las Vegas","NV","89102",36.1254511206,-115.1964730024,"0","Restaurants, Cafes, Chinese, Taiwanese, Comfort Food"
"389",110485,"Heartland Grill","Madison","WI","53713",43.0474951,-89.3732934,"1","Restaurants, American (Traditional), Comfort Food"
"390",167917,"Quidleys Delight","Charlotte","NC","28262",35.3146025,-80.7024203,"1","Restaurants, Seafood, Caribbean, Comfort Food, Vegetarian, Soup, Breakfast & Brunch"
"391",164460,"Swiss Chalet Rotisserie & Grill","Toronto","ON","M2K 1G4",43.7905653,-79.3918694,"1","Comfort Food, Restaurants, Canadian (New), American (Traditional)"
"392",152214,"Melt Ballpark","Cleveland","OH","44115",41.4963416287,-81.6840837348,"1","Comfort Food, American (Traditional), Sandwiches, Restaurants"
"393",176376,"Wings & a Prayer","Pittsburgh","PA","15218",40.4201684,-79.8848138,"1","Restaurants, Sandwiches, Soul Food, Comfort Food, Barbeque"
"394",98586,"North Shore Pie","Toronto","ON","M6R 2K4",43.6400955,-79.4464996,"0","Restaurants, Food, Coffee & Tea, Bakeries, Comfort Food"
"395",34047,"50's Diner Omelet House","Las Vegas","NV","89121",36.1299939935,-115.1075548979,"1","Restaurants, Breakfast & Brunch, Comfort Food, Burgers, Diners, American (Traditional)"
"396",67735,"Trade Restaurant and Bar","Charlotte","NC","28202",35.2264493,-80.8425319,"1","Restaurants, Bars, American (New), American (Traditional), Nightlife, Comfort Food, Breakfast & Brunch"
"397",62358,"Cracker Barrel Old Country Store","Gastonia","NC","28054",35.2691841,-81.147399,"1","Comfort Food, Diners, Event Planning & Services, American (Traditional), Breakfast & Brunch, Restaurants, Caterers, Southern, Fast Food, Desserts, Salad, Food"
"398",94442,"Taverne Sur Le Square","Westmount","QC","H3Z 2P9",45.4875284,-73.5873916,"1","American (New), Restaurants, Comfort Food"
"399",30029,"Briggs Kitchen + Bar","Calgary","AB","T2R 0A5",51.04312345,-114.0696722441,"1","Nightlife, Sandwiches, Cocktail Bars, French, Canadian (New), Restaurants, American (New), Bars, Comfort Food"
"400",51699,"Jac's Cafe","White Oak","PA","15131",40.3393343,-79.810269,"1","Restaurants, Diners, American (Traditional), Comfort Food"
"401",124278,"Modern  Grove","Phoenix","AZ","85032",33.6274599302,-111.9784555706,"0","American (New), Burgers, Beer, Wine & Spirits, Vegetarian, Breakfast & Brunch, Restaurants, Comfort Food, Food"
"402",5405,"Sin","Laval","QC","H7X 4G8",45.5465183,-73.8011042,"0","Comfort Food, Bars, Lounges, Restaurants, Nightlife"
"403",152234,"Luci's Healthy Marketplace","Phoenix","AZ","85014",33.5239465,-112.0478991,"1","Restaurants, Cafes, Comfort Food, Coffee & Tea, Caterers, Event Planning & Services, Specialty Food, Health Markets, Food, Shopping"
"404",106346,"Montana's BBQ & Bar","Calgary","AB","T1Y 7J6",51.0738982645,-113.9892454598,"1","Steakhouses, Canadian (New), Comfort Food, Restaurants"
"405",189303,"Angry Blasian","Las Vegas","NV","89110",36.1756319573,-115.062956661,"1","Restaurants, Soul Food, American (New), Comfort Food, Korean, Southern, Chicken Wings"
"406",159641,"La Petite Gondole","Montréal","QC","H1M 1A9",45.5879467,-73.5602934,"1","Halal, Pizza, Burgers, Comfort Food, Restaurants, Delis"
"407",13295,"Smooth Eats","Las Vegas","NV","89101",36.167893793,-115.1402384607,"1","Food, Specialty Food, Health Markets, Juice Bars & Smoothies, Vegetarian, Comfort Food, Restaurants, Sandwiches"
"408",180781,"Noodles & Company","Charlotte","NC","28203",35.206689,-80.860924,"0","Salad, Fast Food, Asian Fusion, Soup, American (Traditional), Noodles, Comfort Food, Italian, Food, Chinese, Desserts, Restaurants, Thai"
"409",106853,"Chantel's Fish Scale","Cleveland","OH","44109",41.4697343,-81.6995133,"1","Comfort Food, Restaurants, Seafood"
"410",42472,"Park Pizza & Cream","Pittsburgh","PA","15221",40.4395294943,-79.8974228917,"1","Pizza, Comfort Food, American (New), Ice Cream & Frozen Yogurt, Restaurants, Italian, Food"
"411",14526,"Boston Market","Scottsdale","AZ","85260",33.6291914,-111.8890802,"1","Restaurants, American (Traditional), Caterers, Event Planning & Services, Comfort Food"
"412",181471,"Bubba Gump Shrimp","Las Vegas","NV","89109",36.1088688032,-115.1721931901,"1","Comfort Food, Seafood, Restaurants, Southern, Cajun/Creole, American (Traditional)"
"413",122326,"The Ace","Toronto","ON","M6R 2L6",43.6461438,-79.4488097,"1","British, Breakfast & Brunch, Diners, Restaurants, Comfort Food, Canadian (New)"
"414",78601,"Mikey's Bistro","Brampton","ON","L6W 3W8",43.6629215019,-79.7277731448,"1","Restaurants, Bistros, Comfort Food"
"415",48055,"Swiss Chalet Rotisserie & Grill","Whitby","ON","L1N 1C4",43.8669252,-78.9324926,"1","Comfort Food, Restaurants, American (Traditional)"
"416",62146,"Bob Evans","Medina","OH","44256",41.136704179,-81.7964918911,"1","Comfort Food, Restaurants, Hotels & Travel, Breakfast & Brunch, Salad, American (Traditional), Bed & Breakfast"
"417",133254,"Swiss Chalet Rotisserie & Grill","Aurora","ON","L4G 4J7",43.9825373,-79.4644997,"1","American (Traditional), Comfort Food, Restaurants"
"418",39105,"Gordon Ramsay Fish & Chips","Las Vegas","NV","89109",36.117376,-115.171829,"1","Restaurants, Seafood, Fish & Chips, Comfort Food"
"419",79037,"Earls Kitchen + Bar","Calgary","AB","T2Z",50.9314092847,-113.9613628237,"1","Restaurants, Comfort Food, American (New), Nightlife, Cocktail Bars, Canadian (New), Bars"
"420",115061,"The Goodwich","Las Vegas","NV","89113",36.0546542,-115.2621343,"1","Food, Comfort Food, Restaurants, Sandwiches"
"421",126635,"Bannock","Toronto","ON","M5H 2Y4",43.6516267,-79.3807454,"1","American (New), Restaurants, Pizza, Canadian (New), Sandwiches, Breakfast & Brunch, Food, Comfort Food, Coffee & Tea"
"422",115398,"Swiss Chalet Rotisserie & Grill","Thornhill","ON","L4J 7Y3",43.8096825018,-79.4512616738,"1","American (Traditional), Comfort Food, Restaurants"
"423",154342,"D'Shrimp & More","Phoenix","AZ","85034",33.447588,-112.0473786,"0","Restaurants, Seafood, Comfort Food, Southern"
"424",25205,"Pizza Buddha","Henderson","NV","89052",36.0070475466,-115.0966041816,"0","Pizza, Restaurants, Comfort Food, Indian"
"425",21096,"Three Hands","Toronto","ON","M6K 1T5",43.6498281723,-79.4330010104,"0","Soul Food, Restaurants, Nightlife, Bars, Cocktail Bars, Comfort Food"
"426",81894,"Boston Market","Pittsburgh","PA","15275",40.495167,-79.958717,"0","Grocery, Food, Event Planning & Services, Comfort Food, Caterers, Restaurants, American (Traditional)"
"427",140030,"Noodles & Company","Tempe","AZ","85281",33.4334346309,-111.9016219676,"1","Comfort Food, Asian Fusion, Salad, Chinese, Sandwiches, Japanese, Soup, Food, Specialty Food, Italian, Pasta Shops, Noodles, Restaurants, Fast Food"
"428",11147,"Le Cheese Truck","Montréal","QC","H4A 1G8",45.4714165,-73.6263785,"1","Food, Comfort Food, Food Trucks, Restaurants"
"429",184250,"Poulet Cent Façons","Laval","QC","H7S 1Y9",45.5613711796,-73.7294835979,"0","Barbeque, Restaurants, Sandwiches, Comfort Food"
"430",51318,"Swiss Chalet Rotisserie & Grill","Toronto","ON","M9B 1B5",43.6322029,-79.5438516,"1","Comfort Food, American (Traditional), Chicken Shop, Restaurants"
"431",122283,"Kiffin","Montréal","QC","H2X 3L1",45.5174507,-73.5681999,"0","Restaurants, Arts & Crafts, Vegan, Cafes, Local Flavor, Comfort Food, Food Delivery Services, Bistros, Shopping, Gluten-Free, Gastropubs, Nightlife, Specialty Food, Cooking Classes, Tapas/Small Plates, Caterers, Food, Breakfast & Brunch, Event Planning & Services, Ice Cream & Frozen Yogurt"
"432",24426,"Completo","Toronto","ON","M4M 2Y9",43.6626328,-79.3340575,"1","Food, Comfort Food, Restaurants, Street Vendors, Latin American, Fast Food"
"433",176789,"Wallace & Co","Toronto","ON","M6P 3N2",43.6614406,-79.4482577,"0","Diners, Restaurants, Comfort Food, Breakfast & Brunch"
"434",98782,"King Rustic","Toronto","ON","M5V 1P5",43.6418019534,-79.4121160358,"1","Lounges, Comfort Food, Restaurants, Nightlife, Seafood, Greek, Bars"
"435",167172,"Swiss Chalet Rotisserie & Grill","Bradford","ON","L3Z 0C1",44.1081713,-79.5938537,"1","Restaurants, American (Traditional), Food, Canadian (New), Comfort Food"
"436",118084,"Queen St Warehouse","Toronto","ON","M5V 1Z6",43.6501835,-79.3901876,"1","Dive Bars, Comfort Food, Bars, Nightlife, Restaurants"
"437",84912,"Flipside's Corner Grind","Pineville","NC","28134",35.0855074,-80.8912599,"0","Comfort Food, Restaurants, Breakfast & Brunch, Salad, Coffee & Tea, Cafes, Sandwiches, Food"
"438",35904,"JJ Madisons All American Grill","Mesa","AZ","85205",33.4238866,-111.6851233,"1","Comfort Food, Bars, Sports Bars, Restaurants, Nightlife, American (Traditional)"
"439",34619,"Lasagne Du Plateau","Montréal","QC","H2V 4E9",45.5193128,-73.5947118,"1","Italian, Comfort Food, Specialty Food, Food, Restaurants"
"440",106653,"The Monarch Tavern","Toronto","ON","M6J 2N8",43.6540394837,-79.4136736854,"1","Bars, Pubs, Comfort Food, Barbeque, Gluten-Free, Lounges, Sandwiches, Venues & Event Spaces, Restaurants, Event Planning & Services, Music Venues, Dive Bars, Cocktail Bars, Nightlife, Arts & Entertainment"
"441",11819,"Bourbon Street Grill","Vaughan","ON","L4J 4P8",43.8066667642,-79.452400133,"1","Restaurants, Food Court, Comfort Food, American (Traditional)"
"442",132492,"Noodles & Company","Monona","WI","53716",43.0470458,-89.3239739,"1","Chinese, Salad, Comfort Food, Asian Fusion, Restaurants, Noodles, Thai, Italian"
"443",78569,"Don & Charlie's","Scottsdale","AZ","85251",33.501821,-111.919938,"1","American (Traditional), Restaurants, Comfort Food, Barbeque, Steakhouses"
"444",74620,"Johnny Vegas Grill","Las Vegas","NV","89121",36.1290736318,-115.0913117931,"1","Food, Restaurants, Burgers, Food Delivery Services, Nightlife, Salad, Bars, Comfort Food, American (Traditional), American (New), Chicken Wings, Pizza, Cheesesteaks"
"445",111179,"Exchange Cafe","Toronto","ON","M5S 2E8",43.6652426409,-79.3983799488,"1","Cafes, Comfort Food, Restaurants"
"446",33080,"O&B Canteen","Toronto","ON","M5V 3X2",43.646693,-79.39021,"1","Restaurants, American (New), Sandwiches, Canadian (New), Comfort Food, Breakfast & Brunch"
"447",34092,"Bofinger BBQ Smokehouse","Montréal","QC","H3B 3B8",45.5029188,-73.5693927,"0","American (Traditional), Barbeque, Comfort Food, Restaurants"
"448",123845,"Little Brother's Kitchen","Newmarket","ON","L3Y 2R9",44.0665773,-79.4328516,"1","Sandwiches, Restaurants, Chicken Shop, Comfort Food"
"449",189760,"Swiss Chalet Rotisserie & Grill","Georgetown","ON","L7G 4B5",43.6491149,-79.8905463,"1","Comfort Food, American (Traditional), Canadian (New), Restaurants"
"450",144039,"Rusty Bucket Restaurant & Tavern","Solon","OH","44139",41.3931986,-81.4444929,"1","Nightlife, Bars, Burgers, Sports Bars, Pubs, Restaurants, Comfort Food, American (Traditional)"
"451",35004,"Get Some Burritos","Madison","WI","53703",43.075186,-89.390129,"0","Food Stands, Comfort Food, Mexican, Fast Food, Restaurants"
"452",12994,"Yuzu","Lakewood","OH","44107",41.4768282,-81.7869709,"1","Japanese, Gastropubs, Tapas/Small Plates, Restaurants, Comfort Food, Asian Fusion, Nightlife, Cocktail Bars, Izakaya, Bars"
"453",42993,"J. B. Mack Macaroni & Cheese Kitchen","Cleveland","OH","44115",41.5014812,-81.6759304,"0","Comfort Food, Restaurants"
"454",190163,"Famous Dave's Bar-B-Que","North Olmsted","OH","44070",41.418407,-81.915597,"1","Caterers, Event Planning & Services, Barbeque, American (Traditional), Restaurants, Sandwiches, Burgers, Comfort Food"
"455",133967,"Montana's BBQ & Bar","Newmarket","ON","L3Y 6Y9",44.0531876,-79.4806272,"1","Steakhouses, Canadian (New), Comfort Food, Restaurants"
"456",160129,"Bob Evans","Mentor","OH","44060",41.6618905,-81.3793728501,"1","Bed & Breakfast, Restaurants, Salad, Breakfast & Brunch, Comfort Food, Hotels & Travel, American (Traditional)"
"457",152774,"Go Vegan Cafe","Las Vegas","NV","89118",36.0820518,-115.2432648,"1","Vegan, Specialty Food, Fruits & Veggies, Food, Comfort Food, Organic Stores, Juice Bars & Smoothies, Gluten-Free, Restaurants"
"458",117997,"Smoke's Poutinerie Liberty Village","Toronto","ON","M6K 1X9",43.6395249,-79.4213178,"1","Poutineries, Restaurants, Comfort Food, Canadian (New)"
"459",149102,"Chopsticks+Forks","Toronto","ON","",43.653226,-79.3831843,"1","Korean, Tours, Walking Tours, Hotels & Travel, Comfort Food, Restaurants, Food Tours"
"460",172600,"Swiss Chalet Rotisserie & Grill","Calgary","AB","T3K 0R3",51.1553574384,-114.0604657014,"1","Fast Food, American (Traditional), Restaurants, Food, Comfort Food"
"461",13144,"Swiss Chalet Rotisserie & Grill","Vaughan","ON","L4L 5X8",43.785251102,-79.5648385724,"1","Restaurants, American (Traditional), Comfort Food, Canadian (New)"
"462",63039,"Bob Evans","Monroeville","PA","15146",40.4358788218,-79.788366179,"1","Restaurants, Hotels & Travel, Comfort Food, Bed & Breakfast, Breakfast & Brunch, American (Traditional), Salad"
"463",160510,"Swiss Chalet Rotisserie & Grill","Calgary","AB","T2K 5X8",51.0968064,-114.0529665,"0","Breakfast & Brunch, American (Traditional), Comfort Food, Restaurants"
"464",181349,"Pollo Grill + Bar","Laval","QC","H7T 2Z6",45.5615807,-73.7456665,"0","Portuguese, Restaurants, Comfort Food"
"465",163404,"Mr. Chicken","Parma","OH","44134",41.362497,-81.686506,"1","Chicken Wings, Chicken Shop, Comfort Food, Restaurants"
"466",56486,"Eadie's Market and Catering","Pittsburgh","PA","15219",40.4383265,-79.9990768,"1","Event Planning & Services, Soup, Restaurants, Cafes, Food, Caterers, Sandwiches, Comfort Food, Bakeries"
"467",30465,"Sweet Tea at the Fountain","Madison","WI","53703",43.0748282717,-89.387402907,"0","Restaurants, Event Planning & Services, Southern, Soul Food, Comfort Food, Caterers"
"468",180174,"2 Fat Guys Grilled Cheese","Phoenix","AZ","",33.4483771,-112.0740373,"1","Comfort Food, Restaurants, American (Traditional), Food Trucks, Food, Food Stands"
"469",179923,"WtfExp","Phoenix","AZ","85034",33.4373226,-112.0595692,"1","Restaurants, American (Traditional), American (New), Food Court, Fish & Chips, Cheesesteaks, Burgers, Comfort Food, Barbeque, Cajun/Creole, Food"
"470",53347,"Salute Ristorante Italiano","Phoenix","AZ","85022",33.606332,-112.066095,"0","Bars, Restaurants, Yelp Events, Italian, Cocktail Bars, Comfort Food, Nightlife, Local Flavor"
"471",140621,"Montana's BBQ & Bar","Calgary","AB","T3R 0A1",51.156178811,-114.1591705268,"1","Barbeque, Steakhouses, Canadian (New), Comfort Food, Restaurants"
"472",93400,"Swiss Chalet Rotisserie & Grill","Calgary","AB","T2Y 3H9",50.9016475,-114.0655678,"1","Restaurants, Diners, Comfort Food, American (Traditional)"
"473",127467,"The Jackman Bar & Restaurant","Avalon","PA","15202",40.4963807,-80.065479,"1","Restaurants, Bars, Dive Bars, Nightlife, Comfort Food"
"474",130124,"MLT DWN","Montréal","QC","H2J",45.5263663,-73.5810502,"0","Restaurants, Specialty Food, Food, Canadian (New), Comfort Food, Cheese Shops, Sandwiches"
"475",167227,"Noodles & Company","Wexford","PA","15090",40.6131682,-80.0541681,"0","American (New), Asian Fusion, Comfort Food, Mediterranean, Chinese, Restaurants, Noodles, Italian"
"476",164798,"Montana's BBQ & Bar","Mississauga","ON","L5T 2Y3",43.6358325161,-79.6915373483,"1","Barbeque, Steakhouses, Restaurants, Comfort Food, Canadian (New)"
"477",24892,"Mr. Chicken","Solon","OH","44139",41.3854836,-81.4381721,"1","Chicken Wings, Restaurants, Chicken Shop, Fast Food, Comfort Food"
"478",65552,"The Huntsman Tavern","Toronto","ON","M6H 1A3",43.6540191892,-79.4250432118,"0","Comfort Food, Gastropubs, Restaurants"
"479",47881,"Burger Royal","Montréal","QC","H2W 1X6",45.5156494125,-73.5766624597,"1","Restaurants, Comfort Food, Salad, Hot Dogs, Vegan, Food, Burgers, Poutineries"
"480",190834,"Film Cafe by Eative","Toronto","ON","M5T 2L6",43.655074,-79.4024461,"1","Breakfast & Brunch, Asian Fusion, Beer Bar, Nightlife, Bars, Juice Bars & Smoothies, Food, Coffee & Tea, Specialty Food, Ice Cream & Frozen Yogurt, Comfort Food, Japanese, Restaurants, Desserts, Cafes"
"481",65694,"Off Broadway Drafthouse","Madison","WI","53713",43.0468733,-89.3547604,"1","Comfort Food, Restaurants, Nightlife, Bars, American (Traditional), Pubs, Burgers"
"482",63164,"Gushi Japanese Street Food","Toronto","ON","M5T 2W6",43.6517657,-79.4049646,"1","Comfort Food, Restaurants, Food, Street Vendors, Japanese"
"483",26592,"Michael's Restaurant & Bar","Rocky River","OH","44116",41.478853,-81.840272,"1","Bars, Greek, Nightlife, Restaurants, Diners, American (Traditional), Comfort Food, Mediterranean"
"484",116871,"Mantua Corners Bar & Grille","Mantua","OH","44255",41.3100206,-81.2217445,"1","Restaurants, Comfort Food, Dive Bars, Bars, American (Traditional), Nightlife, Wine Bars"
"485",5976,"Buck & Badger","Madison","WI","53703",43.0747392865,-89.3871119285,"1","Nightlife, Restaurants, Comfort Food, Bars, Food"
"486",113937,"National on 10th","Calgary","AB","T2R 0A5",51.0435243,-114.0702017,"1","Nightlife, Bars, Restaurants, Comfort Food"
"487",14106,"Noodles & Company","Charlotte","NC","28277",35.0984229,-80.780416,"1","Chinese, Noodles, Restaurants, Thai, Italian, Fast Food, Asian Fusion, Comfort Food, American (Traditional)"
"488",67246,"Aracely's Sazón Colombian Restaurant","Las Vegas","NV","89103",36.1230052,-115.2241611,"1","Food, Comfort Food, Colombian, Specialty Food, Breakfast & Brunch, Seafood, Ethnic Food, Restaurants, Latin American"
"489",100140,"Boston Market","North Olmsted","OH","44070",41.4194754,-81.9149941,"1","Restaurants, American (Traditional), Comfort Food, Event Planning & Services, Caterers"
"490",111887,"Boston Market","Charlotte","NC","28207",35.1975075,-80.8260792,"1","American (Traditional), Comfort Food, Restaurants, Caterers, Event Planning & Services"
"491",111246,"Wolfgang's on Brock","Whitby","ON","L1R 3J7",43.899787,-78.9509807,"1","Restaurants, Comfort Food, German"
"492",124662,"Bob Evans","South Euclid","OH","44118",41.5016130136,-81.5399151295,"1","Restaurants, Bed & Breakfast, American (Traditional), Comfort Food, Hotels & Travel, Breakfast & Brunch, Salad"
"493",55878,"Three Wisemen","Scottsdale","AZ","85251",33.5005562,-111.9231618,"1","Bars, Restaurants, Comfort Food, American (Traditional), Nightlife"
"494",184234,"Symons Roadhouse","Calgary","AB","T3R 1E7",51.1828463,-114.1348634,"0","Breakfast & Brunch, Canadian (New), Restaurants, Comfort Food, Barbeque, Salad, Bars, Chicken Wings, Cocktail Bars, Nightlife"
"495",92035,"Su-Good","Toronto","ON","M4C 1L7",43.6886686,-79.3002742,"1","Chinese, Comfort Food, Restaurants"
"496",50980,"Topham Corner","Toronto","ON","M4B 2T1",43.7083892,-79.3104578,"0","Jazz & Blues, Arts & Entertainment, Canadian (New), Breakfast & Brunch, Comfort Food, Nightlife, Bistros, Restaurants, American (Traditional)"
"497",130746,"Boston Market","Monroeville","PA","15146",40.4357205,-79.7851916,"1","Caterers, Restaurants, Event Planning & Services, Sandwiches, American (Traditional), Comfort Food"
"498",91131,"Simple Simon Pies","Calgary","AB","T2T 0A3",51.0383482577,-114.0765974298,"1","Restaurants, Bakeries, Food, Comfort Food, Specialty Food, Desserts"
"499",91286,"Melt Bar and Grilled","Mentor","OH","44060",41.6516659,-81.3807544,"1","American (New), Comfort Food, Sandwiches, American (Traditional), Restaurants, Beer, Wine & Spirits, Food"
"500",18074,"Silo13","Toronto","ON","M2N 5M6",43.7602117,-79.4114947,"0","Cafes, Food, Comfort Food, Restaurants, Specialty Food, Do-It-Yourself Food"
"501",47157,"Kelseys Original Roadhouse","Brampton","ON","L6Z 4K2",43.707373,-79.78422,"1","Comfort Food, Nightlife, Restaurants, Canadian (New), Bars, Fast Food"
"502",140844,"Kelseys Original Roadhouse","Mississauga","ON","L5B 4M6",43.5808554158,-79.6481135228,"1","American (Traditional), Restaurants, Canadian (New), Comfort Food, Nightlife, Burgers, Bars, Sandwiches"
"503",59022,"Rockbar","Scottsdale","AZ","85251",33.497615,-111.927405,"1","Nightlife, Restaurants, Comfort Food, Arts & Entertainment, Sports Bars, Lounges, Bars, Music Venues"
"504",5745,"Republica Empanada","Mesa","AZ","85210",33.41346,-111.825846,"1","Latin American, Restaurants, Comfort Food, Empanadas, Food"
"505",14373,"Cheese Melt Cafe","Madison","WI","53719",43.0572515,-89.5055108,"0","Restaurants, Comfort Food, Food Court, Cafes"
"506",34988,"Jardin at Robinia Courtyard","Madison","WI","53703",43.0815042589,-89.3736290336,"1","Restaurants, American (New), Tapas/Small Plates, Bars, Comfort Food, Nightlife"
"507",21224,"Tex-Mex Back Road Grill","Gastonia","NC","28056",35.1850187,-81.1447822,"1","Comfort Food, Restaurants, American (Traditional), Breakfast & Brunch"
"508",120869,"Pig & Pickle","Scottsdale","AZ","85251",33.48124,-111.90979,"1","Sandwiches, Comfort Food, Gastropubs, Restaurants"
"509",104327,"Sweet Lee's","Verdun","QC","H4G 1V7",45.4625913,-73.5670182,"1","Bakeries, Desserts, Cafes, Restaurants, Comfort Food, Food"
"510",7499,"Cracker Barrel Old Country Store","Brooklyn","OH","44144",41.422525,-81.760671,"1","Restaurants, Comfort Food, American (New), American (Traditional), Southern, Event Planning & Services, Caterers, Breakfast & Brunch"
"511",18943,"The Liberty Kitchen","Phoenix","AZ","85013",33.4886989,-112.07707,"1","Gastropubs, Restaurants, Soul Food, Comfort Food, American (New)"
"512",164220,"Texas Land & Cattle","Concord","NC","28027",35.3654956,-80.7120321,"0","Nightlife, Restaurants, American (Traditional), Comfort Food, Diners, Seafood, Steakhouses, Bars"
"513",67325,"HK Sweets","North York","ON","M6A 2T2",43.7205888,-79.455741,"1","Bubble Tea, Hong Kong Style Cafe, Restaurants, Asian Fusion, Comfort Food, Desserts, Food"
"514",69590,"Boston Market","Scottsdale","AZ","85257",33.4781055,-111.9266297,"1","Comfort Food, Restaurants, Salad, Caterers, Sandwiches, American (Traditional), Event Planning & Services"
"515",188896,"Red Rice","Las Vegas","NV","89123",36.0182434258,-115.1180470926,"1","Comfort Food, Event Planning & Services, Salad, Food, Restaurants, Guamanian, Local Flavor, Barbeque, Caterers, Hawaiian, Specialty Food, Ethnic Food, Asian Fusion"
"516",120935,"Cornerstone Music Cafe","Calgary","AB","T2J 7C4",50.930376,-114.024923,"1","Cafes, Restaurants, Comfort Food, Education, Art Schools, Specialty Schools, Coffee & Tea, Food, Music Venues, Nightlife, Arts & Entertainment"
"517",98186,"Kelseys Original Roadhouse","Vaughan","ON","L6A 3N9",43.848989,-79.536074,"1","Nightlife, Comfort Food, Canadian (New), Bars, Restaurants"
"518",12055,"Parkway Family Restaurant","Madison","WI","53713",43.0363518,-89.4049488,"1","Breakfast & Brunch, Comfort Food, American (New), Restaurants"
"519",171068,"Pearl Diver","Toronto","ON","M5C 1K9",43.6515394,-79.37376,"1","Chinese, Steakhouses, Seafood, Breakfast & Brunch, Restaurants, Irish, Comfort Food"
"520",51838,"Milestones Restaurants","Toronto","ON","M5B 2G9",43.6567455,-79.380484,"1","Comfort Food, Restaurants, Nightlife, Canadian (New), American (New), Food, Bars"
"521",180468,"Famous Dave's Bar-B-Que","Las Vegas","NV","89030",36.2406450132,-115.1138313135,"1","Barbeque, Food, Restaurants, Comfort Food, American (Traditional)"
"522",73293,"Holy Macro","Las Vegas","NV","89044",35.9208835,-115.1652008,"1","Restaurants, Comfort Food, Waffles, Food, Food Trucks"
"523",125215,"Kelseys Original Roadhouse","Mississauga","ON","L4W 1C2",43.6445052625,-79.6343008429,"1","Restaurants, American (New), Bars, Comfort Food, Nightlife, Canadian (New)"
"524",146558,"Harvest Kitchen","Toronto","ON","M5S 1G8",43.662723,-79.4043569,"1","Local Flavor, Restaurants, Salad, Coffee & Tea, Comfort Food, Italian, Gastropubs, Nightlife, Breakfast & Brunch, Food, Vegetarian, Diners, Burgers, Bars, Coffee Roasteries, Juice Bars & Smoothies, Canadian (New)"
"525",124847,"Chez Chose","Montréal","QC","H2G 2W1",45.54704,-73.6029026,"1","French, Restaurants, Comfort Food"
"526",178740,"Smoque N' Bones","Toronto","ON","M6J 1G4",43.6457027819,-79.4107432752,"1","American (Traditional), Barbeque, Restaurants, Comfort Food"
"527",153374,"Resto Boemo","Toronto","ON","M5H 3K6",43.6503522,-79.3837951,"1","Comfort Food, Restaurants, Italian"
"528",119146,"Montana's BBQ & Bar","North York","ON","M3J 3N3",43.786606,-79.4714871,"1","Barbeque, Restaurants, Bars, Canadian (New), Nightlife, Comfort Food, Steakhouses"
"529",165448,"Bob Evans","Broadview Heights","OH","44147",41.3142199562,-81.6541912331,"1","Bed & Breakfast, Comfort Food, Salad, Restaurants, Hotels & Travel, Breakfast & Brunch, Bakeries, American (Traditional), Food"
"530",173775,"Little Sheep Mongolian Hot Pot","Mississauga","ON","L5C 4E9",43.5698487,-79.6611291,"1","Comfort Food, Hot Pot, Mongolian, Restaurants"
"531",2521,"TIABI Coffee & Waffle Bar","Las Vegas","NV","89119",36.1166498731,-115.1387528644,"1","Juice Bars & Smoothies, Comfort Food, Desserts, Bakeries, Food, Coffee & Tea, Restaurants, Local Flavor, Cafes, Breakfast & Brunch, Internet Cafes"
"532",122137,"Banzo","Madison","WI","53704",43.1016722349,-89.3645954132,"1","Street Vendors, Restaurants, Food Trucks, Vegan, Mediterranean, Comfort Food, Gluten-Free, Food Stands, Food"
"533",115712,"Welshfield Inn","Burton","OH","44021",41.384742,-81.139843,"1","American (Traditional), Comfort Food, Breakfast & Brunch, Restaurants"
"534",128428,"Paper St","Calgary","AB","T2P 1G6",51.046188,-114.075634,"1","Food, Comfort Food, Street Vendors, Burgers, Mexican, Restaurants, Sandwiches"
"535",152415,"The Citizen","Toronto","ON","M5V 1K4",43.645304,-79.3976214,"1","Bars, Restaurants, Comfort Food, American (Traditional), Pubs, Canadian (New), Cocktail Bars, Nightlife"
"536",86640,"Station des Sports","Laval","QC","H7L 4P8",45.5902344,-73.7415477,"1","Restaurants, Nightlife, Fast Food, Burgers, Bars, Barbeque, Sports Bars, Comfort Food"
"537",172997,"Montana's BBQ & Bar","Etobicoke","ON","M8Z 6C7",43.6238986203,-79.5162963867,"1","Canadian (New), Barbeque, Restaurants, Comfort Food, Steakhouses"
"538",158416,"Bob Evans","Brook Park","OH","44142",41.4038079923,-81.8140245,"1","Salad, American (Traditional), Comfort Food, Breakfast & Brunch, Restaurants, Hotels & Travel, Bed & Breakfast"
"539",157169,"La Bonne Humeur","Montréal","QC","H1Y 1J3",45.5491973,-73.5865831,"1","Breakfast & Brunch, Restaurants, Comfort Food"
"540",111863,"Kelseys Original Roadhouse","Scarborough","ON","M1L 2M6",43.7288642644,-79.2846982563,"1","Burgers, Nightlife, Comfort Food, American (Traditional), Restaurants, Italian, Canadian (New), Bars"
"541",89691,"Ease Modern Comfort Cuisine","Pittsburgh","PA","15218",40.4327021,-79.8941907,"1","Breakfast & Brunch, Salad, Bars, Diners, Comfort Food, Nightlife, Burgers, American (New), Cocktail Bars, Restaurants"
"542",126341,"The Junction Kitchen & Bar","Toronto","ON","M2H 3H7",43.8121683,-79.339792,"1","Bars, Comfort Food, Gastropubs, Restaurants, Chicken Wings, Nightlife"
"543",94363,"Cafe No Fur","Las Vegas","NV","89103",36.1260181,-115.2122806,"1","Vegan, American (New), Restaurants, Cafes, Bubble Tea, Specialty Food, Food, Ice Cream & Frozen Yogurt, Comfort Food, Health Markets, Juice Bars & Smoothies, American (Traditional), Breakfast & Brunch"
"544",16989,"Swiss Chalet Rotisserie & Grill","Toronto","ON","M9W 1J1",43.6914021,-79.5766301,"1","Restaurants, Comfort Food, American (Traditional)"
"545",119525,"MacAlpine's Diner & Soda Fountain","Phoenix","AZ","85006",33.473236,-112.06482,"1","Restaurants, Comfort Food, Food, Shopping, Ice Cream & Frozen Yogurt, Antiques, American (Traditional), Sandwiches, Burgers"
"546",182332,"Great Scott Tavern","Euclid","OH","44123",41.608624,-81.528842,"1","Nightlife, American (Traditional), Bars, Restaurants, Steakhouses, Comfort Food"
"547",120343,"WingBurger","Toronto","ON","M4A 1J8",43.725499,-79.312668,"1","Fast Food, Food, Restaurants, Burgers, Comfort Food, Chicken Wings"
"548",113329,"Bar Fancy","Toronto","ON","M6J 1H8",43.6437829,-79.4214985,"1","Restaurants, Chicken Shop, Nightlife, Comfort Food, Bars"
"549",119123,"Wild Spork Food Truck","Mentor","OH","44060",41.6782705,-81.2982892,"1","Event Planning & Services, Comfort Food, Vegan, Caterers, Food, Food Trucks, Restaurants"
"550",147721,"Lyrics Music Bar and Grill","Toronto","ON","M4W",43.6707363,-79.3890456,"0","Restaurants, Lounges, Nightlife, Italian, Comfort Food, Bars"
"551",138109,"Highland Creek Golf Club","Charlotte","NC","28269",35.3808883,-80.7629667,"1","Comfort Food, Active Life, Golf, Bars, Sports Bars, Nightlife, Restaurants"
"552",50696,"Milestones Restaurants","Calgary","AB","T2J 0A2",50.952414099,-114.0692549067,"1","American (New), Canadian (New), Nightlife, Comfort Food, Restaurants, Bars"
"553",90797,"Jack Astor's Bar & Grill","Laval","QC","H7T 2Z1",45.5619908293,-73.7435292853,"1","Burgers, Sports Bars, Comfort Food, Bars, Restaurants, Canadian (New), Nightlife"
"554",26112,"Swiss Chalet Rotisserie & Grill","Toronto","ON","M4E 1E3",43.6717603,-79.2929524,"1","American (Traditional), Comfort Food, Restaurants, Barbeque"
"555",66756,"George's  Kitchen","Cleveland","OH","44111",41.464958,-81.783099,"1","Restaurants, Diners, Comfort Food"
"556",162419,"Pig in a Fur Coat","Madison","WI","53703",43.0805044,-89.3685777,"1","Gastropubs, Tapas Bars, Comfort Food, Restaurants, Mediterranean, American (New)"
"557",160102,"Julie's Chicken and Waffles Just Soul Babee","Mesa","AZ","85202",33.3892,-111.86058,"0","Restaurants, Southern, Comfort Food"
"558",172104,"Milestones Restaurants","Newmarket","ON","L3Y 4V8",44.0720372,-79.4852408,"1","Bars, Restaurants, Canadian (New), Nightlife, Comfort Food"
"559",151414,"Montana's BBQ & Bar","Mississauga","ON","L4Z 3X7",43.608029,-79.65418,"1","Steakhouses, Restaurants, American (Traditional), Fast Food, Canadian (New), Comfort Food"
"560",50330,"Famous Dave's Bar-B-Que","Henderson","NV","89014",36.0642117,-115.0436798,"1","Barbeque, Restaurants, American (Traditional), Comfort Food"
"561",90506,"Chef Chan","Markham","ON","L3P 1Y6",43.8838701,-79.2613019,"1","Restaurants, Chinese, Specialty Food, Food, Ethnic Food, Imported Food, Food Delivery Services, Fast Food, Comfort Food"
"562",69334,"Montana's BBQ & Bar","Calgary","AB","T2Z 0G4",50.9323490992,-113.9645486235,"1","Food, Desserts, Comfort Food, Chicken Wings, Restaurants, Canadian (New), Steakhouses"
"563",67602,"Twin Peaks","Concord","NC","28027",35.3736381,-80.7260759,"1","Sports Bars, Restaurants, Bars, Nightlife, American (Traditional), Comfort Food, American (New)"
"564",6885,"ERD's Eatery and Catering","Charlotte","NC","28269",35.3379265,-80.8240245,"1","Soul Food, American (New), Specialty Food, Food, Restaurants, Comfort Food, Seafood"
"565",80067,"Cheddar's Scratch Kitchen","Chandler","AZ","85224",33.3064492818,-111.8869385804,"1","Gastropubs, American (Traditional), Restaurants, American (New), Comfort Food"
"566",24644,"Choplin's Restaurant","Cornelius","NC","28031",35.480913,-80.882426,"1","Comfort Food, Restaurants, Steakhouses, Beer, Wine & Spirits, Southern, Food, American (Traditional), Seafood, American (New)"
"567",138170,"Elevation Restaurant","Pittsburgh","PA","15222",40.4412608,-79.9979599,"1","Comfort Food, Restaurants, American (Traditional)"
"568",30031,"Noodles & Company","Monroeville","PA","15146",40.4361038208,-79.7829742432,"0","Mediterranean, Comfort Food, Salad, American (New), Asian Fusion, Restaurants, Italian, Noodles, Food, Sandwiches"
"569",71992,"Ta Pies","Montréal","QC","H2V 4E3",45.51688,-73.590151,"1","Ethnic Food, Fast Food, Steakhouses, Breakfast & Brunch, Restaurants, Specialty Food, Bakeries, British, Food, Australian, Comfort Food"
"570",57516,"Holler & Dash Biscuit House","Charlotte","NC","28209",35.2000979639,-80.866134502,"1","Breakfast & Brunch, Comfort Food, Southern, Restaurants"
"571",83321,"Dance Mac","Toronto","ON","M5V 1Z9",43.6500547,-79.3902078,"0","Comfort Food, Restaurants"
"572",88202,"Carh's kitchen Food Truck","Chandler","AZ","85249",33.2236687,-111.8210866,"1","Local Flavor, Event Planning & Services, Food Trucks, Caterers, Comfort Food, Food, Specialty Food, Restaurants"
"573",61752,"Alchemy Food & Drink","Toronto","ON","M6H 1A3",43.6540339,-79.4250039,"1","Bars, Restaurants, Gastropubs, Wine Bars, Burgers, Cocktail Bars, Nightlife, Comfort Food"
"574",51984,"Craft Beer Market","Toronto","ON","M5C 2V9",43.650159,-79.378093,"1","Food, Bars, Beer, Wine & Spirits, Beer Bar, Restaurants, Comfort Food, Nightlife, Breakfast & Brunch, Pubs"
"575",172769,"Loaded Pierogi","Toronto","ON","M5E 1M2",43.647901,-79.373407,"1","Polish, Restaurants, American (Traditional), Bars, Soul Food, Canadian (New), Nightlife, Comfort Food"
"576",153574,"Boston Market","Lyndhurst","OH","44124",41.5193285,-81.4961794,"1","Event Planning & Services, American (Traditional), Sandwiches, Comfort Food, American (New), Caterers, Restaurants"
"577",1383,"Earls Kitchen + Bar","Calgary","AB","T2E 8R7",51.0810949897,-114.0027985493,"1","Comfort Food, Nightlife, Cocktail Bars, American (New), Bars, Restaurants, Canadian (New)"
"578",54574,"The Chickery","Toronto","ON","M5V 2L4",43.6475596,-79.3961288,"0","Chicken Wings, Chicken Shop, Event Planning & Services, Party & Event Planning, Barbeque, Salad, Sandwiches, Restaurants, Comfort Food"
"579",34236,"Milestones Restaurants","Whitby","ON","L1N 2C4",43.8678288583,-78.9147691825,"1","Food, Nightlife, Restaurants, Comfort Food, Wine Bars, Bars, Canadian (New)"
"580",64870,"Montana's BBQ & Bar","Markham","ON","L6C 0G6",43.8852514,-79.3720236,"1","Steakhouses, American (New), Canadian (New), Restaurants, Comfort Food"
"581",116973,"Church's Chicken","Mesa","AZ","85210",33.3938581,-111.8395855,"1","Restaurants, Chicken Shop, Comfort Food, Breakfast & Brunch, Chicken Wings, American (Traditional), Fast Food"
"582",54378,"The Office Bistro Bar","Cuyahoga Falls","OH","44221",41.1306168745,-81.4838998706,"0","Beer, Wine & Spirits, Restaurants, Nightlife, Seafood, Sandwiches, Comfort Food, Food, Bars, American (New), Lounges, Cocktail Bars"
"583",9318,"Valley Tavern","Valley View","OH","44125",41.402219,-81.6260022,"1","Comfort Food, Restaurants, Burgers, Bars, Dive Bars, Nightlife"
"584",95904,"Yakima Social Kitchen + Bar","Calgary","AB","T2E 3B9",51.130095,-114.007252,"1","International, Canadian (New), Restaurants, Comfort Food"
"585",119617,"Montana's BBQ & Bar","Vaughan","ON","L4K 5Y5",43.8286231577,-79.5404904064,"1","Canadian (New), Steakhouses, Restaurants, Comfort Food"
"586",3252,"Daily Dose Midtown","Phoenix","AZ","85016",33.5058728555,-112.0413422585,"1","American (New), Burgers, Breakfast & Brunch, Restaurants, Comfort Food, Nightlife, Caterers, Event Planning & Services, Bars"
"587",141876,"Bofinger","Montréal","QC","H2V",45.520163,-73.5966223,"0","Sandwiches, Restaurants, Comfort Food, Barbeque, Poutineries, Food Delivery Services, Food"
"588",51755,"The Rice Shop","Las Vegas","NV","89147",36.1231118615,-115.2798969372,"0","Comfort Food, Food, Asian Fusion, Restaurants, Specialty Food"
"589",116251,"Swiss Chalet Rotisserie & Grill","Pickering","ON","L1V 5R1",43.8480466006,-79.0753289043,"1","Canadian (New), American (Traditional), Comfort Food, Restaurants, American (New)"
"590",34860,"Cheddar's Scratch Kitchen","Charlotte","NC","28262",35.309708,-80.756624,"1","Burgers, Seafood, Sandwiches, American (New), American (Traditional), Restaurants, Comfort Food"
"591",145445,"The Coffee Shop","Las Vegas","NV","89109",36.1239135738,-115.1715178205,"1","Food, Comfort Food, Coffee & Tea, American (Traditional), Hotels & Travel, Event Planning & Services, Arts & Entertainment, Casinos, Day Spas, Restaurants, Hotels, Breakfast & Brunch, Beauty & Spas"
"592",67924,"Queen Margherita Pizza - Baby Point","Toronto","ON","M6S 2E4",43.6581688,-79.4877396,"1","Italian, Pizza, Restaurants, Comfort Food"
"593",18402,"Lloyd's Foodmart","York","ON","M9N 2S4",43.7037388,-79.5043253,"1","Comfort Food, Food, Restaurants, Grocery, Caribbean, Canadian (New), Soul Food"
"594",129274,"Bob Evans","Middleburg Heights","OH","44130",41.3709765858,-81.8193986267,"1","American (Traditional), Bed & Breakfast, Salad, Comfort Food, Hotels & Travel, Restaurants, Breakfast & Brunch"
"595",50943,"Macbar et Fromage","Montréal","QC","H2L 1R8",45.5228704,-73.5615001,"1","Nightlife, Burgers, Sandwiches, Comfort Food, Restaurants, Bars, Canadian (New)"
"596",137261,"Kravingz","Mississauga","ON","L5J 1J5",43.5178546,-79.6216602,"1","Restaurants, Breakfast & Brunch, American (Traditional), Comfort Food, Polish, Filipino"
"597",46494,"Partners Kitchen","Toronto","ON","M9N",43.7062007,-79.5046864,"1","Chinese, Restaurants, Comfort Food, Chicken Wings, Food"
"598",51987,"Bob Evans","Mentor","OH","44060",41.6779924033,-81.3085912867,"1","Salad, Comfort Food, Restaurants, Breakfast & Brunch, American (Traditional), Bed & Breakfast, American (New), Hotels & Travel"
"599",95382,"Golden Corral","Gastonia","NC","28054",35.2622327,-81.1379639,"1","Comfort Food, American (Traditional), Restaurants, Buffets"
"600",37402,"Bob Evans","Independence","OH","44131",41.3954673877,-81.6498745,"1","Breakfast & Brunch, Comfort Food, Bed & Breakfast, Salad, Restaurants, American (Traditional), Hotels & Travel"
"601",3249,"Milestones Restaurants","Mississauga","ON","L5L 5Y3",43.5169063,-79.6888414,"1","Bars, Comfort Food, Food, Beer, Wine & Spirits, Restaurants, Nightlife, Canadian (New), American (New)"
"602",163854,"Board & Batten","Mesa","AZ","85215",33.470438,-111.742445,"1","Bars, Restaurants, Cafes, Wine Bars, Salad, Desserts, French, Comfort Food, American (New), Nightlife, Food"
"603",169313,"Bidon Taverne Culinaire","Saint-Lambert","QC","J4P",45.5029087223,-73.5132517953,"1","Gastropubs, Restaurants, Comfort Food, Canadian (New)"
"604",38107,"Earls Kitchen + Bar","Calgary","AB","T3A 5R8",51.1054845757,-114.1632669885,"1","Bars, American (New), Canadian (New), Nightlife, Comfort Food, American (Traditional), Restaurants, Cocktail Bars"
"605",173559,"Carters Landing","Toronto","ON","M4L 3W6",43.6626207,-79.3100251,"0","Nightlife, Canadian (New), Bars, Diners, Restaurants, American (Traditional), Comfort Food"
"606",27337,"Milestones Restaurants","Vaughan","ON","L4L 1A6",43.7893717,-79.5538463,"1","Food, Nightlife, Canadian (New), Comfort Food, Restaurants, Bars"
"607",40517,"Jin Mee Korean Restaurant","Vaughan","ON","L4J 1V7",43.7988709668,-79.4214259833,"1","Restaurants, Fast Food, Comfort Food, Korean"
"608",56660,"First Break Coffee Shop","Toronto","ON","M4M 3L1",43.6634875,-79.3411679,"0","Bagels, Food, Restaurants, Comfort Food, Coffee & Tea"
"609",132159,"Boston Market","Chandler","AZ","85224",33.3211479,-111.859793,"1","Event Planning & Services, Restaurants, Comfort Food, Food, Caterers, Turkish, Desserts, American (Traditional)"
"610",140819,"Cracker Barrel Old Country Store","Peoria","AZ","85382",33.636829,-112.241208,"1","Fashion, Department Stores, Comfort Food, Shopping, Grocery, Desserts, Caterers, Restaurants, Salad, American (Traditional), Event Planning & Services, Southern, Food, Breakfast & Brunch"
"611",23065,"Swiss Chalet Rotisserie & Grill","Vaughan","ON","L4L 1A6",43.8256921587,-79.5555506712,"1","Food Delivery Services, Comfort Food, Canadian (New), Restaurants, American (Traditional), Food"
"612",122455,"Cracker Barrel Old Country Store","Copley","OH","44321",41.1333695153,-81.6488823763,"1","Event Planning & Services, Food, Diners, Southern, Restaurants, Salad, American (Traditional), Comfort Food, Breakfast & Brunch, Desserts, Caterers"
"613",182100,"Boston Market","Strongsville","OH","44136",41.3102237,-81.8346401,"1","Event Planning & Services, Caterers, Restaurants, American (Traditional), Comfort Food"
"614",143076,"Swiss Chalet Rotisserie & Grill","Mississauga","ON","L4Z 3L9",43.6050755226,-79.6497395366,"1","American (Traditional), Restaurants, Comfort Food"
"615",176030,"Muncheez","Markham","ON","L3T 0C7",43.8031918,-79.4195095,"1","Breakfast & Brunch, Juice Bars & Smoothies, Restaurants, Comfort Food, French, Desserts, Creperies, Delis, Food"
"616",18569,"Cracker Barrel Old Country Store","Las Vegas","NV","89139",36.0379386,-115.1818294,"1","Event Planning & Services, Diners, American (Traditional), Food, Caterers, Southern, Restaurants, Comfort Food, Breakfast & Brunch, Desserts, Salad"
"617",114334,"Nordstrom Grill","Beachwood","OH","44122",41.497625,-81.495192,"1","Nightlife, Restaurants, Bars, Comfort Food, American (New), Cocktail Bars, Cafes"
"618",188328,"Rôtisserie Scores","Saint-Hyacinthe","QC","J2S 8Y4",45.6476624,-72.9520506,"1","Restaurants, Barbeque, Comfort Food, Chicken Shop"
"619",40718,"Mr. Chicken","Northfield","OH","44067",41.3502433,-81.527189,"1","Comfort Food, Chicken Shop, Restaurants, Chicken Wings"
"620",86006,"Mr. Chicken","Willoughby","OH","44094",41.6267451,-81.4328432,"1","Comfort Food, Chicken Shop, Chicken Wings, Restaurants"
"621",32227,"Swiss Chalet Rotisserie & Grill","Toronto","ON","M9W 1P7",43.7121568,-79.577508,"1","American (Traditional), Restaurants, Comfort Food"
"622",156999,"Spa My Blends by Clarins","Toronto","ON","M5V 3G7",43.645359,-79.387128,"1","Beauty & Spas, Massage, Skin Care, Day Spas, Restaurants, Bars, Nightlife, Pubs, British, Comfort Food"
"623",141978,"Bob Evans","Beachwood","OH","44122",41.4589722068,-81.4888125,"1","Salad, Hotels & Travel, Comfort Food, Breakfast & Brunch, Restaurants, Bed & Breakfast, American (Traditional)"
"624",102377,"Susa's Ice Cream Cafe","Harrisburg","NC","28075",35.3220538732,-80.6604161204,"1","Ice Cream & Frozen Yogurt, Food, Restaurants, Coffee & Tea, Comfort Food"
"625",130519,"Kelseys Original Roadhouse","Markham","ON","L3S 3K1",43.8536717,-79.2555299,"1","Canadian (New), Comfort Food, Restaurants, American (Traditional), Nightlife, Bars"
"626",107598,"Swan Restaurant","Toronto","ON","M6J 1G3",43.6452774,-79.4149396,"0","Wine Bars, Nightlife, Bars, Diners, American (Traditional), Comfort Food, Restaurants"
"627",91765,"Fuzion Zen","Laval","QC","H7L 3J7",45.6272242,-73.7631863,"1","Gluten-Free, Restaurants, Comfort Food, Asian Fusion"
"628",158156,"Green Bamboo Restaurant","Scarborough","ON","M1S 5H5",43.785267,-79.277624,"0","Specialty Food, Thai, Restaurants, Food, Vietnamese, Chinese, Comfort Food"
"629",173185,"Noodles & Company","Fitchburg","WI","53711",43.0162093111,-89.4289763817,"1","Italian, Asian Fusion, Noodles, Salad, Comfort Food, Thai, Restaurants"
"630",16101,"Chow Chow Kitchen","Lakewood","OH","44107",41.4770894,-81.7919356,"0","Restaurants, Comfort Food, Soul Food, Southern"
"631",13041,"Swiss Chalet Rotisserie & Grill","Toronto","ON","M5G 1Z5",43.6588089,-79.3909892,"1","Barbeque, Comfort Food, American (Traditional), Restaurants, Chicken Wings"
"632",69157,"SpiritHouse Montreal","Montréal","QC","H2Y 1L9",45.5034944039,-73.5586525015,"0","Cocktail Bars, Restaurants, Bars, Comfort Food, Nightlife"
"633",78342,"Buffalo Bob's","Calgary","AB","T3E 6V2",51.0212623,-114.1625934,"1","Comfort Food, Burgers, Chicken Wings, Brasseries, Tapas Bars, Restaurants"
"634",163617,"English Bay Fish & Chips","Mississauga","ON","L5C 4G7",43.5539575248,-79.6455274635,"0","Fish & Chips, Ethiopian, Comfort Food, British, Restaurants, Salad"
"635",173822,"Reva Zy","Montréal","QC","H2Y 2C7",45.503767,-73.554012,"1","Sandwiches, Greek, Lebanese, Comfort Food, Breakfast & Brunch, Restaurants, Middle Eastern"
"636",105010,"Entice Restaurant & Lounge","Toronto","ON","M6J 1H7",43.6440657,-79.4203072,"1","Lounges, Wine Bars, Cocktail Bars, Bars, Comfort Food, Breakfast & Brunch, American (Traditional), Nightlife, Restaurants"
"637",188438,"La Cage Aux Sports","Saint-Sauveur","QC","J0R 1R6",45.892054,-74.1541855,"1","Canadian (New), Restaurants, Comfort Food, Chicken Wings"
"638",10400,"Cracker Barrel Old Country Store","Fort Mill","SC","29708",35.0954257,-80.9386582,"1","Caterers, Southern, Comfort Food, Breakfast & Brunch, American (Traditional), Event Planning & Services, Restaurants"
"639",152423,"Hi Tea","Toronto","ON","M4Y 1Z2",43.6655380039,-79.3847890198,"0","Food, Comfort Food, Coffee & Tea, Restaurants, Desserts"
"640",54437,"Bob Evans","Champaign","IL","61820",40.1375355954,-88.2444405556,"1","Breakfast & Brunch, Restaurants, American (Traditional), Hotels & Travel, Comfort Food, Bed & Breakfast, Salad"
"641",148008,"Famous Dave's Bar-B-Que","Gilbert","AZ","85296",33.3093821854,-111.7421988502,"1","Restaurants, Barbeque, American (Traditional), Comfort Food"
"642",120734,"Loaded Pierogi","Toronto","ON","M4M 1Z8",43.6691861,-79.3364947,"0","Nightlife, Food, Desserts, Polish, Restaurants, Comfort Food, Bars, Cocktail Bars, Canadian (New)"
"643",93372,"Chicken'licious","Toronto","ON","M4C 1M1",43.6892937,-79.2963155,"0","Greek, Restaurants, Comfort Food"
"644",82138,"Emma's Country Kitchen","Toronto","ON","M6C 1B6",43.681016,-79.4303768,"1","Breakfast & Brunch, Food, Comfort Food, Restaurants, Bakeries"
"645",15393,"Swiss Chalet Rotisserie & Grill","Markham","ON","L6C 0G6",43.8856455,-79.3730864,"1","Restaurants, Fast Food, Food Delivery Services, Food, Comfort Food, American (Traditional)"
"646",111969,"Union House Bar & Restaurant","Parma","OH","44134",41.4187278,-81.7020621,"1","Restaurants, Dive Bars, Comfort Food, Nightlife, Bars"
"647",133183,"Cracker Barrel Old Country Store","Phoenix","AZ","85048",33.306054877,-111.9749278068,"1","Comfort Food, Caterers, Grocery, Restaurants, Event Planning & Services, American (Traditional), Breakfast & Brunch, American (New), Southern, Salad, Food, Desserts"
"648",160974,"Le Méchant Loup","Saint-Hubert","QC","J3Y 3N5",45.5047351,-73.423786,"1","French, Restaurants, Buffets, Comfort Food, Canadian (New), Bistros"
"649",98105,"Swiss Chalet Rotisserie & Grill","Toronto","ON","M3K 1G7",43.7269188129,-79.4804417493,"1","Chicken Wings, Restaurants, Canadian (New), American (Traditional), Comfort Food"
"650",64749,"Fring's","Toronto","ON","M5V 1K4",43.6450009288,-79.396023117,"0","Restaurants, Asian Fusion, Comfort Food"
"651",120787,"Liberty Commons at Big Rock Brewery","Toronto","ON","M6K 3E7",43.6383296,-79.4211346,"1","Comfort Food, Breakfast & Brunch, Breweries, Beer Bar, Pubs, Nightlife, Food, Restaurants, Bars"
"652",72968,"Woodlot Restaurant","Toronto","ON","M6J 2J3",43.6556815,-79.4097415,"1","Vegetarian, Restaurants, Comfort Food, Canadian (New), American (New)"
"653",172007,"Bob Evans","Kent","OH","44240",41.1330255019,-81.3527,"1","Restaurants, Salad, American (Traditional), Breakfast & Brunch, Comfort Food, Fast Food, Hotels & Travel, Bed & Breakfast"
"654",48225,"Noodles & Company","Pittsburgh","PA","15241",40.342392,-80.056087,"1","Asian Fusion, Comfort Food, Restaurants, Noodles, Do-It-Yourself Food, Food, Italian"
"655",145338,"Coco's Bakery Restaurant","Las Vegas","NV","89109",36.100442,-115.1652072,"1","Diners, Comfort Food, Restaurants, American (Traditional), Breakfast & Brunch, Food, Bakeries"
"656",163500,"Swiss Chalet Rotisserie & Grill","Mississauga","ON","L5R 3X9",43.6161666377,-79.6901018545,"1","American (Traditional), Restaurants, Barbeque, Comfort Food"
"657",64880,"Johnny's Farm House","Concord","NC","28025",35.4462216,-80.5980407,"1","Chicken Shop, Comfort Food, Restaurants"
"658",86592,"Rock 'n' Horse Saloon","Toronto","ON","M5H 1X6",43.6482126,-79.3890949,"1","Soul Food, Pizza, Food, Music Venues, Restaurants, Bars, Arts & Entertainment, Nightlife, Comfort Food, Pubs, American (Traditional), Burgers, Southern"
"659",70598,"Haze Lounge","Mississauga","ON","L4Z 2G6",43.5997436,-79.6401399,"1","Arabian, Halal, Restaurants, Comfort Food, Italian, Bars, Nightlife, Steakhouses, Hookah Bars"
"660",112687,"Bravo Pizzaria","Laval","QC","H7G 2T9",45.5684291,-73.6899361,"0","Pizza, Comfort Food, Fast Food, Restaurants"
"661",16795,"Kelseys Original Roadhouse","Oakville","ON","L6H 6Z3",43.4852873,-79.7170477,"1","Comfort Food, Canadian (New), Bars, American (New), Nightlife, Restaurants"
"662",39777,"Sixth & Pine","Beachwood","OH","44122",41.497625,-81.495192,"0","Diners, Comfort Food, Restaurants, American (New), American (Traditional)"
"663",81589,"Bazille-Nordstrom","Calgary","AB","T2H 0K8",51.0008176764,-114.0736424299,"1","Restaurants, American (New), American (Traditional), Brasseries, French, Canadian (New), Bars, Comfort Food, Nightlife, Cocktail Bars"
"664",161040,"The Coop Chicken and Waffles","Pittsburgh","PA","15222",40.4475255,-79.9933976,"1","Waffles, Food Trucks, Comfort Food, Chicken Shop, Restaurants, Food, Southern"
"665",54855,"stonegrill","Phoenix","AZ","85054",33.683465364,-111.9658970833,"1","Mexican, Breakfast & Brunch, Nightlife, Comfort Food, American (Traditional), Hotel bar, Bars, Restaurants, African"
"666",83119,"Bob Evans","Harmarville","PA","15238",40.5383419269,-79.8406867683,"1","Hotels & Travel, Comfort Food, American (New), Salad, Breakfast & Brunch, American (Traditional), Bed & Breakfast, Restaurants"
"667",60125,"Caribbean Grill Restaurant","Champaign","IL","61820",40.087699,-88.247455,"1","Vegan, Caribbean, Desserts, Food, Comfort Food, Vegetarian, Restaurants, Barbeque"
"668",55810,"Swiss Chalet Rotisserie & Grill","Aurora","ON","L4G 0H5",44.0121105793,-79.4156380351,"1","Comfort Food, Restaurants, American (Traditional)"
"669",53509,"Rita's Kitchen & R Bar","Scottsdale","AZ","85253",33.5336178335,-111.9648550451,"1","Comfort Food, Nightlife, Breakfast & Brunch, Mexican, Hotel bar, Bars, Restaurants, Cocktail Bars, Tex-Mex"
"670",176032,"Harry's Hofbrau","Mentor","OH","44060",41.6789768,-81.3360137,"0","Food, Comfort Food, Beer Gardens, Ethnic Food, Hungarian, Nightlife, Desserts, Specialty Food, Beer Bar, Restaurants, Bars, German"
"671",112447,"Lazy Dog Restaurant & Bar","Las Vegas","NV","89135",36.152831458,-115.3338667748,"1","Burgers, Pizza, American (New), Bars, Food, Beer, Wine & Spirits, Restaurants, Comfort Food, Nightlife"
"672",16655,"Sourdough Cafe","Las Vegas","NV","89121",36.1242508,-115.0756976,"1","American (Traditional), Sandwiches, Breakfast & Brunch, Comfort Food, Restaurants"
"673",88828,"Greene Square","Elyria","OH","44035",41.3530144,-82.2141159,"0","Southern, Restaurants, Comfort Food"
"674",84647,"Bob Evans","Chardon","OH","44024",41.5886423316,-81.2226292491,"1","Comfort Food, Event Planning & Services, Caterers, Bed & Breakfast, Breakfast & Brunch, Hotels & Travel, Restaurants, Salad, American (Traditional)"
"675",75122,"Sami's Cafe & Diner","Mississauga","ON","L4W 1S6",43.6599240748,-79.6405792236,"1","Restaurants, Middle Eastern, Breakfast & Brunch, Comfort Food"
"676",159292,"Chicken King","Charlotte","NC","28217",35.177536,-80.889975,"1","Sandwiches, Food, Comfort Food, Southern, Restaurants, Chicken Wings, Seafood, Fast Food"
"677",120773,"Bob Evans","Streetsboro","OH","44241",41.2401588581,-81.3510775566,"1","Comfort Food, American (Traditional), Restaurants, Salad, Bed & Breakfast, American (New), Breakfast & Brunch, Hotels & Travel"
"678",169812,"Buzzberry","Scottsdale","AZ","85250",33.6399735577,-112.1334044052,"0","Coffee & Tea, American (Traditional), Breakfast & Brunch, Beer, Wine & Spirits, Food, Bakeries, Restaurants, Juice Bars & Smoothies, Comfort Food"
"679",192267,"Swiss Chalet Rotisserie & Grill","Toronto","ON","M5S 1W9",43.6667303,-79.4045057,"1","American (Traditional), Comfort Food, Restaurants"
"680",126062,"Bob Evans","West Mifflin","PA","15122",40.348004,-79.943639,"1","Comfort Food, American (Traditional), Hotels & Travel, Salad, Restaurants, Bed & Breakfast, Breakfast & Brunch"
"681",179395,"49 Street Tavern","Cuyahoga Heights","OH","44105",41.4461488847,-81.656540595,"1","Bars, Restaurants, Nightlife, Comfort Food, Sports Bars, American (Traditional)"
"682",104019,"Off The Hook Fishbar","Toronto","ON","M4K 2P6",43.6759128,-79.358405,"1","Seafood, British, Gluten-Free, Fish & Chips, Comfort Food, Restaurants"
"683",18948,"Montana's BBQ & Bar","Brampton","ON","L6R 2K7",43.7306521,-79.7653132,"1","Steakhouses, American (New), Restaurants, Canadian (New), Comfort Food"
"684",107365,"Milestones Restaurants","Toronto","ON","M6A 2T9",43.7260866,-79.4539735,"0","Comfort Food, Restaurants, American (New), Canadian (New), Nightlife, Bars"
"685",185253,"1812 Grillhouse","Bradford West Gwillimbury","ON","L0G 1T0",44.0396459,-79.6633271,"1","Restaurants, Southern, Chicken Wings, Comfort Food"
"686",121482,"Bob Evans","Elyria","OH","44035",41.401198,-82.113328,"1","Comfort Food, Salad, Hotels & Travel, American (Traditional), Breakfast & Brunch, Bed & Breakfast, Burgers, Restaurants"
"687",69046,"La Espiga","Charlotte","NC","28213",35.2590519032,-80.7821260393,"1","Mexican, Comfort Food, Churros, Bakeries, Cafeteria, Food, Restaurants"
"688",161332,"Forge Pizza","Phoenix","AZ","85016",33.5107603218,-112.0263579614,"0","Comfort Food, American (New), Restaurants, Pizza"
"689",68163,"Melt Bar and Grilled","Akron","OH","44333",41.1363961,-81.6408812,"1","Bars, Sandwiches, Restaurants, Comfort Food, American (Traditional), Nightlife, Pubs"
"690",75160,"Ace Bar","Montréal","QC","H3A 1B4",45.5069307,-73.5714356,"1","Delis, Bars, Pubs, Comfort Food, Cocktail Bars, Nightlife, Restaurants, Sandwiches, Burgers, Venues & Event Spaces, Event Planning & Services, Dance Clubs"
"691",47962,"Slim Chickens","Gilbert","AZ","85234",33.3634597,-111.7905815,"0","Fast Food, Restaurants, Southern, Comfort Food, Chicken Wings"
"692",146405,"Swiss Chalet Rotisserie & Grill","Brampton","ON","L6Z 2S8",43.713559,-79.780107,"1","Canadian (New), American (New), Cafes, Restaurants, American (Traditional), Comfort Food"
"693",12375,"STATS Sports Grill","Mesa","AZ","85201",33.431472,-111.878445,"1","Mexican, Bars, Nightlife, Restaurants, Comfort Food, Sports Bars, Barbeque, Tapas/Small Plates"
"694",133161,"La Belle Tonkinoise","Montréal","QC","H2E 1S2",45.545712,-73.608752,"1","Comfort Food, Vietnamese, Asian Fusion, Restaurants, Pan Asian"
"695",122724,"Schanks Sports Grill","Calgary","AB","T3G 4J8",51.1273049485,-114.2033483612,"1","Nightlife, Pizza, Sports Bars, Bars, American (Traditional), Restaurants, Tapas Bars, Active Life, Comfort Food, Bowling, Pool Halls"
"696",124179,"Fionn MacCool's Irish Pub","Toronto","ON","M4S 1X8",43.6969461304,-79.3960864001,"1","Nightlife, Beer, Wine & Spirits, Restaurants, Food, Comfort Food, Gastropubs, Irish, Bars"
"697",31394,"The Dylan Bar","Toronto","ON","M4J 1M6",43.6820280074,-79.3305167184,"1","Bars, Wine Bars, Nightlife, Comfort Food, Italian, Restaurants"
"698",106957,"Swiss Chalet Rotisserie & Grill","Toronto","ON","M4P 1G6",43.706892,-79.396443,"1","American (Traditional), Comfort Food, Restaurants"
"699",183612,"Swiss Chalet Rotisserie & Grill","Toronto","ON","M4B 2T8",43.7128560314,-79.3075517014,"1","American (Traditional), Restaurants, Barbeque, Comfort Food"
"700",23501,"Tutti Frutti","Calgary","AB","T3K 5Y9",51.154868,-114.055242,"1","Restaurants, Ice Cream & Frozen Yogurt, Comfort Food, Food"
"701",133734,"Comme par Hasard","Longueuil","QC","J4H 1E1",45.537743,-73.5099362,"1","Comfort Food, Restaurants, French"
"702",186727,"Rusty Bucket Restaurant & Tavern","Charlotte","NC","28210",35.146186,-80.830284,"1","Restaurants, Bars, Nightlife, American (Traditional), Comfort Food, Pubs, Sports Bars"
