"","business_id","name","city","state","postal_code","latitude","longitude","is_open","categories"
"1",59401,"Phil's Restaurants","Calgary","AB","T2A 0P9",51.0381747,-113.9892355,"1","Breakfast & Brunch, Diners, Restaurants, Coffee & Tea, Food"
"2",64215,"Ricky's All Day Grill","Calgary","AB","T2E 5T1",51.0972241226,-114.0322342038,"1","Breakfast & Brunch, Restaurants, Canadian (New), Diners"
"3",96427,"Steak ’n Shake","Brunswick","OH","44212",41.2378014833,-81.8060022,"1","American (New), Burgers, Diners, Restaurants, Fast Food, Breakfast & Brunch, American (Traditional)"
"4",88804,"Circles Grill and Market","Charlotte","NC","28277",35.0393909574,-80.7950710445,"0","Burgers, Italian, Beauty & Spas, Wine Bars, Barbers, Peruvian, American (Traditional), Bars, Gastropubs, Diners, Salad, Specialty Food, Restaurants, American (New), Nightlife, Cafes, Food"
"5",142416,"Sunset Grill","Newmarket","ON","L3Y 8E4",44.0587246395,-79.4296261825,"1","Breakfast & Brunch, Restaurants, Canadian (New), Diners"
"6",55552,"Donna's Diner","Elyria","OH","44035",41.367931,-82.105386,"0","Diners, Restaurants"
"7",37063,"Steak ’n Shake","Willoughby","OH","44094",41.6234487,-81.4392608,"1","Restaurants, Fast Food, Burgers, American (Traditional), American (New), Breakfast & Brunch, Diners"
"8",61192,"Eggstasy","Scottsdale","AZ","85254",33.5825076235,-111.9312195007,"1","Diners, Breakfast & Brunch, Restaurants"
"9",86248,"Waffle House","Pineville","NC","28134",35.087963,-80.858488,"1","Diners, American (Traditional), Restaurants, Breakfast & Brunch, Waffles, American (New), Fast Food, Burgers"
"10",133412,"OK OK Diner","Toronto","ON","M4M 1K8",43.6623207,-79.3351048,"1","Restaurants, Breakfast & Brunch, Diners"
"11",133490,"The Cure","Toronto","ON","M6K 1T5",43.6497245738,-79.4315845899,"0","Sandwiches, Breakfast & Brunch, Nightlife, Cocktail Bars, Food, Bars, Restaurants, American (Traditional), Canadian (New), Diners, Specialty Food, Delis, Meat Shops, Delicatessen"
"12",50948,"Denny's","Surprise","AZ","85374",33.6589000674,-112.376867598,"1","Restaurants, Diners, Breakfast & Brunch, American (Traditional)"
"13",50476,"Denny's","Phoenix","AZ","85027",33.6833375,-112.1149421,"1","American (Traditional), Breakfast & Brunch, Diners, American (New), Restaurants"
"14",112719,"The Good Egg - Carefree","Scottsdale","AZ","85266",33.7978115,-111.9292904,"0","Breakfast & Brunch, Diners, Restaurants"
"15",177209,"Avenue Diner","Calgary","AB","T2P 1B4",51.0454011,-114.0635263,"0","Restaurants, Diners"
"16",191965,"The Pickle Barrel","Toronto","ON","M6A 2T9",43.7246888,-79.4538904,"1","Restaurants, Cocktail Bars, Canadian (New), Bars, Nightlife, Diners"
"17",10584,"Ricky's All Day Grill","Calgary","AB","T2J",50.9455365,-114.0698417,"1","American (New), Restaurants, Canadian (New), Food, Diners"
"18",138536,"Le Diner Frunchroom","Montréal","QC","H3G 1T7",45.4950906376,-73.5741431674,"0","Diners, Nightlife, Italian, Bars, French, Restaurants"
"19",122205,"3 Coins Open Kitchen","Richmond Hill","ON","L4C 1T6",43.8746365,-79.4382334,"1","Canadian (New), Restaurants, Diners, Fast Food"
"20",101667,"Denny's","Calgary","AB","T2H 0B8",50.9825411813,-114.0450462699,"1","Breakfast & Brunch, American (Traditional), Restaurants, Diners"
"21",139476,"Sunset Grill","Mississauga","ON","L5G 1H9",43.5655026,-79.5713627,"1","Diners, Canadian (New), Breakfast & Brunch, Restaurants"
"22",15282,"Beso Steakhouse","Las Vegas","NV","89109",36.108999,-115.173179,"0","Steakhouses, Restaurants, Diners"
"23",15679,"Monty's Blue Plate Diner","Madison","WI","53704",43.09242,-89.3518969,"1","Restaurants, Vegetarian, Diners, American (Traditional)"
"24",50641,"Sammy's Grille","Cleveland","OH","44103",41.5005090569,-81.6888530137,"0","Diners, American (Traditional), Salad, Breakfast & Brunch, Burgers, Restaurants"
"25",99234,"The Gladstone Cafe","Toronto","ON","M6J 1J4",43.6425668,-79.427059,"0","Diners, Food, Cafes, Restaurants, Food Delivery Services"
"26",170115,"Starliner Diner","Glendale","AZ","85301",33.5307526249,-112.1706569195,"1","Breakfast & Brunch, Restaurants, American (Traditional), Diners"
"27",153961,"Rudy Martino Original House of Submarines","Pittsburgh","PA","15218",40.4213034,-79.8902636,"1","Sandwiches, Restaurants, Diners"
"28",149555,"Silver Platter","Fort Mcdowell","AZ","85264",33.582406,-111.680802,"1","Burgers, Diners, Restaurants, Breakfast & Brunch"
"29",33726,"Denny's","Mentor","OH","44060",41.6590021038,-81.3658992987,"1","Fast Food, Breakfast & Brunch, American (Traditional), Diners, Restaurants"
"30",47555,"Mister Steer","Montréal","QC","H3B 1K1",45.498739,-73.574025,"1","American (Traditional), Burgers, Restaurants, Diners, Steakhouses"
"31",127513,"King's Diner","Toronto","ON","M4E 1S5",43.6805101,-79.2895166,"1","Restaurants, Breakfast & Brunch, Diners"
"32",50227,"Caribbean Palm - Scottsdale","Scottsdale","AZ","85257",33.4656047,-111.9293095,"1","Restaurants, Seafood, Bars, Diners, Caribbean, Nightlife"
"33",138164,"New Midway Restaurant","Mississauga","ON","L5T 2B8",43.6633367,-79.6698193,"1","Restaurants, Diners, Greek, Breakfast & Brunch"
"34",79717,"Île Flottante","Montréal","QC","H2T 2L3",45.5236393,-73.6007158,"1","Restaurants, Diners, Modern European, French"
"35",161574,"Arts All American Cafe","Phoenix","AZ","85007",33.4515172,-112.0967989,"1","American (New), Diners, Restaurants, Cafes"
"36",58991,"Lenny's Burger Shop","Phoenix","AZ","85012",33.4797007,-112.0732999,"1","Burgers, Diners, Restaurants"
"37",173266,"Denny's","Scottsdale","AZ","85250",33.5387649,-111.8848847,"1","American (Traditional), Breakfast & Brunch, Restaurants, Diners"
"38",33587,"Tic Toc Diner & Catering","Charlotte","NC","28202",35.230441,-80.838086,"0","Cafes, Restaurants, Coffee & Tea, Diners, Food"
"39",47787,"Bobby's Hideaway","Mississauga","ON","L5G 1H5",43.5635359,-79.5719144,"1","Diners, Breakfast & Brunch, Restaurants, Canadian (New)"
"40",132869,"Swan Restaurant","Toronto","ON","M6J 1G3",43.6452774,-79.4149396,"0","Restaurants, American (Traditional), Breakfast & Brunch, Diners"
"41",173016,"Johnny Rockets","Phoenix","AZ","85027",33.667611164,-112.120407,"1","Restaurants, Burgers, American (Traditional), Diners"
"42",62696,"Pizzeria Angela","Montréal","QC","H3H 1J7",45.4948224,-73.5799237,"1","Restaurants, Food, Diners, Pizza"
"43",45216,"Beach Cafe","Las Vegas","NV","89139",36.0484864,-115.2243463,"1","Restaurants, Burgers, Diners, Breakfast & Brunch"
"44",93616,"Lou's Diner","Las Vegas","NV","89107",36.167739,-115.2059208,"1","Breakfast & Brunch, Diners, American (Traditional), Restaurants"
"45",61419,"Cardinal Rule","Toronto","ON","M6R 2K2",43.6390827,-79.4460771,"0","Restaurants, American (Traditional), Diners"
"46",46190,"Denny's","Las Vegas","NV","89101",36.1699356,-115.1414301,"1","Diners, Restaurants, American (Traditional), Breakfast & Brunch, Sandwiches"
"47",54465,"BLACKOUT Dining in the Dark","Las Vegas","NV","89103",36.119787,-115.190605,"1","Diners, Venues & Event Spaces, Event Planning & Services, Arts & Entertainment, Vegetarian, American (New), Mediterranean, Nightlife, Restaurants"
"48",88953,"Borsalino","North York","ON","M4A 1X1",43.7218888,-79.3034121,"0","Italian, Restaurants, Nightlife, Diners, Cafes, Sports Bars, Mediterranean, Bars, Canadian (New)"
"49",67367,"Johnny Rocket's","Mooresville","NC","28117",35.5287031695,-80.8650822804,"0","Cheesesteaks, Diners, Salad, Burgers, Restaurants, Fast Food"
"50",86056,"Landmark Diner Restaurant","Charlotte","NC","28205",35.2139396,-80.7694598,"1","Mediterranean, Italian, Restaurants, Greek, Breakfast & Brunch, Diners"
"51",119489,"My Sister's Kitchen","Middleton","WI","53562",43.0999368,-89.5111999,"1","Restaurants, American (Traditional), Diners, Breakfast & Brunch"
"52",41606,"Eastland Inn","Berea","OH","44017",41.362061,-81.8444905,"1","American (New), Gastropubs, Dive Bars, Burgers, Nightlife, Pubs, Karaoke, Bars, Diners, Restaurants, American (Traditional)"
"53",82187,"Nick's Restaurant","Madison","WI","53703",43.0749558,-89.389168,"1","Mediterranean, Bars, Diners, Restaurants, Nightlife, Greek"
"54",22393,"Monsieur Smith","Montréal","QC","H1W 1T2",45.550108,-73.541594,"0","Bars, Nightlife, Diners, Restaurants"
"55",50997,"El Chorro","Paradise Valley","AZ","85253",33.532125,-111.96086,"1","Salad, Venues & Event Spaces, Food, Event Planning & Services, American (Traditional), Burgers, Desserts, Bars, American (New), Nightlife, Restaurants, Diners, Breakfast & Brunch"
"56",87088,"Rock Hill Diner","Rock Hill","SC","29732",34.9662888,-80.9961289,"1","Breakfast & Brunch, American (Traditional), Diners, Greek, Restaurants, Seafood"
"57",63883,"Greenbridge Teahouse and Cafe","Twinsburg","OH","44087",41.3116048,-81.4421747,"1","Food, Vegetarian, Cafes, Coffee & Tea, Vegan, Restaurants, Diners"
"58",112900,"Chef Ben Sushi & Asian Express","Goodyear","AZ","85395",33.4654778,-112.3560366,"1","Japanese, Sushi Bars, Diners, Chinese, Asian Fusion, Restaurants"
"59",100223,"Olde Village Bistro","Markham","ON","L3R 1M2",43.8612499,-79.3117388,"1","Restaurants, Canadian (New), American (Traditional), Breakfast & Brunch, Diners"
"60",52889,"The Good Fork","Toronto","ON","M6S 1P9",43.6495697,-79.4840826,"1","Canadian (New), Breakfast & Brunch, Restaurants, Diners, Cafes"
"61",192161,"Route 401 Diner","Etobicoke","ON","M9W 1B2",43.7022486,-79.5630686,"1","American (Traditional), Venues & Event Spaces, Diners, Event Planning & Services, Restaurants"
"62",94930,"Waffle House","Phoenix","AZ","85027",33.6834022,-112.1162183,"1","Breakfast & Brunch, Restaurants, Diners, American (Traditional)"
"63",30459,"The Barn","Aurora","OH","44202",41.297813,-81.361718,"1","Diners, Food, Restaurants"
"64",162728,"Grill Cottage","Toronto","ON","M6K 1M3",43.6406358682,-79.4367561489,"1","Falafel, Middle Eastern, Mediterranean, Restaurants, Diners"
"65",60695,"Waffle House","Charlotte","NC","28217",35.1458134603,-80.9240420535,"1","Diners, Waffles, Breakfast & Brunch, American (Traditional), Restaurants"
"66",120952,"Isaly's II","Stow","OH","44224",41.1586848,-81.4416184,"1","Diners, Restaurants"
"67",129069,"Bennys Breakfast Bar","Calgary","AB","T2H 2S1",50.9912004,-114.040018,"1","Breakfast & Brunch, Diners, Restaurants"
"68",100328,"IHOP","Phoenix","AZ","85043",33.46175,-112.16962,"1","Diners, Burgers, American (Traditional), Fast Food, American (New), Breakfast & Brunch, Restaurants"
"69",32401,"Denny's","Cleveland","OH","44129",41.4190810505,-81.7322783938,"1","Diners, American (Traditional), Restaurants, Breakfast & Brunch"
"70",96506,"Farmer Boys","Las Vegas","NV","89119",36.081352,-115.1192262,"1","Sandwiches, Restaurants, Mexican, American (Traditional), Burgers, Salad, Breakfast & Brunch, Diners"
"71",189651,"Nickels","Montréal","QC","H3B 2T6",45.4994350206,-73.5721168667,"0","American (Traditional), Diners, Restaurants"
"72",169005,"Satellite Family Restaurant","Mississauga","ON","L5J 1J6",43.5127642,-79.6280407,"0","Diners, Restaurants"
"73",23546,"Hazel's Diner","Toronto","ON","M4S 2M4",43.7021241,-79.3874506,"1","Diners, Restaurants, Breakfast & Brunch"
"74",135828,"Fuego Cantina","Phoenix","AZ","85022",33.6379062,-112.0626763,"0","Nightlife, Diners, Sports Bars, Restaurants, Bars, Latin American"
"75",102492,"Black Bear Diner","Goodyear","AZ","85338",33.4565552136,-112.341608594,"1","Restaurants, American (Traditional), Breakfast & Brunch, American (New), Diners, Burgers"
"76",66721,"Denny's","Oakville","ON","L6J 2W7",43.4554598346,-79.6864369512,"0","American (Traditional), Breakfast & Brunch, Restaurants, Diners"
"77",164348,"Cleveland Deli and Beverage","Cleveland","OH","44135",41.433372,-81.8008714,"1","Salad, Delis, Restaurants, Sandwiches, Diners, Food, Convenience Stores"
"78",85079,"Mars Uptown","Toronto","ON","M4P 2C8",43.7091651,-79.3985653,"1","Restaurants, Diners"
"79",153190,"Duffy's Diner","Toronto","ON","M6H 1N3",43.6591902,-79.4395936,"1","Diners, Restaurants"
"80",170516,"Eat'n Park","Moon","PA","15108",40.501764,-80.222438,"1","American (Traditional), Breakfast & Brunch, American (New), Diners, Restaurants"
"81",75298,"Johnny Rockets","Las Vegas","NV","89119",36.0902237379,-115.1764392958,"1","Burgers, Sandwiches, Restaurants, Diners, American (Traditional)"
"82",154424,"Sunset Grill","Brampton","ON","L6Y 2E1",43.6849368338,-79.7608025565,"1","Canadian (New), Salad, Restaurants, Diners, Breakfast & Brunch, Burgers"
"83",99080,"Miss Edgar's Muddy Water Tavern","Beeton","ON","L0G 1A0",44.078632,-79.7849918,"1","Diners, Food, Nightlife, Restaurants"
"84",109256,"Drew's Family Restaurant","Pittsburgh","PA","15221",40.4204559623,-79.8513937632,"1","Pizza, American (Traditional), Diners, Breakfast & Brunch, Restaurants"
"85",138714,"Social Bar & Kitchen","Charlotte","NC","28204",35.2168687,-80.8385574,"1","Seafood, Breakfast & Brunch, Southern, American (New), Tapas/Small Plates, Comfort Food, Diners, Restaurants"
"86",18088,"Pita Ikram","Toronto","ON","M6E 2X3",43.6923149,-79.4409185,"1","Middle Eastern, Mediterranean, Diners, Halal, Restaurants, Falafel"
"87",190665,"Lindos Restaurant","Pittsburgh","PA","15233",40.4514362,-80.0183074,"1","Diners, Coffee & Tea, Breakfast & Brunch, Sandwiches, Greek, Burgers, Restaurants, Food"
"88",68356,"L'Anecdote","Montréal","QC","H2J 2H7",45.5237086,-73.5766265,"1","French, Restaurants, Diners, Burgers"
"89",173408,"Tom's Burger","Markham","ON","L3P 1A5",43.8713928,-79.265685,"1","Restaurants, Burgers, Diners"
"90",11973,"Phil's on 11th","Calgary","AB","T3C 0M5",51.0430638875,-114.0906696394,"1","Breakfast & Brunch, Diners, Restaurants"
"91",131273,"The Cheesecake Company","Calgary","AB","T2L 2J7",51.101458029,-114.1426165069,"0","Desserts, Food, Diners, Breakfast & Brunch, Restaurants"
"92",153275,"Crossroads Fish & Chips","Schomberg","ON","L0G 1T0",44.0106112,-79.679719,"1","Fish & Chips, Restaurants, Diners"
"93",83718,"Metro Diner","Henderson","NV","89074",36.044686313,-115.0472740658,"1","Diners, Restaurants, Breakfast & Brunch, American (Traditional)"
"94",63024,"Johnny Rockets","Avondale","AZ","85392",33.4667028066,-112.279586792,"0","Burgers, Fast Food, Diners, Restaurants, Sandwiches, American (Traditional)"
"95",22757,"Blue Vinny Diner","Calgary","AB","T2P 1B4",51.045359,-114.063457,"1","Restaurants, Diners, Breakfast & Brunch"
"96",131224,"Steak ’n Shake","Macedonia","OH","44056",41.3143334164,-81.5172353,"1","American (New), Restaurants, Fast Food, Diners, Burgers, American (Traditional), Breakfast & Brunch"
"97",190256,"Sunset Grill","Calgary","AB","T3R 0S4",51.170429,-114.143686,"1","Canadian (New), Restaurants, Diners, Breakfast & Brunch, Burgers, Sandwiches, Salad"
"98",61570,"Denny's","Las Vegas","NV","89117",36.1443071533,-115.266170865,"1","Diners, American (Traditional), Food, Restaurants, Breakfast & Brunch"
"99",84862,"Denny's","Gilbert","AZ","85297",33.2778948186,-111.7886835337,"1","Diners, Restaurants, American (Traditional), Breakfast & Brunch"
"100",73927,"Vegas All Nite","Las Vegas","NV","89109",36.128561,-115.1711298,"1","Nightlife, Tours, Shopping, Hotels, Airport Shuttles, Personal Shopping, Security Services, Car Rental, Venues & Event Spaces, Restaurants, Personal Assistants, Event Planning & Services, Laundry Services, Party & Event Planning, Dry Cleaning, Travel Services, Transportation, Party Bus Rentals, Hotels & Travel, Professional Services, Local Services, Limos, Adult Entertainment, Diners"
"101",177698,"Johnny Rockets","Las Vegas","NV","89109",36.0954628,-115.1758039,"1","Restaurants, Sandwiches, Burgers, American (Traditional), Diners"
"102",128219,"Eat'n Park","Cuyahoga Falls","OH","44221",41.1188509605,-81.4839608238,"1","American (Traditional), Breakfast & Brunch, Restaurants, Diners"
"103",151936,"Bibby's Corner","Beeton","ON","L0G 1A0",44.080537,-79.780794,"1","Diners, Restaurants, Breakfast & Brunch"
"104",182644,"Streamers Ice Cream Parlor and Grill","Gilbert","AZ","85296",33.3299681,-111.7922733,"0","Food, Restaurants, Diners, Ice Cream & Frozen Yogurt"
"105",113171,"The Guild","Calgary","AB","T2P 1B5",51.046049,-114.0661432,"1","Steakhouses, Diners, Gastropubs, Local Flavor, Restaurants, Cafes"
"106",13768,"Waffle House","Charlotte","NC","28210",35.174875,-80.8755454,"1","Diners, Breakfast & Brunch, Restaurants, American (Traditional)"
"107",140867,"Wimpy's Diner","Richmond Hill","ON","L4S 0A6",43.8942508075,-79.4210683663,"1","Diners, Restaurants"
"108",11221,"Dorothy 6 Blast Furnace Cafe","Homestead","PA","15120",40.4072836,-79.9097979,"1","Bars, Cafes, Nightlife, Pubs, Breakfast & Brunch, Restaurants, Diners, Lounges, American (New)"
"109",110819,"The Carlton","Pittsburgh","PA","15219",40.4396782,-79.9959316,"1","Steakhouses, Diners, American (Traditional), Restaurants, Seafood"
"110",123919,"Main Street Grill","Waxhaw","NC","28173",34.924376,-80.7447509,"0","Restaurants, Diners, Breakfast & Brunch, Greek"
"111",152901,"Sunset Grill","Mississauga","ON","L5N 8P7",43.5968429,-79.785619,"1","Restaurants, American (Traditional), Canadian (New), Diners, Breakfast & Brunch"
"112",53170,"Waffle House","Mesa","AZ","85210",33.3883639,-111.8393694,"0","Restaurants, Fast Food, Diners"
"113",17103,"Punchy's Diner","Concord","NC","28027",35.4126371,-80.6124845,"1","American (Traditional), Diners, Burgers, Restaurants"
"114",51148,"Black Bear Diner","Glendale","AZ","85308",33.6382712161,-112.1905775885,"1","Breakfast & Brunch, American (New), Diners, Restaurants, Burgers, American (Traditional)"
"115",128366,"Frank & Shirley's","Pittsburgh","PA","15210",40.388677,-79.996666,"1","Breakfast & Brunch, Diners, Restaurants, American (Traditional)"
"116",35523,"The Alcove","Pittsburgh","PA","15220",40.4266685097,-80.040649866,"1","Breakfast & Brunch, American (Traditional), Restaurants, Food, Fast Food, Delis, Sandwiches, Diners"
"117",84605,"The Whippoorwill Restaurant & Tavern","Toronto","ON","M6H 1N7",43.6583044,-79.4425187,"0","Canadian (New), Bars, Breakfast & Brunch, Beer, Wine & Spirits, Cocktail Bars, Food, Restaurants, Diners, Nightlife"
"118",41231,"Barrett Dining Hall","Tempe","AZ","85281",33.4157681259,-111.9271702809,"1","Restaurants, Cafeteria, Diners"
"119",100584,"Times Square Diner","Toronto","ON","M3H 2M3",43.751077,-79.455614,"1","Diners, Restaurants"
"120",54953,"Mad City Diner","Madison","WI","53714",43.098801,-89.315714,"0","Restaurants, Diners"
"121",37951,"Montreal En Scene","Montréal","QC","H3B 4N4",45.4980258,-73.5702489,"1","Diners, Restaurants"
"122",106874,"Waffle House","Gastonia","NC","28054",35.2693129,-81.1465589,"1","Diners, Restaurants, Breakfast & Brunch, American (Traditional)"
"123",144372,"Denny's","Surprise","AZ","85374",33.638373266,-112.4134323746,"1","Diners, American (Traditional), Restaurants, Breakfast & Brunch"
"124",100447,"The Tipsy Cow","Stouffville","ON","L4A 1G8",43.9717258,-79.246062,"1","Bars, Nightlife, Diners, Breakfast & Brunch, Restaurants, Sports Bars"
"125",141742,"The Dor-Stop Restaurant","Pittsburgh","PA","15216",40.395941,-80.034821,"1","Breakfast & Brunch, Diners, Restaurants, American (Traditional)"
"126",59340,"Red 8","Las Vegas","NV","89109",36.1257833505,-115.1659683726,"1","Chinese, Diners, Asian Fusion, Buffets, Restaurants"
"127",103612,"Kelly O's Diner","Pittsburgh","PA","15237",40.5477169,-80.0355297,"1","Restaurants, Diners"
"128",4562,"Linda's On Osborn","Phoenix","AZ","85016",33.4872648,-112.0308423,"0","Restaurants, Diners"
"129",44424,"Irv's Sandwich Shop","Cleveland Heights","OH","44118",41.5008372,-81.5563232,"1","Breakfast & Brunch, Sandwiches, Diners, Restaurants"
"130",57986,"Hills Restaurant","New Eagle","PA","15067",40.2072173,-79.9407587,"1","American (Traditional), Breakfast & Brunch, Restaurants, Diners"
"131",16825,"Steak ’n Shake","Las Vegas","NV","89154",36.1062396414,-115.1388372979,"1","Burgers, Diners, American (Traditional), Restaurants"
"132",51925,"Famous Gyro George","Cleveland","OH","44103",41.504402,-81.6374058,"1","Restaurants, Greek, Diners, American (Traditional)"
"133",14885,"Steak ’n Shake","Pleasant Hills","PA","15236",40.3357415666,-79.9481347203,"1","Sandwiches, Restaurants, Burgers, Fast Food, American (New), Diners, Breakfast & Brunch, American (Traditional)"
"134",134984,"Yuki Ramen","Montréal","QC","H3H 1L7",45.493982,-73.5787514,"0","Chinese, Japanese, Restaurants, Ramen, Diners"
"135",55674,"Roosevelt  Diner","Phoenix","AZ","85006",33.458836,-112.0610158,"1","Diners, Burgers, Restaurants"
"136",74832,"Steak ’n Shake","Las Vegas","NV","89109",36.100506,-115.1677344,"1","Restaurants, Burgers, Diners, Breakfast & Brunch, American (Traditional)"
"137",133778,"Alexi's Family Restaurant","Phoenix","AZ","85023",33.6542830078,-112.1002353111,"1","Restaurants, Diners"
"138",24254,"Johnny Rockets","Glendale","AZ","85305",33.5351526877,-112.2609186172,"1","Restaurants, Sandwiches, American (Traditional), Fast Food, Burgers, Diners"
"139",36782,"Potluck Restaurant","Mississauga","ON","L5A 1V9",43.58125,-79.616055,"1","Restaurants, Caribbean, Diners, Vegetarian"
"140",15154,"L'Express","Saint-Basile-le-Grand","QC","J3N 1T8",45.5220222602,-73.3019911265,"1","Restaurants, Creperies, French, Breakfast & Brunch, Coffee & Tea, Cafes, Food, Diners"
"141",156753,"Fav Cafe and Bar","Markham","ON","L3R 6E1",43.8505814,-79.3577321,"1","Restaurants, Cafes, Nightlife, Bars, Cocktail Bars, Diners, Chinese, Asian Fusion"
"142",89647,"Sammy's Family Restaurant","Toronto","ON","M1J 1K2",43.7536849,-79.2441458,"1","Diners, American (Traditional), Restaurants, Canadian (New), Breakfast & Brunch"
"143",124587,"Denny's","Goodyear","AZ","85338",33.4598325,-112.3589148,"1","American (Traditional), Diners, Restaurants, Breakfast & Brunch"
"144",91044,"Ben & Florentine","Montréal","QC","H3B 4G8",45.5010652,-73.5708031,"1","Diners, Restaurants, Breakfast & Brunch"
"145",32974,"The Original Pancake House","Woodmere","OH","44122",41.4617603,-81.4766002,"1","Diners, Breakfast & Brunch, Restaurants"
"146",31266,"Sunset Grill","Toronto","ON","M5H 3W4",43.6513704,-79.379245,"1","Diners, Restaurants, Breakfast & Brunch, Canadian (New)"
"147",157705,"Essence","Calgary","AB","T2P 2S6",51.0498483,-114.0695447,"1","Diners, Restaurants"
"148",137766,"Canarys Family Restaurant","Cleveland","OH","44135",41.4338885,-81.7994308,"1","American (New), Diners, Salad, Restaurants"
"149",47209,"IHOP","Phoenix","AZ","85008",33.47524,-111.9866,"1","American (Traditional), American (New), Diners, Restaurants, Burgers, Breakfast & Brunch"
"150",59020,"Saturday Dinette","Toronto","ON","M4M 1Y6",43.6670659,-79.3452638,"0","Restaurants, Comfort Food, Diners, Local Flavor"
"151",59680,"Marie's Cafe","Medina","OH","44256",41.1393741,-81.8633777,"1","Coffee & Tea, Breakfast & Brunch, Restaurants, Mediterranean, Food, Diners, Sandwiches, Specialty Food, Middle Eastern, Ethnic Food"
"152",13083,"Hardee's","Willoughby","OH","44094",41.6421681849,-81.4235063706,"1","Food, Desserts, Diners, Restaurants, Burgers, American (Traditional), Breakfast & Brunch, Fast Food"
"153",76648,"Steak ’n Shake","Charlotte","NC","28273",35.1059198,-80.8815736,"1","Burgers, Restaurants, Fast Food, American (New), Breakfast & Brunch, American (Traditional), Steakhouses, Diners"
"154",164347,"The Cabin of Willowick","Willowick","OH","44095",41.6291087,-81.4836299,"1","Sushi Bars, Caterers, Party & Event Planning, Diners, American (Traditional), Event Planning & Services, Seafood, American (New), Restaurants, Steakhouses"
"155",75707,"Flaming Stove","Toronto","ON","M4S 1G3",43.6982822,-79.3958142,"1","Fast Food, Breakfast & Brunch, Restaurants, Middle Eastern, Diners, Mediterranean"
"156",92234,"Sunset Grill","King City","ON","L7B 0N1",43.9319396,-79.513571,"1","Breakfast & Brunch, Restaurants, Canadian (New), Diners"
"157",62008,"IHOP","Madison","WI","53705",43.07427,-89.43732,"1","Creperies, Restaurants, Diners, American (New), American (Traditional), Burgers, Breakfast & Brunch"
"158",177304,"Rockaberry","Dollard-Des-Ormeaux","QC","H9B 1Z8",45.484633,-73.796026,"1","Salad, Diners, Desserts, Sandwiches, Cafes, Bagels, Restaurants, Food"
"159",122872,"M Italian","Chagrin Falls","OH","44022",41.4323665,-81.3934887,"1","Diners, Pizza, Italian, Restaurants"
"160",143261,"The Kirtland Diner","kirtland","OH","44094",41.621002,-81.3585984,"0","Diners, Restaurants"
"161",186511,"Inn On Coventry","Cleveland","OH","44106",41.5083171,-81.5802997,"1","Breakfast & Brunch, Diners, Restaurants"
"162",98642,"Denny's","Las Vegas","NV","89109",36.1338910257,-115.1373113733,"1","American (Traditional), Breakfast & Brunch, Diners, Restaurants"
"163",174134,"Grandma B's","Pittsburgh","PA","15219",40.4486945,-79.9705415,"1","Halal, Restaurants, Breakfast & Brunch, Diners"
"164",59035,"Hubbard Avenue Diner","Middleton","WI","53562",43.0951779,-89.5106435,"1","American (New), Restaurants, Diners"
"165",36515,"Sunset Grill","Toronto","ON","M4G 4H9",43.7103001521,-79.363142252,"1","Breakfast & Brunch, Restaurants, Canadian (New), Diners"
"166",185093,"Village Grill","Kannapolis","NC","28081",35.497122,-80.625692,"1","Diners, Restaurants, Burgers"
"167",113626,"Pei Wei","Scottsdale","AZ","85262",33.7810052077,-111.9240188671,"1","Gluten-Free, Chinese, Diners, Fast Food, Asian Fusion, Restaurants"
"168",169711,"Denny's","Madison","WI","53719",43.0582431572,-89.5021364093,"1","Diners, Restaurants, Breakfast & Brunch, American (Traditional)"
"169",150028,"Denny's","Las Vegas","NV","89109",36.1209486,-115.1717738,"1","Restaurants, Breakfast & Brunch, Food, Diners, American (Traditional)"
"170",37046,"Mamma's Pizzeria","Montréal","QC","H2W",45.5142908,-73.5759106,"1","Restaurants, Italian, Diners, Fast Food, Burgers, Pizza"
"171",164512,"Bob's Diner","Carnegie","PA","15106",40.4098243713,-80.0853347778,"1","Breakfast & Brunch, Restaurants, Diners"
"172",98991,"Eat'n Park","Pittsburgh","PA","15205",40.4486141,-80.1621608,"1","Diners, American (New), American (Traditional), Breakfast & Brunch, Buffets, Restaurants"
"173",43677,"Hi-Ball Restaurant","Calgary","AB","T3B 0N3",51.0733526,-114.1646684,"1","Chinese, Diners, Restaurants, Buffets"
"174",1186,"South Side Grill","Whitby","ON","L1N 2M1",43.8796181,-78.9427477,"0","Burgers, Breakfast & Brunch, Diners, Restaurants"
"175",66330,"Roxy's Diner","Las Vegas","NV","89104",36.1473845,-115.1566778,"0","Restaurants, Breakfast & Brunch, Diners, Food, Desserts, Burgers"
"176",108075,"Denny's","Vaughan","ON","L4K 0H1",43.8341485291,-79.5209379494,"1","Diners, Breakfast & Brunch, Restaurants, American (Traditional)"
"177",65889,"Jim's Coney Island Cafe","Tempe","AZ","85281",33.4486664456,-111.926933522,"1","Breakfast & Brunch, Restaurants, Diners"
"178",82758,"Copper Top Restaurant","Madison","WI","53711",43.0454124232,-89.4739400204,"1","Breakfast & Brunch, American (New), American (Traditional), Diners, Restaurants"
"179",169229,"Avenue Open Kitchen","Toronto","ON","M5V 1V2",43.647128,-79.396451,"1","Restaurants, Delis, Sandwiches, Diners"
"180",44808,"Harry's Char Broil & Dining Lounge","Toronto","ON","M6K 1C2",43.6364773953,-79.4369736015,"1","Breakfast & Brunch, Restaurants, Nightlife, Diners, Burgers"
"181",125340,"Boston Diner","Clairton","PA","15025",40.3084862,-79.8886976,"0","Diners, Restaurants"
"182",180839,"5 & Diner","Peoria","AZ","85382",33.6376652,-112.2212757,"0","Restaurants, Diners"
"183",157774,"Restaurant Dic Ann's","Saint-Jérôme","QC","J7Y 2G4",45.7793419,-74.0150144,"1","Restaurants, Diners"
"184",147346,"Brown Derby Roadhouse","Akron","OH","44310",41.1140412,-81.4659925,"0","Restaurants, Barbeque, Steakhouses, Diners"
"185",61902,"Park Classic Diner","Monroeville","PA","15146",40.4377774,-79.7789097,"0","Diners, Restaurants"
"186",66857,"Denny's","Phoenix","AZ","85054",33.655680364,-111.9300815463,"1","Restaurants, Breakfast & Brunch, Diners, American (New), Burgers, American (Traditional)"
"187",190708,"Le Mont","Pittsburgh","PA","15211",40.4377888,-80.0178161,"1","Nightlife, Diners, Lounges, Bars, Restaurants, American (Traditional)"
"188",79222,"Gil's Taste of Taos","Phoenix","AZ","85022",33.6395204,-112.047311,"1","Tex-Mex, Restaurants, Diners, New Mexican Cuisine, Breakfast & Brunch, Mexican, Caterers, Event Planning & Services"
"189",160736,"Steak ’n Shake","Tempe","AZ","85281",33.4233846,-111.9398479,"1","Restaurants, Breakfast & Brunch, Ice Cream & Frozen Yogurt, American (New), Burgers, Steakhouses, Diners, Fast Food, Food, American (Traditional)"
"190",165533,"Hudson's Restaurant & Catering","Hudson","OH","44236",41.2410242,-81.4407043,"1","Restaurants, Breakfast & Brunch, American (New), Diners"
"191",88030,"Norm's Diner","Las Vegas","NV","89147",36.119189,-115.2797301,"1","Restaurants, American (New), Breakfast & Brunch, Diners"
"192",3585,"Mike and Ronda's The Place","Glendale","AZ","85308",33.6386733386,-112.1709837877,"1","Restaurants, Diners, American (Traditional), Breakfast & Brunch"
"193",7135,"Sunshine & Tailwinds Cafe","North Las Vegas","NV","89032",36.2092335,-115.1994297,"1","Restaurants, Breakfast & Brunch, Diners, American (Traditional)"
"194",175974,"The Diner at LVM Resort","Las Vegas","NV","89139",36.0408979678,-115.1996832713,"1","Breakfast & Brunch, Diners, Restaurants, American (Traditional)"
"195",34404,"Di's Kornerstone Diner","McKeesport","PA","15132",40.3236337,-79.8328324,"1","Restaurants, Diners"
"196",173893,"Humpty's Family Restaurant","Calgary","AB","T3E 7C4",51.0177079,-114.1619435,"1","Diners, Breakfast & Brunch, Canadian (New), Restaurants"
"197",54775,"Louis'grille","Harrisburg","NC","28075",35.3218349,-80.6600953,"1","Diners, Restaurants"
"198",55484,"Waffle House","Willoughby","OH","44094",41.6428846,-81.4296946,"1","Waffles, American (New), Restaurants, Diners, Breakfast & Brunch, American (Traditional)"
"199",132359,"Denny's","Las Vegas","NV","89183",36.0112566879,-115.1718320774,"1","American (Traditional), Breakfast & Brunch, Restaurants, Diners"
"200",53777,"Eat'n Park","Medina","OH","44256",41.1550332,-81.8633687,"1","American (New), Diners, American (Traditional), Breakfast & Brunch, Restaurants"
"201",119026,"Johnny Rockets","Las Vegas","NV","89102",36.1428688398,-115.1749767837,"0","Food, Sandwiches, Restaurants, Desserts, Diners, American (Traditional), Burgers"
"202",50525,"Blueberry Hill Family Restaurant","Las Vegas","NV","89121",36.1161975,-115.092388,"1","Restaurants, Diners, American (New), Breakfast & Brunch"
"203",91285,"Frozen Kups","Harrisburg","NC","28075",35.3216356,-80.6503289,"1","Diners, Restaurants, Desserts, Ice Cream & Frozen Yogurt, Food"
"204",30750,"Eat'n Park","New Kensington","PA","15068",40.556893,-79.75999,"1","Diners, Breakfast & Brunch, Restaurants, American (Traditional)"
"205",117493,"Little Lot Diner","Calgary","AB","T2R 1R7",51.0393349,-114.0812361,"0","Restaurants, Sandwiches, Diners, Burgers"
"206",151785,"The Normal","Tempe","AZ","85281",33.4142827,-111.9361832,"0","American (Traditional), Restaurants, Diners, Breakfast & Brunch"
"207",189854,"Wilensky","Montréal","QC","H2T 2M1",45.5233533,-73.5946987,"1","Food, Restaurants, Diners, Delis"
"208",37064,"Nellies Cosmic Cafe","Calgary","AB","T2T 0A7",51.0376787,-114.0845594,"1","Diners, Restaurants"
"209",66498,"Denny's","Calgary","AB","T2H 0L8",50.9894302988,-114.0724232192,"1","Breakfast & Brunch, Restaurants, American (Traditional), Diners"
"210",65942,"Sunset Grill","Vaughan","ON","L4K 5Y5",43.8285822781,-79.5409720012,"1","Breakfast & Brunch, Waffles, Diners, Restaurants, Canadian (New), Sandwiches"
"211",120810,"Mimi's Family Restaurant","Parma","OH","44134",41.360126,-81.68677,"0","Restaurants, American (Traditional), Diners"
"212",105439,"Totin's Diner","Wexford","PA","15090",40.6026018,-80.0500627,"1","Restaurants, Diners"
"213",145457,"IHOP","Phoenix","AZ","85023",33.6405188,-112.10084,"1","Diners, Restaurants, American (Traditional), Burgers, American (New), Breakfast & Brunch"
"214",91351,"Yours Truly Restaurants","Beachwood","OH","44122",41.4642157,-81.499996,"1","Bars, Breakfast & Brunch, Burgers, Nightlife, Restaurants, American (Traditional), Diners"
"215",46500,"Senior's Dining Nook","Toronto","ON","M4T 1Y4",43.687081,-79.3935286,"0","Restaurants, Diners, Steakhouses"
"216",80335,"Eat'n Park","Gibsonia","PA","15044",40.6126092,-79.9479972,"1","American (Traditional), Restaurants, Diners, Breakfast & Brunch"
"217",28600,"Thirsty Lion Gastropub & Grill","Scottsdale","AZ","85215",33.5033917707,-111.9270379984,"1","Nightlife, American (Traditional), Bars, Pubs, Beer, Wine & Spirits, Food, Diners, Gastropubs, Restaurants"
"218",18241,"Denny's","Monroeville","PA","15146",40.4380163046,-79.7723923624,"1","Restaurants, Breakfast & Brunch, Diners, American (Traditional)"
"219",30041,"Nickels","Montréal","QC","H3B 1B9",45.5023976,-73.5702289,"0","Restaurants, Diners"
"220",143557,"Muddy Duck Restaurant","Mississauga","ON","L4X 2V3",43.6258686076,-79.5653487,"1","Breakfast & Brunch, Diners, Buffets, Restaurants"
"221",99405,"Chase's Diner","Chandler","AZ","85224",33.3358703,-111.8596067,"1","Restaurants, Breakfast & Brunch, Diners"
"222",46575,"Congee Queen","Toronto","ON","M1T 3L4",43.7837517175,-79.2927074432,"1","Chinese, Diners, Restaurants"
"223",189565,"Phil's Restaurant","Calgary","AB","T2M 0M5",51.0670615,-114.1142547,"1","Diners, Food, Canadian (New), American (New), Restaurants, Coffee & Tea, Breakfast & Brunch"
"224",154698,"Red Mango","Tempe","AZ","85281",33.425711,-111.94047,"0","Ice Cream & Frozen Yogurt, Do-It-Yourself Food, Juice Bars & Smoothies, Restaurants, Diners, Food"
"225",150564,"Eat'n Park","Pittsburgh","PA","15237",40.544654,-80.016235,"1","Restaurants, Diners, Breakfast & Brunch, American (Traditional)"
"226",24333,"Wimpy's Diner","North York","ON","M2N 3A8",43.7638819,-79.3988516,"1","Restaurants, Diners"
"227",184697,"Taqueria El Cometa","Phoenix","AZ","85051",33.5519812,-112.1348276,"1","Breakfast & Brunch, Restaurants, Mexican, Diners"
"228",68222,"Shoeless Joe's","Toronto","ON","M5S 2T9",43.6654057,-79.4033777,"0","Chicken Wings, Restaurants, Bars, Shopping, Burgers, Lounges, Nightlife, Diners, Wigs, Food, Beer, Wine & Spirits, Sports Bars, American (Traditional)"
"229",94599,"Waffle House","Guadalupe","AZ","85283",33.3777627,-111.9664326,"1","Waffles, Breakfast & Brunch, Diners, Restaurants, American (Traditional)"
"230",169165,"DC Bar & Grill","Fountain Hills","AZ","85268",33.5821241,-111.716244,"1","Bars, Diners, Nightlife, Buffets, American (Traditional), Restaurants"
"231",85955,"Midway Oh-Boy Restaurant","Elyria","OH","44035",41.4049622507,-82.1335422567,"1","Diners, Restaurants, American (Traditional), Burgers, Sandwiches"
"232",104343,"T-Bird Lounge & Restaurant","Las Vegas","NV","89118",36.0566224,-115.2352757,"0","American (Traditional), Diners, Sports Bars, Restaurants, Bars, Nightlife"
"233",31420,"The Diner","Oakdale","PA","15071",40.3984122,-80.1862539,"1","Diners, Restaurants, Pizza, Food, Bakeries, Chinese, Breakfast & Brunch"
"234",163598,"Four Seasons Diner","Newbury","OH","44065",41.4633348,-81.2286056,"0","Diners, Breakfast & Brunch, Restaurants"
"235",75505,"Sunset Grill Restaurant","Toronto","ON","M4C 1H6",43.6836027,-79.3230886,"1","Breakfast & Brunch, Diners, Restaurants"
"236",93156,"Eat'n Park","Pittsburgh","PA","15238",40.4870315,-79.8917624,"1","American (Traditional), Breakfast & Brunch, American (New), Burgers, Diners, Restaurants"
"237",116534,"Tryon House Restaurant","Charlotte","NC","28217",35.1797347,-80.8806271,"1","Restaurants, Diners, Southern"
"238",141345,"MTO Café","Las Vegas","NV","89135",36.1509330727,-115.332768043,"1","Restaurants, Diners, American (New), Breakfast & Brunch"
"239",31718,"PoBoys Diner","Calgary","AB","T2H 0J3",51.0080839,-114.0690988,"0","Cajun/Creole, Restaurants, Diners"
"240",57145,"Rocking Horse Cafe","Balzac","AB","T0M",51.212985,-114.007862,"0","Breakfast & Brunch, Diners, Restaurants, Food, Cafes"
"241",137419,"Gingerman Restaurant","Toronto","ON","M4B 2K3",43.707776,-79.296167,"1","Diners, Canadian (New), Restaurants"
"242",110791,"Bass Lake Taverne Inn","Chardon","OH","44024",41.570459,-81.204205,"1","Bed & Breakfast, Hotels & Travel, Event Planning & Services, Diners, Restaurants, Hotels"
"243",146283,"Tryst Cafe","Phoenix","AZ","85050",33.677854,-111.978579,"1","Gluten-Free, Restaurants, American (New), Coffee & Tea, Breakfast & Brunch, Health Markets, Specialty Food, Diners, Food, Cafes, Beer, Wine & Spirits"
"244",103948,"Macey's Restaurant","Mississauga","ON","L5C 3X3",43.577291184,-79.6533525735,"1","Chinese, Imported Food, Restaurants, Specialty Food, Diners, Food, Ethnic Food"
"245",157346,"Hazel's Diner","Toronto","ON","M6C 3Z9",43.7004911226,-79.4283625111,"0","Breakfast & Brunch, Diners, Restaurants"
"246",70008,"The Fine Diner-In Inglewood","Calgary","AB","T2G 0T4",51.0398416,-114.0303554,"1","Restaurants, Diners"
"247",175780,"Sunset Grill","Nobleton","ON","L0G 1N0",43.9079343,-79.6526462,"1","Sandwiches, Breakfast & Brunch, Diners, Restaurants, Bagels, Food, Canadian (New)"
"248",51113,"Peters Place","Bridgeville","PA","15017",40.3708025,-80.1013377,"0","Food, Seafood, Diners, Desserts, Restaurants"
"249",86467,"Queen Creek Olive Mill Trattoria","Phoenix","AZ","85016",33.5104258,-112.0284918,"0","Mediterranean, Bars, Diners, Wine Bars, Sandwiches, Restaurants, Nightlife"
"250",114400,"Copper Plate","Phoenix","AZ","85034",33.434145289,-112.013951276,"1","American (Traditional), Restaurants, Diners"
"251",19394,"Sunset Grill","Toronto","ON","M5V 3G7",43.6453032,-79.3882029,"1","Breakfast & Brunch, Canadian (New), Restaurants, Diners"
"252",104917,"Cold Beers & Cheeseburgers - Old Town","Scottsdale","AZ","85251",33.4975546,-111.9264977,"1","Food, Bars, Fast Food, Sports Bars, Restaurants, American (Traditional), Diners, Beer, Wine & Spirits, Nightlife, Burgers"
"253",110898,"Cindy's Arizona Cafe","Mesa","AZ","85201",33.452261,-111.82834,"1","American (Traditional), Diners, Restaurants"
"254",107872,"583 Bistro","Bay Village","OH","44140",41.47915,-81.92073,"0","Food, Bars, Nightlife, Cocktail Bars, Sandwiches, Desserts, American (New), Soup, Beer, Wine & Spirits, Diners, Restaurants"
"255",44647,"Binion's Cafe","Las Vegas","NV","89101",36.1716327,-115.1442634,"1","Arts & Entertainment, Casinos, Restaurants, Cafes, Diners, Chinese, Steakhouses, Food"
"256",29815,"Queen City Diner","Charlotte","NC","28202",35.2286231,-80.8423596,"0","Diners, Breakfast & Brunch, Restaurants"
"257",8927,"Southern Rail","Phoenix","AZ","85013",33.509547,-112.078698,"1","Restaurants, Cajun/Creole, American (Traditional), Breakfast & Brunch, Diners, American (New), Southern"
"258",164632,"Mikey's Family Restaurant","Mesa","AZ","85207",33.4147447,-111.6288033,"1","American (Traditional), Breakfast & Brunch, Diners, Cafes, Restaurants"
"259",178357,"Kings Family Restaurant","Oakdale","PA","15071",40.4400534,-80.239459,"0","Breakfast & Brunch, Diners, Restaurants, American (Traditional)"
"260",124142,"Julep","Madison","WI","53703",43.0810216648,-89.3740063545,"0","Nightlife, Bars, Diners, Restaurants, Southern"
"261",71598,"Country Cafe","Sun Prairie","WI","53590",43.1870125,-89.2309346,"1","American (Traditional), Restaurants, Diners, Breakfast & Brunch"
"262",132761,"Dangerous Dan's Diner","Toronto","ON","M4M 1H2",43.6589865733,-79.349707339,"0","Diners, Sandwiches, Restaurants, Burgers"
"263",40217,"Dianna's Deli & Restaurant","Lakewood","OH","44107",41.4855668,-81.7692108,"1","Delis, Diners, Restaurants, Breakfast & Brunch"
"264",61533,"Denny's","Akron","OH","44310",41.1165588232,-81.4846301079,"1","American (Traditional), Breakfast & Brunch, Restaurants, Diners"
"265",45739,"Alvie's Gateway Grill","Cleveland","OH","44115",41.4987462,-81.6923436,"0","Restaurants, Diners"
"266",2927,"Wimpy's Diner","Mississauga","ON","L5J 1K5",43.5064432,-79.6354266,"1","Restaurants, Breakfast & Brunch, Burgers, Diners"
"267",37507,"Golden Gate Chinese Restaurant","Henderson","NV","89014",36.056917,-115.056549,"0","Restaurants, Diners, Chinese"
"268",154159,"The Still","Las Vegas","NV","89109",36.1214083475,-115.1749698954,"1","Restaurants, Sports Bars, Nightlife, American (Traditional), Bars, Diners"
"269",120877,"Fresh Start Diner","Chagrin Falls","OH","44022",41.43044,-81.390974,"0","American (Traditional), Diners, Restaurants"
"270",108507,"Gizmos Grille","Litchfield","OH","44253",41.1678086,-81.9938227,"0","Restaurants, Burgers, Active Life, Ice Cream & Frozen Yogurt, Food, Diners, Mini Golf"
"271",189118,"Zesto Resto Bar & Grill","Montréal","QC","H3B 1B9",45.5027272,-73.5700736,"0","Diners, Restaurants, Nightlife, Bars, Breakfast & Brunch, Sandwiches, Food, Sports Bars, Pizza, Desserts"
"272",136248,"Old Glory Cafe","Mesa","AZ","85202",33.394484,-111.861487,"0","American (Traditional), Diners, Coffee & Tea, Restaurants, Food, Breakfast & Brunch"
"273",21184,"Denny's","Las Vegas","NV","89122",36.1061298135,-115.0577919951,"1","Diners, American (Traditional), Breakfast & Brunch, Restaurants"
"274",160342,"Pyrus Bistronomique","Montréal","QC","H2J 1H8",45.5344041,-73.5829548,"0","Gastropubs, Food, Restaurants, American (Traditional), Breakfast & Brunch, Diners, Desserts, Tapas Bars"
"275",109097,"Omega Coney Island","Indian Trail","NC","28079",35.0739843,-80.6840979,"1","Diners, Hot Dogs, Breakfast & Brunch, Restaurants, Indian"
"276",152449,"Bobbie's Cafe of Sun City","Sun City","AZ","85351",33.623873,-112.270154,"1","Breakfast & Brunch, Restaurants, Diners"
"277",106638,"Johnny K Restaurant","Fort Mill","SC","29715",35.0088385688,-80.9140491486,"0","Restaurants, Diners"
"278",20274,"Kristina's Restaurant","Cleveland","OH","44102",41.4672917964,-81.7523674319,"1","Sandwiches, Diners, American (Traditional), Restaurants, Burgers"
"279",191871,"Via Brasil Steakhouse on South Fort Apache and Charleston","Las Vegas","NV","89117",36.1568983622,-115.2919117492,"1","Diners, Desserts, Steakhouses, Food, Restaurants, Seafood, Buffets, Beer, Wine & Spirits, Brazilian, Portuguese"
"280",178000,"Sojourn Catering & Deli","Pittsburgh","PA","15205",40.4274598,-80.0554604,"0","Diners, Restaurants, Delis"
"281",40716,"Leslieville Diner","Toronto","ON","M4M 1L4",43.6630483,-79.3316886,"0","Breakfast & Brunch, Restaurants, Diners"
"282",109772,"Denny's","Phoenix","AZ","85073",33.5090676,-112.047098,"0","Diners, American (Traditional), Restaurants"
"283",87213,"Milky Lane","Richmond Hill","ON","L4C 0M5",43.8639399879,-79.4354499131,"0","South African, African, Diners, Sandwiches, Restaurants, Desserts, Food, Coffee & Tea, Ice Cream & Frozen Yogurt, Comfort Food"
"284",162272,"Denny's","Tempe","AZ","85282",33.3847097769,-111.9260132965,"1","Restaurants, American (Traditional), Diners, Breakfast & Brunch"
"285",163255,"Sunset Grill","Bradford","ON","L3Z 0C1",44.1083182,-79.5930338,"1","Restaurants, Diners, Breakfast & Brunch, Canadian (New)"
"286",156816,"Outback Steakhouse","Akron","OH","44321",41.1340462,-81.654649,"1","Nightlife, Restaurants, Steakhouses, Bars, Diners"
"287",158251,"Oak's Diner & Flapjacks","Cave Creek","AZ","85331",33.831612,-111.946801,"1","Diners, Breakfast & Brunch, Restaurants"
"288",123818,"P.J.'s Luncheonette","Cleveland","OH","44115",41.4991795,-81.689137,"0","Coffee & Tea, Breakfast & Brunch, Restaurants, Food, Diners"
"289",66550,"Getaway Restaurant","Ajax","ON","L1Z 2E6",43.8703445,-79.0006064,"1","Restaurants, Diners"
"290",191772,"Silver Spartan Diner","Cleveland","OH","44106",41.5120552,-81.6058342,"0","Restaurants, Diners, Food"
"291",5233,"Bobby D's Restaurant & Lounge","Phoenix","AZ","85020",33.5825187,-112.0515606,"1","Breakfast & Brunch, Sports Bars, Restaurants, Diners, Nightlife, Lounges, Bars"
"292",44735,"Angela's Family Restaurant","Cleveland","OH","44103",41.5283291,-81.6391318,"1","Restaurants, Barbeque, Italian, Breakfast & Brunch, Desserts, Diners, Food, American (New)"
"293",15247,"A Plus Buffet Sushi Bar","Calgary","AB","T2H 0L3",50.9932729182,-114.0709654614,"1","Buffets, Sushi Bars, Restaurants, Diners, Japanese, Asian Fusion"
"294",28032,"Denny's","Toronto","ON","M5G 1C4",43.6553706487,-79.384432286,"1","American (Traditional), Breakfast & Brunch, Cafes, Diners, Restaurants"
"295",192332,"Scratch Kitchen","Toronto","ON","M4N 2N3",43.7342035238,-79.4043532473,"0","Diners, Canadian (New), Restaurants, Breakfast & Brunch"
"296",105093,"Otago","Montréal","QC","H4P 2H2",45.4963564,-73.6556237,"1","International, Cafes, Restaurants, Diners, Mediterranean, Pizza, Salad, Caterers, Thai, Event Planning & Services, Seafood"
"297",123496,"Four Seasons Diner","Las Vegas","NV","89102",36.1253969,-115.1964719,"0","Diners, Desserts, Chinese, Shaved Ice, Food, Restaurants"
"298",68183,"Bloor-Jane","Toronto","ON","M6S 1P9",43.6495398,-79.4841695,"1","Restaurants, Breakfast & Brunch, Coffee & Tea, Diners, Food"
"299",151592,"Burger Joint","Goodyear","AZ","85338",33.4522278452,-112.3916702472,"0","Breakfast & Brunch, Restaurants, Diners, Burgers, American (Traditional)"
"300",36568,"Cafe 24/7","Chandler","AZ","85226",33.2907071,-111.9456801,"1","Diners, Restaurants"
"301",171305,"Juji's Cafe","Cleveland","OH","44115",41.5009874,-81.6849228,"0","Middle Eastern, Breakfast & Brunch, Restaurants, Cafes, Diners, Delis, Mediterranean"
"302",90087,"Mel's Diner","Boulder City","NV","89005",35.9770536,-114.8382915,"0","Restaurants, Diners"
"303",154401,"Cucina Vitale","Pittsburgh","PA","15203",40.4274367,-79.9691357,"1","Italian, Diners, Food, Breakfast & Brunch, Buffets, Restaurants"
"304",185707,"Denny's","Phoenix","AZ","85014",33.5094973533,-112.0652896818,"1","Breakfast & Brunch, Restaurants, Diners, Gay Bars, Nightlife, Bars, American (Traditional)"
"305",75635,"John's Diner","Lakewood","OH","44107",41.4832464,-81.8257066,"1","American (Traditional), Diners, Restaurants, Breakfast & Brunch"
"306",98401,"Victoria Restaurant","Toronto","ON","M5C 2M6",43.6527942,-79.3774802,"0","Diners, Restaurants, Breakfast & Brunch"
"307",190734,"Mr. Lucky's 24-7","Las Vegas","NV","89169",36.1091,-115.154526,"1","American (New), Steakhouses, Diners, Restaurants, American (Traditional)"
"308",116598,"Galaxy Restaurant","Richmond Hill","ON","L4C 3C7",43.883814,-79.4417496,"0","Restaurants, Diners"
"309",97424,"Denny's","Whitby","ON","L1N 9S2",43.869999,-78.911725,"1","Restaurants, Breakfast & Brunch, Diners, American (Traditional)"
"310",65935,"Simply Delicious","Markham","ON","L3R 4S1",43.83379,-79.3550921,"1","Pakistani, Indian, Halal, Restaurants, Diners"
"311",156809,"Teds Restaurant","Scarborough","ON","M1C 1B6",43.7845234,-79.1692775,"1","Diners, Restaurants"
"312",37887,"Tom's Restaurant","Markham","ON","L3R 1H3",43.8247141,-79.3368225,"1","Diners, Indian, Breakfast & Brunch, Restaurants, Sandwiches"
"313",25664,"Phil's Restaurants","Calgary","AB","T3C 1C9",51.038632,-114.094402,"0","Restaurants, Breakfast & Brunch, Coffee & Tea, Food, Diners"
"314",111612,"Mel's Diner","Phoenix","AZ","85007",33.4633663,-112.0975957,"1","Restaurants, Coffee & Tea, Diners, American (Traditional), Food"
"315",124030,"Bill's Coffee Shop","Cleveland","OH","44121",41.5204615,-81.5381204,"1","Diners, Coffee & Tea, Food, Restaurants"
"316",64683,"Denny's","Phoenix","AZ","85009",33.4797521363,-112.1121995151,"1","Diners, American (Traditional), Restaurants, Breakfast & Brunch"
"317",141576,"Johnny's Diner","Pittsburgh","PA","15220",40.433881,-80.031424,"1","Diners, Restaurants"
"318",121967,"Heaven's Grill","Toronto","ON","M3H 1S9",43.736015,-79.4423156,"1","Diners, Restaurants"
"319",177491,"Luna's Deli & Restaurant","Northfield","OH","44067",41.314492,-81.540177,"1","Breakfast & Brunch, Diners, Restaurants"
"320",43549,"Mike & Dee's Diner","Cleveland","OH","44114",41.5001855,-81.688767,"1","Breakfast & Brunch, Caterers, Event Planning & Services, Diners, Restaurants"
"321",154896,"Denny's","Champaign","IL","61822",40.1432615061,-88.2547938824,"1","Diners, Breakfast & Brunch, Restaurants, American (Traditional), Comfort Food"
"322",87309,"Steak ’n Shake","Munhall","PA","15120",40.4134446,-79.9044468,"1","American (New), Fast Food, Burgers, American (Traditional), Restaurants, Steakhouses, Diners, Breakfast & Brunch"
"323",132181,"Metro Diner","Las Vegas","NV","89113",36.055487,-115.243422,"1","Restaurants, Diners, Breakfast & Brunch, American (Traditional)"
"324",146463,"Steak Supreme","Toronto","ON","M1W 2P3",43.810455,-79.338234,"1","Nightlife, Steakhouses, Restaurants, Bars, Diners"
"325",150305,"Angie's Diner","Charlotte","NC","28216",35.2843274,-80.8574763,"1","Restaurants, Diners"
"326",39375,"Steak ’n Shake","Champaign","IL","61820",40.0949728803,-88.245852,"1","American (New), Fast Food, Burgers, Restaurants, Food, Juice Bars & Smoothies, Diners, Breakfast & Brunch, American (Traditional)"
"327",118874,"Bite Me Grill","Toronto","ON","M4J 1L5",43.679502,-79.3429197,"0","Diners, Restaurants, Breakfast & Brunch, Poutineries"
"328",11760,"Bob's Express & Catering","McKees Rocks","PA","15136",40.4738569,-80.0967695,"1","Donuts, Restaurants, Sandwiches, Food, Coffee & Tea, Diners, Breakfast & Brunch"
"329",170808,"Rachel's Kitchen","Las Vegas","NV","89131",36.1699021,-115.1395318,"1","Breakfast & Brunch, Juice Bars & Smoothies, Restaurants, Food, Diners, American (New), Sandwiches"
"330",140617,"Eat'n Park","Tarentum","PA","15084",40.569987,-79.8036939,"1","Breakfast & Brunch, Buffets, American (Traditional), Diners, Restaurants"
"331",117536,"Farmer Boys","Las Vegas","NV","89149",36.2710057,-115.2643925,"1","Sandwiches, Mexican, Breakfast & Brunch, Salad, Burgers, Restaurants, Diners, American (Traditional)"
"332",150936,"Deluca's Diner","Pittsburgh","PA","15222",40.4515431,-79.9837258,"1","Breakfast & Brunch, Diners, American (Traditional), Restaurants"
"333",36676,"Denny's","Calgary","AB","T3G 4M4",51.1262270191,-114.2073304651,"1","American (Traditional), Diners, Restaurants, Breakfast & Brunch"
"334",76104,"Steve's Hot Dogs Diner","Cleveland","OH","44144",41.4303616,-81.7332512,"1","Hot Dogs, American (Traditional), Restaurants, Breakfast & Brunch, Diners"
"335",187797,"The Draft House","Toronto","ON","M4Y 2A6",43.6673978,-79.3857345,"1","Breakfast & Brunch, Nightlife, Diners, Sports Bars, Restaurants, Bars"
"336",134103,"Twisted Grove Parlor + Bar","Scottsdale","AZ","85258",33.555796,-111.898942,"1","American (New), Diners, Gastropubs, Bars, Nightlife, Seafood, Restaurants, Cocktail Bars"
"337",155456,"Freedom Family Restaurant","Charlotte","NC","28208",35.2435973,-80.8961522,"0","Diners, American (Traditional), Restaurants"
"338",129266,"Sunset Grill","Mississauga","ON","L4X 1L4",43.6121357,-79.5806687,"1","Canadian (New), Restaurants, Breakfast & Brunch, Diners"
"339",169833,"Rise and Dine Cafe","Chesterland","OH","44026",41.521437,-81.337442,"1","Diners, Comfort Food, Restaurants, American (Traditional)"
"340",148190,"Chew Chew's Diner","Toronto","ON","M5A 2K6",43.6634891,-79.3722871,"1","Restaurants, Coffee & Tea, Food, Diners, Breakfast & Brunch"
"341",53437,"Good Bite Restaurant","Toronto","ON","M4P 2H6",43.711474,-79.3990418,"1","Restaurants, Diners, Breakfast & Brunch"
"342",32899,"Angel's Drive In","Calgary","AB","T3B",51.094686,-114.211233,"1","Restaurants, Diners, Fast Food"
"343",126660,"Le Club Sandwich","Montréal","QC","H2L 2J2",45.4949938,-73.5778858,"0","Restaurants, American (Traditional), Diners, Sandwiches, Burgers"
"344",62489,"Denny's","Streetsboro","OH","44241",41.2424893,-81.3545475,"1","Breakfast & Brunch, American (Traditional), Diners, Fast Food, Restaurants"
"345",37593,"Black Bear Diner","Las Vegas","NV","89103",36.1002814148,-115.2274582601,"1","Breakfast & Brunch, Restaurants, American (Traditional), Burgers, American (New), Filipino, Diners"
"346",134163,"Nick's Diner","Cleveland","OH","44113",41.4803368,-81.7139608,"1","American (Traditional), Breakfast & Brunch, Restaurants, Diners"
"347",140914,"Phil's Restaurants","Calgary","AB","T2V 2H6",50.9938402764,-114.0821293154,"1","Breakfast & Brunch, Diners, Food, Coffee & Tea, Restaurants"
"348",139098,"Cilantros Taco Grill","North Las Vegas","NV","89030",36.2204319,-115.1246758,"0","Restaurants, Diners, Mexican, Breakfast & Brunch"
"349",8843,"SNS Diner","North Las Vegas","NV","89030",36.22162,-115.126378,"1","Restaurants, Barbeque, Diners"
"350",96190,"Three Star Restaurant","Lorain","OH","44055",41.4452741,-82.1363002,"1","Restaurants, Diners"
"351",132813,"Smitty's Canada","Calgary","AB","T2J 0P7",50.9668045225,-114.0699538727,"1","Restaurants, Diners"
"352",116235,"Genie G's","Phoenix","AZ","85033",33.4942496,-112.2177705,"1","American (New), Breakfast & Brunch, Diners, Restaurants"
"353",141205,"Ôzeu & O'Boeuf","Montréal","QC","H4C 1R7",45.475563,-73.5864877,"0","Burgers, Diners, Restaurants, Breakfast & Brunch"
"354",10562,"Rose and Sons","Toronto","ON","M6G 3G8",43.675786,-79.403665,"1","Mediterranean, Coffee & Tea, Food, Comfort Food, Restaurants, Diners, Canadian (New), Barbeque, Breakfast & Brunch"
"355",61909,"Nicky's Grant Street","Pittsburgh","PA","15219",40.4374849695,-79.9975840301,"1","American (Traditional), Diners, Restaurants, Breakfast & Brunch"
"356",48137,"Aggie's Ice Cream & Grill","Charlotte","NC","28227",35.2214986,-80.723499,"1","Diners, Restaurants"
"357",39870,"Steak ’n Shake","Charlotte","NC","28270",35.1409202514,-80.7329818,"1","Burgers, Restaurants, American (New), Fast Food, Breakfast & Brunch, Diners, American (Traditional)"
"358",127194,"Eat'n Park","Monroeville","PA","15146",40.4363721,-79.7725423,"1","Breakfast & Brunch, American (Traditional), Diners, Buffets, Restaurants, Salad, Burgers"
"359",58919,"Denny's","North Las Vegas","NV","89030",36.2182843694,-115.1260221004,"1","Restaurants, Diners, American (Traditional), Breakfast & Brunch"
"360",106551,"Shaya Cuisine","Calgary","AB","T2H 0R4",50.9974691,-114.0614912,"0","Buffets, Restaurants, Event Planning & Services, Caterers, Diners"
"361",186048,"Steel City Diner","Pittsburgh","PA","15289",40.4437364,-79.9958916,"0","Fast Food, Restaurants, Diners"
"362",99963,"Melrose Kitchen","Phoenix","AZ","85013",33.49875,-112.0835841,"1","Food, Breakfast & Brunch, Burgers, American (Traditional), Seafood, Restaurants, Diners, American (New)"
"363",59634,"Goen Yakiniku","Richmond Hill","ON","L4B 3P7",43.8415653484,-79.3993877428,"1","Diners, Steakhouses, Japanese, Barbeque, Noodles, Restaurants"
"364",146114,"Farmer Boys","Las Vegas","NV","89030",36.202835,-115.1198268,"1","Mexican, Sandwiches, Restaurants, American (Traditional), Diners, Fast Food, Burgers, Food, Salad, Breakfast & Brunch"
"365",38251,"West Side Market Cafe","Cleveland","OH","44113",41.484647,-81.702746,"1","Food, Diners, Restaurants, Breakfast & Brunch, Juice Bars & Smoothies"
"366",57954,"Randy's Restaurant & Ice Cream","Scottsdale","AZ","85250",33.5098916,-111.9115407,"1","Breakfast & Brunch, Restaurants, American (New), Diners"
"367",97555,"Melanie Pringle's Restaurants","Whitby","ON","L1N 7T2",43.8838701,-78.9124381,"1","Restaurants, Diners"
"368",161302,"Denny's","Las Vegas","NV","89128",36.1956311925,-115.2524222747,"1","Restaurants, Breakfast & Brunch, American (Traditional), Diners"
"369",63313,"Pat O'Malley's Jet Room","Madison","WI","53704",43.139993,-89.3265285,"1","American (Traditional), Diners, Restaurants, Breakfast & Brunch"
"370",97802,"Somer's Restaurant","Cleveland","OH","44135",41.4402655,-81.8002948,"1","Diners, American (Traditional), Restaurants"
"371",184560,"Sweet T's Diner","Charlotte","NC","28277",35.05362,-80.8127418,"0","Diners, Restaurants"
"372",175760,"Fast Eddie's Diner","Phoenix","AZ","85051",33.5388426,-112.1326376,"0","Food, American (Traditional), Restaurants, Desserts, Diners, Burgers"
"373",108379,"Johnny Rockets","Las Vegas","NV","89109",36.1050207,-115.1735947,"0","Burgers, Diners, Restaurants"
"374",70962,"Rocky's","Pittsburgh","PA","15224",40.4612963,-79.9481126,"1","Sandwiches, Italian, Food, Mexican, Breakfast & Brunch, Restaurants, Diners"
"375",121136,"Garfield Kitchen","Garfield Heights","OH","44125",41.425735,-81.613844,"1","American (Traditional), Restaurants, Diners"
"376",105613,"Country Cafe","Las Vegas","NV","89115",36.1908787,-115.0626261,"0","Restaurants, American (Traditional), Diners"
"377",107851,"Coco Gallo","Montréal","QC","H2S 1N4",45.5395088,-73.6045049,"1","Diners, Restaurants, Breakfast & Brunch"
"378",102398,"Diamond Restaurant","Charlotte","NC","28205",35.2190722,-80.813253,"1","Diners, American (New), Restaurants, Southern"
"379",94919,"The Gabardine","Toronto","ON","M5H 2W9",43.6509626,-79.3814224,"1","Restaurants, American (New), Food, Desserts, Canadian (New), Breakfast & Brunch, Diners"
"380",106797,"Pitstop Grill","Clover","SC","29710",35.0967283,-81.0952334,"1","Restaurants, Diners, American (Traditional)"
"381",137316,"Carolina Family Restaurant","Charlotte","NC","28208",35.228539,-80.9145953,"1","Breakfast & Brunch, Diners, American (Traditional), Restaurants"
"382",78021,"Breakwater Fine Dining","Mississauga","ON","L5G 2T2",43.551327,-79.5842644,"1","Diners, American (Traditional), Restaurants"
"383",178217,"Thompson Diner","Toronto","ON","M5V 2P3",43.6429141584,-79.4020456979,"1","Canadian (New), American (New), Breakfast & Brunch, Restaurants, American (Traditional), Diners"
"384",165223,"Pita Ikram","Toronto","ON","M3J 3J4",43.7676542,-79.4749394,"1","Mediterranean, Middle Eastern, Diners, Falafel, Restaurants, Halal"
"385",25830,"Franco's Italian Caffe","Scottsdale","AZ","85251",33.499275,-111.9259214,"1","Bars, Diners, Restaurants, Italian, Wine Bars, Nightlife"
"386",78652,"Plowshare Artisan Diner","Calgary","AB","T2P",51.0448433526,-114.0658217345,"1","Diners, Breakfast & Brunch, Canadian (New), Restaurants"
"387",90642,"Shop-n-Go Deli","Pittsburgh","PA","15207",40.3627166,-79.9075972,"1","Delis, Convenience Stores, Breakfast & Brunch, Restaurants, Food, Diners, Pizza, Burgers"
"388",134378,"The Grille Restaurant & Bar","Etobicoke","ON","M8Z 1V1",43.6177085,-79.5428851,"1","Nightlife, American (Traditional), Greek, Bars, Diners, Barbeque, Breakfast & Brunch, Restaurants"
"389",70870,"Kelly O's Diner","Pittsburgh","PA","15222",40.4540188,-79.9812264,"1","Breakfast & Brunch, Restaurants, Diners, American (Traditional)"
"390",35842,"Sunset Grill","Richmond Hill","ON","L4E 0K4",43.9126689,-79.4473928,"1","Breakfast & Brunch, Diners, Restaurants, Canadian (New)"
"391",184384,"Bob's Diner","Pittsburgh","PA","15241",40.3628902,-80.0833415,"1","Diners, Restaurants"
"392",104752,"Bragg's Factory Diner","Phoenix","AZ","85007",33.4572256,-112.0898341,"0","Diners, Vegetarian, Restaurants, Vegan"
"393",119509,"IHOP","Champaign","IL","61820",40.1105469,-88.234234,"0","Breakfast & Brunch, Diners, Restaurants"
"394",74348,"Ricky's All Day Grill","Calgary","AB","T2Y 3H9",50.9013055,-114.0656278,"1","Diners, Canadian (New), Restaurants"
"395",61541,"Johnny Rockets","Scottsdale","AZ","85251",33.504041,-111.929613,"1","Diners, Sandwiches, American (Traditional), Fast Food, Burgers, Restaurants"
"396",54917,"Bolands Kitchen","Toronto","ON","M4S 2M6",43.7034604,-79.3879812,"1","Diners, Restaurants, Seafood, Canadian (New), American (Traditional)"
"397",99693,"Omelet House","Henderson","NV","89015",36.0427355,-114.9846324,"1","American (New), American (Traditional), Soup, Diners, Breakfast & Brunch, Restaurants, Burgers"
"398",168017,"Restaurant Nic-Pic","Saint-Jean-Sur-Richelieu","QC","J3B 5H9",45.3040228529,-73.2667620275,"1","French, Diners, Restaurants, Canadian (New)"
"399",181442,"Chev & Rachel's Family Diner","Emsworth","PA","15202",40.5131271,-80.0988166,"1","American (Traditional), Diners, Restaurants, Burgers"
"400",148840,"Eat'n Park","McKees Rocks","PA","15136",40.464081513,-80.0579039285,"1","Restaurants, American (Traditional), Breakfast & Brunch, Diners"
"401",135035,"Folino's Ristorante","Pittsburgh","PA","15203",40.4288777,-79.9813066,"0","Restaurants, Breakfast & Brunch, Diners"
"402",174562,"Addy's Restaurant","Cleveland","OH","44113",41.5009585,-81.6955688,"0","Restaurants, Diners"
"403",66067,"Denny's","Tempe","AZ","85283",33.3787585373,-111.9689735046,"1","Restaurants, American (Traditional), Diners, Breakfast & Brunch"
"404",76632,"Sun Devil Dining","Tempe","AZ","85281",33.414651,-111.9327918,"1","Food, Breakfast & Brunch, Diners, Restaurants"
"405",124850,"Pamela's","Pittsburgh","PA","15209",40.4813695,-79.9741854,"1","Breakfast & Brunch, Restaurants, Diners"
"406",138098,"Sadie's Diner & Juice Bar","Toronto","ON","M5V 1T5",43.6457876,-79.4007876,"0","Restaurants, Food, Diners, Vegetarian, Juice Bars & Smoothies, Breakfast & Brunch"
"407",25444,"Niko's Bar & Gyros","North Royalton","OH","44133",41.315156,-81.783512,"1","Nightlife, Restaurants, Sports Bars, Bars, Burgers, Diners, Greek, Sandwiches"
"408",144150,"Welcome Diner","Phoenix","AZ","85006",33.455532,-112.060713,"1","Burgers, Soul Food, Restaurants, American (Traditional), Bars, Diners, Nightlife"
"409",2837,"Thee Olde Place Inn","Pittsburgh","PA","15236",40.3517822,-79.9612748,"1","Restaurants, Diners, American (New)"
"410",20436,"Denny's","Tempe","AZ","85282",33.4070950406,-111.9597762823,"1","Breakfast & Brunch, American (Traditional), Diners, Restaurants"
"411",179548,"Marketplace Cafe","Pittsburgh","PA","15237",40.544161,-80.008601,"1","Cafes, American (Traditional), Sandwiches, Restaurants, Diners, American (New)"
"412",116419,"Ma & Pops Country Kitchen","Bethel Park","PA","15102",40.3283119202,-80.0378723145,"1","American (Traditional), Breakfast & Brunch, Restaurants, Diners"
"413",8448,"Wimpys Diner","Toronto","ON","M4K 1P1",43.6777003,-79.3505865,"0","Diners, Restaurants"
"414",84394,"Village Inn","Scottsdale","AZ","85251",33.4950888,-111.9313566,"0","Bakeries, American (Traditional), Food, Desserts, Restaurants, Diners"
"415",149670,"Silver State Diner","Las Vegas","NV","89121",36.100694,-115.100246,"1","Burgers, Restaurants, Diners"
"416",169691,"Ivan's Catering & Diner","Fairlawn","OH","44333",41.1275991,-81.6079113,"0","Diners, Caterers, Wedding Planning, Delis, Venues & Event Spaces, Restaurants, Party & Event Planning, Event Planning & Services"
"417",12939,"Cosmo's","Montréal","QC","H4A 1X4",45.4696099,-73.618324,"1","Bars, Restaurants, Nightlife, Diners, Breakfast & Brunch, Sandwiches"
"418",117863,"Denny's","Calgary","AB","T2E 4Y3",51.067934,-114.012796,"1","Breakfast & Brunch, Restaurants, American (Traditional), Diners"
"419",176782,"Crouse's Family Diner","Lower Burrell","PA","15068",40.5910643591,-79.7363891294,"0","Local Flavor, American (Traditional), Restaurants, Diners"
"420",80677,"Urbana Garden Family Restaurant","Urbana","IL","61801",40.1329664,-88.2188183,"1","American (Traditional), Sandwiches, Diners, Restaurants, Breakfast & Brunch"
"421",132292,"United Bakers Dairy Restaurant","Toronto","ON","M6A 1A1",43.720281625,-79.4311096177,"1","Delis, Diners, Kosher, Restaurants"
"422",144992,"Bob Evans","Willoughby","OH","44094",41.6055782,-81.4403803647,"1","Breakfast & Brunch, Hotels & Travel, Salad, Restaurants, American (Traditional), Comfort Food, Bed & Breakfast, Diners"
"423",86937,"Waffle House","Charlotte","NC","28217",35.3411144,-80.8354295,"1","American (Traditional), Restaurants, Breakfast & Brunch, Diners"
"424",869,"Friendly's","Parma Heights","OH","44130",41.386631,-81.7623289,"0","Burgers, Diners, American (Traditional), Food, Restaurants, Ice Cream & Frozen Yogurt"
"425",160518,"Mars Beach","Toronto","ON","M4L 1J1",43.669814,-79.3000537,"0","Diners, Restaurants"
"426",110372,"Denny's","Tempe","AZ","85281",33.4208651729,-111.9765507451,"1","Diners, Restaurants, American (Traditional), American (New), Food, Breakfast & Brunch"
"427",181523,"Mayuri Palace","Phoenix","AZ","85023",33.6401217,-112.1116606,"0","Restaurants, Indian, Buffets, Diners"
"428",191135,"Ben & Florentine","Laval","QC","H7S 1N3",45.564775,-73.7343832,"1","Canadian (New), Food, Breakfast & Brunch, Coffee & Tea, Diners, Restaurants"
"429",37778,"Around the Corner Cafe","Mentor","OH","44060",41.6604056,-81.3634371,"0","Restaurants, Diners"
"430",21533,"Sunset Grill","Ajax","ON","L1Z 0M1",43.8831331691,-79.0188768158,"1","Restaurants, Breakfast & Brunch, Canadian (New), Diners"
"431",6934,"Fort Mill Family Restaurant","Fort Mill","SC","29715",35.0101437,-80.9146015,"1","Breakfast & Brunch, Restaurants, American (New), American (Traditional), Diners"
"432",91509,"Jean's Itsy Bitsy Diner","Mesa","AZ","85205",33.4178919,-111.7092419,"0","Breakfast & Brunch, Diners, Restaurants"
"433",134261,"Denny's","Mississauga","ON","L4W 4T4",43.6423918252,-79.6312702667,"1","American (Traditional), Breakfast & Brunch, Restaurants, Diners"
"434",120608,"Denny's","Charlotte","NC","28217",35.1632377815,-80.8854943514,"0","Breakfast & Brunch, American (Traditional), Restaurants, Diners"
"435",127460,"Atria's","Pittsburgh","PA","15238",40.4892842,-79.8726622,"1","Event Planning & Services, Bars, American (New), Breakfast & Brunch, Burgers, Seafood, Caterers, Restaurants, Nightlife, American (Traditional), Diners"
"436",176511,"Beauty's Luncheonette","Montréal","QC","H2T 2S5",45.5191426,-73.587511,"1","Diners, Breakfast & Brunch, Food, Delis, Bagels, Restaurants"
"437",147576,"Diner Deluxe","Calgary","AB","T3H 0N5",51.039887662,-114.2090952156,"1","Restaurants, Breakfast & Brunch, Diners"
"438",87467,"Mat's Diner","Calgary","AB","T2N 3P3",51.0526891,-114.0878108,"1","Diners, Breakfast & Brunch, Restaurants"
"439",191773,"Eat'n Park","Etna","PA","15223",40.5120473,-79.9475961,"1","Buffets, Diners, American (Traditional), Breakfast & Brunch, Restaurants"
"440",13673,"Denny's","Amherst","OH","44001",41.4168282839,-82.2095305494,"1","Restaurants, Breakfast & Brunch, Diners, American (Traditional)"
"441",57561,"Atlas Bistro","Scottsdale","AZ","85257",33.475411,-111.925542,"1","Diners, Vegetarian, American (New), Restaurants, Tapas/Small Plates, Seafood"
"442",183681,"Michael's Diner","Cleveland","OH","44120",41.4840238,-81.5916801,"1","Diners, Restaurants"
"443",152913,"Diana Baker's Diner","Cleveland","OH","44102",41.462311,-81.7185712,"1","Mediterranean, American (Traditional), Diners, Restaurants, Pizza"
"444",20553,"The Vaughan City Grill","Vaughan","ON","L4L 5X8",43.7847503892,-79.5658761798,"1","Italian, Diners, Restaurants, Breakfast & Brunch"
"445",6238,"Red Rocks Cafe-Huntersville","Huntersville","NC","28078",35.445159,-80.879415,"1","Soup, Salad, Nightlife, Event Planning & Services, Restaurants, Venues & Event Spaces, Steakhouses, Cafes, Diners, Bars, Seafood, American (Traditional)"
"446",49509,"Peggy's Lunch Box","Northfield","OH","44067",41.337848,-81.529782,"1","Breakfast & Brunch, Diners, Restaurants"
"447",55671,"Pyramid Cafe","Las Vegas","NV","89109",36.0953641961,-115.1758302626,"1","American (New), Burgers, Restaurants, Sandwiches, Diners"
"448",31667,"Johnny Rockets","North Las Vegas","NV","89084",36.293088,-115.179522,"1","Burgers, Fast Food, American (Traditional), Restaurants, Diners, Sandwiches"
"449",157219,"The Blind Pig","Scottsdale","AZ","85251",33.4869166768,-111.9103299191,"1","Italian, Mexican, Nightlife, Bars, Butcher, Restaurants, Food, Diners, Cafes"
"450",81826,"Red Cabin Restaurant","Etobicoke","ON","M9B 1B1",43.6384666,-79.5380185,"0","Burgers, Diners, Restaurants"
"451",2772,"Dairy Freeze","Toronto","ON","M6E 1C9",43.6751174,-79.4548844,"0","Hot Dogs, Breakfast & Brunch, Diners, Burgers, Fast Food, Restaurants"
"452",77254,"Ely's Restaurant","Las Vegas","NV","89121",36.0988842331,-115.1163826064,"1","American (Traditional), Breakfast & Brunch, Restaurants, Diners"
"453",133047,"Bob's Diner","Pittsburgh","PA","15234",40.365969,-80.013949,"1","Restaurants, Diners"
"454",161289,"Di-Dee's Diner","Fort Mill","SC","29707",34.9521011,-80.8458994,"0","Diners, Restaurants, Southern"
"455",142662,"Sao Paulo","Las Vegas","NV","89103",36.116689,-115.184905,"0","Restaurants, Diners, Cafes"
"456",106363,"The Lakeview","Toronto","ON","M6J 1X2",43.6495907,-79.4203852,"1","Restaurants, Canadian (New), Diners, American (New)"
"457",50344,"Table 10","Las Vegas","NV","89109",36.12478,-115.167966,"0","Restaurants, Cajun/Creole, American (New), Diners"
"458",179686,"Denny's","Mississauga","ON","L5T 2Y3",43.6367470995,-79.6927920948,"1","Restaurants, American (Traditional), Breakfast & Brunch, Diners"
"459",177027,"Nile Restaurant","Madison","WI","53719",43.0530217,-89.4863743,"1","Egyptian, Middle Eastern, Diners, Mediterranean, Restaurants"
"460",47054,"Otto's Empire Diner","Phoenix","AZ","85053",33.6256157,-112.1339898,"1","Sandwiches, Burgers, Diners, Restaurants"
"461",19190,"Eggsclusif","Dorval","QC","H9S 5W2",45.447553,-73.750939,"0","Diners, Breakfast & Brunch, Restaurants"
"462",185228,"Chez Ti- Polo","Henryville","QC","J0J 1E0",45.1261106,-73.1515059,"1","Diners, Restaurants"
"463",26195,"Sunset Grill","Oakville","ON","L6H 7P3",43.4840169006,-79.7172300518,"1","Canadian (New), Diners, Restaurants, Breakfast & Brunch"
"464",171881,"The Rose Bar & Grille","White Oak","PA","15131",40.3239315,-79.7831466,"1","Restaurants, Diners, American (New), Buffets"
"465",163985,"Showmars","Monroe","NC","28110",35.0112279,-80.5646015,"1","Southern, Greek, Diners, Desserts, Food, Restaurants"
"466",175657,"Memo's Bistro","Sun City","AZ","85351",33.635323,-112.27539,"1","Restaurants, Diners"
"467",97365,"Nancy's Main Street Diner","Grafton","OH","44044",41.2853848,-82.0637393,"1","Diners, Restaurants"
"468",161218,"IHOP","Bedford","OH","44146",41.40816,-81.52537,"1","American (Traditional), Breakfast & Brunch, Diners, Restaurants, Burgers, American (New)"
"469",36606,"Rigas Diner","Charlotte","NC","28270",35.1357149,-80.7381369,"0","Diners, Restaurants"
"470",7636,"Sunset Grill","Vaughan","ON","L4H 0R9",43.7848464173,-79.6257821049,"1","Canadian (New), Diners, Breakfast & Brunch, Restaurants"
"471",158905,"Steak ’n Shake","Gastonia","NC","28056",35.2606873878,-81.1305777781,"1","Burgers, American (New), Restaurants, Breakfast & Brunch, Fast Food, American (Traditional), Diners"
"472",122292,"Tom Colicchio's Heritage Steak","Las Vegas","NV","89109",36.1216084937,-115.1739997148,"1","Food, Restaurants, American (Traditional), Diners, Steakhouses, Beer, Wine & Spirits, Nightlife, Wine Bars, Pool Halls, Bars"
"473",43336,"5th Avenue Cafe","Phoenix","AZ","85013",33.4799548,-112.0806203,"1","Restaurants, Breakfast & Brunch, Salad, American (Traditional), Diners"
"474",174559,"Fry Basket Fish & Chips","Thornhill","ON","L3T 2A6",43.7996312,-79.4201297,"0","Seafood, Restaurants, Diners, Breakfast & Brunch"
"475",134431,"Eggsmart","Toronto","ON","M5M 4A1",43.7348734,-79.4195506,"1","Breakfast & Brunch, Diners, Restaurants"
"476",25345,"KOS Cafe and Restaurant","Toronto","ON","M5R 3G9",43.67224,-79.414402,"1","Breakfast & Brunch, Restaurants, Diners"
"477",24473,"Airport Gate Cafe & Grill","Toronto","ON","M9W 1J9",43.6874116629,-79.5966811449,"1","Restaurants, American (Traditional), Breakfast & Brunch, Diners"
"478",67886,"Duke's Chop House","Carefree","AZ","85377",33.825118,-111.92344,"0","American (Traditional), Restaurants, Diners"
"479",83808,"Sunset Grill","Mississauga","ON","L5W 0E6",43.638228,-79.715773,"1","Canadian (New), Restaurants, Diners, Breakfast & Brunch"
"480",103568,"Michelle's Diner","Pittsburgh","PA","15210",40.4217842,-79.9942689,"0","Grocery, Restaurants, Food, Diners, Delis"
"481",6538,"Zet's Restaurant","Mississauga","ON","L4V 1Y4",43.6930603,-79.6273534,"1","Restaurants, Greek, Steakhouses, Diners"
"482",80071,"Denny's","Phoenix","AZ","85051",33.5688500082,-112.1181473136,"1","Diners, Restaurants, Breakfast & Brunch, American (Traditional)"
"483",95035,"Graze","Madison","WI","53703",43.075094045,-89.3820914577,"1","Gastropubs, Diners, American (New), Local Flavor, Restaurants"
"484",42836,"Black Bear Diner","Tempe","AZ","85284",33.3473696052,-111.9637697563,"1","Breakfast & Brunch, Diners, American (Traditional), Restaurants, Burgers"
"485",91767,"Sarah's Kitchen","Henderson","NV","89011",36.0643771582,-115.0154345297,"1","American (Traditional), Restaurants, Diners"
"486",157196,"The Bolton Diner","Caledon","ON","L7E 4Z4",43.8737613,-79.7312242,"0","Restaurants, Diners, Canadian (New)"
"487",94844,"Pete's Open Kitchen","Toronto","ON","M5A 1V2",43.6570248,-79.3586517,"0","Diners, Burgers, Restaurants, Breakfast & Brunch"
"488",55735,"DeLuca's Diner","Pittsburgh","PA","15205",40.4533123615,-80.1626436575,"1","Diners, Breakfast & Brunch, Restaurants"
"489",61834,"Eat'n Park","Monongahela","PA","15063",40.2066466,-79.9389794,"1","American (New), Diners, American (Traditional), Restaurants, Breakfast & Brunch"
"490",115956,"Sunset Grill","Brampton","ON","L6X 0Z8",43.6583651498,-79.8168972507,"1","Canadian (New), Restaurants, Diners, Breakfast & Brunch"
"491",132587,"Showmars - Northlake Mall","Charlotte","NC","28216",35.35253,-80.851337,"1","Seafood, Food, American (New), Greek, Diners, Restaurants, Chinese"
"492",177106,"Cowboy Ciao","Phoenix","AZ","85034",33.437267855,-111.9943889399,"1","American (New), Breakfast & Brunch, Restaurants, Diners"
"493",149572,"Vickie's Diner","Las Vegas","NV","89104",36.1507878,-115.1530184,"1","Cafes, Breakfast & Brunch, Diners, Restaurants"
"494",148597,"Kindred Restaurant","Davidson","NC","28036",35.499909804,-80.8483528619,"1","Restaurants, Nightlife, American (New), Diners, Cocktail Bars, Bars"
"495",53480,"R Burgers","Las Vegas","NV","89119",36.0585024435,-115.1187934593,"1","Restaurants, Sandwiches, Breakfast & Brunch, Diners, Burgers"
"496",127401,"Sunset Grill","Mississauga","ON","L5H 1E8",43.55009,-79.5876465,"1","Breakfast & Brunch, Canadian (New), Diners, Restaurants"
"497",182307,"JT's Diner","Willoughby","OH","44094",41.6972646,-81.3929086,"1","Diners, Restaurants, American (Traditional), Breakfast & Brunch, Sandwiches"
"498",3084,"True Love Cafe","Toronto","ON","M5A 1Z9",43.6584289,-79.3713049,"1","Food, Coffee & Tea, Diners, Restaurants, Cafes"
"499",18056,"Denny's","Chandler","AZ","85226",33.3058364985,-111.9685044,"1","American (New), Diners, American (Traditional), Restaurants, Breakfast & Brunch"
"500",15981,"The Senator","Toronto","ON","M5B 1T8",43.655749,-79.3789921,"1","Bars, Breakfast & Brunch, Canadian (New), Nightlife, Lounges, Desserts, Diners, Cafes, Restaurants, Coffee & Tea, Food"
"501",75479,"Denny's","Tempe","AZ","85281",33.4354771236,-111.9266805053,"0","Breakfast & Brunch, Restaurants, Diners, American (Traditional)"
"502",175201,"Wimpy's Diner","Brampton","ON","L6S 3L2",43.7352124,-79.7071206,"1","Diners, Restaurants"
"503",54915,"Ben & Florentine","Brossard","QC","J4Z 0E3",45.4580528,-73.4192526,"1","Diners, Sandwiches, Restaurants, Breakfast & Brunch, Coffee & Tea, Food"
"504",54278,"Dynasi Restaurant","Oakville","ON","L6M 4M2",43.4681622,-79.7413961,"0","Restaurants, Sandwiches, Diners, Breakfast & Brunch"
"505",58771,"Merry Ann's Diner","Champaign","IL","61820",40.0984525132,-88.2442462116,"1","American (Traditional), Breakfast & Brunch, Restaurants, Diners"
"506",2631,"Denny's","North Las Vegas","NV","89031",36.239636,-115.197826,"1","Diners, Restaurants, American (Traditional), Breakfast & Brunch"
"507",4268,"Eat'n Park","McMurray","PA","15317",40.287727,-80.117017,"1","American (New), American (Traditional), Restaurants, Breakfast & Brunch, Diners"
"508",12451,"Yasi's Place","Toronto","ON","M6P 3N2",43.6614656,-79.4483868,"0","Restaurants, Diners, Breakfast & Brunch"
"509",119388,"Denny's","Las Vegas","NV","89147",36.1006557085,-115.2957481912,"1","Breakfast & Brunch, Restaurants, American (Traditional), Diners"
"510",183818,"Golden Gate Hotel & Casino","Las Vegas","NV","89101",36.1712504731,-115.146263887,"1","Casinos, Event Planning & Services, Hotels & Travel, Arts & Entertainment, Restaurants, Hotels, Diners, Delis"
"511",77420,"Wimpy's Diner","Markham","ON","L3T 7R5",43.812804,-79.358631,"1","American (Traditional), Diners, Restaurants, Breakfast & Brunch"
"512",62902,"Southwest Diner","Boulder City","NV","89005",35.9744088,-114.8403576,"1","Diners, Restaurants"
"513",93913,"BQM Queen West","Toronto","ON","M5V 2A2",43.6489547,-79.3953829,"0","Restaurants, Diners, Burgers"
"514",45272,"Steak ’n Shake","Aurora","OH","44202",41.3567961662,-81.389581,"1","Steakhouses, Burgers, Breakfast & Brunch, American (New), Restaurants, Fast Food, Diners, American (Traditional)"
"515",22030,"Catalina Sports Bar & Grill","Phoenix","AZ","85016",33.4816345,-112.0474654,"1","Karaoke, Music Venues, DJs, Restaurants, Diners, Nightlife, Bars, Sports Bars, Comedy Clubs, Arts & Entertainment, Dance Clubs, Event Planning & Services"
"516",72349,"Brigs of Ballantyne","Charlotte","NC","28277",35.068652,-80.8414279,"0","Sandwiches, Restaurants, Breakfast & Brunch, Diners"
"517",135149,"Bellevue Diner","Bellevue","PA","15202",40.495612,-80.056229,"1","Diners, Restaurants"
"518",113551,"The Great Greek","Henderson","NV","89014",36.0555174045,-115.0416518312,"1","Diners, Greek, Restaurants, Mediterranean"
"519",167908,"Track Side Grill","Gastonia","NC","28054",35.2330869728,-81.1936221644,"0","Sandwiches, Breakfast & Brunch, Diners, Restaurants"
"520",10484,"Mr. Onions","Toronto","ON","M6N 3E5",43.6717405,-79.4672129,"0","Breakfast & Brunch, Diners, Restaurants"
"521",98904,"The Toothpaste Green Diner","Toronto","ON","M4C 3G4",43.6963315378,-79.328696318,"0","Restaurants, American (Traditional), Diners"
"522",120959,"Denny's","West Mifflin","PA","15122",40.3480251466,-79.94435817,"1","Breakfast & Brunch, Diners, American (Traditional), Restaurants"
"523",76405,"Waffle House","Concord","NC","28027",35.368547,-80.7094736,"1","Restaurants, Breakfast & Brunch, American (Traditional), Food, Diners, American (New)"
"524",181029,"C&J's Diner","Medina","OH","44256",41.2130991973,-81.8407490481,"1","Restaurants, Diners, Breakfast & Brunch"
"525",82052,"Wimpy's Diner","North York","ON","M3H 2S1",43.756252,-79.439322,"1","Restaurants, Diners"
"526",166665,"Griddlecakes","Las Vegas","NV","89148",36.0782784,-115.2986213,"1","Diners, Breakfast & Brunch, American (Traditional), Sandwiches, Restaurants, Salad"
"527",157082,"Shari's Rock & Roll Diner","Las Vegas","NV","89128",36.194505,-115.259773,"0","Diners, American (Traditional), Restaurants"
"528",75252,"Denny's","Phoenix","AZ","85053",33.6394969,-112.1189429,"1","American (Traditional), Diners, Breakfast & Brunch, Food, Burgers, Restaurants, Coffee & Tea"
"529",90199,"Casbah","Pittsburgh","PA","15206",40.4581413,-79.9248403,"1","Restaurants, Bars, Cocktail Bars, Wine Bars, Diners, Mediterranean, Nightlife, Greek, Breakfast & Brunch"
"530",11038,"King of Spicy","Charlotte","NC","28227",35.1995464,-80.7252868,"1","Restaurants, Indian, Bars, Himalayan/Nepalese, Diners, Nightlife"
"531",61484,"The Lofty Cafe","Cuyahoga Falls","OH","44221",41.136415,-81.483051,"0","Diners, Bakeries, Desserts, Restaurants, Food, Cafes"
"532",35310,"Butchies","Whitby","ON","L1N 2N8",43.8755958,-78.9595591,"1","Diners, Restaurants, Barbeque, Burgers"
"533",190733,"Grand Cafe","Las Vegas","NV","89102",36.1426257197,-115.1749536052,"1","Chinese, Breakfast & Brunch, Diners, Restaurants, Cafes, Food"
"534",118400,"Poutineville","Montréal","QC","H2G 1K8",45.5404762,-73.5988438,"1","Poutineries, Diners, Restaurants, Mediterranean"
"535",132519,"Steak ’n Shake","Pittsburgh","PA","15205",40.4528682162,-80.1655147249,"1","Restaurants, Diners, Sandwiches, American (Traditional), Fast Food, American (New), Burgers, Breakfast & Brunch"
"536",115238,"Côte St-Luc Bar-B-Q","Dollard-des-Ormeaux","QC","H8Y 3B7",45.4972643654,-73.8115510791,"1","Barbeque, Restaurants, Diners"
"537",44567,"Lucky's Cafe","Las Vegas","NV","89104",36.147911,-115.156585,"0","Restaurants, Diners"
"538",160501,"Skyline Restaurant","Toronto","ON","M6K 1L9",43.6410203,-79.4351593,"1","Nightlife, Steakhouses, Diners, Bars, Restaurants"
"539",1110,"Restaurant Rapido Du Plateau","Montréal","QC","H2J 2L1",45.5238193,-73.5828733,"0","Poutineries, Breakfast & Brunch, Diners, Restaurants"
"540",2142,"Eighteen","Pittsburgh","PA","15217",40.4339539495,-79.9230235443,"1","Kosher, Wine Bars, Bars, Food, Mediterranean, Restaurants, Diners, Nightlife, Cafes, Internet Cafes"
"541",13503,"Balzac Diner","Balzac","AB","T4B 2T3",51.1985851,-114.054206,"1","Restaurants, Diners, Cafes, Breakfast & Brunch"
"542",109495,"Grant Street Tavern","Pittsburgh","PA","15219",40.4376887,-79.9976353,"1","Restaurants, Sandwiches, Diners, American (Traditional), Nightlife, Bars, Salad"
"543",65710,"Colaba Cuisine","Concord","ON","L4K 5Y6",43.8280828012,-79.5382307698,"1","Indian, Diners, Restaurants"
"544",94005,"Steak ’n Shake","Streetsboro","OH","44241",41.2446735221,-81.3574893773,"1","Food, Fast Food, Restaurants, American (Traditional), American (New), Desserts, Burgers, Diners, Breakfast & Brunch"
"545",188794,"Hayloft Restaurant","Airdrie","AB","T4B 0V7",51.2890344583,-114.0247674418,"1","Food, American (Traditional), Diners, Local Flavor, Breakfast & Brunch, Sandwiches, Restaurants, Desserts"
"546",126921,"Two Hippies Groovy Beach House","Phoenix","AZ","85032",33.623899,-112.031235,"0","Diners, Mexican, Gluten-Free, Hot Dogs, Restaurants"
"547",42429,"Denny's","Brampton","ON","L6T 5T6",43.7463280256,-79.6917074919,"1","Food, Coffee & Tea, Breakfast & Brunch, Diners, American (Traditional), Restaurants"
"548",75148,"IHOP","Las Vegas","NV","89119",36.12065,-115.13717,"1","Diners, American (New), American (Traditional), Burgers, Breakfast & Brunch, Restaurants"
"549",90299,"Na Siam Authentic Thai Cuisine","Toronto","ON","M4Y 2B6",43.6687087,-79.3861682,"0","Restaurants, Food, Thai, Food Delivery Services, Diners"
"550",121781,"Denny's","Phoenix","AZ","85043",33.4610803837,-112.2045559996,"1","American (Traditional), Breakfast & Brunch, Restaurants, Diners"
"551",143575,"UFO Restaurant","Toronto","ON","M6J 2L5",43.6439259,-79.4088666,"1","Restaurants, Vietnamese, Food, Burgers, Grocery, Sandwiches, Breakfast & Brunch, Diners"
"552",26194,"1815 Tavern","Aurora","OH","44202",41.312579,-81.3459722,"1","American (Traditional), Salad, Beer, Wine & Spirits, Restaurants, Pizza, Food, American (New), Diners"
"553",182842,"Mentor Family Restaurant","Mentor","OH","44060",41.6834183,-81.3398732,"1","Breakfast & Brunch, Restaurants, Diners"
"554",101350,"Eat'n Park","Bridgeville","PA","15017",40.3701597,-80.1011855,"1","Diners, American (Traditional), Breakfast & Brunch, Restaurants"
"555",31426,"Dino's Family Restaurant","Concord","NC","28027",35.4181532657,-80.6774139404,"0","Diners, Greek, Restaurants"
"556",58170,"Restaurant Deno's","Montréal","QC","H2X 3J3",45.5127448,-73.5578258,"1","Diners, Delis, Restaurants, American (Traditional)"
"557",94486,"Nuit Social","Toronto","ON","M6J 1J5",43.6429593,-79.4254188,"1","Diners, Restaurants, Wine Bars, Nightlife, Canadian (New), Cocktail Bars, Modern European, Bars, French"
"558",127316,"Refinery Public House","Toronto","ON","M8V 1K5",43.5997903,-79.5091289,"1","Burgers, Pubs, Gastropubs, Restaurants, Bars, Nightlife, Diners, Salad, Cocktail Bars"
"559",1547,"Cherries Diner","Pittsburgh","PA","15222",40.4410684232,-80.0032204727,"1","Breakfast & Brunch, Diners, Restaurants"
"560",139509,"5 & Diner","Scottsdale","AZ","85250",33.53814,-111.885036,"1","Restaurants, Food, Desserts, American (Traditional), Breakfast & Brunch, Diners, Burgers"
"561",151290,"Lyndhurst Diner","Lyndhurst","OH","44124",41.5199588824,-81.4844190172,"0","Diners, Restaurants"
"562",32213,"D'vine Diner","Calgary","AB","T2V 1K2",50.9848325,-114.0831414,"0","Comfort Food, Diners, Steakhouses, Vegetarian, Restaurants, American (Traditional), Breakfast & Brunch"
"563",184367,"Red's in Ramsay","Calgary","AB","T2G 2Z6",51.0399197,-114.0420108,"1","Diners, Restaurants, Local Flavor, Comfort Food, Canadian (New), Breakfast & Brunch"
"564",110007,"Mansion Dining Room","Las Vegas","NV","89109",36.1022507,-115.1699679,"1","Restaurants, Diners"
"565",155534,"Blue Sky Restaurant","Amherst","OH","44001",41.417304,-82.208315,"1","Restaurants, American (Traditional), Diners"
"566",159185,"Blue Spoon Cafe","Middleton","WI","53562",43.1054335,-89.5106336,"0","Diners, Restaurants"
"567",74417,"Fran's Restaurant","Toronto","ON","M5G 1K2",43.6614505,-79.384068,"1","Restaurants, Diners, Breakfast & Brunch, American (Traditional)"
"568",92102,"Eat'n Park","Pittsburgh","PA","15202",40.493926,-80.0646919,"1","Restaurants, Breakfast & Brunch, American (New), American (Traditional), Diners"
"569",1238,"Best Friends Family Diner","Rouses Point","NY","12979",44.999192,-73.366007,"1","American (New), Breakfast & Brunch, Diners, American (Traditional), Restaurants"
"570",105151,"Denny's","Madison","WI","53704",43.1231549881,-89.3143174052,"1","Fast Food, Breakfast & Brunch, Diners, Burgers, Restaurants, American (Traditional)"
"571",192589,"Sam's Cafe","Champaign","IL","61820",40.1169816,-88.2426671,"1","Mediterranean, Restaurants, Breakfast & Brunch, Diners"
"572",40729,"Jawnies","Verdun","QC","H4H 1J4",45.4461903,-73.5774163,"0","Pizza, Restaurants, Diners"
"573",172589,"Forty-Six","Kannapolis","NC","28081",35.498195,-80.624986,"1","Breakfast & Brunch, Diners, Restaurants, Seafood, American (New), Food"
"574",191682,"Farmer Boys","Las Vegas","NV","89115",36.2415413,-115.0793964,"1","Mexican, Fast Food, Diners, Breakfast & Brunch, American (Traditional), Sandwiches, Restaurants, Salad, Burgers"
"575",100300,"Big View Diner","Charlotte","NC","28277",35.0224366,-80.8484184,"1","Diners, Breakfast & Brunch, Restaurants, American (Traditional), Bakeries, Greek, Food, Beer, Wine & Spirits"
"576",183616,"Steak ’n Shake","Las Vegas","NV","89183",36.0114062572,-115.1757787001,"1","Burgers, American (New), Restaurants, Food, Diners, Breakfast & Brunch, American (Traditional), Fast Food"
"577",71201,"Denny's","Pittsburgh","PA","15237",40.5384010405,-80.0120007992,"1","American (Traditional), Restaurants, Diners, Coffee & Tea, Food, Breakfast & Brunch, Burgers, Fast Food"
"578",74968,"Tropical Breeze Cafe","Las Vegas","NV","89109",36.1163474,-115.1723373,"0","Diners, Pizza, American (Traditional), Restaurants"
"579",52035,"Hometown Eats","Henderson","NV","89015",36.0253787544,-114.9645785987,"1","Diners, Restaurants, Breakfast & Brunch, American (Traditional)"
"580",156058,"The Coliseum Bar & Banquet","Madison","WI","53713",43.0519792,-89.379378,"1","American (Traditional), Sports Bars, Bars, Diners, Nightlife, Restaurants"
"581",10547,"Sunny Morning","Aurora","ON","L4G 7Y3",44.0235069,-79.4470072,"1","Diners, Breakfast & Brunch, Restaurants, Canadian (New)"
"582",92120,"Elixor","Dollard-des-Ormeaux","QC","H9B 1Z6",45.4827057761,-73.7936069184,"1","Restaurants, Canadian (New), Diners"
"583",6601,"JT's Restaurant","Pittsburgh","PA","15227",40.3651869,-79.9824694,"1","Diners, Restaurants"
"584",16521,"Bobby's Hideaway","Mississauga","ON","L5N 1A1",43.5883433624,-79.7233494746,"1","American (New), Restaurants, Breakfast & Brunch, Canadian (New), Diners"
"585",117305,"Sunset Grill","Toronto","ON","M4W 1B7",43.6712228005,-79.3827387963,"1","Breakfast & Brunch, Canadian (New), American (New), Restaurants, Diners"
"586",121894,"Market Street Family Restaurant","Mentor","OH","44060",41.687649,-81.3376639,"1","Restaurants, Diners, American (Traditional)"
"587",119798,"Drifters Restaurant","Calgary","AB","T2B 3R8",51.0084313,-113.999856,"1","Diners, Restaurants, Convenience Stores, Food"
"588",74725,"Sunset Grill","Scarborough","ON","M1P 5B7",43.7725512736,-79.2810973417,"1","Canadian (New), Restaurants, Diners, Breakfast & Brunch"
"589",148299,"The Dive N","Pineville","NC","28134",35.0859529,-80.8870243,"1","Restaurants, Diners"
"590",101839,"La Banquise","Montréal","QC","H2J 2J3",45.525304,-73.574703,"1","Restaurants, Fast Food, Poutineries, Diners"
"591",42116,"Perk-Cup! Cafe","Berea","OH","44017",41.3713181231,-81.8746671986,"1","Restaurants, Cafes, Breakfast & Brunch, Diners"
"592",143802,"Brothers","Toronto","ON","M5R 2A7",43.6709006519,-79.3900142983,"1","Nightlife, Wine Bars, Diners, American (New), Salad, Restaurants, Bars"
"593",189714,"Micro Diner","Pittsburgh","PA","15211",40.43003,-80.0072239,"1","Restaurants, American (Traditional), Diners, Breakfast & Brunch, Food, Desserts"
"594",64558,"Cafe Americano","Las Vegas","NV","89109",36.115557,-115.174632,"1","Restaurants, Diners, Breakfast & Brunch, American (New), Latin American"
"595",49160,"Yours Truly Restaurants","Chagrin Falls","OH","44022",41.430694,-81.391132,"1","Diners, Restaurants, American (Traditional)"
"596",162839,"Denny's","Calgary","AB","T2K 6K2",51.0968723675,-114.0545355672,"1","American (Traditional), Diners, Breakfast & Brunch, Restaurants"
"597",168091,"Diner 50","Phoenix","AZ","85009",33.4382042,-112.100375,"1","Breakfast & Brunch, Restaurants, Cafes, Diners"
"598",111412,"Wimpys Diner","Scarborough","ON","M1N 1R6",43.6889684,-79.2695107,"1","Diners, Restaurants"
"599",59732,"Shawarma Palace","Calgary","AB","T2A 0S4",51.0378562,-113.9787764,"1","Diners, Middle Eastern, Mediterranean, Restaurants, Food, Donairs"
"600",49775,"Freddy's Frozen Custard & Steakburgers","Surprise","AZ","85379",33.6086939,-112.3620438,"1","Ice Cream & Frozen Yogurt, Diners, Food, American (New), Restaurants"
"601",170147,"Fran's Restaurant","Toronto","ON","M5B 2R3",43.6543965446,-79.3790650247,"1","American (Traditional), Diners, Restaurants, Breakfast & Brunch, Burgers"
"602",144395,"Honey B Hives Restaurant","Toronto","ON","M1V 4C3",43.8229818717,-79.2479152131,"1","Food, Coffee & Tea, Burgers, Canadian (New), Restaurants, Sandwiches, Breakfast & Brunch, Diners, Comfort Food, Italian, Fast Food"
"603",84223,"Farmer Boys","Las Vegas","NV","89146",36.1588115,-115.2072854,"1","Mexican, Salad, Cafes, Restaurants, American (Traditional), Breakfast & Brunch, Burgers, Diners"
"604",191572,"The Original Harley Diner","Bedford Heights","OH","44146",41.4185073,-81.5157043,"1","Restaurants, Delis, Diners, American (Traditional)"
"605",112342,"Denny's","Apache Junction","AZ","85120",33.4147463,-111.601258,"1","Breakfast & Brunch, Diners, Restaurants, American (Traditional)"
"606",21197,"Eat'n Park","Willoughby","OH","44094",41.6054135,-81.4388881,"1","Restaurants, American (Traditional), Diners, Breakfast & Brunch"
"607",124053,"Waffle House","Painesville","OH","44077",41.6662183,-81.2435291,"1","Breakfast & Brunch, American (New), American (Traditional), Diners, Restaurants"
"608",183665,"Flavors On the Avenue","Wickliffe","OH","44092",41.6161452,-81.461756,"0","Diners, American (Traditional), Breakfast & Brunch, Restaurants"
"609",39306,"Denny's","Scottsdale","AZ","85257",33.4653242,-111.9171766,"1","Breakfast & Brunch, Diners, Restaurants, American (Traditional)"
"610",160821,"Dame Tartine","Chambly","QC","J3L 1Z3",45.4473477,-73.2792881,"1","Restaurants, Diners, Breakfast & Brunch, Creperies"
"611",29865,"Silver Skillet Cafe","Chesterland","OH","44026",41.5237337494,-81.3385458884,"1","Restaurants, Sandwiches, Breakfast & Brunch, Salad, Diners"
"612",106458,"The Coffee Pot","Lakewood","OH","44107",41.4768582,-81.7758141,"1","Restaurants, Diners, Breakfast & Brunch"
"613",37067,"A&W","Vaughan","ON","L4J 2J6",43.793161,-79.445187,"1","Restaurants, Burgers, Diners, Food, Fast Food, Convenience Stores, Breakfast & Brunch"
"614",141278,"The Maharaja","Mississauga","ON","L5R 1Y3",43.5985631,-79.6606921,"1","Lounges, Indian, Nightlife, Caterers, Restaurants, Event Planning & Services, Bars, Beer, Wine & Spirits, Pakistani, Food, Diners, Halal, Cocktail Bars, Wine Bars"
"615",126134,"Brouxnellies Diner & Catering","Oregon","WI","53575",42.9262131,-89.3847248,"0","Caterers, Diners, Event Planning & Services, Restaurants"
"616",135918,"Eighty8 Family Restaurant","Thornhill","ON","L3T 6G7",43.8232804295,-79.3695805774,"0","Canadian (New), Restaurants, American (Traditional), Diners, Breakfast & Brunch"
"617",158189,"Le Roi du Smoked Meat","Montréal","QC","H2S 2M7",45.5378543,-73.6066601,"1","Restaurants, Diners"
"618",6020,"Big Egg Family Restaurant","Cleveland","OH","44102",41.4859152,-81.7222791,"1","Burgers, Restaurants, Breakfast & Brunch, Diners"
"619",150919,"Washington Street Diner","Chagrin Falls","OH","44023",41.4154665,-81.3478909,"1","Restaurants, Diners, American (Traditional), Breakfast & Brunch"
"620",184579,"Peoples Food","Toronto","ON","M5R 2E6",43.6755846,-79.4035633,"0","Breakfast & Brunch, Diners, Restaurants"
"621",36247,"Dusty's","Montréal","QC","H2V 4E3",45.5168521,-73.5898558,"0","Restaurants, Diners"
"622",72506,"Sixth City Diner","Cleveland","OH","44113",41.499746,-81.700714,"0","Restaurants, Diners, Breakfast & Brunch, American (New)"
"623",75702,"Steak ’n Shake","Elyria","OH","44035",41.4206387167,-82.0776363462,"1","Burgers, American (Traditional), Fast Food, American (New), Restaurants, Breakfast & Brunch, Diners"
"624",157861,"Stack'd Burgers","Wexford","PA","15090",40.632621,-80.061093,"1","Diners, Nightlife, Restaurants, Burgers, Beer Bar, Bars, Sandwiches"
"625",124806,"Denny's Restaurant","Phoenix","AZ","85021",33.553663,-112.109708,"0","Diners, American (Traditional), Restaurants, Breakfast & Brunch"
"626",119457,"Sandy's Diner","Toronto","ON","M3J",43.773053,-79.47224,"1","Diners, Breakfast & Brunch, Sandwiches, Restaurants"
"627",153020,"Hoosier Cafe","Chandler","AZ","85225",33.334719,-111.845743,"1","Diners, Restaurants, Breakfast & Brunch, Food, Coffee & Tea"
"628",81724,"Denny's","Pittsburgh","PA","15236",40.3378950289,-79.9509505742,"1","Breakfast & Brunch, Restaurants, American (Traditional), Diners"
"629",153068,"Abe's Restaurant","Airdrie","AB","T4A 0V4",51.268672,-113.996508,"1","Restaurants, Burgers, Comfort Food, Coffee & Tea, Breakfast & Brunch, Diners, Food, Juice Bars & Smoothies, American (Traditional)"
"630",93577,"Barb's Corner Kitchen","Pittsburgh","PA","15201",40.4745131,-79.9578622,"1","Diners, Restaurants, American (Traditional), Breakfast & Brunch"
"631",166172,"Pan Am's Joint","Scarborough","ON","M1E 4P7",43.7900770002,-79.195975922,"0","Restaurants, Food, Poutineries, Desserts, Diners"
"632",4172,"King's Family Restaurant","Pittsburgh","PA","15205",40.4495645,-80.106423,"0","Diners, Restaurants, Breakfast & Brunch, American (Traditional)"
"633",163560,"UW Slow Food","Madison","WI","53706",43.0729935,-89.4053714,"1","Food, Restaurants, Cafeteria, Special Education, Diners, Local Flavor, Education"
"634",136688,"Coyote Willie Tex-Mex Diner","Toronto","ON","M4M 1G6",43.6586717,-79.3503395,"0","Restaurants, Diners, Tex-Mex"
"635",190170,"Coach House Restaurant","Toronto","ON","M4Y 1Z3",43.6650445,-79.3849414,"1","Diners, Restaurants"
"636",77400,"Dooney's Cafe","Toronto","ON","M6G 1M5",43.6622986091,-79.4247616025,"0","Diners, Nightlife, Restaurants, Wine Bars, Bars, Cafes"
"637",173080,"Petinos","Saint-Jérôme","QC","J7Y 5K8",45.7590744782,-74.0195674865,"1","Diners, Breakfast & Brunch, Restaurants"
"638",25342,"Mesa Community Family Restaurant","Mesa","AZ","85201",33.4252630602,-111.8395657092,"1","American (Traditional), Restaurants, Burgers, Breakfast & Brunch, Food, Mexican, Diners"
"639",129454,"Penny's Diner","Canonsburg","PA","15317",40.2659881,-80.1299578,"0","Restaurants, Diners"
"640",111005,"Peter Allen's","Pittsburgh","PA","15222",40.4428647785,-80.0020460272,"1","Diners, Italian, Seafood, Restaurants"
"641",169856,"Eat'n Park","Pittsburgh","PA","15217",40.4364519,-79.9231479,"1","Breakfast & Brunch, Restaurants, American (Traditional), Diners, Buffets"
"642",83003,"Denny's","North Versailles","PA","15137",40.368491447,-79.7797000408,"1","Diners, Restaurants, American (Traditional), Breakfast & Brunch, Fast Food"
"643",87880,"The City Diner","Cleveland","OH","44144",41.4396198778,-81.7215600237,"0","Restaurants, Diners, American (Traditional), Breakfast & Brunch"
"644",164889,"Hwy 55","Oakville","ON","L6J 3J2",43.457670997,-79.6821672823,"0","Fast Food, Diners, Restaurants, Burgers"
"645",184653,"Triangle Food Mart","Denver","NC","28037",35.214788,-80.832022,"1","Cafes, Restaurants, Diners"
"646",179393,"Nutralicious","Toronto","ON","M4C 4E1",43.6927542,-79.3157018,"0","Pizza, Restaurants, Sandwiches, Brasseries, Diners"
"647",171076,"L'Gros Luxe Plateau","Montréal","QC","H2L 1A5",45.5215356836,-73.5754337451,"1","Restaurants, Cocktail Bars, Vegan, Canadian (New), Diners, Bars, Vegetarian, Nightlife, Breakfast & Brunch, Burgers, Sandwiches"
"648",181085,"Swiss Chalet Rotisserie & Grill","Whitby","ON","L1R 0A1",43.9164009,-78.9544982,"1","Comfort Food, Diners, Restaurants, American (Traditional)"
"649",47420,"Wonderful Wanda's","Chandler","AZ","85226",33.3048064,-111.951566,"1","Restaurants, Event Planning & Services, Mexican, Breakfast & Brunch, Caterers, Diners"
"650",11758,"Cracker Barrel Old Country Store","Concord","NC","28027",35.3659836,-80.7128223,"1","Southern, Caterers, Diners, Restaurants, American (Traditional), Breakfast & Brunch, Event Planning & Services, Comfort Food"
"651",168005,"Waffle House","Tempe","AZ","85281",33.4216367,-111.8921412,"1","Breakfast & Brunch, Restaurants, Diners, American (Traditional), American (New)"
"652",58647,"Taqueria El Paisano","Las Vegas","NV","89102",36.129543,-115.2074652,"1","Mexican, Restaurants, Diners, Breakfast & Brunch"
"653",77344,"Eat'n Park","Mentor","OH","44060",41.6785778,-81.3025033,"1","Diners, American (Traditional), Breakfast & Brunch, Restaurants"
"654",140952,"Sunrise Restaurant","Charlotte","NC","28227",35.2115567,-80.6933743,"1","American (New), Restaurants, Burgers, Breakfast & Brunch, Diners, Seafood"
"655",109087,"Our Little Secret Cafe & Catering","Pleasant Hills","PA","15236",40.3375829,-79.9769376,"1","Diners, Restaurants, Breakfast & Brunch, American (Traditional)"
"656",15140,"Jobot Coffee & Diner","Phoenix","AZ","85004",33.458548758,-112.0694321655,"1","Beer Bar, Coffee & Tea, Nightlife, Restaurants, Breakfast & Brunch, Cafes, American (New), Pubs, Creperies, Sandwiches, Diners, Food, Bars"
"657",118740,"Frite Alors","Montréal","QC","H2X 3K6",45.5154554025,-73.5644742502,"1","Poutineries, Diners, Belgian, French, American (Traditional), Burgers, Restaurants, Sandwiches, Food"
"658",117045,"Sunset Grill","Toronto","ON","M6N 0A7",43.6737495,-79.4702779,"1","Canadian (New), Restaurants, Diners, Breakfast & Brunch"
"659",112018,"Steak ’n Shake","Henderson","NV","89074",36.0179056,-115.1011631,"1","Restaurants, American (Traditional), Burgers, Diners"
"660",44403,"Smoky's Club","Madison","WI","53705",43.0749956,-89.4416756,"1","Nightlife, Venues & Event Spaces, Bars, Diners, Seafood, Pubs, Steakhouses, Event Planning & Services, Restaurants"
"661",158887,"Surge Delivery Cafe","Madison","WI","53704",43.0922657,-89.3539868,"0","Breakfast & Brunch, Sandwiches, Vegetarian, Diners, Cafes, Restaurants"
"662",161647,"120 Diner","Toronto","ON","M5C 2G8",43.6521506,-79.3754775,"1","Comfort Food, Comedy Clubs, Restaurants, Nightlife, Diners, Cabaret, Arts & Entertainment, Jazz & Blues"
"663",158472,"Bishop's Corner Café","Pittsburgh","PA","15205",40.4307087,-80.1350444,"1","Bars, Breakfast & Brunch, Cafes, Nightlife, Pubs, Restaurants, Diners"
"664",159399,"Left Seat West","Glendale","AZ","85307",33.5230734,-112.2994913,"0","Restaurants, American (Traditional), Breakfast & Brunch, Diners"
"665",44276,"Rosedale Diner","Toronto","ON","M4W 2L9",43.680359,-79.3912254,"1","Restaurants, Diners, Breakfast & Brunch"
"666",148941,"Lyla's Family Restaurant","Cuyahoga Falls","OH","44221",41.1330197508,-81.4652545438,"1","Middle Eastern, Diners, Mediterranean, Restaurants"
"667",80171,"Mustang Sally's Diner","Henderson","NV","89014",36.048726,-115.027721,"1","Restaurants, Diners, American (Traditional)"
"668",141014,"Denny's","Cleveland","OH","44135",41.4367806683,-81.8005782366,"1","American (Traditional), Diners, Breakfast & Brunch, Restaurants"
"669",163737,"Good Egg Dining","Brampton","ON","L6T 4X2",43.7373819538,-79.7014348581,"0","Breakfast & Brunch, Diners, Restaurants, Food"
"670",183122,"Cracker Barrel Old Country Store","Twinsburg","OH","44087",41.3120423,-81.4534332,"1","Restaurants, Southern, Event Planning & Services, Breakfast & Brunch, Comfort Food, Diners, American (Traditional), Caterers"
"671",43396,"Ben & Florentine","Verdun","QC","H3E 1A8",45.467797,-73.548342,"1","Restaurants, Diners, Food, Coffee & Tea, Breakfast & Brunch, Sandwiches"
"672",36837,"Ben & Florentine","La Prairie","QC","J5R 0R3",45.4120231321,-73.4682442686,"1","Restaurants, Coffee & Tea, Food, Sandwiches, Breakfast & Brunch, Diners"
"673",48783,"Golden Diner Family Restaurant","Toronto","ON","M5B 1M1",43.6621695,-79.3773938,"1","Mediterranean, Diners, Restaurants, Greek"
"674",160583,"Anthony's Cafe","Toronto","ON","M3C 1W1",43.7234422,-79.3371453,"1","American (Traditional), Restaurants, Bars, Lounges, Diners, Cafes, Nightlife"
"675",8709,"Wimpy's Diner","Thornhill","ON","L3T 2C6",43.8253807,-79.4263943,"1","American (Traditional), Canadian (New), Diners, Restaurants"
"676",82202,"The Loop Eating & Drinking","Calgary","AB","T2T",51.0239797,-114.1074214,"0","Breakfast & Brunch, Comfort Food, Diners, Food, Restaurants"
"677",136855,"Marketplace Café","Las Vegas","NV","89109",36.1283758336,-115.173286,"0","Restaurants, American (New), Cafes, Diners"
"678",128373,"Wallace's TapRoom","Pittsburgh","PA","15206",40.4622582,-79.9247818,"0","American (Traditional), Bars, Restaurants, Tapas Bars, Breakfast & Brunch, Nightlife, Diners, Lounges, American (New)"
"679",163323,"Marketplace Cafe","Scottsdale","AZ","85251",33.501888,-111.9291509,"1","Restaurants, American (New), American (Traditional), Cafes, Diners"
"680",3570,"Knife & Fork","Charlotte","NC","28212",35.2025261153,-80.7357189435,"1","Breakfast & Brunch, Restaurants, Diners"
"681",72608,"Uncle Maddio's Pizza Joint","Charlotte","NC","28202",35.226036841,-80.8431325124,"1","Breakfast & Brunch, Salad, Diners, Pizza, Restaurants"
"682",177748,"Donna Mac","Calgary","AB","T2R 0B5",51.043721,-114.0836927,"1","Diners, Restaurants, Canadian (New)"
"683",170416,"Linda's Hoosier Cafe","Mesa","AZ","85205",33.4231637291,-111.7216556278,"1","Diners, Coffee & Tea, Breakfast & Brunch, Food, American (Traditional), Restaurants"
"684",41963,"Sir Veza's Taco Garage","Chandler","AZ","85226",33.3003812482,-111.8984318152,"1","Restaurants, Mexican, Diners"
"685",73380,"The Hop Stop Diner","Glendale","AZ","85301",33.5390959,-112.1834701,"1","Restaurants, Diners, American (Traditional)"
"686",95466,"Robin's Nest","Kent","OH","44240",41.1542932,-81.3584558,"0","Food, Diners, Burgers, Breakfast & Brunch, Restaurants, Sandwiches"
"687",17812,"Harris Grill","Pittsburgh","PA","15232",40.4559632,-79.9313287,"1","Wine Bars, Diners, Burgers, Bars, Restaurants, Pubs, Seafood, Nightlife, Lounges, American (Traditional)"
"688",86233,"Black Bear Diner","Henderson","NV","89014",36.0698811698,-115.0828180835,"1","Burgers, Breakfast & Brunch, Restaurants, American (Traditional), Diners"
"689",3903,"Lili.Co","Montréal","QC","H2T 1K8",45.5215058,-73.5892091,"0","Breakfast & Brunch, Canadian (New), Nightlife, Cocktail Bars, Diners, Bars, Restaurants"
"690",51257,"Iron Rail Café","Henderson","NV","89002",35.9719102027,-114.9110812153,"1","Diners, Restaurants"
"691",118398,"Denny's","Monona","WI","53716",43.0485459,-89.3115943,"1","Breakfast & Brunch, Diners, American (Traditional), Restaurants"
"692",29135,"White Lily Diner","Toronto","ON","M4M 1G8",43.6588117,-79.3511769,"1","Breakfast & Brunch, Diners, Restaurants"
"693",84771,"Fine's Cellar","Scottsdale","AZ","85251",33.497568,-111.929223,"0","Bars, Diners, Nightlife, Wine Bars, Shopping, American (New), Sandwiches, Restaurants"
"694",11860,"Jerry's Restaurant","Phoenix","AZ","85016",33.4799768372,-112.0320873613,"1","Diners, Restaurants, Sandwiches, American (Traditional)"
"695",175954,"Denny's","Medina Township","OH","44256",41.1368314442,-81.7987664044,"1","Fast Food, Specialty Food, American (Traditional), Restaurants, Fruits & Veggies, Diners, Food, Breakfast & Brunch"
"696",106610,"Goody's Diner","Toronto","ON","M1L 4J2",43.7277252,-79.2827479,"0","Diners, Restaurants"
"697",3441,"Cannery Row Buffet","Las Vegas","NV","89122",36.1084168,-115.0570842,"0","Restaurants, Buffets, Diners"
"698",156956,"Denny's","Peoria","AZ","85345",33.5884982328,-112.2465833185,"1","Diners, American (New), American (Traditional), Restaurants, Breakfast & Brunch"
"699",101174,"Denny's","Las Vegas","NV","89119",36.1004044,-115.1193655,"1","Breakfast & Brunch, Diners, Restaurants, American (Traditional)"
"700",108939,"The Green Owl Cafe","Madison","WI","53704",43.0922759,-89.355528,"1","Cafes, Restaurants, Diners, Vegan, Vegetarian"
"701",68074,"ABC Bakery Coffee Shop","North York","ON","M2H 3B2",43.8068569,-79.3386906278,"1","Bakeries, Cafes, Diners, Food, Restaurants"
"702",30033,"Merry Ann's Diner","Champaign","IL","61820",40.1181331448,-88.242899908,"0","Sandwiches, Breakfast & Brunch, Restaurants, Diners, American (Traditional)"
"703",126702,"Waffle House","Kannapolis","NC","28083",35.480125,-80.6123864,"1","Waffles, American (Traditional), Breakfast & Brunch, Restaurants, Diners"
"704",186536,"Village Grill Restaurant","Toronto","ON","M8Y 2R1",43.6177246646,-79.4988833398,"1","Breakfast & Brunch, Diners, Restaurants, American (Traditional)"
"705",159465,"Cross Plains Family Restaurant","Cross Plains","WI","53528",43.1112226,-89.6430384,"0","American (Traditional), Diners, Breakfast & Brunch, Restaurants"
"706",157671,"Johnny Rockets","Gilbert","AZ","85295",33.3113601,-111.7414372,"1","Diners, Sandwiches, Fast Food, Restaurants, Burgers, Food, American (Traditional)"
"707",143237,"The Mad Greek of Charlotte - An Authentic Greek Cafe","Charlotte","NC","28217",35.1698647,-80.8756313,"1","Diners, Restaurants, American (Traditional), Greek, Cafes, Mediterranean, Breakfast & Brunch"
"708",72021,"Giggling Tomatoes","Brampton","ON","L6Y 0C7",43.6638183165,-79.7306238672,"1","Diners, Restaurants, American (Traditional), Italian, Breakfast & Brunch"
"709",144616,"The Horny Toad Saloon","Calgary","AB","T2V 0S6",50.9845349,-114.0827449,"0","Diners, Nightlife, Restaurants, Bars, Pubs"
"710",59292,"Fairport Family Restaurant","Fairport Harbor","OH","44077",41.756203,-81.276664,"1","Hungarian, Restaurants, Diners, Breakfast & Brunch"
"711",115869,"Cafe Landwer","Maple","ON","L6A 4N9",43.848944,-79.4599734,"1","Desserts, Food, Mediterranean, Diners, Coffee & Tea, Restaurants, Cafes, Breakfast & Brunch"
"712",55731,"Molinari's","Mentor","OH","44060",41.67344,-81.321784,"1","Wine Bars, Bars, Venues & Event Spaces, Nightlife, Party & Event Planning, Event Planning & Services, Diners, Pizza, Italian, Restaurants"
"713",34047,"50's Diner Omelet House","Las Vegas","NV","89121",36.1299939935,-115.1075548979,"1","Restaurants, Breakfast & Brunch, Comfort Food, Burgers, Diners, American (Traditional)"
"714",123061,"Waffle House","Cornelius","NC","28031",35.4822491,-80.8803029,"1","Breakfast & Brunch, Diners, Restaurants, American (New), Burgers, Sandwiches, American (Traditional), Fast Food"
"715",18596,"Billy's Diner","Toronto","ON","M4M 2V7",43.6619483,-79.3376035,"1","Restaurants, Diners"
"716",25492,"Hwy 55 Burgers Shakes & Fries","Matthews","NC","28104",35.1401106945,-80.6247519932,"0","Ice Cream & Frozen Yogurt, Cheesesteaks, Burgers, Food, Desserts, Diners, Restaurants, American (Traditional)"
"717",148260,"Sunset Grill","Etobicoke","ON","M8V 0E3",43.6226144814,-79.4826410942,"1","Breakfast & Brunch, Restaurants, Canadian (New), Diners"
"718",62358,"Cracker Barrel Old Country Store","Gastonia","NC","28054",35.2691841,-81.147399,"1","Comfort Food, Diners, Event Planning & Services, American (Traditional), Breakfast & Brunch, Restaurants, Caterers, Southern, Fast Food, Desserts, Salad, Food"
"719",133453,"My Friends Deli & Restaurant","Cleveland","OH","44102",41.483578,-81.7679424,"1","Food, American (Traditional), Delis, Coffee & Tea, Diners, Restaurants"
"720",113938,"Port City Club","Cornelius","NC","28031",35.4644316592,-80.8934640688,"1","Diners, Seafood, Restaurants, American (New), Steakhouses"
"721",67625,"Wimpy's Diner","Whitby","ON","L1N 4H2",43.880328,-78.941925,"1","Restaurants, Diners"
"722",51699,"Jac's Cafe","White Oak","PA","15131",40.3393343,-79.810269,"1","Restaurants, Diners, American (Traditional), Comfort Food"
"723",10471,"Steak ’n Shake","Concord","NC","28027",35.372168,-80.722624,"1","Steakhouses, Food, Burgers, American (New), Juice Bars & Smoothies, Breakfast & Brunch, American (Traditional), Fast Food, Diners, Restaurants"
"724",47067,"Mad Jack's Grill & Pub","Aurora","OH","44202",41.3116339,-81.3461536,"1","American (New), Restaurants, Bars, Nightlife, Diners, Wine Bars"
"725",157479,"Tom's Restaurant","Newmarket","ON","L3Y 8Y4",44.0592863,-79.4236629,"0","Restaurants, Breakfast & Brunch, Diners"
"726",108362,"Yvonne's Cafe","Tempe","AZ","85281",33.4214129644,-111.9671704996,"1","Restaurants, American (Traditional), Cafes, Diners"
"727",182456,"Good Ol' Days","Charlotte","NC","28226",35.096098,-80.785635,"0","American (Traditional), Restaurants, Diners, Breakfast & Brunch"
"728",154514,"Espace La Fontaine","Montréal","QC","H2L 0C7",45.5250956,-73.5700686,"1","Diners, Restaurants, Cafes, Breakfast & Brunch"
"729",134495,"Denny's","Glendale","AZ","85302",33.5815997,-112.1519333,"1","Restaurants, Breakfast & Brunch, American (Traditional), Diners"
"730",176068,"Denny's","Las Vegas","NV","89102",36.159466,-115.2305792564,"1","American (Traditional), Diners, Restaurants, Breakfast & Brunch"
"731",13645,"Mel's Cafe","Cleveland","OH","44113",41.4772447151,-81.6874149834,"1","Diners, Food Delivery Services, Restaurants, Event Planning & Services, Caterers, Food, Breakfast & Brunch, Sandwiches, Cafes"
"732",189381,"Fav Cafe","Richmond Hill","ON","L4B 3Z1",43.843875885,-79.3887023926,"0","Diners, Asian Fusion, Restaurants, Cafes, Chinese"
"733",12763,"Eat'n Park","Murrysville","PA","15668",40.4254472,-79.6714616,"1","Breakfast & Brunch, Restaurants, Diners, American (Traditional)"
"734",121737,"Ramona's Kitchen","Markham","ON","L3T 5Z2",43.8133323,-79.398554,"1","Breakfast & Brunch, Diners, Restaurants, American (Traditional)"
"735",150394,"Joe's Diner","Phoenix","AZ","85013",33.5026973268,-112.0820438552,"1","Restaurants, Diners, Breakfast & Brunch"
"736",122326,"The Ace","Toronto","ON","M6R 2L6",43.6461438,-79.4488097,"1","British, Breakfast & Brunch, Diners, Restaurants, Comfort Food, Canadian (New)"
"737",21325,"M&J's Eastside Deli","Toronto","ON","M1N 1R4",43.6873760584,-79.2712869868,"0","Breakfast & Brunch, Sandwiches, Diners, Delis, Restaurants"
"738",77687,"Eat'n Park","Edgewood","PA","15218",40.4263046,-79.8881651,"1","American (New), Diners, American (Traditional), Restaurants, Breakfast & Brunch"
"739",93624,"Global Cafe","Las Vegas","NV","89123",36.0415682,-115.1215253,"0","Restaurants, Diners, Breakfast & Brunch"
"740",153261,"Big Al's Diner","Cleveland","OH","44120",41.4876329307,-81.5954913272,"1","Breakfast & Brunch, Restaurants, Diners"
"741",3578,"Village Inn","Goodyear","AZ","85338",33.4771441,-112.3590618,"1","Diners, Breakfast & Brunch, American (Traditional), Restaurants"
"742",180754,"Buggy's Diner","Whitchurch-Stouffville","ON","L4A 1G5",43.9715786,-79.2458676,"0","Restaurants, Diners"
"743",7399,"Southside Diner","Parma","OH","44130",41.36356,-81.760632,"1","Food, Coffee & Tea, Restaurants, Breakfast & Brunch, American (New), Diners"
"744",162731,"Waffle House","Medina","OH","44256",41.1357014,-81.8021669,"1","Restaurants, Waffles, Diners, American (Traditional), Breakfast & Brunch"
"745",159759,"5 & Diner","Mesa","AZ","85206",33.3926904,-111.6930782,"0","American (Traditional), Diners, Restaurants"
"746",48883,"Moe's Southwest Grill","Fort Mill","SC","29708",35.0340684,-80.9693277,"1","Mexican, Restaurants, Latin American, Diners, Tex-Mex, Fast Food"
"747",113223,"Hot Rocks Creative Diner","Whitby","ON","L1N 3V6",43.8939316,-78.9278546,"1","Diners, Restaurants, Event Planning & Services, Caterers"
"748",153795,"Gray Dog Diner","Lakewood","OH","44107",41.4846504,-81.7834435,"1","Restaurants, Diners, Breakfast & Brunch"
"749",166573,"Golden Star Burgers","Thornhill","ON","L3T 2A8",43.8015863022,-79.4205856289,"1","Diners, Restaurants, Hot Dogs, Burgers"
"750",113688,"Wazuzu","Las Vegas","NV","89109",36.12757,-115.166312,"1","Asian Fusion, Diners, Restaurants"
"751",128681,"South Mountain Cafe","Phoenix","AZ","85040",33.394654,-112.0738511,"0","Diners, Restaurants, Mexican, American (New), Breakfast & Brunch, Cafes"
"752",8620,"Sunset Grill","Mississauga","ON","L4W 0E6",43.6366510404,-79.6215642141,"1","Breakfast & Brunch, Sandwiches, Canadian (New), Diners, Restaurants"
"753",145302,"Wimpy's Diner","Brampton","ON","L7A 0E4",43.709093,-79.7922425,"1","Diners, Restaurants"
"754",124340,"Waffle House","Dallas","NC","28034",35.3157236,-81.1934143,"1","Diners, Burgers, Breakfast & Brunch, Waffles, American (Traditional), Restaurants, Fast Food"
"755",91069,"Black Bear Diner","Gilbert","AZ","85233",33.3784717639,-111.7912952323,"1","Restaurants, Breakfast & Brunch, Diners, American (Traditional), American (New), Burgers"
"756",136088,"Kimmies","Fountain Hills","AZ","85268",33.604856,-111.715082,"0","Breakfast & Brunch, American (New), Restaurants, Diners"
"757",188346,"Waffle House","Indian Trail","NC","28079",35.085244,-80.661288,"1","Breakfast & Brunch, Restaurants, Diners, American (Traditional)"
"758",119587,"The 3 Brewers","Richmond Hill","ON","L4B 3J6",43.8472391902,-79.375839209,"1","Nightlife, Pubs, Beer, Wine & Spirits, Bars, Diners, Food, Breweries, Restaurants"
"759",176789,"Wallace & Co","Toronto","ON","M6P 3N2",43.6614406,-79.4482577,"0","Diners, Restaurants, Comfort Food, Breakfast & Brunch"
"760",140015,"Johnny Rockets","Las Vegas","NV","89117",36.1143212,-115.1708662,"1","Diners, American (Traditional), Sandwiches, Burgers, Restaurants"
"761",41556,"Maroli Indian Restaurant","Toronto","ON","M6G 1K7",43.6646432,-79.4145453,"1","Restaurants, Diners, Indian, Halal, Middle Eastern, Pakistani, Food Delivery Services, Event Planning & Services, Caterers, Food"
"762",38134,"Armstrong's","Pittsburgh","PA","15236",40.3596095475,-80.0024414062,"1","Steakhouses, Diners, American (Traditional), Restaurants"
"763",114587,"Master Steaks","Mississauga","ON","L4W 1E8",43.6535451,-79.6442017,"1","Steakhouses, Diners, Restaurants"
"764",109448,"KB","Whitby","ON","L1N 4H2",43.8803171,-78.9424631,"1","Nightlife, Canadian (New), Wine Bars, Gluten-Free, Local Flavor, Bars, Restaurants, Diners, Gastropubs, Vegetarian"
"765",64779,"Tin Tin Cafe","Charlotte","NC","28269",35.3408131,-80.7699807,"1","Japanese, Ramen, Teppanyaki, Diners, Sushi Bars, Asian Fusion, Restaurants"
"766",145402,"Eat'n Park","Pittsburgh","PA","15241",40.3398767621,-80.0530745321,"1","American (Traditional), Breakfast & Brunch, Restaurants, Diners"
"767",117357,"Mohave Grill","Calgary","AB","T2Z 3W4",50.9491955,-113.9826307,"1","Restaurants, Southern, Diners, Seafood"
"768",127667,"Denny's","Phoenix","AZ","85031",33.4958822615,-112.1692494303,"1","Restaurants, Breakfast & Brunch, Diners, American (Traditional)"
"769",140713,"Nota Bene","Toronto","ON","M5V 3X3",43.6507852,-79.3880479,"1","American (New), Wine Bars, Diners, Nightlife, Canadian (New), Restaurants, Bars"
"770",51671,"Campus Grill","Elyria","OH","44035",41.4198896309,-82.0775645971,"0","Restaurants, Diners, Greek, American (Traditional)"
"771",10650,"Redeye Diner","Charlotte","NC","28202",35.2253792,-80.8419644,"1","Breakfast & Brunch, Restaurants, Diners"
"772",189202,"Peroni Resto Bar","Montréal","QC","H3B",45.5001183,-73.5702591,"1","Salad, Restaurants, Bars, Burgers, Nightlife, Diners"
"773",90317,"Charlie's Restaurant","Cleveland","OH","44134",41.4193894,-81.6954343,"1","Breakfast & Brunch, Diners, Burgers, Restaurants"
"774",25894,"Gina's Place","Cleveland","OH","44126",41.4423469,-81.8629331,"1","American (Traditional), Breakfast & Brunch, Diners, Restaurants"
"775",132368,"Denny's","Fountain Hills","AZ","85268",33.5726357661,-111.7143777715,"1","Diners, American (Traditional), Restaurants, Breakfast & Brunch"
"776",20849,"The Coffee Cup","Boulder City","NV","89005",35.9776607,-114.8379495006,"1","Coffee & Tea, Diners, Restaurants, Food, Breakfast & Brunch"
"777",151786,"Family Cafe","Mesa","AZ","85210",33.3653686,-111.8591482,"0","Restaurants, American (Traditional), Breakfast & Brunch, Diners"
"778",18134,"Collegiate Lunch","Toronto","ON","M4M 1Z5",43.6688318,-79.3373052,"0","Diners, Restaurants"
"779",189295,"Mega Tom's Burgers","North Las Vegas","NV","89106",36.1971241,-115.178564,"1","Food, Breakfast & Brunch, Diners, Restaurants, Burgers"
"780",173394,"Gus's Diner","Sun Prairie","WI","53590",43.1891279,-89.2777098,"1","Breakfast & Brunch, American (Traditional), Restaurants, Sandwiches, Burgers, Diners"
"781",3147,"Universe","Calgary","AB","T2T 0C6",51.0376984,-114.0939733,"1","Restaurants, Breakfast & Brunch, Pizza, Diners"
"782",188016,"Tiffany's Cafe","Las Vegas","NV","89104",36.150704,-115.15304,"0","American (Traditional), Diners, Cafes, Breakfast & Brunch, Restaurants"
"783",62735,"The Waterfront","Pickering","ON","L1W 1P9",43.8138455,-79.0810856,"1","Nightlife, Bars, Restaurants, Steakhouses, Diners, Bistros, American (Traditional)"
"784",145907,"Halcyon","Charlotte","NC","28202",35.224421,-80.848247,"1","Restaurants, American (New), Modern European, Burgers, Nightlife, Tapas/Small Plates, Cocktail Bars, Diners, Bars"
"785",93088,"Victoire","Montréal","QC","H3B",45.5015307161,-73.5653650761,"1","Diners, Food Court, Restaurants, Fast Food"
"786",92166,"Farmer Boys","Henderson","NV","89074",36.0335082,-115.0471237,"1","Restaurants, Burgers, Breakfast & Brunch, Sandwiches, Diners, Salad, Mexican, American (Traditional)"
"787",163928,"5 & Diner Delux Surprise","Surprise","AZ","85374",33.6399115,-112.3040376,"1","Diners, Burgers, American (Traditional), Breakfast & Brunch, Restaurants"
"788",136875,"Galaxie Diner","Woodbridge","ON","L4L 5W6",43.7848483,-79.5693756,"1","Delis, Diners, Breakfast & Brunch, American (Traditional), Food, Restaurants"
"789",74338,"Denny's","North Las Vegas","NV","89130",36.2013606022,-115.1951158047,"1","Breakfast & Brunch, Diners, American (Traditional), American (New), Restaurants"
"790",149240,"Denny's","Cleveland","OH","44106",41.5120624,-81.6058206,"0","Restaurants, American (Traditional), Diners"
"791",102740,"Center Plate","Canonsburg","PA","15317",40.284731,-80.118874,"0","Restaurants, Diners"
"792",102198,"Sunset Grill","Richmond Hill","ON","L4S 0B2",43.899143,-79.394623,"1","Canadian (New), Restaurants, Diners, Breakfast & Brunch"
"793",136834,"Jackie Chen Asian Diner","Cleveland","OH","44134",41.4189571,-81.6963518,"1","Restaurants, Chinese, Diners, Asian Fusion"
"794",87338,"Melanie's Bistro & Patisserie","Toronto","ON","M4C 1J4",43.6849185,-79.3172223,"0","Italian, American (New), Diners, Breakfast & Brunch, Restaurants"
"795",30764,"Hot Metal Diner","West Mifflin","PA","15122",40.3607821,-79.9322507,"0","Restaurants, Diners"
"796",43163,"Merry Ann's Diner","Urbana","IL","61801",40.1068411,-88.2218579,"1","Breakfast & Brunch, Restaurants, American (Traditional), Diners"
"797",150354,"Black Bear Diner","Laveen","AZ","85339",33.378289,-112.1362979,"1","Breakfast & Brunch, Diners, Burgers, American (Traditional), Restaurants"
"798",176595,"Eat'n Park Restaurant","Pittsburgh","PA","15236",40.3458424,-79.9736453,"1","Restaurants, American (Traditional), Diners, Breakfast & Brunch"
"799",20417,"Kleifelds Restaurant","Willoughby","OH","44094",41.641648,-81.406743,"1","Diners, Restaurants, Breakfast & Brunch"
"800",43501,"Eggsmart","Toronto","ON","M8X 1B8",43.6478839843,-79.5077255825,"1","Breakfast & Brunch, Restaurants, Diners"
"801",164045,"Denny's","Las Vegas","NV","89109",36.1329932921,-115.1637866722,"1","Breakfast & Brunch, Diners, Restaurants, American (Traditional)"
"802",167309,"Ham N Eggers Diner","West Mifflin","PA","15122",40.3609502875,-79.93245,"1","Restaurants, Diners, Sandwiches, Breakfast & Brunch"
"803",123399,"The Katz Club Diner","Cleveland Heights","OH","44118",41.505854,-81.565087,"0","American (Traditional), Restaurants, Diners"
"804",164807,"Chang's Hong Kong Cuisine","Las Vegas","NV","89103",36.105081,-115.20764,"1","Dim Sum, Diners, Seafood, Cantonese, Chinese, Restaurants"
"805",11008,"Midnight Diner","Charlotte","NC","28202",35.2195,-80.8521952,"1","Restaurants, American (Traditional), Breakfast & Brunch, Diners"
"806",58364,"Fresh Start Diner","Twinsburg","OH","44087",41.3129231,-81.4421809,"1","Diners, Restaurants"
"807",131277,"Crown Point Restaurant","Charlotte","NC","28227",35.1453151,-80.7262496,"1","Diners, Restaurants, American (Traditional), Sandwiches"
"808",44815,"Dennys","Middleton","WI","53562",43.0906288,-89.5240901,"0","Restaurants, Diners"
"809",34500,"Orange Table","Scottsdale","AZ","85251",33.492272,-111.923057,"0","Greek, Beer, Wine & Spirits, American (Traditional), Restaurants, Mediterranean, Coffee & Tea, Diners, Sandwiches, Breakfast & Brunch, Food, Burgers"
"810",42202,"Johnny Rockets","Las Vegas","NV","89109",36.102262,-115.169965,"1","Restaurants, Fast Food, American (Traditional), Diners, Burgers, Sandwiches, Salad"
"811",29706,"Sunset Cafe","Henderson","NV","89014",36.0604553,-115.0410892,"0","Restaurants, Diners"
"812",59502,"PJ's Restaurant","Whitby","ON","L1N 4K3",43.877428,-78.9403592,"1","Restaurants, Cambodian, Sandwiches, Breakfast & Brunch, Diners"
"813",89608,"P & M Restaurant","York","ON","M9N 1W2",43.7008074,-79.5189344,"0","Diners, Restaurants"
"814",48047,"Cold Beers & Cheeseburgers","Gilbert","AZ","85297",33.2667706,-111.7220739,"1","Burgers, Bars, Nightlife, Salad, American (Traditional), Restaurants, Diners, Sandwiches"
"815",82732,"Binkley's Restaurant","Cave Creek","AZ","85331",33.8303689,-111.9316131,"0","Diners, American (New), Restaurants"
"816",69194,"Sonny's Kitchen","Oregon","WI","53575",42.9261244066,-89.3845486473,"1","Diners, American (Traditional), Breakfast & Brunch, Restaurants"
"817",103147,"Denny's","Gastonia","NC","28056",35.2580605,-81.115254,"1","Breakfast & Brunch, Diners, Restaurants, American (Traditional)"
"818",119256,"Steak ’n Shake","Rock Hill","SC","29730",34.976034,-80.9841647639,"1","Restaurants, Steakhouses, American (New), Burgers, Breakfast & Brunch, Diners, Fast Food, American (Traditional)"
"819",171273,"Denny's","Calgary","AB","T2Z 4V6",50.949498,-113.979773,"1","Restaurants, Diners, Breakfast & Brunch, American (Traditional)"
"820",60181,"Johnny Rockets","Toronto","ON","M5B 2L6",43.6655283,-79.4742022,"0","Burgers, American (Traditional), Restaurants, Diners"
"821",98575,"Eat'n Park","Bethel Park","PA","15102",40.332711,-80.024047,"1","Diners, Restaurants, American (Traditional), Breakfast & Brunch"
"822",176353,"Lido Cafe","Calgary","AB","T2N 1V3",51.0535877,-114.0855989,"0","Chinese, Restaurants, Diners"
"823",98715,"Durant's","Phoenix","AZ","85004",33.4772064084,-112.0735331216,"1","Burgers, Wine Bars, Restaurants, Steakhouses, Bars, Nightlife, Diners, Seafood"
"824",20378,"Denny's","Phoenix","AZ","85032",33.640200233,-112.0128826797,"1","Restaurants, Diners, American (Traditional), Breakfast & Brunch"
"825",75303,"One18 Empire","Calgary","AB","T2G 5J2",51.045078,-114.0627204,"1","Restaurants, Breakfast & Brunch, Bars, Diners, Nightlife, Cocktail Bars, Canadian (New)"
"826",40227,"Dee's Old Brooklyn Diner","Cleveland","OH","44109",41.4380425,-81.7079686,"0","Restaurants, Diners"
"827",142291,"Mattie's Diner","Charlotte","NC","28206",35.240652,-80.846624,"0","Diners, Breakfast & Brunch, American (Traditional), Restaurants"
"828",93400,"Swiss Chalet Rotisserie & Grill","Calgary","AB","T2Y 3H9",50.9016475,-114.0655678,"1","Restaurants, Diners, Comfort Food, American (Traditional)"
"829",145843,"Davisville Diner","Toronto","ON","M4S 1Z9",43.7013098,-79.3974301,"0","Restaurants, Diners"
"830",33137,"Mega Cafe","Las Vegas","NV","89147",36.1154163,-115.3140301,"0","American (Traditional), Diners, Food, Restaurants"
"831",98447,"Denny's","Elyria","OH","44035",41.40006,-82.1136387,"1","Restaurants, Breakfast & Brunch, American (Traditional), Diners"
"832",75193,"Denny's","Charlotte","NC","28216",35.3075772865,-80.8511995545,"1","Restaurants, Breakfast & Brunch, American (Traditional), Diners"
"833",41348,"The Place To Be","Lakewood","OH","44107",41.4854172628,-81.7992522644,"1","Breakfast & Brunch, Fast Food, Restaurants, American (Traditional), Diners"
"834",23923,"Bitter Ends Luncheonette","Pittsburgh","PA","15224",40.4625541,-79.9503411,"1","Restaurants, Diners, Sandwiches, Breakfast & Brunch"
"835",160048,"Corporate Cafe","Glendale","AZ","85301",33.5175547594,-112.168167487,"0","Breakfast & Brunch, American (Traditional), Greek, Restaurants, Mexican, Diners"
"836",24982,"Tutti Frutti","Rosemère","QC","J7A 2H2",45.6232514888,-73.8026211646,"1","Diners, Breakfast & Brunch, Restaurants"
"837",74119,"5 & Diner","Tempe","AZ","85282",33.3839522302,-111.9618288428,"0","Restaurants, Diners"
"838",48007,"Wayside Family Restaurant","Concord","NC","28025",35.4310545,-80.6007951,"1","Restaurants, Diners"
"839",53025,"The Bloor Street Diner","Toronto","ON","M4W 1A5",43.6695669793,-79.3890393194,"0","Restaurants, Diners"
"840",149072,"Johnny Rockets","Las Vegas","NV","89109",36.115652,-115.172511,"1","Restaurants, Diners, Burgers, Sandwiches, American (Traditional)"
"841",11902,"Kane's Harley Diner","Calgary","AB","T2G 0S9",51.041692,-114.03629,"1","Restaurants, Diners"
"842",56477,"Citrus the Diner","Denver","NC","28037",35.482793,-80.9949275,"1","Breakfast & Brunch, Diners, Restaurants"
"843",6577,"Wally's Grill","Etobicoke","ON","M9W 1P1",43.710837357,-79.5656713823,"1","Breakfast & Brunch, Diners, Restaurants"
"844",107866,"Bay Diner","Bay Village","OH","44140",41.477813,-81.9218828,"1","Breakfast & Brunch, Restaurants, Diners, American (Traditional)"
"845",184162,"Eat'n Park","Homestead","PA","15120",40.4118304,-79.9138428,"1","Breakfast & Brunch, Diners, American (New), Restaurants, Buffets, American (Traditional)"
"846",45797,"Our Diner","Imperial","PA","15126",40.4425135,-80.2382088,"1","Restaurants, Diners"
"847",101848,"Steak n' Shake","South Euclid","OH","44118",41.507755779,-81.5369412303,"0","Restaurants, Fast Food, Burgers, Diners"
"848",37880,"Maximillians Coyote Cafe","Phoenix","AZ","85016",33.5061569,-112.0310506,"0","Restaurants, Diners, Delis"
"849",58229,"Happy's Hamburgers","Scottsdale","AZ","85253",33.5816197,-111.92407,"1","Breakfast & Brunch, Diners, Restaurants, Burgers, American (Traditional), Hot Dogs"
"850",26592,"Michael's Restaurant & Bar","Rocky River","OH","44116",41.478853,-81.840272,"1","Bars, Greek, Nightlife, Restaurants, Diners, American (Traditional), Comfort Food, Mediterranean"
"851",94909,"Huntridge Pharmacy","Las Vegas","NV","89104",36.158183,-115.137781,"1","Pharmacy, Bars, Diners, Restaurants, Health & Medical, Shopping, Vegetarian, Food, Doctors, Drugstores, Nightlife"
"852",161944,"Denny's","Las Vegas","NV","89103",36.100377,-115.2099285,"1","Breakfast & Brunch, Food, Restaurants, Coffee & Tea, Diners, American (Traditional)"
"853",90807,"Station Casino","Las Vegas","NV","89135",36.1547947,-115.3314467,"1","Diners, Event Planning & Services, Hotels & Travel, Nightlife, Restaurants, Hotels, Casinos, Arts & Entertainment, Food"
"854",186963,"Steak ’n Shake","Garfield Heights","OH","44125",41.4098963,-81.6187157482,"1","Diners, Fast Food, American (Traditional), Burgers, Restaurants, American (New), Breakfast & Brunch"
"855",137756,"Waffle Love - Vegas Truck","Las Vegas","NV","89104",36.149751,-115.0762536,"0","Food, Restaurants, Food Trucks, Waffles, Diners, Breakfast & Brunch"
"856",125796,"Mike's Liberty Grill","Toronto","ON","M6K",43.6373009,-79.4244342,"1","Diners, Restaurants"
"857",178506,"Belmont Diner","Calgary","AB","T2T 1Z5",51.024237,-114.107475,"1","Diners, Restaurants"
"858",137360,"Ricky's All Day Grill","Calgary","AB","T3G 4P5",51.1254256627,-114.2116592891,"1","Diners, Breakfast & Brunch, Restaurants, American (Traditional), American (New)"
"859",72697,"Keriwa Cafe","Toronto","ON","M6R 1B3",43.639115,-79.4442339,"0","Canadian (New), Cafes, Restaurants, Diners"
"860",138826,"Rochester's Family Dining & Sports Bar","Mesa","AZ","85206",33.402147,-111.726313,"1","Food, Coffee & Tea, Restaurants, Bars, Breakfast & Brunch, American (New), Burgers, Nightlife, Diners, Sports Bars, Event Planning & Services, Caterers"
"861",112156,"The Curve","Madison","WI","53715",43.0600205,-89.4005033,"1","Restaurants, Diners, Breakfast & Brunch"
"862",181828,"Denny's","Las Vegas","NV","89103",36.1011727484,-115.1851048695,"1","Breakfast & Brunch, Diners, American (Traditional), Restaurants"
"863",144899,"Great Links Brewhouse & Grill","Las Vegas","NV","89130",36.2397672787,-115.2259352022,"1","Sandwiches, Hot Dogs, Burgers, Restaurants, Diners, American (Traditional)"
"864",136422,"Mythology Diner","Toronto","ON","M6K 1L4",43.6415973621,-79.431304404,"1","Breakfast & Brunch, Restaurants, Diners, Vegan"
"865",134609,"Denny's","Concord","NC","28027",35.3703684316,-80.7178643346,"1","Diners, American (Traditional), Breakfast & Brunch, Restaurants"
"866",142681,"More Than Grilled Cheese Diner","Brentwood","PA","15227",40.3723038,-79.982203,"0","Diners, Breakfast & Brunch, Restaurants, American (Traditional), Burgers"
"867",79806,"The Joy Bus Diner","Phoenix","AZ","85028",33.5820979,-112.0086535,"1","Restaurants, Diners, Breakfast & Brunch, Community Service/Non-Profit, Local Services"
"868",170569,"Waffle House","Phoenix","AZ","85040",33.4155951,-112.0079778,"1","Restaurants, Breakfast & Brunch, Diners, American (New), Sandwiches, American (Traditional), Salad"
"869",107925,"Nana Dee's Diner","Mesa","AZ","85206",33.3926984,-111.693065,"1","Diners, Breakfast & Brunch, Sandwiches, Restaurants"
"870",73240,"Fair Oaks Diner","Madison","WI","53714",43.0985861,-89.3341647,"1","Diners, Food, Restaurants"
"871",37964,"Sizzling Skillet","Toronto","ON","M1G 3M6",43.7769114116,-79.2312844673,"1","Restaurants, Diners, Halal"
"872",102542,"Devil's Diner","Tempe","AZ","85281",33.4243526355,-111.9240450847,"0","Diners, Restaurants, Breakfast & Brunch"
"873",124289,"Friendly's of Stanley","Stanley","NC","28164",35.359748,-81.096619,"1","Diners, Restaurants"
"874",39486,"Glassport Diner","Glassport","PA","15045",40.325124,-79.8921998,"1","Restaurants, American (Traditional), Diners"
"875",42999,"Windy City Cafe","Tempe","AZ","85284",33.3485992,-111.9096219,"0","Diners, Burgers, American (New), Cafes, Restaurants, Breakfast & Brunch"
"876",69981,"Waffle House","Charlotte","NC","28216",35.3058577,-80.8509471,"1","American (Traditional), American (New), Breakfast & Brunch, Diners, Burgers, Fast Food, Restaurants"
"877",11101,"Millvale Diner","Pittsburgh","PA","15209",40.4820495757,-79.9742754325,"1","American (Traditional), Grocery, Restaurants, Diners, Breakfast & Brunch, Food"
"878",151795,"Village Inn","Mesa","AZ","85212",33.3248801415,-111.688051888,"1","Restaurants, American (Traditional), Breakfast & Brunch, Soup, Diners"
"879",12908,"No Name Coffee Shop","Pittsburgh","PA","15226",40.3954238,-80.0226468,"1","Diners, Food, Coffee & Tea, Restaurants"
"880",176803,"Blueberry Hill Family Restaurant","Las Vegas","NV","89119",36.114273,-115.1327773,"1","Breakfast & Brunch, Restaurants, Diners"
"881",108690,"Hot Stove Club","Toronto","ON","M5J 2X2",43.6435205,-79.3790818,"1","Diners, Arts & Entertainment, Dance Clubs, Stadiums & Arenas, Seafood, Nightlife, Steakhouses, American (Traditional), Restaurants"
"882",53793,"Carmona's Cafe","Monticello","IL","61856",40.0252183,-88.5727367,"0","Cafes, Diners, Restaurants"
"883",114515,"Trolley Barn Eatery","Pittsburgh","PA","15234",40.3684469,-80.0130116,"1","Caterers, Restaurants, Diners, Breakfast & Brunch, Food, Coffee & Tea, Event Planning & Services"
"884",179788,"IHOP","Peoria","AZ","85345",33.56521,-112.2877128,"1","American (Traditional), Diners, Burgers, American (New), Breakfast & Brunch, Restaurants"
"885",54498,"Patati Patata","Montréal","QC","H2W 1Y7",45.518041,-73.581514,"1","Poutineries, Diners, French, Burgers, Restaurants"
"886",160637,"Eighty Acres Kitchen & Bar","Pittsburgh","PA","15239",40.451436,-79.714752,"1","American (New), Restaurants, Bars, Diners, Nightlife"
"887",931,"Bink's Kitchen & Bar - Scottsdale","Scottsdale","AZ","85250",33.5257467786,-111.9246715533,"0","Diners, Restaurants, American (New), Breakfast & Brunch, Seafood"
"888",58499,"Johnny Rockets","Las Vegas","NV","89109",36.127648,-115.173236,"1","Diners, Restaurants, Sandwiches, Burgers, American (Traditional)"
"889",186724,"Dame Tartine Dejeuner Et Diner","Montréal","QC","H2L 1S7",45.5252377,-73.5599957,"1","Restaurants, Diners, Breakfast & Brunch"
"890",70043,"Naya Cuisine","Pittsburgh","PA","15217",40.434190366,-79.9230114,"1","Diners, Restaurants, Middle Eastern"
"891",67392,"Paulo & Suzanne","Montréal","QC","H4J 1C8",45.5338507,-73.7172175,"1","Poutineries, Diners, Restaurants"
"892",25999,"Recess Diner","Toronto","ON","M6J 3C2",43.6414682,-79.4216844,"0","Food, Bars, Restaurants, Diners, Ice Cream & Frozen Yogurt, Nightlife, Cocktail Bars"
"893",143418,"Denny's","Las Vegas","NV","89031",36.2609532,-115.1804167,"1","Breakfast & Brunch, American (Traditional), Restaurants, Diners"
"894",164220,"Texas Land & Cattle","Concord","NC","28027",35.3654956,-80.7120321,"0","Nightlife, Restaurants, American (Traditional), Comfort Food, Diners, Seafood, Steakhouses, Bars"
"895",122329,"C3 Kitchen","Scottsdale","AZ","85260",33.6236476738,-111.9238903373,"0","Coffee & Tea, Cafes, Diners, Breakfast & Brunch, American (New), Food, Restaurants"
"896",65255,"Bella Luna Ristorante","Goodyear","AZ","85395",33.484154,-112.363139,"1","Restaurants, Diners, Italian, Seafood"
"897",54439,"Bière Au Menu","Bois-des-Filion","QC","J6Z 4H3",45.6653811,-73.7612391,"1","German, Diners, Modern European, Restaurants, Sandwiches"
"898",127010,"Mom's Diner","Solon","OH","44139",41.4248138,-81.4798168,"0","Restaurants, Diners"
"899",169017,"Ben & Florentine","Anjou","QC","H1J 2Z9",45.6066875,-73.5864841,"1","Breakfast & Brunch, Restaurants, Food, Diners, Canadian (New), Sandwiches, Coffee & Tea"
"900",70154,"The Playpen Restaurant","Toronto","ON","M4M 1Y7",43.6676419,-79.3431869,"0","Lounges, Restaurants, Nightlife, Diners, Bars"
"901",16854,"Denny's","Las Vegas","NV","89109",36.1040631,-115.1724967,"1","Restaurants, Breakfast & Brunch, Diners, American (Traditional)"
"902",83387,"Gus's Diner - Verona","Verona","WI","53593",42.9952195,-89.517999,"1","Restaurants, Diners"
"903",146558,"Harvest Kitchen","Toronto","ON","M5S 1G8",43.662723,-79.4043569,"1","Local Flavor, Restaurants, Salad, Coffee & Tea, Comfort Food, Italian, Gastropubs, Nightlife, Breakfast & Brunch, Food, Vegetarian, Diners, Burgers, Bars, Coffee Roasteries, Juice Bars & Smoothies, Canadian (New)"
"904",57877,"Ô Zeu","Montréal","QC","H1N 1C9",45.583853,-73.542125,"1","Diners, Restaurants, Breakfast & Brunch"
"905",26062,"Northside Café and Chinese Kitchen","Las Vegas","NV","89109",36.1423694,-115.156034,"1","Breakfast & Brunch, Restaurants, Diners, Cafes"
"906",186005,"Zeller's Family Diner","Toronto","ON","M4C 1M7",43.6896703,-79.2959784,"0","Restaurants, Diners"
"907",66683,"Sourdough Cafe","Las Vegas","NV","89107",36.1636834,-115.207039,"1","Diners, American (Traditional), Breakfast & Brunch, Food, Restaurants"
"908",191822,"Denny's","Henderson","NV","89014",36.0558473557,-115.0378847122,"1","Diners, Restaurants, American (Traditional), Breakfast & Brunch"
"909",9006,"Prairie Diner","Sun Prairie","WI","53590",43.1881337,-89.2308137,"1","Diners, Restaurants"
"910",34586,"Megans Family Restaurant","Bedford","OH","44146",41.3893342,-81.5336277,"1","Diners, Restaurants"
"911",133387,"Top of the World","Las Vegas","NV","89104",36.147408,-115.155726,"1","Restaurants, Seafood, Nightlife, Steakhouses, Diners, American (Traditional), Bars"
"912",95432,"Boardwalk Billy's Raw Bar And Ribs","Charlotte","NC","28262",35.3106136,-80.7496372,"1","Bars, Sports Bars, Sandwiches, Nightlife, American (Traditional), Diners, Barbeque, Restaurants"
"913",132540,"Trafalgar Steakhouse & Grill Restaurant","Milton","ON","L0P",43.5665869487,-79.8233437607,"1","Steakhouses, Diners, American (New), Restaurants"
"914",59490,"Bus Terminal Diner","Toronto","ON","M4C",43.683729,-79.3231178,"0","Restaurants, Breakfast & Brunch, Diners"
"915",132482,"Gracie's Tax Bar","Phoenix","AZ","85007",33.45641,-112.082211,"1","Restaurants, Nightlife, Lounges, Dive Bars, Fast Food, Bars, Diners, Food"
"916",24803,"Carnegie Diner","Carnegie","PA","15106",40.407946,-80.085541,"0","Restaurants, Diners"
"917",82684,"Port Credit Social House","Mississauga","ON","L5G 4N1",43.5523927,-79.5829879,"1","Nightlife, Pubs, Bars, Restaurants, Diners"
"918",186541,"Diner On 55th","Cleveland","OH","44103",41.5228182,-81.6522855,"1","Breakfast & Brunch, Diners, Restaurants"
"919",179262,"Sunset Grill","Etobicoke","ON","M9C 1A8",43.6198094009,-79.5542589863,"1","Diners, Canadian (New), Restaurants, Salad, Breakfast & Brunch, Bagels, Food"
"920",147870,"Lawrence","Montréal","QC","H2T 1S4",45.524132,-73.594817,"1","Canadian (New), French, Restaurants, Diners, Soup, American (New), Modern European, Breakfast & Brunch, Tapas/Small Plates"
"921",143170,"Assembly Chef's Hall","Toronto","ON","M5H 2G4",43.6503522,-79.3837951,"1","Japanese, Barbeque, Ramen, Public Markets, Pizza, Food Court, Restaurants, Food, Cafes, Vegan, Sushi Bars, Shopping, Diners, Bars, Breakfast & Brunch, Coffee & Tea, Nightlife"
"922",95417,"Diner's Corner","Toronto","ON","M4Y 1W6",43.666679,-79.386262,"0","Diners, Caribbean, Restaurants"
"923",183218,"Village Cafe","Cottage Grove","WI","53527",43.0863341,-89.2027155,"1","Beer, Wine & Spirits, Diners, Breakfast & Brunch, Restaurants, Food"
"924",41578,"John Anthony's Restaurant Lounge & Banquets","Pittsburgh","PA","15239",40.4784732,-79.7587108,"1","Diners, Buffets, Bars, Restaurants, Nightlife, Italian, Lounges"
"925",141271,"Eat'n Park","North Versailles","PA","15137",40.3852016135,-79.8244071007,"1","Restaurants, American (Traditional), Diners, Buffets, Breakfast & Brunch"
"926",50304,"Don's Diner","Pittsburgh","PA","15212",40.4716476,-80.037313,"1","Diners, Restaurants"
"927",150093,"Bob's Diner","Imperial","PA","15126",40.451095,-80.239252,"0","Diners, Restaurants"
"928",175967,"Dinette Triple Crown","Montréal","QC","H2S 3G2",45.5312258387,-73.6126363277,"1","Restaurants, Diners, American (Traditional), Southern"
"929",36850,"Shore Restaurant","Lakewood","OH","44107",41.4838161,-81.7728993,"1","Restaurants, Diners"
"930",22009,"Johnny Rockets","Las Vegas","NV","89109",36.127366,-115.17318,"1","Burgers, American (Traditional), Restaurants, Sandwiches, Diners"
"931",115658,"Tom's Diner Southside","Pittsburgh","PA","15203",40.42909,-79.981298,"0","Diners, Restaurants"
"932",89691,"Ease Modern Comfort Cuisine","Pittsburgh","PA","15218",40.4327021,-79.8941907,"1","Breakfast & Brunch, Salad, Bars, Diners, Comfort Food, Nightlife, Burgers, American (New), Cocktail Bars, Restaurants"
"933",112817,"Winneburger","Montréal","QC","H2V 4K8",45.5239099,-73.6054583,"1","Diners, Restaurants, Food, Food Trucks"
"934",17299,"Mahomet Family Restaurant","Mahomet","IL","61853",40.1953569,-88.4258636,"1","Diners, Restaurants, Breakfast & Brunch, American (Traditional)"
"935",34752,"Denny's","Mesa","AZ","85210",33.3937655,-111.8406028,"1","Restaurants, Diners, Breakfast & Brunch, American (Traditional)"
"936",15967,"Abby's Grill-Cafe","Phoenix","AZ","85022",33.6057608,-112.0362059,"0","Breakfast & Brunch, American (Traditional), Diners, Restaurants"
"937",8416,"O'Leary's","Pittsburgh","PA","15289",40.4286375,-79.9836356,"1","Restaurants, Diners"
"938",12653,"Katz's Deli and Corned Beef Emporium","North York","ON","M6A 2T5",43.7215267,-79.4568963,"1","Event Planning & Services, Caterers, Restaurants, Diners, Sandwiches, Delis"
"939",115048,"Borderline Cafe","Lakewood","OH","44107",41.4821396,-81.8271719,"1","Breakfast & Brunch, Diners, Restaurants"
"940",41937,"Rich II Fine Cuisine","Markham","ON","L3R 9V4",43.8258159826,-79.3043476139,"0","Seafood, Steakhouses, Restaurants, French, Diners"
"941",189115,"Local 002 Public Tavern & Kitchen","Calgary","AB","T3E 7M7",51.0067324,-114.1299713,"0","Nightlife, Bars, Restaurants, Diners"
"942",148748,"Tick Tock Tavern","Cleveland","OH","44102",41.4873908,-81.7671191,"1","Chicken Wings, Barbeque, American (Traditional), Restaurants, Diners, Dive Bars, Pubs, Greek, Bars, Nightlife"
"943",145309,"Ethiopian House Restaurant","Toronto","ON","M4Y 1K9",43.6666765,-79.3857948,"1","Restaurants, Diners, Ethiopian"
"944",57971,"I Went To Philly","Toronto","ON","M4Y 1S9",43.6618632,-79.3833046,"0","Diners, American (New), Restaurants"
"945",22017,"Jennifer's Restaurant","Strongsville","OH","44136",41.346936,-81.8239805,"1","American (Traditional), Restaurants, Diners, Breakfast & Brunch"
"946",952,"Johnny Rockets","Las Vegas","NV","89139",36.0414,-115.184424,"1","Burgers, Diners, Restaurants, Fast Food, Sandwiches, American (Traditional)"
"947",128182,"Hadley's","Toronto","ON","M6H",43.6534105,-79.4272729,"0","Canadian (New), Restaurants, Diners, American (New), Barbeque"
"948",90983,"Asadero Cocina + Cantina","Scottsdale","AZ","85250",33.5153886054,-111.9249063422,"1","Restaurants, Breakfast & Brunch, Diners"
"949",66756,"George's  Kitchen","Cleveland","OH","44111",41.464958,-81.783099,"1","Restaurants, Diners, Comfort Food"
"950",77073,"The Wine Shop","Charlotte","NC","28273",35.1023996,-80.9845604,"1","Wine Bars, American (New), Nightlife, Diners, Food, Beer, Wine & Spirits, Bars, Restaurants"
"951",141221,"Luma Restaurant","Pittsburgh","PA","15215",40.489099,-79.9007219,"0","American (New), Diners, Restaurants"
"952",114858,"Wimpy's Diner","Newmarket","ON","L3Y 2N9",44.0587001842,-79.4614599997,"1","Restaurants, Seafood, Desserts, Breakfast & Brunch, Food, Diners"
"953",84871,"Diners Thai","Toronto","ON","M4K 1P1",43.6773658,-79.3515301,"1","Diners, Thai, Restaurants"
"954",78131,"Cantina Fellini","Brampton","ON","L6X 1M8",43.686364,-79.760781,"1","Diners, Bars, Restaurants, Italian, Breakfast & Brunch, Nightlife, French, Wine Bars"
"955",27859,"Nadine's","Pittsburgh","PA","15203",40.4263872,-79.967246,"1","American (Traditional), Diners, Restaurants"
"956",153817,"Country Boys","Phoenix","AZ","85029",33.5989689,-112.1343122,"1","Diners, Restaurants"
"957",34852,"Resto le Douglas","Napierville","QC","J0J 1L0",45.1942849993,-73.4479957312,"1","Breakfast & Brunch, American (Traditional), Event Planning & Services, Hotels & Travel, Hotels, Diners, Restaurants, Canadian (New)"
"958",157104,"The Greek Spot","Toronto","ON","M6R",43.6508886846,-79.4506037235,"0","Diners, Greek, Restaurants"
"959",77377,"Steak ’n Shake","Champaign","IL","61822",40.1404083,-88.2573124766,"1","Fast Food, Burgers, American (New), Juice Bars & Smoothies, Restaurants, Food, American (Traditional), Breakfast & Brunch, Diners"
"960",180694,"Eat'n Park","Pittsburgh","PA","15237",40.5384867,-80.011177,"1","American (Traditional), Restaurants, Breakfast & Brunch, Diners"
"961",188939,"Doc And Lennies","Cleveland","OH","44106",41.4998363,-81.6233091,"1","Diners, Restaurants, Soul Food"
"962",63048,"Planet Dailies","Las Vegas","NV","89109",36.109803,-115.170554,"0","American (Traditional), Diners, Breakfast & Brunch, American (New), Restaurants, Sandwiches"
"963",190932,"Snooze, An A.M. Eatery","Tempe","AZ","85281",33.4238394936,-111.9348013685,"1","Food, Restaurants, Coffee & Tea, Breakfast & Brunch, Diners, Sandwiches"
"964",31312,"The Country Store","Venetia","PA","15367",40.2456467942,-80.0381570309,"1","Restaurants, Convenience Stores, Delis, Grocery, Food, Diners"
"965",9352,"Wimpy's Diner","Scarborough","ON","M1K 1L6",43.7159074,-79.2617139,"1","Restaurants, Diners"
"966",181395,"Michelle's Cafe","Lagrange","OH","44050",41.246141,-82.118348,"1","Breakfast & Brunch, Cafes, Restaurants, Diners, Burgers"
"967",74191,"Big T's BBQ & Smokehouse","Calgary","AB","T2M 4N5",51.0708223,-114.1170388,"1","Diners, Restaurants, Breakfast & Brunch, Barbeque"
"968",90190,"Pinky's Cafe","Phoenix","AZ","85022",33.6080382,-112.0662445,"0","Restaurants, Diners, Delis"
"969",98686,"Yours Truly Restaurants","Mayfield Village","OH","44143",41.539643,-81.437898,"1","Breakfast & Brunch, American (Traditional), Diners, Restaurants"
"970",172583,"Carrow's Family Restaurant","Sun City","AZ","85351",33.6379617,-112.2728617,"0","American (Traditional), Diners, Restaurants"
"971",184966,"Spring Garden Restaurant","Waunakee","WI","53597",43.1907952,-89.4617737,"1","Diners, Restaurants, Mediterranean"
"972",47509,"Skinny Pete's Kitchen","Pittsburgh","PA","15202",40.501896,-80.069952,"0","American (Traditional), Sandwiches, American (New), Diners, Pizza, Restaurants"
"973",9420,"Kristopher's Place","Pittsburgh","PA","15217",40.4220742,-79.928603,"0","Restaurants, Delis, Diners"
"974",86486,"Yasoo","Cuyahoga Falls","OH","44223",41.1598280498,-81.5091133118,"0","Restaurants, Breakfast & Brunch, American (Traditional), Diners"
"975",40594,"Blueberry Hill Family Restaurant","Las Vegas","NV","89102",36.156431,-115.2077526,"1","Restaurants, Diners, American (Traditional), Breakfast & Brunch"
"976",4350,"Pickles","Champaign","IL","61820",40.1111456,-88.2441689,"0","Diners, Restaurants, Sandwiches, Burgers, American (Traditional)"
"977",8869,"Steve's Family Restaurant","Cleveland","OH","44109",41.4346077,-81.6968199,"1","Breakfast & Brunch, Diners, Restaurants, American (Traditional)"
"978",118367,"Sweet Peaches","Pittsburgh","PA","15210",40.421766,-79.9959259,"0","Event Planning & Services, Breakfast & Brunch, Restaurants, Diners, Caterers"
"979",61265,"Cherry Street Restaurant","Toronto","ON","M5A 3L3",43.6455302965,-79.3524653838,"0","Food, Restaurants, Diners"
"980",77150,"Perkins Restaurant & Bakery","Madison","WI","53713",43.0355008815,-89.4086769067,"1","American (Traditional), Food, Cafes, Diners, Restaurants, Breakfast & Brunch, Bakeries"
"981",156357,"Denny's","Calgary","AB","T3B 3R6",51.085073,-114.208441,"1","Diners, Breakfast & Brunch, Restaurants, American (Traditional)"
"982",130254,"Humpty's Family Restaurants","Calgary","AB","T3H 3C8",51.0157251,-114.1686161,"0","Shopping, Shopping Centers, Breakfast & Brunch, Restaurants, Diners"
"983",140933,"Wild Berry Diner","Mesa","AZ","85205",33.4152055,-111.7275102,"1","Diners, Restaurants, Breakfast & Brunch"
"984",110743,"Steak ’n Shake","Akron","OH","44310",41.1168861292,-81.4856667712,"1","American (New), Burgers, Restaurants, Diners, Breakfast & Brunch, Fast Food, American (Traditional)"
"985",8014,"Miller & Kasper","Gastonia","NC","28052",35.2637329102,-81.1819915771,"0","Diners, Sandwiches, Restaurants, Hot Dogs, Food"
"986",170900,"Monki Bistro","Calgary","AB","T3C 0J2",51.0440112139,-114.0915369987,"1","Specialty Food, Chocolatiers & Shops, Breakfast & Brunch, Bistros, Tapas/Small Plates, Desserts, Food, Restaurants, Fondue, American (Traditional), Diners"
"987",161427,"Moss Park Restaurant","Toronto","ON","M5A 1S2",43.6542017,-79.3704857,"0","Diners, Restaurants"
"988",31819,"George's Dinner Bell Diner","Painesville","OH","44077",41.706539,-81.238443,"0","Diners, Restaurants"
"989",84984,"Lunch Box","Phoenix","AZ","85017",33.5237266753,-112.113874627,"1","Mexican, Breakfast & Brunch, Diners, Restaurants, American (Traditional)"
"990",188373,"Ben & Florentine","Candiac","QC","J5R 6E6",45.375709,-73.503626,"1","Breakfast & Brunch, French, Food, Diners, Restaurants, Coffee & Tea"
"991",188404,"Johnny Rockets","Las Vegas","NV","89107",36.172596,-115.195674,"1","Burgers, Restaurants, Sandwiches, Diners, American (Traditional)"
"992",122943,"The Homeway","Toronto","ON","M4P 2L7",43.7125495,-79.3914071,"1","Diners, Restaurants"
"993",67950,"Johnny Rockets","Tempe","AZ","85282",33.383544,-111.963796,"1","Burgers, Restaurants, Sandwiches, Fast Food, Diners, American (Traditional)"
"994",93356,"Deli on the Boulevard","Peoria","AZ","85383",33.7413011,-112.3207963,"0","Diners, Delis, Restaurants, Breakfast & Brunch"
"995",116935,"Our Families Country Cafe","Las Vegas","NV","89179",35.997073,-115.244096,"1","Sandwiches, Food, Diners, American (Traditional), Breakfast & Brunch, Restaurants"
"996",96408,"Table 21 Kitchen & Wine Bar","Toronto","ON","M8X 1G2",43.6481585463,-79.5084975176,"1","Gastropubs, Diners, Nightlife, Cocktail Bars, Breakfast & Brunch, Wine Bars, Canadian (New), Bars, American (Traditional), Lounges, Restaurants"
"997",99159,"Sunset Grill","Toronto","ON","M9N 2B1",43.7112176896,-79.5352197066,"1","Breakfast & Brunch, Restaurants, American (Traditional), Diners, Canadian (New)"
"998",156743,"Chez Catherine","Montréal","QC","H2Y 1H9",45.5059722,-73.5530773,"1","Ice Cream & Frozen Yogurt, Coffee & Tea, Food, Creperies, Restaurants, Diners"
"999",133062,"Nouveau Palais","Montréal","QC","H2V 4K8",45.523981,-73.605515,"1","Breakfast & Brunch, Diners, Restaurants, Food"
"1000",192298,"Eat'n Park","Pittsburgh","PA","15235",40.4675589448,-79.8252390686,"1","Diners, American (Traditional), American (New), Restaurants, Buffets, Breakfast & Brunch"
"1001",77410,"Luna's Deli & Restaurant","Cleveland","OH","44129",41.4189345,-81.7291399,"1","American (Traditional), Sandwiches, Mediterranean, Diners, Delis, Restaurants"
"1002",86005,"Olde Towne Glendale Wine and Beer Bar","Glendale","AZ","85301",33.5384875237,-112.1831784171,"0","Nightlife, Beer Bar, Bars, Italian, Arts & Entertainment, Music Venues, Restaurants, Food, Diners, Wine Bars, Beer, Wine & Spirits"
"1003",115863,"St. Clair Diner","East York","ON","M4B 1N4",43.7073034,-79.3036354,"0","Diners, American (Traditional), Restaurants, Greek"
"1004",123166,"Cafe On The Strip","Pittsburgh","PA","15222",40.4505107,-79.9843677,"0","Diners, American (New), Restaurants"
"1005",79119,"Denny's","Glendale","AZ","85306",33.6104324566,-112.170725977,"1","American (Traditional), Diners, Restaurants, Breakfast & Brunch"
"1006",96850,"Macy's Diner & Delicatessen","Mississauga","ON","L5J 1K5",43.5064432,-79.6354266,"0","Delis, Sandwiches, Diners, Restaurants"
"1007",21011,"Country Boys Restaurants","Phoenix","AZ","85019",33.5236775,-112.1501708,"1","Restaurants, Breakfast & Brunch, Diners"
"1008",140711,"Uncle Betty's Diner","Toronto","ON","M4P 2J3",43.7144336,-79.4001549,"1","Restaurants, Diners"
"1009",173705,"Metro Diner","Matthews","NC","28105",35.1268022,-80.7082811,"1","American (Traditional), Diners, Restaurants, Breakfast & Brunch"
"1010",160542,"Wimpy's Diner","Aurora","ON","L4G",44.0105343095,-79.4481765566,"1","Restaurants, Desserts, Food, Breakfast & Brunch, Burgers, Diners, Seafood"
"1011",156247,"Denny's","Phoenix","AZ","85022",33.5971444618,-112.0369532386,"1","Restaurants, American (Traditional), Fast Food, Diners, Breakfast & Brunch"
"1012",160179,"Waffle House","Phoenix","AZ","85023",33.6405905,-112.1127549,"1","Breakfast & Brunch, Diners, Restaurants, Burgers, American (Traditional), Waffles"
"1013",49382,"Claudette's Cafe and Deli","Westlake","OH","44145",41.4513488,-81.9145075,"1","Breakfast & Brunch, Delis, Mediterranean, Cafes, Diners, Restaurants"
"1014",31369,"Raffles Cafe","Las Vegas","NV","89119",36.090754,-115.1766701,"0","Diners, Cafes, American (Traditional), Burgers, Restaurants, Sandwiches"
"1015",103532,"Denny's","Las Vegas","NV","89130",36.2012277467,-115.1952540169,"1","Breakfast & Brunch, Restaurants, Diners, American (Traditional)"
"1016",109457,"Big Earl's Greasy Eats","Cave Creek","AZ","85331",33.832191,-111.94822,"1","Burgers, Breakfast & Brunch, Diners, Restaurants, Beer, Wine & Spirits, Cafes, Food, American (Traditional)"
"1017",37056,"Craftsman Table & Tap","Middleton","WI","53562",43.106774,-89.4977379,"1","Desserts, American (Traditional), Food, Diners, Gastropubs, Restaurants, Breakfast & Brunch"
"1018",54612,"Metro Diner","Huntersville","NC","28078",35.4076505188,-80.8629157305,"1","Breakfast & Brunch, Diners, Restaurants, Food, American (Traditional)"
"1019",22103,"Pinky's Westside Grill","Charlotte","NC","28208",35.2291284,-80.8674638,"1","Salad, American (Traditional), Restaurants, Burgers, Diners, Vegetarian"
"1020",162554,"Pamelas Diner","Pittsburgh","PA","15228",40.3858963,-80.0435338,"1","Restaurants, Diners, Breakfast & Brunch"
"1021",80020,"Maria's Grill","Charlotte","NC","28262",35.3000403,-80.8018078,"1","Diners, Restaurants, American (New), Mediterranean, American (Traditional), Burgers"
"1022",138255,"Mom And Pops","Toronto","ON","M5A 4J6",43.6499941,-79.3638323,"1","Restaurants, Sandwiches, Diners"
"1023",155516,"Famous Sam's Restaurant","Whitchurch-Stouffville","ON","L0H 1G0",43.9424174,-79.3782248,"1","Restaurants, Diners"
"1024",155495,"Sizzling Skillet","Scarborough","ON","M1B 2W4",43.8120546,-79.2439646,"0","Diners, Restaurants, American (New), Canadian (New)"
"1025",68157,"Johnnys Diner","Hudson","OH","44236",41.238591,-81.449625,"1","Breakfast & Brunch, Diners, Restaurants"
"1026",116369,"Eat'n Park","Pittsburgh","PA","15216",40.3957916,-80.0335472,"1","Fast Food, Diners, Restaurants, Breakfast & Brunch, American (Traditional)"
"1027",144426,"Johnny Rockets","Las Vegas","NV","89109",36.098806,-115.175792,"1","Burgers, American (Traditional), Sandwiches, Restaurants, Food, Diners"
"1028",121017,"Lickin' Chicken","Toronto","ON","M4J 1M1",43.6806196,-79.3363374,"0","Restaurants, Diners"
"1029",183198,"The Highwood","Calgary","AB","T2M 4W7",51.064799,-114.086583,"1","Food, American (Traditional), Restaurants, Buffets, Breakfast & Brunch, Diners, Beer, Wine & Spirits"
"1030",147291,"Rosewater","Toronto","ON","M5C 2R1",43.6504624,-79.3759678,"0","Event Planning & Services, Diners, American (New), Restaurants, Canadian (New), Venues & Event Spaces, International"
"1031",49581,"Smokehouse Diner","Calgary","AB","T2C 1B3",50.9915797,-114.0025005,"1","Food, Breakfast & Brunch, Chicken Shop, Restaurants, Smokehouse, Diners"
"1032",62388,"Red Bee","Whitby","ON","L1N 4H2",43.8800077345,-78.9423969961,"0","Restaurants, Diners, Breakfast & Brunch"
"1033",85364,"Reveil Matin","Rosemère","QC","J7A 2H3",45.6278540633,-73.8091846593,"1","Restaurants, Breakfast & Brunch, Diners"
"1034",115208,"Library Bar","Toronto","ON","M5J 1E3",43.646075,-79.381821,"1","American (New), Nightlife, Lounges, Restaurants, Bars, Diners, Canadian (New)"
"1035",89317,"Middle Road Inn","Glenshaw","PA","15116",40.5386274,-79.9331956,"1","Diners, Restaurants, Italian, American (Traditional), Breakfast & Brunch"
"1036",152701,"Friendly House Restaurant","North York","ON","M2M 3V5",43.784569,-79.416522,"1","Restaurants, Diners, Mediterranean"
"1037",18560,"Eat N Park","Pittsburgh","PA","15241",40.3413412219,-80.0543103879,"1","Food, Bakeries, Restaurants, Diners"
"1038",43888,"Coronado Cafe","Las Vegas","NV","89183",36.011634285,-115.1758911561,"1","Restaurants, Diners"
"1039",173559,"Carters Landing","Toronto","ON","M4L 3W6",43.6626207,-79.3100251,"0","Nightlife, Canadian (New), Bars, Diners, Restaurants, American (Traditional), Comfort Food"
"1040",166844,"Sunset Grill","Aurora","ON","L4G 7N2",44.004241,-79.4472438,"1","Breakfast & Brunch, Restaurants, Bagels, Sandwiches, Burgers, Food, Canadian (New), Diners"
"1041",91129,"Scramblers","Mentor","OH","44060",41.6821442302,-81.2962253054,"1","American (Traditional), Diners, Restaurants, Breakfast & Brunch"
"1042",98650,"King's Hometown Grille","Pittsburgh","PA","15225",40.5137698,-80.133193,"1","Restaurants, Diners"
"1043",125881,"Denny's","Gilbert","AZ","85233",33.3747317,-111.8076172471,"0","Breakfast & Brunch, Diners, American (Traditional), Restaurants, American (New)"
"1044",178889,"Tom's Family Restaurant","Toronto","ON","M6J 1H1",43.6443769,-79.4184651,"0","Breakfast & Brunch, Restaurants, Diners"
"1045",96108,"Saffron Flavors of India","Las Vegas","NV","89129",36.24172,-115.250134,"1","Vegetarian, Indian, Restaurants, Diners"
"1046",140270,"Denny's","Calgary","AB","T2M 0M5",51.0674170516,-114.1171927657,"1","Breakfast & Brunch, Restaurants, Diners, American (Traditional)"
"1047",122455,"Cracker Barrel Old Country Store","Copley","OH","44321",41.1333695153,-81.6488823763,"1","Event Planning & Services, Food, Diners, Southern, Restaurants, Salad, American (Traditional), Comfort Food, Breakfast & Brunch, Desserts, Caterers"
"1048",102076,"Waffle House","Mesa","AZ","85215",33.4515761,-111.7212533,"1","Restaurants, Breakfast & Brunch, Diners, Fast Food, American (New), Waffles, American (Traditional)"
"1049",115310,"Indigo Crow Restaurant & Bar","Cave Creek","AZ","85331",33.8296784,-111.9289621,"1","Bars, Food, Nightlife, Vegan, Diners, Beer, Wine & Spirits, Restaurants, American (New), Steakhouses, Cafes"
"1050",6304,"Frankie's","Toronto","ON","M6J 1H1",43.6443885,-79.4184468,"1","Breakfast & Brunch, Diners, Restaurants"
"1051",135789,"Ollie's Diner","Glendale","AZ","85302",33.5677358,-112.1709463,"1","American (Traditional), Restaurants, Diners"
"1052",18569,"Cracker Barrel Old Country Store","Las Vegas","NV","89139",36.0379386,-115.1818294,"1","Event Planning & Services, Diners, American (Traditional), Food, Caterers, Southern, Restaurants, Comfort Food, Breakfast & Brunch, Desserts, Salad"
"1053",21582,"Nancy's East End Diner","Pittsburgh","PA","15221",40.4421292,-79.8862475,"1","Restaurants, Diners"
"1054",175844,"White Squirrel Snack Shop","Toronto","ON","M5V 2B4",43.6482406,-79.3987306,"0","Cafes, Diners, Restaurants"
"1055",11379,"The George Street Diner","Toronto","ON","M5A 2M6",43.6530078233,-79.3714184956,"1","Restaurants, Breakfast & Brunch, Diners"
"1056",165105,"Eggs & More","Goodyear","AZ","85338",33.4502793071,-112.3587574694,"0","American (Traditional), Diners, Breakfast & Brunch, Restaurants"
"1057",25644,"The Penguin Drive-In","Charlotte","NC","28205",35.2190216626,-80.8124267525,"0","Nightlife, Bars, American (Traditional), Restaurants, Dive Bars, Diners"
"1058",67695,"Sunshine Cafe","Las Vegas","NV","89108",36.1878766,-115.2062861,"0","Restaurants, Diners, Breakfast & Brunch"
"1059",163420,"Denny's","Parma","OH","44129",41.3799502544,-81.7405999473,"1","Breakfast & Brunch, American (Traditional), Diners, Restaurants"
"1060",110462,"The Original Pancake House","Fairview Park","OH","44126",41.4607072,-81.8515886,"1","Restaurants, Creperies, Gluten-Free, Diners, Breakfast & Brunch"
"1061",86372,"Steak ’n Shake","Cleveland","OH","44109",41.4643732445,-81.6883425415,"1","Fast Food, Burgers, Breakfast & Brunch, Diners, American (New), Restaurants, American (Traditional)"
"1062",107598,"Swan Restaurant","Toronto","ON","M6J 1G3",43.6452774,-79.4149396,"0","Wine Bars, Nightlife, Bars, Diners, American (Traditional), Comfort Food, Restaurants"
"1063",30333,"Landmark","Cleveland","OH","44102",41.4872431,-81.7685214,"1","American (Traditional), Breakfast & Brunch, Sandwiches, American (New), Restaurants, Diners, Salad, Nightlife, Bars"
"1064",175383,"Cafe Michael","Chagrin Falls","OH","44023",41.3852271,-81.3408824,"1","Diners, American (New), Restaurants"
"1065",60138,"Roadside Restaurant","Belle Vernon","PA","15012",40.2009959,-79.8333042,"1","Diners, Restaurants, American (Traditional)"
"1066",117773,"Sunset Grill","Pickering","ON","L1V 1B5",43.8305495203,-79.0963325937,"1","Canadian (New), Breakfast & Brunch, Diners, Restaurants"
"1067",86363,"The Church Street Diner","Toronto","ON","M4Y 2E2",43.6670117,-79.3812744,"0","Restaurants, Diners"
"1068",29301,"Lasalle Drive-In Restaurant","Lasalle","QC","H8P 1Y9",45.4150464,-73.6215346,"1","Restaurants, Pizza, Burgers, Diners"
"1069",144786,"Vicki's Diner & Deli","Westlake","OH","44145",41.4532682,-81.9096407,"1","Delis, Breakfast & Brunch, Diners, Restaurants"
"1070",104996,"Diner 42","Medina","OH","44256",41.1302279,-81.8770204,"1","Diners, Restaurants"
"1071",85578,"Sunset Grill","Toronto","ON","M6S 1N4",43.6515524,-79.475582,"0","Restaurants, Breakfast & Brunch, Diners"
"1072",60515,"North Main Diner","Chagrin Falls","OH","44022",41.4301699423,-81.3910199049,"0","American (Traditional), Diners, Restaurants"
"1073",56458,"Pop-Up On River","Toronto","ON","M5A 3P5",43.6609004,-79.3577872,"0","Diners, Caribbean, Greek, Restaurants"
"1074",111749,"Mike's Burgers & Cheesesteaks","Gilbert","AZ","85296",33.3289768,-111.7907975,"0","Burgers, Ice Cream & Frozen Yogurt, Cheesesteaks, Restaurants, Food, Diners"
"1075",93865,"Umami Burger -  SLS Las Vegas","Las Vegas","NV","89109",36.1427564,-115.1578748,"1","Sports Bars, Restaurants, Burgers, Bars, Diners, Nightlife"
"1076",49771,"Gordo’s Diner","Vaughan","ON","L4K 3Y8",43.797362,-79.533367,"1","Breakfast & Brunch, Restaurants, Diners"
"1077",7540,"Sunflower Family Restaurant","Charlotte","NC","28269",35.2932106,-80.8379302,"1","Diners, Restaurants"
"1078",181188,"Gale's Snack Bar","Toronto","ON","M4M 1C6",43.6582223,-79.3390409,"1","Restaurants, Diners"
"1079",77266,"Fast Eddie's Diner","Phoenix","AZ","85053",33.6400467,-112.129748,"1","American (New), Breakfast & Brunch, Restaurants, Diners"
"1080",82961,"Sunset Grill","Brampton","ON","L6W 0A3",43.678193,-79.721117,"1","Canadian (New), Breakfast & Brunch, Restaurants, Diners"
"1081",36833,"Gus's Diner One Eight Five","Cleveland","OH","44119",41.5857118,-81.5495567,"1","Diners, Restaurants"
"1082",143102,"Pei Wei Asian Diner","Scottsdale","AZ","85255",33.7001768,-111.9154345,"0","Diners, Restaurants"
"1083",144026,"Park Place Restaurant","Charlotte","NC","28210",35.093283,-80.867821,"1","Diners, Restaurants, Breakfast & Brunch, Greek, American (New)"
"1084",9466,"Landmark","De Forest","WI","53532",43.2473487,-89.3440564,"1","Bars, Burgers, Nightlife, Restaurants, Diners"
"1085",63077,"A&W Restaurants","Las Vegas","NV","89110",36.1732944,-115.0618236,"0","American (Traditional), Fast Food, Restaurants, Diners, Burgers"
"1086",134734,"Wimpy's Diner","Richmond Hill","ON","L4E 1A8",43.942542599,-79.4545551845,"1","Restaurants, Diners"
"1087",170232,"Coco's Family Restaurant","Phoenix","AZ","85035",33.4767917,-112.2211727,"0","Sandwiches, Restaurants, Food, Diners, Bakeries, American (Traditional)"
"1088",170079,"Wimpy's Diner","Aurora","ON","L4G 1N2",43.989706,-79.4659499,"1","Seafood, Restaurants, Desserts, Diners, Food"
"1089",53345,"Little Polish Diner","Parma","OH","44129",41.4054068,-81.7348395,"1","Polish, Restaurants, Diners, Modern European"
"1090",33691,"Ben & Florentine","Dollard-des-Ormeaux","QC","H9B 2R8",45.484891,-73.8017427,"1","Restaurants, Diners, Food, Breakfast & Brunch, Coffee & Tea"
"1091",171379,"Paradise Farms Prime Beef Bistro","Toronto","ON","M2K 3E7",43.7686572132,-79.3799060583,"0","Delis, Burgers, Steakhouses, Diners, Cafes, Canadian (New), Restaurants"
"1092",165184,"Purple Onion Restaurant","Toronto","ON","M6P 1Z3",43.6655814,-79.4694409,"1","Restaurants, Diners, Steakhouses, Breakfast & Brunch"
"1093",171190,"Sonio's Cafe","Las Vegas","NV","89102",36.159412,-115.192923,"1","Hot Dogs, Salad, American (Traditional), Cafes, Vegetarian, Mediterranean, Diners, Restaurants, Chicken Shop"
"1094",139724,"Air Canada Club","Toronto","ON","M5J 2X2",43.6435205,-79.3790818,"0","Diners, Restaurants"
"1095",174240,"Jodie's Restaurant","Toronto","ON","M8W 1Z6",43.6053352356,-79.5289154053,"1","Food, Chicken Wings, Diners, Fast Food, Restaurants"
"1096",109220,"White Spot Restaurants","Calgary","AB","T2J 0P8",50.9598869397,-114.0708779088,"0","Breakfast & Brunch, Diners, Canadian (New), Restaurants"
"1097",145338,"Coco's Bakery Restaurant","Las Vegas","NV","89109",36.100442,-115.1652072,"1","Diners, Comfort Food, Restaurants, American (Traditional), Breakfast & Brunch, Food, Bakeries"
"1098",15173,"Cafe At Desert Ridge","Phoenix","AZ","85050",33.6747352101,-111.9800634357,"0","Salad, American (New), Diners, Breakfast & Brunch, Restaurants, Cafes, Tapas/Small Plates"
"1099",147703,"Pancake Cafe","Madison","WI","53719",43.0488379825,-89.5036782352,"1","Sandwiches, Restaurants, American (Traditional), Breakfast & Brunch, Diners"
"1100",145954,"Breakfast Room","Toronto","ON","M8Y 2R3",43.618776,-79.4997282,"1","Diners, Breakfast & Brunch, Food, Coffee & Tea, Restaurants, Pizza"
"1101",91939,"Ricky's All Day Grill","Calgary","AB","T3A 5K8",51.1384031,-114.1595793,"1","American (Traditional), Restaurants, Diners, Breakfast & Brunch"
"1102",67840,"Chris' Restaurant","Lorain","OH","44053",41.4571032,-82.2063028,"1","Diners, Restaurants"
"1103",39777,"Sixth & Pine","Beachwood","OH","44122",41.497625,-81.495192,"0","Diners, Comfort Food, Restaurants, American (New), American (Traditional)"
"1104",192588,"Buon Gusto Ristorante","Henderson","NV","89052",35.979872,-115.097844,"1","Gluten-Free, Restaurants, Pizza, Italian, Diners"
"1105",65118,"Denny's","Phoenix","AZ","85086",33.799561898,-112.1286302,"1","Diners, Restaurants, Breakfast & Brunch, American (Traditional)"
"1106",66940,"Johnny Rockets","Glendale","AZ","85308",33.6420644,-112.2252092,"0","Restaurants, Fast Food, Diners, Burgers, Sandwiches, American (Traditional)"
"1107",67976,"Pappou Cafe","Parma","OH","44129",41.405087,-81.7426833,"1","American (Traditional), Diners, Greek, Restaurants, Italian"
"1108",173842,"Sweet Melissa","Rocky River","OH","44116",41.4813363086,-81.8366502362,"1","Event Planning & Services, American (Traditional), Food, Restaurants, Diners, Desserts, Caterers"
"1109",130707,"The Eye Opener","Akron","OH","44313",41.1096269,-81.5700755,"1","Diners, Breakfast & Brunch, Restaurants"
"1110",136263,"Steve's Doghouse","Cleveland","OH","44109",41.4501392,-81.7021262,"1","Diners, American (Traditional), Breakfast & Brunch, Restaurants"
"1111",64619,"The Solarium Cafe Bar & Grill","Toronto","ON","M9W",43.7133953052,-79.5601252809,"1","Restaurants, Breakfast & Brunch, American (Traditional), Greek, Diners"
"1112",57889,"Sunnyside Grill","Oakville","ON","L6H 0E9",43.497670556,-79.7061109543,"1","Diners, Breakfast & Brunch, Restaurants"
"1113",118519,"Taquerias El Chino","Phoenix","AZ","85007",33.451097,-112.0985706,"1","Caterers, Mexican, Event Planning & Services, Restaurants, Diners"
"1114",189572,"Milton B","Montréal","QC","H2X 2H5",45.5091901,-73.5736878,"1","Cafes, Food, Breakfast & Brunch, Sandwiches, Coffee & Tea, Diners, Restaurants"
"1115",80838,"Waffle House","Charlotte","NC","28210",35.287572,-80.760694,"1","Restaurants, Diners, Breakfast & Brunch, American (Traditional), American (New)"
"1116",109042,"5 & Diner","Phoenix","AZ","85032",33.6031987895,-111.9789701222,"0","Breakfast & Brunch, Restaurants, Sandwiches, Diners"
"1117",82864,"Mercury Diner","Aurora","ON","L4G 1J4",44.0015629,-79.4570518,"1","Restaurants, Diners"
"1118",115604,"Denny's","Las Vegas","NV","89123",36.0198206582,-115.1180579513,"1","Restaurants, Breakfast & Brunch, American (Traditional), Diners"
"1119",180875,"Aris Grill","Toronto","ON","M6R 2M8",43.6500617,-79.450487,"0","Restaurants, Diners"
"1120",99679,"Friends Sweet Restaurant","Brampton","ON","L6S 4N5",43.7298336,-79.7495824,"1","Restaurants, Indian, Diners, Breakfast & Brunch"
"1121",66070,"Broadway Brunch","McKees Rocks","PA","15136",40.472536,-80.0740972,"1","Burgers, Restaurants, Diners, Breakfast & Brunch"
"1122",192008,"Sandi's Kountry Kitchen","Mooers","NY","12958",44.9598611,-73.5926389,"1","American (Traditional), Diners, Breakfast & Brunch, Restaurants, Sandwiches"
"1123",144340,"Steak ’n Shake","Cleveland","OH","44111",41.4496327,-81.8178634,"1","Steakhouses, Burgers, Fast Food, Diners, Restaurants, Breakfast & Brunch, American (Traditional), American (New)"
"1124",180166,"Waffle House","Tolleson","AZ","85353",33.4649409,-112.2392633,"1","Breakfast & Brunch, Diners, American (Traditional), American (New), Restaurants"
"1125",185936,"House of Brews","Gilbert","AZ","85233",33.3345486,-111.8048599,"0","Sports Bars, Diners, Nightlife, American (Traditional), Bars, Restaurants"
"1126",45772,"Pizza Prima","Pittsburgh","PA","15213",40.4495607,-79.950504,"0","Pizza, Diners, Restaurants, Salad"
"1127",1635,"Denny's","Scottsdale","AZ","85251",33.4867329724,-111.9257484376,"1","Breakfast & Brunch, American (Traditional), Diners, Restaurants"
"1128",139151,"Steak ’n Shake","Mentor","OH","44060",41.714389,-81.2972134352,"1","Restaurants, American (New), Fast Food, Burgers, Diners, American (Traditional), Breakfast & Brunch"
"1129",126576,"Sunset Grill","Toronto","ON","M4L 1J3",43.6703344,-79.2995804,"1","Restaurants, Diners, Breakfast & Brunch"
"1130",153678,"Denny's","Las Vegas","NV","89110",36.1647748036,-115.0616705418,"1","Restaurants, Breakfast & Brunch, Diners, American (Traditional)"
"1131",47758,"Ruby's Diner","Las Vegas","NV","89119",36.0815129407,-115.1374099621,"1","Diners, Restaurants, Burgers, American (Traditional)"
"1132",35857,"Mill Street Brewery","Mississauga","ON","L4W 1S9",43.6820517349,-79.6150967619,"1","Pubs, Restaurants, Nightlife, British, Diners, Bars"
"1133",62857,"Carolina Ale House","Fort Mill","SC","29715",35.026967,-80.962754,"1","American (Traditional), Restaurants, Sports Bars, Pubs, Bars, Diners, American (New), Nightlife"
"1134",9231,"Pete's Grill On Main Street","Stanley","NC","28164",35.3602619026,-81.0954551779,"1","Diners, Sandwiches, American (Traditional), Restaurants, Seafood"
"1135",166524,"Brickyard Bistro","Toronto","ON","M4L 1Y6",43.670883311,-79.3278544822,"1","French, Bars, Restaurants, Wine Bars, Nightlife, Diners"
"1136",82206,"Zen Asian Diner","Pittsburgh","PA","15201",40.4783482,-79.9554307,"1","Chinese, Restaurants, Diners, Sushi Bars"
"1137",169037,"Kailyn's Diner","Las Vegas","NV","89121",36.1005311499,-115.099962846,"0","Breakfast & Brunch, American (Traditional), Burgers, Restaurants, Diners"
"1138",28938,"Fresh Kitchen","Calgary","AB","T2E",51.0862862,-114.0037152,"0","Restaurants, Diners"
"1139",70661,"Tootsie's Diner","Coraopolis","PA","15108",40.520363,-80.171706,"1","American (Traditional), Burgers, Soup, Breakfast & Brunch, Restaurants, Salad, Diners"
"1140",61441,"Rose. Rabbit. Lie","Las Vegas","NV","89109",36.109759,-115.176655,"1","Diners, Nightlife, Restaurants, Bars, Social Clubs, American (New), Performing Arts, Cocktail Bars, Arts & Entertainment"
"1141",75934,"Joe's Deli & Restaurant","Lakewood","OH","44107",41.4771619,-81.7694523,"1","Delis, Diners, Restaurants"
"1142",183392,"Hodge's","Cleveland","OH","44114",41.4995379,-81.6882473,"1","Breakfast & Brunch, Tapas/Small Plates, Nightlife, Restaurants, Sports Bars, American (New), Burgers, Food, Diners, Bars, American (Traditional)"
