"","business_id","name","city","state","postal_code","latitude","longitude","is_open","categories"
"1",31810,"Daily Donut","Peoria","AZ","85381",33.6092155475,-112.2556132078,"1","Donuts, Coffee & Tea, Juice Bars & Smoothies, Food"
"2",33869,"Coffee, Tea, or Me","Las Vegas","NV","89102",36.1452198,-115.1766512,"0","Sandwiches, Juice Bars & Smoothies, Coffee & Tea, Food, Donuts, Ice Cream & Frozen Yogurt, Restaurants"
"3",62236,"Dunkin' Donuts","Moon","PA","15108",40.5157666,-80.2216573,"1","Bagels, Donuts, Coffee & Tea, Breakfast & Brunch, Restaurants, Food"
"4",7207,"Winchell's Donut House","Las Vegas","NV","89146",36.1282146,-115.2252957,"1","Sandwiches, Food, Donuts, Bagels, Restaurants"
"5",2812,"Dunkin' Donuts","Las Vegas","NV","89130",36.2384709,-115.2245316,"1","Coffee & Tea, Donuts, Food"
"6",143717,"Delightful Cafe","Calgary","AB","T2G 0S9",51.041804,-114.0360541,"1","Food, Coffee & Tea, Vietnamese, Restaurants, Donuts, Breakfast & Brunch"
"7",97920,"Dunkin' Donuts","Mesa","AZ","85204",33.3794833,-111.8062281,"1","Coffee & Tea, Food, Donuts"
"8",178477,"Daylight Donuts","Mesa","AZ","85202",33.3632486,-111.8611309,"1","Donuts, Food, Bakeries, Desserts, Coffee & Tea"
"9",175778,"Coffee Time","Toronto","ON","M6E 2G6",43.6979274,-79.4391237,"1","Coffee & Tea, Donuts, Food"
"10",121582,"Rainbow Donuts Cafe and Deli","Phoenix","AZ","85032",33.611676987,-111.9984461607,"1","Bagels, Restaurants, Donuts, Sandwiches, Cafes, Food, Breakfast & Brunch, Delis"
"11",153293,"Dutch Bros Coffee","Phoenix","AZ","85016",33.4950039809,-112.01615,"1","Juice Bars & Smoothies, Bubble Tea, Food, Donuts, Coffee & Tea"
"12",102695,"Bigmouth Donut","Cleveland","OH","44113",41.4895066,-81.7110156,"1","Coffee & Tea, Donuts, Food"
"13",83939,"Anthony's Donuts","Las Vegas","NV","89110",36.1745742589,-115.0637914857,"1","Bakeries, Donuts, Food"
"14",71937,"Dunkin' Donuts","Phoenix","AZ","85037",33.4801071,-112.2575424,"1","Coffee & Tea, Donuts, Food"
"15",57774,"Dunkin' Donuts","Gilbert","AZ","85296",33.3214614302,-111.7212507874,"1","Coffee & Tea, Donuts, Food"
"16",152674,"Dunkin Donuts","Surprise","AZ","85379",33.608645582,-112.3607433333,"1","Food, Coffee & Tea, Donuts"
"17",22241,"Fancy Franks","Toronto","ON","M5T 1S3",43.6576393,-79.4026451,"1","Donuts, Burgers, Poutineries, Fast Food, Hot Dogs, Food, Restaurants"
"18",138598,"Stoecklein's Bake Shop","Pittsburgh","PA","15235",40.4820771,-79.8081645,"1","Bakeries, Food, Coffee & Tea, Custom Cakes, Desserts, Donuts"
"19",101121,"Tim Hortons","Montréal","QC","H3H 1N2",45.4897905,-73.5849415,"1","Coffee & Tea, Breakfast & Brunch, Donuts, Food, Restaurants"
"20",144233,"Tower Creamery","Las Vegas","NV","89104",36.1474087305,-115.1553902775,"1","Desserts, Food, Donuts, Ice Cream & Frozen Yogurt"
"21",53047,"Dunkin' Donuts","Gilbert","AZ","85298",33.23437,-111.722122,"1","Restaurants, Donuts, Food, Comfort Food"
"22",86866,"Krispy Kreme","Phoenix","AZ","85016",33.4949038,-112.0220845,"0","Donuts, Food"
"23",96658,"Dunkin' Donuts","Cleveland","OH","44124",41.519619,-81.4707515,"1","Restaurants, Coffee & Tea, Food, Donuts"
"24",114545,"Dunkin' Donuts","Denver","NC","28037",35.4604106,-80.9925985,"1","Sandwiches, Restaurants, Food, Coffee & Tea, Donuts"
"25",92267,"Dunkin Donuts","Stoughton","WI","53589",42.9184594049,-89.2503105765,"1","Bakeries, Food, Donuts, Coffee & Tea"
"26",66655,"Dunkin' Donuts","Medina","OH","44256",41.1367037,-81.7858292,"1","Coffee & Tea, Food, Donuts"
"27",179196,"Dunkin' Donuts","Charlotte","NC","28213",35.2627126,-80.7732039,"1","Donuts, Coffee & Tea, Food"
"28",45893,"Bluebird Kitchen","Pittsburgh","PA","15222",40.4404781,-80.0017838,"1","Convenience Stores, American (New), Coffee & Tea, Donuts, Restaurants, Food, Breakfast & Brunch"
"29",100439,"Dunkin' Donuts","Aurora","OH","44202",41.3174305,-81.3476255,"1","Food, Coffee & Tea, Donuts"
"30",126076,"Sweet Dough","Fort Mill","SC","29715",35.0066459612,-80.9311130698,"1","Restaurants, Bakeries, Coffee & Tea, Breakfast & Brunch, Cafes, Donuts, Food"
"31",68592,"Krispy Kreme","Las Vegas","NV","89109",36.1370185301,-115.1640695141,"1","Coffee & Tea, Donuts, Bagels, Food"
"32",19643,"Carl's Donuts - Retail Shop","Las Vegas","NV","89120",36.0726083,-115.1057664,"1","Food, Coffee & Tea, Donuts, Bakeries"
"33",188178,"Dunkin' Donuts","Pittsburgh","PA","15228",40.3555086,-80.0498468,"1","Donuts, Beauty & Spas, Coffee & Tea, Food"
"34",129955,"Winchell's Donut House","Las Vegas","NV","89121",36.100556,-115.074084,"1","Food, Donuts, Restaurants"
"35",64249,"Gilly's Donuts","Cleveland","OH","44106",41.5087817,-81.5964637,"0","Donuts, Food, Restaurants"
"36",34504,"Country Style Donuts","Mississauga","ON","L5A 1W9",43.5870455,-79.607987,"1","Donuts, Food"
"37",82249,"Dunkin' Donuts","Coraopolis","PA","15108",40.489537,-80.188367,"1","Food, Coffee & Tea, Donuts"
"38",165748,"Dunkin' Donuts","Crafton","PA","15205",40.4400217488,-80.0691623849,"1","Donuts, Coffee & Tea, Food, Bagels"
"39",72877,"Arizona Donut","Tempe","AZ","85282",33.4076657947,-111.9549352086,"1","Coffee & Tea, Bubble Tea, Donuts, Food"
"40",136426,"Donut Hut","Las Vegas","NV","89121",36.1302895,-115.1033497,"1","Restaurants, Donuts, Food"
"41",37172,"Dunkin' Donuts","South Euclid","OH","44121",41.5211125,-81.5277351,"1","Coffee & Tea, Food, Ice Cream & Frozen Yogurt, Donuts"
"42",29111,"Tim Hortons","Toronto","ON","M1S",43.797354132,-79.2719287053,"1","Food, Donuts, Coffee & Tea"
"43",43313,"Tim Horton's","Brampton","ON","L6T 5T9",43.713822,-79.72112,"1","Restaurants, Food, Sandwiches, Donuts, Coffee & Tea"
"44",127680,"Glaze Doughnuts","Las Vegas","NV","89148",36.0699399,-115.2987347,"1","Food, Coffee & Tea, Donuts, Bakeries"
"45",3568,"Sugar & Spice Bakery Cafe","Surprise","AZ","85379",33.6083751,-112.3590891,"0","Sandwiches, Bubble Tea, Food, Coffee & Tea, Donuts, Restaurants, Bakeries"
"46",131001,"Jo Ann's Donuts and Ice Cream Parlor","Broadview Heights","OH","44147",41.3444567,-81.6851134,"1","Food, Ice Cream & Frozen Yogurt, Donuts, Restaurants"
"47",95898,"Hinckley Coffee & Donuts","Hinckley","OH","44233",41.2386290251,-81.7451423407,"1","Coffee & Tea, Food, Bakeries, Donuts"
"48",186836,"AL's Donuts","Las Vegas","NV","89169",36.1192552405,-115.1462362334,"0","Ice Cream & Frozen Yogurt, Food, Donuts, Specialty Food"
"49",125302,"Café Sardine","Montréal","QC","H2T 1C7",45.5240139961,-73.5946547985,"0","Coffee & Tea, Restaurants, Tapas/Small Plates, Food, Donuts"
"50",184213,"Dunkin' Donuts","Mint Hill","NC","28227",35.1731413,-80.6582015,"1","Coffee & Tea, Food, Donuts"
"51",26512,"Dunkin' Donuts","Champaign","IL","61820",40.1100591,-88.2300103,"1","Coffee & Tea, Food, Donuts"
"52",187736,"Tim Hortons","Brampton","ON","L6Y 5R5",43.6442293,-79.7564603,"1","Donuts, Food"
"53",80350,"Country Style Donuts","Markham","ON","L3R 1A4",43.8197869,-79.3509435,"0","Donuts, Food"
"54",108749,"Dunkin' Donuts","Glendale","AZ","85308",33.6706196,-112.2016265,"1","Coffee & Tea, Food, Restaurants, Donuts, Sandwiches"
"55",52690,"Fugo Desserts","Toronto","ON","M5G 1C8",43.6548179,-79.3873606,"1","Restaurants, Waffles, Food, Ice Cream & Frozen Yogurt, Desserts, Donuts"
"56",132330,"Cravin' Donuts","Mesa","AZ","85205",33.4160455,-111.6863577,"0","Coffee & Tea, Donuts, Breakfast & Brunch, Food, Bubble Tea, Restaurants, Juice Bars & Smoothies"
"57",59540,"The Doughnut Pantry","Lakewood","OH","44107",41.47755,-81.799509,"1","Donuts, Restaurants, Bakeries, Food"
"58",153227,"Dunkin' Donuts","North Olmsted","OH","44070",41.4169397,-81.920637,"1","Donuts, Coffee & Tea, Food"
"59",143553,"Dunkin' Donuts","Chandler","AZ","85249",33.2192952131,-111.8250234269,"1","Coffee & Tea, Food, Donuts"
"60",112130,"Dunkin' Donuts","Parma Heights","OH","44130",41.388639,-81.763327,"1","Coffee & Tea, Food, Donuts"
"61",103815,"Fractured Prune","Gilbert","AZ","85295",33.3111900133,-111.7438623657,"0","Donuts, Food, Juice Bars & Smoothies"
"62",17051,"Tim Hortons","Toronto","ON","M5J 2V7",43.6416393242,-79.3758951741,"1","Food, Donuts, Coffee & Tea"
"63",74394,"Dunkin Donuts & Baskin Robbins","Cleveland","OH","44134",41.405383,-81.696285,"1","Donuts, Food, Ice Cream & Frozen Yogurt"
"64",166094,"Dunkin' Donuts","Pittsburgh","PA","15217",40.416036,-79.9247328,"1","Donuts, Food, Desserts, Coffee & Tea"
"65",160475,"DIPPED","Toronto","ON","M5T 3K7",43.6548607173,-79.3999981865,"1","Bakeries, Donuts, Food"
"66",92797,"Peace Love & Little Donuts - Hudson","Hudson","OH","44236",41.237844,-81.4399006,"1","Donuts, Food"
"67",83773,"Dunkin' Donuts","Phoenix","AZ","85032",33.6270445246,-111.9783804686,"1","Food, Donuts, Coffee & Tea"
"68",107669,"Country Style Donuts","Mississauga","ON","L4V 1E5",43.6957713,-79.6307792,"1","Donuts, Food, Coffee & Tea"
"69",132147,"Tim Hortons","Etobicoke","ON","M8Z 4R9",43.6359562,-79.5205162,"1","Coffee & Tea, Food, Bakeries, Cafes, Donuts, Restaurants"
"70",95724,"Tim Hortons","North York","ON","M3B 1Y4",43.7550005,-79.3517845,"1","Restaurants, Coffee & Tea, Cafes, Food, Donuts"
"71",132012,"Basha's Supermarket","Scottsdale","AZ","85260",33.6384486,-111.8636589,"1","Grocery, Food, Donuts"
"72",36585,"Tim Horton's","Toronto","ON","M1B 5S3",43.7996867954,-79.1445521955,"1","Coffee & Tea, Food, Donuts"
"73",130720,"Dunkin' Donuts","Pittsburgh","PA","15222",40.4409385969,-80.0030370282,"1","Food, Donuts, Coffee & Tea"
"74",104131,"Dough Baby Bakery","Madison","WI","53703",43.0747007,-89.3941733,"0","Bakeries, Donuts, Food, Coffee & Tea"
"75",60597,"Your Mom's Donuts","Matthews","NC","28105",35.124319,-80.728685,"1","Food, Donuts, Coffee & Tea"
"76",93219,"Tim Hortons","Vaughan","ON","L4K 5Y6",43.8272581,-79.552104,"1","Sandwiches, Food, Restaurants, Delis, Donuts, Coffee & Tea"
"77",48076,"Bosa Donuts","Phoenix","AZ","85018",33.4954623,-112.0010846,"1","Bubble Tea, Food, Breakfast & Brunch, Donuts, Restaurants"
"78",162604,"Stownut Donut & Diner","Stow","OH","44224",41.1674176,-81.4041965,"1","Food, Fast Food, Restaurants, Breakfast & Brunch, Donuts"
"79",41226,"Dunkin' Donuts","Las Vegas","NV","89149",36.2858206806,-115.2885471582,"1","Coffee & Tea, Donuts, Bagels, Food"
"80",111826,"Tim Hortons","Vaughan","ON","L4K 1A2",43.7741491,-79.530354,"1","Donuts, Sandwiches, Desserts, Restaurants, Coffee & Tea, Bakeries, Breakfast & Brunch, Food"
"81",77708,"Tim Hortons","Toronto","ON","M5V 2K2",43.646919747,-79.3951460347,"0","Coffee & Tea, Food, Donuts, Bagels"
"82",82810,"Little Tibet restaurant","Toronto","ON","M6R 1A1",43.6400958,-79.4381103,"1","Indian, Hakka, Himalayan/Nepalese, Chinese, Donuts, Food, Restaurants"
"83",96188,"Winchell's Donut House","Boulder City","NV","89005",35.9694005,-114.8572316,"0","Food, Donuts"
"84",189497,"Dunkin' Donuts","Pittsburgh","PA","15221",40.420410568,-79.8506823555,"1","Restaurants, Donuts, Food, Coffee & Tea"
"85",177862,"Brownsline Donuts","Etobicoke","ON","M8W 3W1",43.6078947,-79.5483799,"1","Donuts, Food"
"86",37457,"Dunkin' Donuts","Matthews","NC","28105",35.0830231,-80.7300653,"1","Coffee & Tea, Donuts, Food"
"87",113119,"Better-Maid Donut","Pittsburgh","PA","15220",40.441551,-80.0478744,"1","Restaurants, Food, Bakeries, Donuts"
"88",83748,"Tim Hortons","Toronto","ON","M6P 2A2",43.6653638,-79.4750685,"1","Donuts, Restaurants, Coffee & Tea, Sandwiches, Breakfast & Brunch, Bagels, Food"
"89",142146,"Duck Donuts","Charlotte","NC","28203",35.2026242,-80.8444191,"1","Donuts, Breakfast & Brunch, Coffee & Tea, Food, Restaurants"
"90",184017,"The Dapper Doughnut","Las Vegas","NV","89109",36.10248,-115.17149,"1","Coffee & Tea, Food, Desserts, Salad, Donuts, Restaurants, Chicken Wings"
"91",161216,"The Donut Factory","Toronto","ON","M4M 2V7",43.6619822,-79.3376708,"1","Donuts, Food"
"92",104541,"Winchell's Donut House","Las Vegas","NV","89119",36.0574329,-115.1494979,"1","Food, Donuts"
"93",150956,"Krispy Kreme","Charlotte","NC","28211",35.1763801575,-80.7975921631,"1","Coffee & Tea, Food, Donuts"
"94",145409,"Dunkin' Donuts","Mooresville","NC","28117",35.5289415164,-80.8643497619,"1","Cafes, Restaurants, Donuts, Coffee & Tea, Food"
"95",170248,"Dunkin' Donuts","Phoenix","AZ","85021",33.5528142,-112.1010584,"1","Food, Restaurants, Donuts, Coffee & Tea, Desserts"
"96",61597,"Donutsville","Peoria","AZ","85382",33.6698040611,-112.2389718986,"1","Bakeries, Donuts, Food"
"97",171115,"Tim Horton's","Toronto","ON","M5R 2E6",43.6759019038,-79.4029709362,"1","Food, Donuts, Coffee & Tea"
"98",94687,"Dunkin' Donuts","Mentor","OH","44060",41.6824237,-81.2954899,"1","Coffee & Tea, Donuts, Food"
"99",114157,"Best Donuts","Phoenix","AZ","85042",33.379821006,-112.0308996822,"1","Bubble Tea, Food, Donuts, Coffee & Tea"
"100",74525,"Peace Love and Little Donuts","Bridgeville","PA","15017",40.3681409755,-80.10497991,"1","Coffee & Tea, Donuts, Food"
"101",117452,"Jelly Modern Doughnuts","Toronto","ON","M5S 2M8",43.657046,-79.4049065,"1","Food, Donuts, Breakfast & Brunch, Restaurants"
"102",71407,"Dunkin Donuts","Cornelius","NC","28031",35.4739967,-80.8909574,"1","Restaurants, Food, Donuts, Breakfast & Brunch, Coffee & Tea"
"103",183849,"Tim Hortons","Calgary","AB","T2R 1J4",51.0427892481,-114.071746071,"1","Donuts, Coffee & Tea, Bakeries, Food"
"104",71600,"Winchell's Donut House","Las Vegas","NV","89117",36.1438217,-115.294084,"1","Donuts, Food"
"105",58221,"Becker's Donuts & Bakery","Fairview Park","OH","44126",41.4416437,-81.8652585,"1","Food, Custom Cakes, Donuts, Bakeries"
"106",93091,"Peace Love & Little Donuts","Monroeville","PA","15146",40.431261,-79.729269,"1","Food, Donuts"
"107",132959,"Tim Hortons","Mississauga","ON","L4T 3V7",43.7153482,-79.628498,"1","Coffee & Tea, Donuts, Food"
"108",95414,"Bosa Donuts","Tempe","AZ","85282",33.39267,-111.9071185,"1","Donuts, Food"
"109",172376,"Z's Donutz & Eatery","Richfield","OH","44286",41.2181013,-81.6376146,"1","Donuts, Restaurants, Food, Cafes"
"110",72836,"Peace, Love & LIttle Donuts","Bethel Park","PA","15102",40.3446969,-80.0270765,"0","Donuts, Food"
"111",29236,"Dunkin' Donuts","Irwin","PA","15642",40.3250195,-79.7035194,"1","Bagels, Restaurants, Ice Cream & Frozen Yogurt, Food, Coffee & Tea, Donuts"
"112",10478,"Dunkin' Donuts","Gilbert","AZ","85296",33.3213258,-111.7196012,"1","Hotels & Travel, Donuts, Bed & Breakfast, Food"
"113",69123,"Dunkin' Donuts","Phoenix","AZ","85048",33.304759,-111.9776723,"1","Food, Coffee & Tea, Donuts"
"114",114081,"Dunkin' Donuts","Belmont","NC","28012",35.25226,-81.0290123,"1","Coffee & Tea, Donuts, Food"
"115",187201,"Coffee Time Donuts","Toronto","ON","M6J 1G4",43.6458987,-79.4100744,"0","Coffee & Tea, Donuts, Food"
"116",36334,"Dunkin' Donuts","Brook Park","OH","44142",41.4041323128,-81.8082358174,"1","Food, Coffee & Tea, Donuts"
"117",159484,"Dip'n Sip","Toronto","ON","M4E 1R6",43.6787476,-79.2974101,"0","Donuts, Food"
"118",118504,"Express Donuts","Goodyear","AZ","85395",33.4651361,-112.356396,"1","Food, Donuts, Bagels, Breakfast & Brunch, Coffee & Tea, Restaurants"
"119",170653,"Dunkin' Donuts","Elyria","OH","44035",41.4151103581,-82.0775117684,"1","Donuts, Coffee & Tea, Food, Bagels"
"120",74553,"Operation Donuts","Las Vegas","NV","89101",36.1796743836,-115.131049566,"1","Food, Donuts, Event Planning & Services, Restaurants, Caterers, Food Stands"
"121",84948,"L'espresso Bar Mercurio","Toronto","ON","M5S 1S5",43.6676445409,-79.4005929661,"1","Donuts, Cafes, Restaurants, Food, Sandwiches, Coffee & Tea"
"122",186755,"Pink Box Doughnuts","Las Vegas","NV","89128",36.195612,-115.258259,"1","Donuts, Food"
"123",151712,"Dunkin' Donuts","Murrysville","PA","15668",40.4276635,-79.6948472,"1","Restaurants, Coffee & Tea, Donuts, Food"
"124",91062,"Sugar Donuts","Charlotte","NC","28277",35.048281,-80.8162572,"1","Desserts, Donuts, Food"
"125",96079,"The Cleveland Bagel Co","Cleveland","OH","44113",41.4873977922,-81.7163715252,"1","Bagels, Donuts, Food"
"126",134826,"Tim Horton's","Etobicoke","ON","M9W 1J1",43.6912127116,-79.5766158461,"1","Donuts, Food, Coffee & Tea, Bakeries"
"127",42411,"Peace, Love and Little Donuts","Pittsburgh","PA","15222",40.4519737,-79.9840092,"1","Coffee & Tea, Donuts, Food"
"128",65714,"District: Donuts. Sliders. Brew","Las Vegas","NV","89109",36.1098,-115.174603,"1","Coffee & Tea, Comfort Food, Restaurants, Donuts, Food"
"129",15360,"Tim Horton's","Toronto","ON","M5H 1J8",43.6474734,-79.3839517,"1","Coffee & Tea, Donuts, Food, Bakeries"
"130",85564,"Olmsted Falls Sunoco","Olmsted Falls","OH","44138",41.3511184,-81.9054547,"1","Middle Eastern, Delis, Specialty Food, Gas Stations, Donuts, Sandwiches, Restaurants, Food, Automotive"
"131",43840,"KD Donuts & Kolaches","Henderson","NV","89014",36.0713055104,-115.0723708012,"1","Bakeries, Food, Donuts"
"132",69622,"Oakhouse Farm Bakery","Madison","WI","53718",43.0647361,-89.2931083,"1","Restaurants, Bakeries, Food, Donuts"
"133",75829,"Fractured Prune Doughnuts","Phoenix","AZ","85085",33.7159312009,-112.1139696744,"0","Donuts, Food"
"134",164663,"Dunkin' Donuts","Charlotte","NC","28226",35.105459,-80.80753,"1","Donuts, Food, Coffee & Tea"
"135",160480,"Just Good Donuts","Pittsburgh","PA","15203",40.4284658,-79.9793686,"1","Donuts, Coffee & Tea, Food"
"136",181515,"Loblaws","Toronto","ON","M5B 1L1",43.6621038957,-79.3797745184,"1","Bakeries, Food, Donuts, Grocery"
"137",97199,"Winchells Donut House","Las Vegas","NV","89119",36.091697,-115.171958,"0","Donuts, Food"
"138",45275,"Krispy Kreme","Las Vegas","NV","89123",36.0116514,-115.1193693,"1","Donuts, Coffee & Tea, Restaurants, Food"
"139",26797,"Tim Hortons","Toronto","ON","M8X 1E9",43.645378,-79.522303,"1","Food, Coffee & Tea, Donuts"
"140",188646,"Friendly Donut House","Henderson","NV","89015",36.0264652,-114.9647508,"1","Food, Donuts, Restaurants"
"141",59859,"Danny's Donut","Glendale","AZ","85305",33.5088590411,-112.2646835811,"1","Juice Bars & Smoothies, Coffee & Tea, Food, Donuts"
"142",35669,"Jamboree Bagel Restaurant & Cafe","Las Vegas","NV","89149",36.2660802,-115.2586289,"0","Donuts, Restaurants, Bakeries, Food, Bagels, Delis"
"143",13125,"Chef Zen","Las Vegas","NV","89147",36.1136678,-115.2614725,"0","Bakeries, Food, Bubble Tea, Donuts"
"144",83672,"Tim Horton's","Ajax","ON","L1S 2J1",43.8471893824,-79.0199619904,"1","Coffee & Tea, Internet Cafes, Donuts, Food"
"145",60376,"Pink Box Doughnuts On The Strip","Las Vegas","NV","89109",36.1052766514,-115.1722425868,"0","Donuts, Bakeries, Food, Coffee & Tea"
"146",43545,"Dunkin' Donuts","Charlotte","NC","28262",35.3099541,-80.7479006,"1","Coffee & Tea, Food, Donuts"
"147",175508,"George's Doughnuts","Twinsburg","OH","44087",41.2830673,-81.4396215,"1","Food, Donuts"
"148",97479,"Dunkin' Donuts","Pittsburgh","PA","15217",40.4381632327,-79.9195761391,"1","Coffee & Tea, Breakfast & Brunch, Donuts, Food, Restaurants"
"149",218,"Salted Malted Bakery & Creamery","North Las Vegas","NV","89084",36.2798653434,-115.2057504172,"0","Donuts, Restaurants, Ice Cream & Frozen Yogurt, Breakfast & Brunch, Coffee & Tea, Sandwiches, Poutineries, Cafes, Bakeries, Food"
"150",20550,"Dunkin' Donuts","Laveen","AZ","85339",33.3189744,-112.1633325,"1","Donuts, Food, Coffee & Tea"
"151",96918,"Crémy Pâtisserie","Montréal","QC","H2H 1K4",45.536628667,-73.5709511963,"1","Donuts, Ice Cream & Frozen Yogurt, Bakeries, Food, Patisserie/Cake Shop"
"152",17335,"Tim Hortons","Toronto","ON","M4W 3R8",43.6709560983,-79.3825904295,"1","Cafes, Donuts, Coffee & Tea, Bakeries, Restaurants, Food"
"153",184768,"Dunkin' Donuts","Concord","NC","28027",35.361002,-80.711569,"1","Food, Donuts, Coffee & Tea"
"154",69358,"Winchell's Donut House","Las Vegas","NV","89106",36.180151,-115.1778692,"1","Donuts, Food, Restaurants"
"155",154879,"Trou de Beigne","Montréal","QC","H2S 1K8",45.5330986,-73.610536,"1","Food, Food Delivery Services, Donuts"
"156",135326,"Dunkin Donuts","Las Vegas","NV","89149",36.2914747,-115.2845673,"0","Food, Coffee & Tea, Donuts"
"157",161324,"Tim Hortons","Toronto","ON","M5H 3E5",43.6497483,-79.387175,"1","Delicatessen, Donuts, Coffee & Tea, Food"
"158",167236,"Dunkin' Donuts","Tempe","AZ","85281",33.4212545,-111.9603069,"1","Food, Donuts, Coffee & Tea, Restaurants"
"159",41716,"Tim Hortons","Ajax","ON","L1Z 2C9",43.8528621821,-79.0087890458,"1","Sandwiches, Restaurants, Breakfast & Brunch, Coffee & Tea, Food, Donuts"
"160",22026,"Dunkin' Donuts","Phoenix","AZ","85014",33.5233382,-112.0478466,"1","Food, Donuts, Coffee & Tea"
"161",79523,"Tim Hortons","Toronto","ON","M4L 3W6",43.6627410493,-79.3100418895,"1","Donuts, Sandwiches, Restaurants, Bakeries, Food, Coffee & Tea"
"162",153262,"People's Bakery","Madison","WI","53704",43.1029911,-89.3457048,"1","Specialty Food, Restaurants, Bakeries, Ethnic Food, Donuts, Food, Lebanese, Middle Eastern, Mediterranean"
"163",11760,"Bob's Express & Catering","McKees Rocks","PA","15136",40.4738569,-80.0967695,"1","Donuts, Restaurants, Sandwiches, Food, Coffee & Tea, Diners, Breakfast & Brunch"
"164",7053,"Boba & Donuts","Chandler","AZ","85226",33.3044272,-111.9479565,"1","Coffee & Tea, Bubble Tea, Donuts, Food"
"165",133568,"Bosa Donuts","Scottsdale","AZ","85257",33.466193,-111.919829,"1","Donuts, Breakfast & Brunch, Restaurants, Food"
"166",13986,"Tim Hortons","Toronto","ON","M1P 2V5",43.7562677421,-79.2481108161,"1","Food, Donuts, Coffee & Tea"
"167",113911,"Short Leash Hotdogs & Rollover Doughnuts","Phoenix","AZ","85013",33.4974838,-112.0832669,"1","Restaurants, Food, Donuts, Gastropubs, Coffee & Tea, Hot Dogs, American (New)"
"168",78424,"Tim Hortons","Toronto","ON","M5E 1B8",43.6486942,-79.3731313,"0","Donuts, Coffee & Tea, Food"
"169",133377,"Glory Hole Doughnuts","Toronto","ON","M6R 1A8",43.639781232,-79.4413362193,"1","Donuts, Food"
"170",137684,"Dunkin' Donuts","Phoenix","AZ","85037",33.4653681,-112.271793,"1","Donuts, Coffee & Tea, Food"
"171",120381,"Oven 51 Pizza Bistro & Bakery","Elyria","OH","44035",41.3666858,-82.1066598,"0","Bakeries, Food, Pizza, Restaurants, Donuts"
"172",155806,"All Star Donuts","Las Vegas","NV","89104",36.1517191,-115.1517596,"0","Donuts, Restaurants, Food"
"173",176273,"Discofries","Madison","WI","53703",43.0748713752,-89.3962092698,"0","Food, Donuts, Breakfast & Brunch, Restaurants, Poutineries"
"174",66225,"Tim Hortons","Scarborough","ON","M1R 4B7",43.7582893543,-79.3123974505,"1","Food, Cafes, Bakeries, Restaurants, Donuts, Coffee & Tea"
"175",66123,"Tim Hortons","Mississauga","ON","L5P 1B2",43.6817270744,-79.6120489016,"1","Donuts, Coffee & Tea, Food"
"176",42551,"Pawn Donut and Coffee","Las Vegas","NV","89101",36.161205,-115.145457,"0","Restaurants, Breakfast & Brunch, Food, Donuts, Coffee & Tea"
"177",102049,"Tim Hortons","Calgary","AB","T2P 4H4",51.0499673,-114.0672171,"1","Donuts, Food"
"178",132974,"Daliz Ice Cream","Glendale","AZ","85301",33.5247942594,-112.2004395258,"1","Food, Mexican, Restaurants, Ice Cream & Frozen Yogurt, Donuts, Coffee & Tea"
"179",172576,"Novel Ice Cream","Phoenix","AZ","85007",33.4554224747,-112.0866099,"1","Food, Ice Cream & Frozen Yogurt, Desserts, Donuts"
"180",128868,"Baskin Robbins & Dunkin' Donuts","Streetsboro","OH","44241",41.239687,-81.342849,"1","Food, Donuts, Ice Cream & Frozen Yogurt, Restaurants"
"181",58899,"Mesa Donuts","Mesa","AZ","85215",33.4524784,-111.7011528,"1","Bubble Tea, Coffee & Tea, Food, Donuts"
"182",89773,"Tim Horton's","Toronto","ON","M5H 3V9",43.6498592,-79.3820602,"1","Restaurants, Bagels, Donuts, Coffee & Tea, Cafes, Food"
"183",76842,"Dunkin' Donuts","Waunakee","WI","53597",43.1918012,-89.4613296,"1","Coffee & Tea, Food, Donuts"
"184",31522,"Becker's Donuts & Bakery","North Olmsted","OH","44070",41.404385428,-81.9479532854,"1","Donuts, Food, Bakeries"
"185",72523,"Tim Hortons","Scarborough","ON","M1V 4S7",43.8254065,-79.297714,"1","Coffee & Tea, Bakeries, Food, Donuts"
"186",155996,"Pearlee & Cille's Bagel Cafe","Belmont","NC","28012",35.2454935,-81.0373572,"1","Food, Desserts, Donuts, Bagels, Coffee & Tea, Kids Activities, Ice Cream & Frozen Yogurt, Active Life"
"187",175211,"Tim Hortons","Toronto","ON","M4Y 1Z9",43.6683814746,-79.385911778,"1","Breakfast & Brunch, Sandwiches, Coffee & Tea, Restaurants, Donuts, Food"
"188",96132,"Paulette's Original Doughnuts","Toronto","ON","M4M 1J6",43.6607442,-79.341429,"0","Coffee & Tea, Food, Donuts"
"189",168305,"Bosa Donuts","Mesa","AZ","85210",33.3941421509,-111.8405532837,"1","Food, Donuts"
"190",27252,"Dunkin' Donuts","Madison","WI","53711",43.0484399163,-89.5027191825,"1","Donuts, Food, Coffee & Tea"
"191",112237,"Dunkin' Donuts","Pittsburgh","PA","15238",40.5384285589,-79.8339473829,"1","Food, Coffee & Tea, Donuts"
"192",37535,"Hollywood Donuts","Ajax","ON","L1T 1P5",43.858914,-79.0401394,"1","Food, Donuts, Coffee & Tea"
"193",108672,"Krispy Kreme","Las Vegas","NV","89103",36.1252910295,-115.2457503853,"1","Food, Cafes, Fast Food, Restaurants, Coffee & Tea, Donuts"
"194",110803,"Dunkin' Donuts","Indian Land","SC","29707",34.955402215,-80.8519956311,"1","Donuts, Bakeries, Coffee & Tea, Food"
"195",181593,"Donut Tyme","Las Vegas","NV","89104",36.1593275383,-115.0821787453,"1","Restaurants, Donuts, Food"
"196",82312,"Dunkin' Donuts","Montréal","QC","H3A 2A5",45.5039643,-73.5722865,"0","Food, Donuts"
"197",48814,"Tim Horton's","Scarborough","ON","M1B 5J3",43.8017919337,-79.1993925949,"1","Restaurants, Donuts, Cafes, Sandwiches, Food, Coffee & Tea, Delis"
"198",13711,"Dunkin Donuts","Strongsville","OH","44136",41.313536849,-81.7872486696,"1","Food, Donuts"
"199",124595,"Dunkin' Donuts","Pittsburgh","PA","15213",40.4422,-79.956316,"1","Bakeries, Bagels, Food, Donuts, Coffee & Tea"
"200",142572,"Sweet Cream Donuts","Phoenix","AZ","85043",33.4223380195,-112.2199049592,"1","Donuts, Food, Coffee & Tea, Sandwiches, Specialty Food, Restaurants"
"201",6444,"Dunkin' Donuts","Brunswick","OH","44212",41.2379709,-81.825664,"1","Food, Donuts, Coffee & Tea"
"202",68398,"Blooming Donuts","Tolleson","AZ","85353",33.4222,-112.268859,"1","Coffee & Tea, Breakfast & Brunch, Restaurants, Bubble Tea, Food, Juice Bars & Smoothies, Donuts"
"203",60414,"Donut Lab","Cleveland","OH","",41.4994954,-81.6954088,"1","Food, Food Trucks, Donuts"
"204",32549,"Born & Glazed","Scottsdale","AZ","85251",33.4861097,-111.908922,"0","Donuts, Food"
"205",38595,"Ninja Bowl","Phoenix","AZ","85027",33.68439,-112.103672,"0","Japanese, Donuts, Restaurants, Chinese, Food"
"206",32937,"Amy Joy Donuts","Lyndhurst","OH","44124",41.520281,-81.491745,"1","Food, Restaurants, Donuts, Coffee & Tea"
"207",133774,"Modern Donut","Las Vegas","NV","89144",36.1780112,-115.3133908,"0","Donuts, Bakeries, Flowers & Gifts, Comfort Food, Food, Desserts, Shopping, Restaurants, Food Delivery Services"
"208",123349,"Winchell's Donut House","Las Vegas","NV","89102",36.1440785,-115.1862834,"1","Restaurants, Food, Donuts"
"209",117052,"Dunkin' Donuts","Wexford","PA","15090",40.6204939,-80.0552889,"1","Coffee & Tea, Donuts, Food"
"210",52933,"Sin City Snoballs & Snacks","Las Vegas","NV","89106",36.2085091,-115.3133908,"0","Food, Ice Cream & Frozen Yogurt, Restaurants, Food Stands, Street Vendors, Donuts, Shaved Ice, Food Trucks, Local Flavor"
"211",158389,"Dunkin Donuts","Phoenix","AZ","85024",33.6791170805,-112.031405526,"1","Coffee & Tea, Food, Donuts"
"212",89956,"Tim Hortons","Calgary","AB","T2E 6Z8",51.12957843,-114.0086077899,"1","Donuts, Bagels, Food, Coffee & Tea"
"213",186100,"Tim Hortons","Brampton","ON","L7A 2X5",43.6975684,-79.7986337,"1","Donuts, Coffee & Tea, Breakfast & Brunch, Sandwiches, Restaurants, Food"
"214",105597,"Dunkin' Donuts","Matthews","NC","28105",35.1430591,-80.7195576,"1","Food, Coffee & Tea, Donuts, Ice Cream & Frozen Yogurt"
"215",111866,"Tim Hortons","Toronto","ON","M1L 3X6",43.7064987,-79.2684042,"1","Coffee & Tea, Ice Cream & Frozen Yogurt, Food, Donuts"
"216",117721,"Coffee Time","Toronto","ON","M6H 4E9",43.6672069,-79.4464352,"0","Donuts, Juice Bars & Smoothies, Coffee & Tea, Food"
"217",87159,"Donut Connection","New Kensington","PA","15068",40.5903445,-79.7496085,"1","Coffee & Tea, Donuts, Food, Bakeries"
"218",14434,"Donut Mania","Las Vegas","NV","89147",36.1084108,-115.2781558,"1","Food, Donuts, Bakeries"
"219",108599,"Baskin-Robbins","Huntersville","NC","28078",35.4113270076,-80.8558056074,"0","Cupcakes, Food, Ice Cream & Frozen Yogurt, Coffee & Tea, Donuts"
"220",105675,"Dunkin' Donuts","Phoenix","AZ","85018",33.4806836,-111.9924552,"1","Coffee & Tea, Donuts, Food"
"221",73692,"M J  Donuts","Pineville","NC","28134",35.0825680857,-80.8857236656,"1","Donuts, Bakeries, Food"
"222",171458,"Tim Hortons","Markham","ON","L3P 1H9",43.8649242,-79.2845263,"1","Coffee & Tea, Food, Donuts, Ice Cream & Frozen Yogurt"
"223",123039,"Dunkin' Donuts","Charlotte","NC","28212",35.2027173,-80.7289992,"1","Donuts, Food, Coffee & Tea"
"224",72637,"Krispy Kreme Doughnuts","Mississauga","ON","L5V 2P5",43.6097803876,-79.6934175935,"1","Donuts, Food"
"225",92931,"Donut Mania","North Las Vegas","NV","89031",36.2750066452,-115.1793306693,"1","Food, Donuts, Ice Cream & Frozen Yogurt, Desserts"
"226",28093,"Dunkin' Donuts","Twinsburg","OH","44087",41.3117896,-81.4469108,"1","Breakfast & Brunch, Restaurants, Bakeries, Donuts, Food, Coffee & Tea"
"227",32769,"Dunkin' Donuts","Phoenix","AZ","85027",33.6567815644,-112.0993753327,"1","Coffee & Tea, Donuts, Food"
"228",77607,"Tim Horton","Mississauga","ON","L5R 3E7",43.6052843301,-79.6534764792,"1","Food, Coffee & Tea, Donuts"
"229",94981,"Bob's Sub","Pittsburgh","PA","15237",40.5821248657,-80.036762863,"1","Restaurants, Salad, Donuts, Sandwiches, Food"
"230",69251,"Bosa Donuts","Mesa","AZ","85203",33.4154978,-111.8060185,"1","Food, Donuts, Bakeries"
"231",92004,"Donut Parlor","Tempe","AZ","85284",33.3485982973,-111.9580237113,"1","Food, Donuts, Coffee & Tea, Desserts"
"232",59719,"Dunkin' Donuts","Cleveland","OH","44113",41.4972500955,-81.6940800013,"1","Coffee & Tea, Donuts, Food"
"233",179556,"Dunkin' Donuts","Urbana","IL","61801",40.1167564392,-88.2114257812,"1","Food, Bagels, Donuts, Coffee & Tea"
"234",124007,"Ye Olde Donut Shoppe","Urbana","IL","61801",40.1332977519,-88.2170032337,"1","Donuts, Food"
"235",31572,"Fractured Prune","Phoenix","AZ","85003",33.4473995877,-112.0740638735,"0","Food, Donuts, Bakeries"
"236",28845,"Dunkin' Donuts","Champaign","IL","61820",40.110518,-88.2439538,"1","Sandwiches, Donuts, Restaurants, Food, Coffee & Tea"
"237",144683,"Dunkin' Donuts","Charlotte","NC","28262",35.290614,-80.796351,"1","Food, Coffee & Tea, Donuts"
"238",81793,"Crunch Donut Factory","Las Vegas","NV","89119",36.1079963,-115.1363937,"1","Desserts, Ice Cream & Frozen Yogurt, Donuts, Cupcakes, Food, Waffles, Restaurants"
"239",154645,"Dunkin' Donuts","Glendale","AZ","85306",33.6120809,-112.1854262,"1","Coffee & Tea, Donuts, Food, Restaurants"
"240",37100,"Maggie's Doughnuts","Hiram","OH","44234",41.3095480514,-81.1454845592,"1","Donuts, Coffee & Tea, Food"
"241",154041,"Baskin Robbins","Peoria","AZ","85383",33.7096103,-112.2728956,"1","Food, Donuts, Ice Cream & Frozen Yogurt"
"242",141376,"Carolina Doughnuts","Charlotte","NC","28217",35.186718,-80.90868,"0","Donuts, Food, Desserts, Bakeries"
"243",85135,"Sugar N Spice","Goodyear","AZ","85395",33.4927108,-112.3801191,"1","Food, Coffee & Tea, Bakeries, Donuts"
"244",90955,"Bosa Donuts","Gilbert","AZ","85295",33.306399,-111.718799,"1","Donuts, Food"
"245",34299,"Jelly Modern Doughnuts","Calgary","AB","T2H 1C3",50.985219652,-114.0517162532,"1","Desserts, Food, Donuts"
"246",160343,"LaMar's Donuts & Coffee","Phoenix","AZ","85023",33.640451,-112.111163,"1","Coffee & Tea, Breakfast & Brunch, Restaurants, Food, Donuts"
"247",159998,"Krispy Kreme","Las Vegas","NV","89109",36.1088418,-115.1721488,"1","Donuts, Bagels, Coffee & Tea, Food"
"248",45604,"Krispy Kreme","Scottsdale","AZ","85254",33.5820623,-111.9290758,"1","Food, Donuts, Coffee & Tea"
"249",160545,"Fractured Prune Doughnuts","Glendale","AZ","85305",33.5349973245,-112.2609967759,"1","Breakfast & Brunch, Pizza, Restaurants, Bakeries, Bagels, Desserts, Donuts, Food, Coffee & Tea"
"250",108413,"Dunkin' Donuts","Strongsville","OH","44136",41.312599,-81.8342909,"1","Food, Donuts, Coffee & Tea"
"251",111541,"Dunkin Donuts","Tempe","AZ","85281",33.424281,-111.924088,"0","Donuts, Food"
"252",73687,"Daddy O Doughnuts and British Baked Goods","Mississauga","ON","L5A 1B2",43.5818131148,-79.5861366021,"1","Donuts, Bakeries, Food, Desserts"
"253",164816,"Tim Horton Donuts","Mississauga","ON","L5K 1R8",43.5270673541,-79.6760306814,"1","Donuts, Food, Coffee & Tea, Bakeries"
"254",7319,"Enchanted Cupcakes and More","Phoenix","AZ","85041",33.3796253,-112.1385527,"1","Cupcakes, Restaurants, Food, Donuts, Bakeries, Bagels, Desserts, Breakfast & Brunch, Custom Cakes"
"255",185075,"Donut Mania","Las Vegas","NV","89134",36.1938176,-115.3058135,"1","Food, Desserts, Donuts, Ice Cream & Frozen Yogurt"
"256",51674,"Duck Donuts","Huntersville","NC","28078",35.4091695,-80.8614429,"1","Breakfast & Brunch, Donuts, Restaurants, Food, Coffee & Tea"
"257",29935,"Becker's Donuts","North Ridgeville","OH","44039",41.3894521,-82.0181917,"1","Coffee & Tea, Specialty Food, Donuts, Restaurants, Food"
"258",29305,"Super 8 Hotel","Mesa","AZ","85264",33.4150652,-111.688712,"1","Hotels, Coffee & Tea, Food, Event Planning & Services, Donuts, Hotels & Travel"
"259",95016,"Dunkin Donuts","Tempe","AZ","85282",33.380008,-111.9277962,"1","Donuts, Food, Bakeries, Coffee & Tea"
"260",82518,"Golden Donuts & Smoothies","Chandler","AZ","85224",33.3215191425,-111.875648126,"0","Restaurants, Breakfast & Brunch, Food, Juice Bars & Smoothies, Donuts, Cafes, Internet Cafes"
"261",81485,"Baskin Robbins","Chandler","AZ","85248",33.2337357,-111.8605095,"0","Ice Cream & Frozen Yogurt, Donuts, Food"
"262",178370,"Krispy Kreme","Phoenix","AZ","85017",33.4946108367,-112.1277843086,"1","Restaurants, Breakfast & Brunch, Donuts, Coffee & Tea, Food"
"263",5187,"Coco Donuts","Las Vegas","NV","89129",36.2186914344,-115.3144033929,"1","Donuts, Food, Bakeries, Desserts"
"264",166111,"Tim Hortons","Toronto","ON","M1B 6A3",43.8019937,-79.1981879,"1","Donuts, Food, Coffee & Tea, Bakeries"
"265",36195,"Circles on the Square","Medina","OH","44256",41.1382799,-81.864288,"1","Donuts, Food"
"266",44239,"Dunkin' Donuts","Peoria","AZ","85381",33.610526,-112.2394728,"1","Donuts, Food, Coffee & Tea"
"267",74843,"Pandamonium Doughnuts Food Truck","Champaign","IL","61821",40.1017582,-88.2753144,"1","Bakeries, Coffee & Tea, Food Trucks, Food, Donuts"
"268",144063,"Gluten Free Creations","Scottsdale","AZ","85257",33.4652987539,-111.917283386,"1","Donuts, Gluten-Free, Specialty Food, Grocery, Security Systems, Restaurants, Home Services, Delis, Food, Cafes, Bakeries"
"269",28954,"Jordan's Donuts","Coraopolis","PA","15108",40.5174574,-80.1640555,"1","Food, Donuts"
"270",126224,"China Magic Noodle House","Chandler","AZ","85224",33.3355999912,-111.8739256735,"1","Specialty Food, Restaurants, Food, Ethnic Food, Noodles, Donuts, Chinese"
"271",41584,"Master Donuts","Las Vegas","NV","89169",36.130055937,-115.1199415013,"1","Donuts, Restaurants, Food, Bakeries"
"272",50823,"Dunkin' Donuts","Las Vegas","NV","89119",36.1137416681,-115.1195073738,"1","Bakeries, Donuts, Coffee & Tea, Food"
"273",139603,"Dunkin' Donuts","Bridgeville","PA","",40.3563080532,-80.1200330705,"1","Food, Coffee & Tea, Donuts"
"274",104347,"The Bakery Shoppe","Huntersville","NC","28078",35.4370947,-80.8650041,"1","Local Services, Couriers & Delivery Services, Event Planning & Services, Donuts, Wedding Planning, Restaurants, Coffee & Tea, Food, Bakeries"
"275",185191,"Dunkin Donut","Charlotte","NC","28213",35.2616491161,-80.7745977491,"1","Food, Donuts"
"276",55256,"Honeybee Donuts","Markham","ON","L3P 5E5",43.8682520508,-79.2846966907,"1","Breakfast & Brunch, Bagels, Donuts, Restaurants, Food"
"277",113278,"Winchell's Donut House","Las Vegas","NV","89107",36.1799564,-115.2064275,"0","Food, Donuts"
"278",68626,"Porked East Liberty","Pittsburgh","PA","15206",40.462942,-79.9238279,"1","Specialty Food, Restaurants, Mexican, Tacos, Donuts, Food, Sandwiches"
"279",64802,"Dough Re Mi Donuts","Harrisburg","NC","28075",35.2908011,-80.609751,"1","Coffee & Tea, Donuts, Food, Cupcakes"
"280",186020,"Baskin Robbins","North Versailles","PA","15137",40.3776434,-79.8015383,"1","Restaurants, Food, Ice Cream & Frozen Yogurt, Donuts"
"281",162777,"Tim Horton","Brampton","ON","L6W 3G1",43.6879505,-79.7400403,"1","Donuts, Food"
"282",92360,"Tim Hortons","Toronto","ON","M5H 3B3",43.6478833787,-79.3850146607,"1","Food, Bakeries, Coffee & Tea, Donuts, Bagels"
"283",159781,"Real Donuts","North Las Vegas","NV","89030",36.2179966257,-115.1189647639,"1","Food, Donuts, Bakeries, Ice Cream & Frozen Yogurt"
"284",75078,"Tim Hortons","Scarborough","ON","M1L 4V9",43.7261326116,-79.2918035388,"1","Coffee & Tea, Restaurants, Bakeries, Food, Donuts, Sandwiches"
"285",169678,"Rainbow Donuts","Glendale","AZ","85302",33.5673438692,-112.1607230322,"1","Donuts, Bubble Tea, Restaurants, Coffee & Tea, Food, Sandwiches"
"286",171440,"Tim Horton's","Toronto","ON","M4K 1N2",43.6760747,-79.3584529,"1","Food, Donuts, Coffee & Tea"
"287",6115,"Dunkin' Donuts","Phoenix","AZ","85015",33.480288,-112.109986,"1","Food, Coffee & Tea, Donuts"
"288",147020,"Winchell's Donut House","Las Vegas","NV","89107",36.1713127195,-115.2053162567,"1","Food, Donuts"
"289",37094,"Granny Mac's Bake Shop","Harrisburg","NC","28075",35.321683,-80.659621,"0","Bakeries, Donuts, Bagels, Restaurants, Food, Pizza"
"290",62463,"The Donut Shoppe","Phoenix","AZ","85033",33.5085398,-112.2355778,"1","Coffee & Tea, Bubble Tea, Food, Donuts"
"291",64668,"Bosa Donuts","Chandler","AZ","85224",33.3491358,-111.8769569,"1","Coffee & Tea, Food, Sandwiches, Restaurants, Bakeries, Bubble Tea, Donuts"
"292",147655,"Dunkin' Donuts","Charlotte","NC","28213",35.2953810692,-80.740008211,"1","Coffee & Tea, Donuts, Food"
"293",25479,"Dunkin' Donuts","Las Vegas","NV","89117",36.1268188361,-115.2793161342,"1","Coffee & Tea, Donuts, Food"
"294",167632,"Tim Hortons","Toronto","ON","M6K 3E7",43.6379732969,-79.4185576603,"1","Coffee & Tea, Food, Donuts"
"295",169397,"Rainbow Donuts","Phoenix","AZ","85029",33.596108,-112.120825,"1","Food, Bakeries, Juice Bars & Smoothies, Donuts"
"296",123388,"Léché Desserts","Montréal","QC","H4C 3C5",45.474108,-73.592362,"1","Desserts, Donuts, Bakeries, Food"
"297",130486,"Tim Hortons","Calgary","AB","T2G 3M5",50.8947207095,-113.9438303352,"1","Coffee & Tea, Donuts, Food"
"298",42477,"El Habanero & Churrobar","Toronto","ON","M1V 4Z4",43.8271892,-79.2909971,"1","Caterers, Food, Event Planning & Services, Caribbean, Cuban, Latin American, Donuts, Desserts, Spanish, Restaurants"
"299",60593,"Krispy Kreme","Toronto","ON","M5S 2R5",43.6614414,-79.4094383,"1","Coffee & Tea, Food, Donuts"
"300",129065,"Krispy Kreme","Matthews","NC","28105",35.1393517401,-80.7167478176,"1","Restaurants, Food, Donuts, Coffee & Tea"
"301",45711,"Donut Counter","North York","ON","M2K 1G4",43.7920037,-79.3927656,"1","Donuts, Food, Coffee & Tea, Bagels, Sandwiches, Restaurants"
"302",191336,"Dunkin' Donuts","Phoenix","AZ","85032",33.5965965855,-112.0141868017,"1","Coffee & Tea, Donuts, Food"
"303",84526,"Dunkin' Donuts","Phoenix","AZ","85018",33.4806339,-111.9924691,"1","Food, Restaurants, Coffee & Tea, Donuts"
"304",190428,"Tim Hortons","Rigaud","QC","J0P 1P0",45.4611403,-74.2264695,"1","Food, Cafes, Restaurants, Donuts, Sandwiches"
"305",36949,"Baskin Robbins","Gastonia","NC","28054",35.2426976,-81.125023,"1","Ice Cream & Frozen Yogurt, Donuts, Food"
"306",72859,"Biagio's Donut Shop & Pizzeria","Eastlake","OH","44095",41.6429367,-81.4352018,"1","Pizza, Restaurants, Food, Donuts"
"307",79404,"Dunkin' Donuts","Lakewood","OH","44107",41.4848098,-81.8188051,"1","Coffee & Tea, Donuts, Food"
"308",11127,"Dunkin' Donuts","Pittsburgh","PA","15216",40.393659,-80.0354355,"1","Coffee & Tea, Donuts, Food"
"309",12904,"QuikTrip","Charlotte","NC","28273",35.1365889493,-80.875680438,"1","Convenience Stores, Automotive, Gas Stations, Food, Donuts"
"310",51327,"Krispy Kreme Doughnuts","Paradise Valley","AZ","85032",33.602086,-111.988061,"0","Restaurants, Breakfast & Brunch, Coffee & Tea, Donuts, Food"
"311",84226,"Dunkin' Donuts","Queen Creek","AZ","85242",33.283583,-111.684714,"1","Coffee & Tea, Food, Donuts"
"312",36192,"Greenbush Bakery","Madison","WI","53715",43.0674367,-89.4076996,"1","Food, Donuts, Bakeries, Restaurants"
"313",49970,"Duck Donuts","Pittsburgh","PA","15241",40.3471534,-80.0574215,"1","Donuts, Coffee & Tea, Food, Restaurants, Breakfast & Brunch"
"314",47135,"Delica Kitchen","Toronto","ON","M4M 1J6",43.6607523,-79.3413929,"1","Bakeries, Donuts, Food"
"315",190449,"Fresh Donuts","North Las Vegas","NV","89030",36.1962389,-115.1190162,"1","Bagels, Food, Donuts, Bakeries, Restaurants"
"316",47752,"Peace, Love and Little Donuts of Robinson","McKees Rocks","PA","15136",40.446673,-80.144141,"1","Breakfast & Brunch, Food, Coffee & Tea, Donuts, Restaurants"
"317",144021,"Bosa Donuts","Phoenix","AZ","85015",33.5089808,-112.1079048,"1","Coffee & Tea, Juice Bars & Smoothies, Food, Donuts"
"318",32924,"Dunkin' Donuts","Tempe","AZ","85284",33.3350123,-111.9620302,"1","Coffee & Tea, Donuts, Food, Bagels"
"319",50455,"Becker's","North Royalton","OH","44133",41.3301454,-81.724124,"1","Bakeries, Donuts, Food"
"320",50820,"Doughnut Works","Twinsburg","OH","44087",41.3116978,-81.4385069,"0","Donuts, Food, Restaurants"
"321",45753,"Dunkin' Donuts","Las Vegas","NV","89103",36.099828,-115.241089,"1","Food, Coffee & Tea, Donuts"
"322",87027,"Donut Land","Brunswick","OH","44212",41.2394492,-81.8405171,"1","Coffee & Tea, Restaurants, Food, Bakeries, Donuts"
"323",136288,"Dunkin' Donuts","Phoenix","AZ","85016",33.5092763,-112.0362686,"1","Food, Donuts, Coffee & Tea"
"324",58465,"Dunkin Donuts","Peoria","AZ","85310",33.7116909687,-112.2032196075,"1","Food, Breakfast & Brunch, Coffee & Tea, Donuts, Restaurants"
"325",127113,"Dunkin' Donuts","Chandler","AZ","85225",33.3355285,-111.8411933,"1","Donuts, Food, Coffee & Tea"
"326",128279,"Tim Hortons","Newmarket","ON","L3Y 8E6",44.0494999,-79.421662,"1","Coffee & Tea, Food, Donuts, Bagels"
"327",69805,"Welcome Chicken + Donuts","Phoenix","AZ","85034",33.4365376582,-112.0487169042,"1","Chicken Wings, Restaurants, Food, Chicken Shop, Coffee & Tea, Asian Fusion, Donuts"
"328",172559,"Tim Hortons","Toronto","ON","M6K 1M3",43.6405633025,-79.437282675,"1","Coffee & Tea, Donuts, Food, Bagels"
"329",107278,"Dunkin' Donuts","Belle Vernon","PA","15012",40.2026518,-79.8365451,"1","Sandwiches, Restaurants, Food, Coffee & Tea, Donuts"
"330",34018,"Dunkin' Donuts","Las Vegas","NV","89122",36.1122717669,-115.0618355997,"1","Donuts, Food, Coffee & Tea"
"331",107757,"Dunkin' Donuts","Las Vegas","NV","89146",36.143868288,-115.2222882463,"1","Coffee & Tea, Donuts, Food"
"332",92573,"Coffee Time","Toronto","ON","M6H 1N7",43.6582697,-79.4424952,"1","Coffee & Tea, Donuts, Food"
"333",43898,"Krispy Kreme Cafe","Toronto","ON","M5T 2G7",43.6558643159,-79.3994606115,"1","Donuts, Coffee & Tea, Food"
"334",13369,"Krispy Kreme","Chandler","AZ","85224",33.3055596961,-111.8601869382,"1","Donuts, Food, Coffee & Tea"
"335",149721,"Tim Horton's","North York","ON","M4A 1X2",43.7233847,-79.3026669,"1","Coffee & Tea, Cafes, Sandwiches, Bakeries, Donuts, Restaurants, Food"
"336",6094,"Tim Horton's","Toronto","ON","M5V 2T3",43.6439933,-79.4038314,"1","Food, Coffee & Tea, Donuts"
"337",85656,"Tim Hortons","Vaudreuil-Dorion","QC","J7V 2N4",45.4039548,-74.0306544,"1","Donuts, Food, Coffee & Tea"
"338",171634,"Dunkin Donuts","Phoenix","AZ","85004",33.4494878867,-112.0741661265,"1","Food, Coffee & Tea, Donuts"
"339",85464,"Las Vegas Donut House","Las Vegas","NV","89169",36.115166,-115.153674,"1","Donuts, Food, Restaurants"
"340",64365,"Sunrise Donuts","Phoenix","AZ","85339",33.3789419421,-112.1346091984,"1","Food, Bagels, Breakfast & Brunch, Donuts, Restaurants"
"341",184247,"Dunkin Donuts","Las Vegas","NV","89123",36.042912,-115.150469,"0","Food, Donuts"
"342",69130,"Delicious Donuts","Pittsburgh","PA","15237",40.581450942,-80.0370140746,"1","Coffee Roasteries, Donuts, Food"
"343",67956,"Dunkin Donuts","Upper St Clair","PA","15241",40.3259311,-80.0651702,"1","Breakfast & Brunch, Donuts, Coffee & Tea, Restaurants, Food"
"344",21072,"Tim Hortons","Brampton","ON","L6V 2N4",43.7034663,-79.7599512,"1","Donuts, Food"
"345",92359,"C's Restaurant Bakery and Coffee Shop","Middleton","WI","53562",43.1028744,-89.4867325,"1","Restaurants, Food, Bakeries, American (Traditional), Donuts"
"346",2884,"Dunkin' Donuts","Bridgeville","PA","15017",40.366688,-80.105453,"1","Coffee & Tea, Donuts, Food"
"347",131003,"Downtown Donuts","Concord","NC","28025",35.4108415365,-80.5816295743,"1","Food, Donuts, Coffee & Tea"
"348",127811,"Amy's Donut Factory & Gourmet Creamery","Henderson","NV","89052",35.9784823,-115.0991352,"0","Ice Cream & Frozen Yogurt, Desserts, Donuts, Food"
"349",33420,"Dunkin' Donuts","Cuyahoga Falls","OH","44221",41.1323983,-81.4789434,"1","Donuts, Food, Coffee & Tea"
"350",81045,"Peace Love and Little Donuts of Peters Township","Canonsburg","PA","15317",40.2624223,-80.1359685,"1","Bakeries, Donuts, Food, Desserts"
"351",48668,"Tim Hortons","Toronto","ON","",43.685660765,-79.6206445471,"1","Coffee & Tea, Cafes, Restaurants, Food, Sandwiches, Donuts"
"352",152416,"Krispy Kreme","Cleveland","OH","44130",41.377345,-81.7911966,"1","Donuts, Restaurants, Coffee & Tea, Food"
"353",154652,"Tim Hortons","Mississauga","ON","L5A 2W7",43.5917760793,-79.5951932296,"1","Coffee & Tea, Donuts, Breakfast & Brunch, Bakeries, Food, Sandwiches, Restaurants"
"354",182797,"Dunkin Donuts & Baskin Robbins","Painesville","OH","44077",41.7262066,-81.252021,"1","Donuts, Food, Ice Cream & Frozen Yogurt, Coffee & Tea"
"355",18101,"Tim Hortons","Lachine","QC","H8T 1A4",45.4636126,-73.72026,"1","Donuts, Bagels, Coffee & Tea, Food"
"356",191595,"Hurts Donut","Middleton","WI","53562",43.1056310637,-89.5100678062,"1","Food, Donuts"
"357",111883,"Rainbow Donuts","Phoenix","AZ","85031",33.4946284,-112.1671231,"1","Restaurants, Food, Donuts"
"358",115194,"Dunkin' Donuts","Charlotte","NC","28269",35.3409328,-80.7697844,"1","Donuts, Food, Coffee & Tea"
"359",131446,"Bosa Donuts","Phoenix","AZ","85032",33.6400724,-111.9823842,"1","Sandwiches, Restaurants, Juice Bars & Smoothies, Donuts, Food"
"360",76387,"Dee's Donuts","Las Vegas","NV","89148",36.055627,-115.2804128,"0","Donuts, Food"
"361",54084,"Dunkin' Donuts","Tempe","AZ","85284",33.335107,-111.9093283,"1","Coffee & Tea, Donuts, Food"
"362",64627,"Dunkin' Donuts","Charlotte","NC","28202",35.2252325,-80.8438767,"1","Coffee & Tea, Food, Donuts"
"363",27159,"Dunkin' Donuts","Charlotte","NC","28204",35.208709,-80.8355931,"1","Donuts, Food, Coffee & Tea"
"364",81426,"Dunkin' Donuts","Scottsdale","AZ","85259",33.5878889,-111.836281,"1","Coffee & Tea, Donuts, Food"
"365",76820,"Dunkin Donuts  Baskin Robbins","Urbana","IL","61801",40.116757,-88.2113811,"1","Bagels, Ice Cream & Frozen Yogurt, Donuts, Food, Coffee & Tea"
"366",135859,"Bob's Sub","New Kensington","PA","15068",40.5891264897,-79.7508886823,"1","Sandwiches, Food, Restaurants, Salad, American (New), Donuts"
"367",1567,"Dunkin' Donuts","Charlotte","NC","28269",35.3465920167,-80.8428140357,"1","Donuts, Food, Coffee & Tea"
"368",131365,"Bob's Sub","Tarentum","PA","15084",40.570272,-79.8019655,"1","Food, Salad, Sandwiches, Donuts, Restaurants"
"369",67794,"BoSa Donuts","Phoenix","AZ","85044",33.3203458669,-111.9773173182,"1","Restaurants, Donuts, Coffee & Tea, Sandwiches, Food"
"370",175443,"Dunkin Donuts","Gastonia","NC","28054",35.2672558429,-81.1491669909,"1","Food, Donuts, Coffee & Tea"
"371",127590,"Fort Pitt Coffee","Pittsburgh","PA","15222",40.438224569,-80.0043581024,"1","Food, Cupcakes, Donuts, Coffee & Tea, Bakeries"
"372",27994,"Tim Hortons","Richmond Hill","ON","L4E 2P6",43.9537979271,-79.4573367821,"1","Breakfast & Brunch, Restaurants, Sandwiches, Food, Coffee & Tea, Donuts"
"373",54185,"Rainbow Donuts Bakery and Cafe","Phoenix","AZ","85027",33.68439,-112.103672,"0","Restaurants, Breakfast & Brunch, Delis, Fast Food, Donuts, Coffee & Tea, Food"
"374",173621,"Dunkin Donuts & Baskin Robbins","Cleveland","OH","44111",41.451315,-81.811928,"1","Restaurants, Food, Donuts"
"375",108607,"Dunkin' Donuts","Charlotte","NC","28203",35.2106342298,-80.8583538091,"1","Donuts, Ice Cream & Frozen Yogurt, Food, Coffee & Tea"
"376",47617,"Daily Donut","Avondale","AZ","85392",33.4934671954,-112.2918652743,"1","Food, Donuts"
"377",18034,"Tiny Tom Donuts","Markham","ON","L3R 3V7",43.8218393,-79.3497745,"1","Donuts, Food Trucks, Food"
"378",39720,"Darling Donuts","Gilbert","AZ","85234",33.3769325535,-111.787487939,"0","Food, Donuts"
"379",163081,"Dunkin' Donuts","Phoenix","AZ","85032",33.6384468,-111.9804987,"0","Donuts, Food, Coffee & Tea, Ice Cream & Frozen Yogurt, Restaurants"
"380",185493,"Donut Worry Coffee & Smoothies","Gilbert","AZ","85234",33.3661275,-111.7892616,"0","Coffee & Tea, Restaurants, Breakfast & Brunch, Food, Juice Bars & Smoothies, Sandwiches, Donuts"
"381",136471,"Fractured Prune Doughnuts","Las Vegas","NV","89147",36.1154596835,-115.29834093,"1","Food, Donuts"
"382",114592,"Peace Love & Little Donuts","Glenshaw","PA","15116",40.5488123,-79.913821,"0","Donuts, Food, Coffee & Tea"
"383",121276,"Donut Connection","Gibsonia","PA","15044",40.6058247,-79.9467842,"1","Food, Donuts"
"384",6232,"Tim Hortons","Toronto","ON","M6R 2L3",43.6444476,-79.4481838,"1","Bagels, Breakfast & Brunch, Restaurants, Coffee & Tea, Donuts, Food, Sandwiches"
"385",135998,"Dunkin Donuts","Davidson","NC","28036",35.5024568189,-80.8614721603,"1","Donuts, Cafes, Restaurants, Coffee & Tea, Food, Breakfast & Brunch"
"386",89039,"Dunkin' Donuts","Cleveland","OH","44126",41.4459151,-81.8533626,"1","Donuts, Coffee & Tea, Food"
"387",128950,"Dunkin' Donuts","Phoenix","AZ","85027",33.682869,-112.099273,"1","Donuts, Coffee & Tea, Food"
"388",183006,"Bicycle Nomad","Phoenix","AZ","85004",33.4574348274,-112.0716389291,"1","Restaurants, Kombucha, Food, Sandwiches, Sporting Goods, Donuts, Shopping, Juice Bars & Smoothies, Coffee & Tea, Bikes"
"389",119787,"North Hill Donuts","Akron","OH","44310",41.102029,-81.4912587,"1","Donuts, Food"
"390",137464,"Dunkin Donuts","Willoughby Hills","OH","44092",41.587539,-81.479067,"1","Coffee & Tea, Coffee Roasteries, Food, Donuts"
"391",165374,"Boba & Donuts","Tempe","AZ","85283",33.378622,-111.97689,"1","Bubble Tea, Food, Coffee & Tea, Donuts"
"392",84606,"Dudt P J Bakery","Allison Park","PA","15101",40.5673828,-79.999307,"0","Bakeries, Food, Restaurants, Donuts"
"393",124427,"Dont Glaze Me Donuts","Henderson","NV","89052",35.9919515007,-115.1023428156,"0","Food, Donuts"
"394",26777,"Tim Hortons","Mississauga","ON","L5K 1T7",43.5282676282,-79.6528744698,"1","Breakfast & Brunch, Coffee & Tea, Sandwiches, Donuts, Food, Restaurants, Delis"
"395",123490,"Royal Donut","Cleveland","OH","44134",41.4059869,-81.7099559,"1","Restaurants, Donuts, Food"
"396",130777,"Tim Hortons","Calgary","AB","T2E 2Y4",51.0884699,-114.0628192,"1","Donuts, Food, Bagels, Coffee & Tea"
"397",57754,"Tim Hortons","Saint-Sauveur","QC","J0R 1R3",45.8899723,-74.1484094,"1","Donuts, Sandwiches, Coffee & Tea, Food, Restaurants, Breakfast & Brunch"
"398",162501,"Dunkin' Donuts","Scottsdale","AZ","85254",33.5828907,-111.924368,"0","Food, Donuts, Coffee & Tea"
"399",37002,"Gracie's Diner","Eastlake","OH","44095",41.6638265,-81.4330222,"1","Food, Restaurants, Coffee & Tea, Breakfast & Brunch, Donuts"
"400",21403,"Carmella's Creme","Champaign","IL","61821",40.1126019,-88.2740859,"1","Restaurants, Donuts, Food"
"401",159179,"Country Style","Etobicoke","ON","M9R 2Y8",43.6933138,-79.5572835,"0","Bakeries, Donuts, Sandwiches, Breakfast & Brunch, Restaurants, Food"
"402",22126,"Tim hortons","Etobicoke","ON","M8Z 5C8",43.6152513422,-79.5246416479,"1","Bakeries, Food, Donuts, Coffee & Tea"
"403",81776,"Tim Horton's","Toronto","ON","M5V 1J2",43.646977,-79.389683,"1","Bakeries, Food, Donuts, Coffee & Tea"
"404",116186,"Bosa Donuts","Chandler","AZ","85225",33.3142720175,-111.8410244957,"1","Food, Donuts, Coffee & Tea, Restaurants"
"405",29095,"Dunkin' Donuts","Las Vegas","NV","89115",36.279601,-115.026067,"1","Food, Donuts, Coffee & Tea"
"406",179369,"Tim Hortons","Markham","ON","L6C 3A9",43.8948985,-79.2919537,"1","Donuts, Coffee & Tea, Food, Restaurants, Breakfast & Brunch, Sandwiches"
"407",145712,"Dunkin Donuts & Baskin Robbins","Cleveland","OH","44130",41.371565,-81.8252313,"1","Food, Donuts"
"408",120436,"Patisserie Wawel","Montréal","QC","H3H 2G4",45.4931319,-73.5807331,"1","Polish, Food, Bakeries, Donuts, Restaurants"
"409",171384,"Dee's Donuts","Las Vegas","NV","89149",36.2775954745,-115.288717313,"1","Food, Donuts"
"410",45761,"Giant Eagle","McMurray","PA","15317",40.2691352,-80.1266328,"1","Food, Shopping, Donuts, Drugstores, Bakeries"
"411",123282,"Suárez Bakery","Charlotte","NC","28209",35.174287,-80.84826,"1","Bakeries, Restaurants, Donuts, Cupcakes, Coffee & Tea, Food"
"412",144061,"Marathon Donuts & Coffee Shop","Toronto","ON","M1V",43.8067504,-79.2888581,"1","Food, Breakfast & Brunch, Fast Food, Coffee & Tea, Restaurants, Donuts"
"413",184523,"Peoria Donut Cafe","Peoria","AZ","85345",33.5802395,-112.2210361,"1","Food, Donuts, Ice Cream & Frozen Yogurt, Coffee & Tea, Restaurants, Cafes"
"414",134148,"Dunkin Donuts Baskin Robbins","Charlotte","NC","28202",35.2325879,-80.8450891,"0","Donuts, Ice Cream & Frozen Yogurt, Food"
"415",57574,"Tim Hortons","Toronto","ON","M6H 1C5",43.6508953,-79.4394679,"1","Sandwiches, Breakfast & Brunch, Donuts, Food, Bagels, Coffee & Tea, Restaurants"
"416",116317,"Sunrise Donuts","Las Vegas","NV","89118",36.0711489,-115.2073958,"1","Ice Cream & Frozen Yogurt, Bagels, Donuts, Food, Juice Bars & Smoothies, Beverage Store"
"417",53201,"Cravin Donuts","Tempe","AZ","85281",33.4213202625,-111.9258805364,"0","Juice Bars & Smoothies, Food, Coffee & Tea, Donuts"
"418",40451,"Peace Love & Little Donuts of Kent","Kent","OH","44240",41.1523752,-81.3578151,"1","Juice Bars & Smoothies, Coffee & Tea, Donuts, Food"
"419",18451,"Dunkin' Donuts","Stow","OH","44224",41.1810462184,-81.4829674019,"1","Food, Donuts, Fast Food, Restaurants, Bagels, Coffee & Tea"
"420",131497,"Dunkin' Donuts","Concord","NC","28027",35.3751101485,-80.7326220508,"1","Food, Donuts, Coffee & Tea"
"421",145709,"Goldie's Donuts & Bakery","Lyndhurst","OH","44124",41.520281,-81.491745,"1","Donuts, Bakeries, Food"
"422",155018,"Krispy Kreme","Peoria","AZ","85382",33.6302537,-112.2383046,"0","Donuts, Food"
"423",58431,"Tim Hortons","Calgary","AB","T1Y 3R5",51.0743163981,-113.9577112414,"1","Donuts, Coffee & Tea, Bakeries, Breakfast & Brunch, Sandwiches, Restaurants, Food"
"424",111627,"Dutch Donut Factory","Mesa","AZ","85205",33.4365129,-111.684937,"1","Bubble Tea, Restaurants, Juice Bars & Smoothies, Breakfast & Brunch, Donuts, Coffee & Tea, Food"
"425",146807,"Grandma Rose's Catering & Pastry","Pittsburgh","PA","15237",40.5135370309,-80.001178119,"0","Food, Bakeries, Desserts, Event Planning & Services, Donuts, Caterers"
"426",75896,"Jubilee Donuts","Tallmadge","OH","44278",41.1005157,-81.4413176,"1","Donuts, Bagels, Food, Bakeries, Coffee & Tea"
"427",191947,"Tim Hortons","Toronto","ON","M5H 3Y2",43.6495171,-79.379293,"1","Donuts, Food, Delis, Restaurants, Coffee & Tea, Sandwiches"
"428",174592,"Alesha Donuts","Glendale","AZ","85305",33.5370864,-112.2393797,"1","Restaurants, Donuts, Food, Juice Bars & Smoothies, Sandwiches"
"429",5865,"Krispy Kreme","Middleton","WI","53562",43.0963215977,-89.5234780759,"0","Food, Donuts"
"430",44467,"Dunkin' Donuts","Solon","OH","44139",41.3862594,-81.4372485,"1","Coffee & Tea, Food, Bakeries, Donuts, Restaurants"
"431",100592,"Tim Hortons","Markham","ON","L6C 0M4",43.8970329,-79.3201714,"1","Bakeries, Food, Restaurants, Donuts, Sandwiches, Breakfast & Brunch, Coffee & Tea"
"432",54965,"Dunkin' Donuts","Las Vegas","NV","89123",36.0123080316,-115.1542109167,"1","Donuts, Coffee & Tea, Food"
"433",184049,"Dunkin' Donuts","Pittsburgh","PA","15235",40.4582411,-79.8237267,"1","Donuts, Coffee & Tea, Food, Restaurants"
"434",130222,"Tim Horton's","Ajax","ON","L1S 6W9",43.8339828612,-79.0338776261,"1","Internet Cafes, Coffee & Tea, Food, Donuts"
"435",48623,"Dunkin' Donuts","Cleveland","OH","44128",41.4472647,-81.565262,"1","Donuts, Bakeries, Coffee & Tea, Food"
"436",107249,"Becker's Donut Shop","Parma Heights","OH","44130",41.3943171022,-81.7840617003,"0","Donuts, Bakeries, Food"
"437",186799,"Kiedrowskis Bakery","Amherst","OH","44001",41.417753,-82.2070806,"1","Food, Donuts, Patisserie/Cake Shop, Bakeries, Restaurants"
"438",69449,"19th Donut Hole","Mesa","AZ","85213",33.4180667,-111.7720393,"1","Bakeries, Food, Donuts, Breakfast & Brunch, Restaurants"
"439",88305,"Krispy Kreme Doughnuts","Phoenix","AZ","85004",33.458928,-112.0655978,"0","Food, Donuts"
"440",47746,"Move That Dough Baking","Charlotte","NC","28205",35.2263714,-80.7990185,"1","Bakeries, Food, Donuts"
"441",120004,"Greenbush Bakery","Madison","WI","53718",43.13772,-89.289,"1","Donuts, Bakeries, Food"
"442",64178,"Ronald's Donuts","Las Vegas","NV","89102",36.1265632,-115.2042227,"1","Restaurants, Vegan, Donuts, Food"
"443",160494,"Becker's Donuts & Bakery","Cleveland","OH","44105",41.446921,-81.6390674,"0","Restaurants, Donuts, Bakeries, Food"
"444",97255,"La Notre Coffee & Donuts","North York","ON","M3A 1Z5",43.760648,-79.3258039,"0","Food, Donuts, Coffee & Tea"
"445",177842,"Dunkin' Donuts","Pittsburgh","PA","15229",40.5177612305,-80.0316314697,"1","Food, Coffee & Tea, Donuts"
"446",12157,"Wishill's Donuts","Phoenix","AZ","85007",33.4657203,-112.0911242,"0","Food, Donuts, Restaurants"
"447",159352,"Tim Hortons","North York","ON","M9L 2W1",43.7705425,-79.5427793,"1","Food, Coffee & Tea, Sandwiches, Restaurants, Cafes, Donuts"
"448",156150,"Dunkin' Donuts","Tempe","AZ","85281",33.4494458,-111.9260961,"1","Food, Bagels, Donuts, Coffee & Tea"
"449",55,"Pink Box Doughnuts","Las Vegas","NV","89119",36.0687080029,-115.176985952,"0","Donuts, Food"
"450",32375,"Northern Perks Doughnuts & Coffee","Phoenix","AZ","85020",33.5527294,-112.0547215,"0","Donuts, Coffee & Tea, Food"
"451",57244,"Dunkin' Donuts","Fort Mill","SC","29708",35.0597951,-80.9923089,"1","Ice Cream & Frozen Yogurt, Donuts, Food"
"452",120449,"The Original Rainbow Donuts","Phoenix","AZ","85032",33.6299102,-112.0312192,"1","Sandwiches, Restaurants, Donuts, Food, Bakeries"
"453",126388,"Dunkin' Donuts","Parma","OH","44134",41.3638598,-81.6853891,"1","Coffee & Tea, Donuts, Bagels, Food"
"454",32730,"Dunkin' Donuts","Goodyear","AZ","85338",33.4466869,-112.3924313,"1","Donuts, Food"
"455",131606,"Peace Treats","Toronto","ON","M6J 2Z6",43.6471969,-79.4196377,"1","Desserts, Food, Ice Cream & Frozen Yogurt, Donuts, Coffee & Tea"
"456",54858,"O Face Doughnuts","Las Vegas","NV","89101",36.1678503871,-115.1405528307,"0","Coffee & Tea, Donuts, Bakeries, Food"
"457",35934,"Tim Horton's","Mississauga","ON","L5L 5V3",43.5175216,-79.6880915,"1","Bakeries, Breakfast & Brunch, Food, Sandwiches, Donuts, Coffee & Tea, Restaurants"
"458",157702,"Dunkin' Donuts","Charlotte","NC","28202",35.2325893002,-80.8448918078,"1","Food, Donuts, Coffee & Tea"
"459",184900,"Krispy Kreme","Mesa","AZ","85202",33.4152664996,-111.8741107379,"1","Bakeries, Food, Coffee & Tea, Breakfast & Brunch, Restaurants, Donuts, Desserts"
"460",147306,"Jelly Modern Food Truck","Calgary","AB","",51.0453246,-114.0581012,"1","Street Vendors, Donuts, Food"
"461",173041,"Krispy Kreme","Avondale","AZ","85323",33.4552133037,-112.3403798227,"1","Food, Donuts, Coffee & Tea"
"462",262,"Tom + Chee","Strongsville","OH","44136",41.3164989633,-81.8346301888,"0","Sandwiches, Restaurants, American (Traditional), Salad, Food, Donuts"
"463",43030,"Krispy Kreme","North Las Vegas","NV","89032",36.2389183,-115.1599435,"1","Donuts, Coffee & Tea, Food, Restaurants"
"464",12032,"Bakery King","Henderson","NV","89014",36.071826951,-115.082500577,"0","Food, Donuts, Bakeries"
"465",14773,"Tim Hortons","Whitchurch-Stouffville","ON","L4A 0K2",43.9574362404,-79.2747345269,"1","Donuts, Bakeries, Food, Coffee & Tea"
"466",152667,"America Donuts","Las Vegas","NV","89109",36.1023786,-115.1745465,"1","Desserts, Food, Bakeries, Donuts"
"467",11820,"Dunkin' Donuts & Baskin-Robbins","Mentor","OH","44060",41.7043259,-81.3631219,"1","Donuts, Ice Cream & Frozen Yogurt, Food"
"468",183311,"Bosa Donuts","Phoenix","AZ","85051",33.568687,-112.151326,"1","Donuts, Restaurants, Food, Coffee & Tea, Sandwiches"
"469",154574,"Tim Hortons","Montréal","QC","H3B 2T9",45.4999925,-73.5724491,"1","Food, Donuts, Coffee & Tea"
"470",30619,"Dunkin' Donuts","Surprise","AZ","85374",33.637805,-112.357195,"1","Coffee & Tea, Donuts, Food"
"471",75548,"Tim Horton's","Toronto","ON","M5E 1G4",43.6469804739,-79.37725127,"1","Food, Bakeries, Donuts, Coffee & Tea"
"472",101058,"Dunkin' Donuts","Cuyahoga Falls","OH","44224",41.1626938,-81.4752551,"1","Coffee & Tea, Donuts, Food"
"473",6869,"Starbucks","Calgary","AB","T2Z 0C2",50.9324109746,-113.9705117611,"1","Coffee & Tea, Food, Donuts, Sandwiches, Restaurants"
"474",27493,"Dunkin' Donuts","Las Vegas","NV","89101",36.1707906092,-115.1437642951,"1","Donuts, Coffee & Tea, Food"
"475",4684,"Dunkin' Donuts","Mesa","AZ","85215",33.4524262789,-111.6875749826,"1","Donuts, Food, Coffee & Tea"
"476",25804,"Dunkin' Donuts","Scottsdale","AZ","85258",33.5794669476,-111.8869792911,"1","Donuts, Food, Coffee & Tea"
"477",73048,"Brecksville Doughnuts & Coffee Shoppe","Brecksville","OH","44141",41.320296,-81.62572,"0","Donuts, Restaurants, Food"
"478",188364,"Tim Horton's","Vaughan","ON","L4H 2Y8",43.8452445712,-79.5526242256,"1","Fast Food, Restaurants, Coffee & Tea, Sandwiches, Food, Donuts"
"479",88721,"Krispy Kreme","Fort Mill","SC","29707",35.0117472123,-80.8514356613,"1","Donuts, Food, Coffee & Tea"
"480",101247,"Tim Horton's","Toronto","ON","M5H 1A1",43.6496485,-79.3770895,"1","Coffee & Tea, Donuts, Restaurants, Sandwiches, Food"
"481",1136,"Tim Hortons","Brampton","ON","L6Y 1N6",43.6680386475,-79.7370777841,"1","Donuts, Restaurants, Bagels, Food, Coffee & Tea, Sandwiches"
"482",131514,"Tim Hortons","Calgary","AB","T2Z 4C9",50.9545788999,-113.9998980562,"1","Coffee & Tea, Sandwiches, Donuts, Restaurants, Food"
"483",148212,"Ace Donuts","Las Vegas","NV","89147",36.0996797101,-115.298539235,"1","Donuts, Food"
"484",32550,"Cakery Square","Homestead","PA","15120",40.4090843,-79.9155187,"1","Bakeries, Cupcakes, Food, Donuts, Custom Cakes"
"485",142064,"Tim Hortons","Mississauga","ON","L5P 1B2",43.6782918587,-79.6114907032,"1","Restaurants, Fast Food, Food, Donuts, Coffee & Tea"
"486",52521,"Krispy Kreme","Mesa","AZ","85206",33.3853894,-111.6886243,"1","Coffee & Tea, Food, Beverage Store, Donuts"
"487",163148,"Rainbow Donuts","Peoria","AZ","85345",33.5657381673,-112.2530704737,"0","Ice Cream & Frozen Yogurt, Donuts, Food"
"488",116556,"Dunkin' Donuts","Gastonia","NC","28052",35.28961,-81.188442,"1","Coffee & Tea, Food, Donuts"
"489",91057,"Joe's Doughs","Charlotte","NC","28206",35.2360953319,-80.820234412,"0","Restaurants, Breakfast & Brunch, Food, Bakeries, Donuts"
"490",182955,"Dough Doughs Hawaiian Cafe & Malasadas","Las Vegas","NV","89101",36.1636547,-115.151621,"0","Sandwiches, Donuts, Hawaiian, Restaurants, Food, Breakfast & Brunch"
"491",32563,"Tim Hortons","North York","ON","M2H 1J8",43.8015174,-79.3708367,"1","Cafes, Donuts, Food, Coffee & Tea, Restaurants, Breakfast & Brunch, Delis, Sandwiches"
"492",100310,"Tim Hortons","Scarborough","ON","M1J 2H6",43.7441866308,-79.2159772691,"1","Restaurants, Coffee & Tea, Cafes, Food, Breakfast & Brunch, Sandwiches, Donuts"
"493",96109,"Country Style Donuts","Richmond Hill","ON","L4C 0M6",43.8980553,-79.4440557,"0","Donuts, Food"
"494",88550,"Jelly Modern Doughnuts","Toronto","ON","",43.6470813261,-79.3790140289,"1","Food, Donuts, Desserts, Bakeries"
"495",121380,"Dunkin' Donuts","Medina","OH","44256",41.1599553,-81.8631404,"1","Donuts, Coffee & Tea, Food, Restaurants"
"496",49866,"Chez Boris","Montréal","QC","H2V 4G3",45.5259188,-73.6106939,"0","Restaurants, Donuts, Food, Russian, Coffee & Tea"
"497",162927,"BoSa Donuts","Peoria","AZ","85381",33.5959955653,-112.2199183702,"1","Donuts, Food, Sandwiches, Breakfast & Brunch, Restaurants, Juice Bars & Smoothies"
"498",99585,"Tim Hortons","North York","ON","M3B 3R7",43.7375019,-79.343887,"1","Restaurants, Donuts, Cafes, Coffee & Tea, Food"
"499",60616,"Sunrise Donuts","Avondale","AZ","85392",33.4615214037,-112.3374061659,"0","Donuts, Restaurants, Food, Breakfast & Brunch"
"500",146986,"Desert Donuts","Phoenix","AZ","85086",33.7998688808,-112.1276474257,"1","Donuts, Restaurants, Coffee & Tea, Food, Breakfast & Brunch"
"501",128639,"Dunkin' Donuts","Charlotte","NC","28217",35.1664330301,-80.8757728693,"1","Donuts, Food, Coffee & Tea"
"502",87145,"Crispy Glaze Donuts","Avondale","AZ","85323",33.4339319,-112.3046247,"1","Food, Restaurants, Coffee & Tea, Sandwiches, Donuts"
"503",179769,"Dunkin' Donuts","Tallmadge","OH","44278",41.1004062,-81.4420831,"1","Donuts, Food, Coffee & Tea"
"504",79003,"Bodega","Scottsdale","AZ","85251",33.4978332,-111.9274101,"0","Food, Health Markets, Specialty Food, Donuts, Grocery, Farmers Market"
"505",64410,"Country Style Donut","Toronto","ON","M6N 3E2",43.6707617597,-79.4671600993,"0","Donuts, Food"
"506",161714,"Tim Horton","North York","ON","M6A 3B4",43.7166569,-79.4472576,"1","Coffee & Tea, Donuts, Food, Restaurants, Cafes"
"507",183942,"Jack Frost Donuts","Cleveland","OH","44109",41.4230623,-81.7235261,"1","Coffee & Tea, Food, Restaurants, Donuts"
"508",2367,"Carl's Donuts","Las Vegas","NV","89120",36.0743193284,-115.1057729153,"1","Donuts, Wholesalers, Restaurants, Professional Services, Bakeries, Food"
"509",165053,"Bosa Dounuts","Gilbert","AZ","85234",33.379665,-111.724113,"1","Donuts, Bubble Tea, Sandwiches, Coffee & Tea, Food, Restaurants"
"510",48307,"Donut Bar","Las Vegas","NV","89101",36.167814,-115.140447,"1","Coffee & Tea, Restaurants, Donuts, Food, Breakfast & Brunch"
"511",66209,"Top O' The Mornin' Donut & Coffee Shop","Elizabeth","PA","15037",40.2729529748,-79.8873626973,"1","Restaurants, Breakfast & Brunch, Food, Beverage Store, Coffee & Tea, Donuts, Bakeries, Salad, Sandwiches"
"512",141340,"Donut Delight","North York","ON","M9M 1A2",43.7173801,-79.5221372,"0","Food, Donuts"
"513",126264,"Dunkin' Donuts","Mesa","AZ","85206",33.3814078,-111.7367975,"1","Coffee & Tea, Donuts, Food"
"514",64538,"Dunkin' Donuts","Pineville","NC","28210",35.0881111,-80.8606684,"1","Food, Coffee & Tea, Donuts"
"515",67259,"Sunrise Donuts","Surprise","AZ","85374",33.623045106,-112.3395333732,"1","Donuts, Food, Bakeries"
"516",34352,"Bassett Street Brunch Club","Madison","WI","53703",43.072731,-89.393353,"1","Food, Donuts, Restaurants, American (Traditional), Breakfast & Brunch"
"517",190358,"Dunkin' Donuts","Akron","OH","44313",41.1098807,-81.5706268,"1","Food, Coffee & Tea, Donuts"
"518",78293,"Tim Horton's","Montréal","QC","H2X 2H5",45.5087993,-73.5724985,"1","Restaurants, Breakfast & Brunch, Donuts, Coffee & Tea, Food"
"519",148029,"Spudnut Donuts","Berea","OH","44017",41.3504029,-81.8579013,"1","Restaurants, Donuts, Food"
"520",140870,"Becker's Donuts and Bakery","Columbia Station","OH","44028",41.350607,-81.9056594,"1","Restaurants, Food, Donuts, Bakeries"
"521",116909,"Dunkin' Donuts","Pittsburgh","PA","15222",40.4390932,-79.9995814,"0","Coffee & Tea, Donuts, Food"
"522",93540,"Dunkin' Donuts","Cuyahoga Falls","OH","44223",41.130607,-81.5088734,"1","Coffee & Tea, Donuts, Sandwiches, Restaurants, Bakeries, Food"
"523",111024,"Fosdal Home Bakery","Stoughton","WI","53589",42.9165128,-89.2185812,"1","Custom Cakes, Bakeries, Restaurants, Donuts, Food"
"524",74651,"Bella Christie's & Lil Z's Sweet Boutique","Pittsburgh","PA","15201",40.464398,-79.966333,"1","Bakeries, Donuts, Food, Desserts"
"525",186008,"Louisiana Fried Chicken","Pheonix AZ","AZ","85041",33.3917775,-112.0959487,"0","Tacos, Food, Mexican, Restaurants, Juice Bars & Smoothies, Seafood, Chicken Shop, Chicken Wings, Donuts"
"526",24916,"Peace, Love and Little Donuts","Cleveland","OH","44111",41.4511206334,-81.8171889905,"1","Donuts, Bakeries, Coffee & Tea, Food"
"527",94742,"Donut Connection","McKeesport","PA","15132",40.347068,-79.831674,"1","Restaurants, Donuts, Food"
"528",177689,"Crunch Donut Factory","North Las Vegas","NV","89031",36.2749697662,-115.1793870537,"0","Food, Waffles, Donuts, Ice Cream & Frozen Yogurt, Restaurants"
"529",20461,"Dunkin' Donuts","Surprise","AZ","85388",33.6376269173,-112.4228487186,"1","Food, Coffee & Tea, Restaurants, Donuts, Breakfast & Brunch"
"530",4205,"Dunkin' Donuts","Canonsburg","PA","15317",40.2839586,-80.1215439,"1","Food, Coffee & Tea, Restaurants, Sandwiches, Donuts"
"531",30385,"Bob's Sub","Gibsonia","PA","15044",40.6058235168,-79.9467849731,"1","Sandwiches, Donuts, Salad, Food, Restaurants"
"532",132128,"Island Sushi & Grill","Las Vegas","NV","89123",36.018286,-115.1179043,"1","Japanese, Restaurants, Donuts, Food, Breakfast & Brunch, Hawaiian, Poke, Sushi Bars"
"533",96583,"Dunkin' Donuts","Macedonia","OH","44056",41.31418,-81.509559,"1","Donuts, Coffee & Tea, Food"
"534",30924,"Bob's Sub","Pittsburgh","PA","15222",40.4381039,-80.0001029,"1","Restaurants, Sandwiches, Donuts, Salad, Food"
"535",150629,"Krispy Kreme","Toronto","ON","M5R 1V9",43.6749512,-79.4076635,"1","Donuts, Food, Coffee & Tea"
"536",42597,"Big Daddy's Donuts","Pittsburgh","PA","15205",40.433893,-80.06587,"1","Donuts, Food"
"537",102843,"Dunkin' Donuts","Chagrin Falls","OH","44023",41.4112091064,-81.3385391235,"1","Breakfast & Brunch, Food, Restaurants, Fast Food, Coffee & Tea, Donuts"
"538",69275,"Dunkin Donuts Baskin Robbins","Charlotte","NC","28216",35.3051142,-80.8584265,"1","Coffee & Tea, Donuts, Food"
"539",141468,"Dunkin' Donuts (Canada) Ltee","Verdun","QC","H4G 1W8",45.4591009,-73.567617,"1","Food, Donuts"
"540",54312,"Donut Scene","Strongsville","OH","44136",41.3061081,-81.8352139,"1","Food, Donuts, Restaurants"
"541",164007,"Istar Restaurant","Etobicoke","ON","M9P 2M5",43.697141,-79.5439671,"1","Restaurants, Donuts, Coffee & Tea, Food, Halal, African, Indian, Event Planning & Services, Party Supplies"
"542",118285,"Rainbow Donuts","Phoenix","AZ","85020",33.5634558,-112.0655918,"1","Restaurants, Food, Breakfast & Brunch, Bakeries, Donuts, Coffee & Tea"
"543",49603,"Tim Hortons","Toronto","ON","M3C 1S3",43.7138965446,-79.3358159882,"1","Breakfast & Brunch, Donuts, Food, Bakeries, Coffee & Tea, Restaurants"
"544",34020,"Dunkin Donuts","Mesa","AZ","85210",33.3652385,-111.8585968,"0","Restaurants, Food, Donuts"
"545",99560,"Krispy Kreme","Las Vegas","NV","89109",36.1218632,-115.1696491,"0","Donuts, Food"
"546",802,"The Donut House","Indian Trail","NC","28079",35.08413,-80.65876,"1","Donuts, Bakeries, Food, Restaurants, Breakfast & Brunch"
"547",163443,"Raised & Glazed Donuts","Chagrin Falls","OH","44023",41.385231,-81.3408824,"1","Desserts, Donuts, Food, Bakeries"
"548",115684,"Dunkin' Donuts","Las Vegas","NV","89113",36.0568222456,-115.2784387602,"1","Coffee & Tea, Donuts, Food"
"549",87597,"Masterpiece Donuts & Coffee","Phoenix","AZ","85018",33.495142,-111.995741,"1","Coffee & Tea, Donuts, Food"
"550",43126,"Jelly Modern Doughnuts","Calgary","AB","T2P 3Y6",51.0481322,-114.06331,"1","Food, Donuts"
"551",62594,"Tim Hortons","Scarborough","ON","M1P 2J3",43.7642408564,-79.2911242694,"1","Food, Restaurants, Donuts, Coffee & Tea, Cafes"
"552",148884,"Donut Shack","Pittsburgh","PA","15235",40.4831830981,-79.8201324237,"1","Food, Donuts, Restaurants"
"553",5590,"Krispy Kreme","Rock Hill","SC","29732",34.9761811848,-80.995346,"1","Donuts, Food, Coffee & Tea"
"554",54523,"Donut Connection","Cuyahoga Fls","OH","44223",41.1343029,-81.5080788,"0","Bakeries, Donuts, Food, Restaurants"
"555",76894,"Tim Hortons","Calgary","AB","T2E 2R5",51.0643568,-114.0625667,"1","Food, Donuts"
"556",120751,"Tim Hortons","Montréal","QC","H1N 1E2",45.5855588,-73.5410567,"1","Donuts, Delis, Restaurants, Coffee & Tea, Sandwiches, Food"
"557",1978,"Real Donuts","Las Vegas","NV","89102",36.1585388,-115.1663589,"1","Restaurants, Coffee & Tea, Juice Bars & Smoothies, Food, Donuts"
"558",38599,"Dee's Donuts","Las Vegas","NV","89147",36.1136569,-115.2614822,"0","Food, Restaurants, Donuts"
"559",163977,"Tim Hortons","Toronto","ON","L5P 1B2",43.6840683,-79.6104138,"0","Food, Donuts"
"560",154693,"Country Style","Etobicoke","ON","M9C 5K5",43.6538985,-79.6001335,"0","Food, Breakfast & Brunch, Coffee & Tea, Bakeries, Restaurants, Donuts"
"561",155976,"Dunkin' Donuts","Parma Heights","OH","44130",41.388639,-81.763327,"1","Donuts, Coffee & Tea, Food"
"562",23769,"Kingdom's Donuts","Scottsdale","AZ","85251",33.4861089,-111.908902,"0","Bubble Tea, Restaurants, Food, Juice Bars & Smoothies, Breakfast & Brunch, Donuts"
"563",172599,"Dunkin' Donuts","Madison","WI","53715",43.0592017,-89.4002507,"1","Donuts, Bagels, Bakeries, Coffee & Tea, Food"
"564",177990,"Crave Grounds","Scottsdale","AZ","85258",33.5731051063,-111.8634293228,"1","Coffee & Tea, Donuts, Food"
"565",72422,"Dunkin' Donuts","Stow","OH","44224",41.1670767406,-81.4048124136,"1","Coffee & Tea, Donuts, Food"
"566",42895,"Dunkin Donut","Cornelius","NC","28031",35.4808608,-80.8573217,"1","Food, Donuts, Coffee & Tea, Ice Cream & Frozen Yogurt"
"567",8603,"Dutch Bros Coffee","Chandler","AZ","85226",33.3053138153,-111.9054726037,"1","Juice Bars & Smoothies, Coffee & Tea, Food, Donuts"
"568",105645,"Corner Kitchen & Donuts","Las Vegas","NV","89109",36.1182756637,-115.1699838128,"1","Food, Coffee & Tea, Donuts"
"569",20081,"Sunrise Donuts","Goodyear","AZ","85338",33.4398518,-112.3918747,"1","Donuts, Food, Coffee & Tea"
"570",36108,"Dunkin' Donuts","Henderson","NV","89014",36.0393724,-115.0299636,"1","Donuts, Coffee & Tea, Food"
"571",142777,"Dunkin' Donuts","Chandler","AZ","85224",33.3055257,-111.8779581,"1","Food, Coffee & Tea, Donuts"
"572",7996,"Sun Baked Food 4 The Soul","Fountain Hills","AZ","85268",33.6058707,-111.7159586,"1","Breakfast & Brunch, Restaurants, Donuts, Bakeries, Delis, Sandwiches, Salad, Cupcakes, Food"
"573",133518,"Tim Hortons","Toronto","ON","M5E 1R8",43.6477040939,-79.3705069274,"1","Bagels, Coffee & Tea, Food, Donuts"
"574",118112,"Dunkin' Donuts","Garfield Heights","OH","44125",41.4216994,-81.6097555,"1","Restaurants, Donuts, Breakfast & Brunch, Food, Coffee & Tea"
"575",185489,"The Local Donut","Scottsdale","AZ","85251",33.48516,-111.908355,"1","Bakeries, Food, Bagels, Coffee & Tea, Donuts"
"576",63117,"Krispy Kreme Doughnuts","Greenfield Park","QC","J4V 3R4",45.4848119,-73.4649381,"1","Donuts, Food"
"577",110582,"Dunkin' Donuts","Euclid","OH","44123",41.609585,-81.5263209,"1","Food, Coffee & Tea, Donuts"
"578",104606,"Tim Hortons","Montréal","QC","H3W 1J2",45.4942088498,-73.6386428045,"1","Sandwiches, Donuts, Food, Restaurants, Cafes"
"579",85482,"Donut Central","Phoenix","AZ","85040",33.3929479,-112.072993,"0","Donuts, Restaurants, Food"
"580",186115,"Spudnut Shop Donuts","Mentor","OH","44060",41.6821615,-81.339834,"1","Bakeries, Donuts, Restaurants, Food, Coffee & Tea"
"581",18193,"Daylight Donuts & Coffee","Cleveland Heights","OH","44118",41.5156277578,-81.5703298662,"1","Food, Coffee & Tea, Donuts, Restaurants, Sandwiches"
"582",62769,"Canada's Baking and Sweets Show","Etobicoke","ON","M9W 1J1",43.6910625,-79.5781333,"1","Food, Bakeries, Donuts, Bagels"
"583",105131,"Dunkin' Donuts","Pleasant Hills","PA","15236",40.3359229,-79.9744622,"1","Donuts, Coffee & Tea, Food"
"584",29450,"Peace Love and Little Donuts","Pittsburgh","PA","15213",40.4407395,-79.9587585,"0","Donuts, Food"
"585",37248,"Dunkin' Donuts","Fort Mill","SC","29708",35.0607727,-80.961116,"1","Food, Coffee & Tea, Donuts"
"586",109030,"Tim Hortons","Toronto","ON","M4C 1L5",43.6882339533,-79.300733824,"1","Donuts, Coffee & Tea, Food, Bagels"
"587",73354,"Tim Horton's","Etobicoke","ON","M9C 5M1",43.6486052576,-79.6056566771,"1","Coffee & Tea, Donuts, Food"
"588",59189,"Tim Hortons","Richmond Hill","ON","L4C 9X4",43.8571409952,-79.4099466808,"1","Breakfast & Brunch, Donuts, Food, Sandwiches, Coffee & Tea, Restaurants"
"589",156599,"Reigning Doughnuts","Charlotte","NC","28205",35.2467814,-80.8057977,"1","Donuts, Food, Coffee & Tea"
"590",88050,"Bosa Donuts","Chandler","AZ","85248",33.2467353525,-111.8408143438,"1","Juice Bars & Smoothies, Coffee & Tea, Restaurants, Food, Donuts, Breakfast & Brunch"
"591",107423,"Dunkin' Donuts","Cleveland","OH","44106",41.5102671728,-81.6040328348,"1","Coffee & Tea, Donuts, Food"
"592",113774,"Tim Hortons","Toronto","ON","M5J",43.6411532734,-79.3785306977,"1","Donuts, Coffee & Tea, Food"
"593",160311,"Dunkin Donuts","Harrisburg","NC","28075",35.3220519469,-80.6505459175,"1","Food, Donuts, Coffee & Tea"
"594",61375,"Von Doughnuts","Toronto","ON","M4J 1L2",43.6790994,-79.3434086,"1","Food, Donuts"
"595",34283,"Krispy Kreme's Doughnut Cafe","Toronto","ON","M5T 1W3",43.6556212,-79.3921742,"1","Food, Donuts"
"596",168516,"The Original Rainbow Donuts","Scottsdale","AZ","85254",33.639741,-111.9443776,"1","Food, Coffee & Tea, Bakeries, Restaurants, Sandwiches, Donuts"
"597",7383,"Dunkin' Donuts","Sun City West","AZ","85375",33.6603708,-112.3547792,"1","Food, Donuts, Coffee & Tea, Restaurants, Breakfast & Brunch"
"598",103781,"Dunkin' Donuts","Henderson","NV","89052",36.0062487632,-115.11256814,"1","Desserts, Donuts, Coffee & Tea, Food"
"599",143937,"Krispy Kreme Doughnuts","Las Vegas","NV","89101",36.169971,-115.1427714,"0","Donuts, Food"
"600",116986,"Tim Horton's","Toronto","ON","M8Y 3H8",43.6282517,-79.4895714,"1","Coffee & Tea, Donuts, Food"
"601",50351,"Dunkin Donuts","Canonsburg","PA","15317",40.2624410101,-80.1741467847,"1","Restaurants, Donuts, Breakfast & Brunch, Coffee & Tea, Food"
"602",155500,"Dunkin Donuts Baskin Robbins","Charlotte","NC","28273",35.1346880075,-80.9384045741,"1","Ice Cream & Frozen Yogurt, Coffee & Tea, Food, Donuts"
"603",74845,"Tim Hortons","Etobicoke","ON","M9R 1H5",43.6833604041,-79.5645427643,"1","Restaurants, Coffee & Tea, Bakeries, Sandwiches, Delis, Food, Donuts"
"604",117434,"Rapido Espresso Bar","Montréal","QC","H3H 1M1",45.4929248,-73.5801247,"0","Restaurants, Donuts, Cafes, Food"
"605",74044,"Pink Box","Las Vegas","NV","89147",36.1107037,-115.2786276,"0","Food, Restaurants, Donuts"
"606",168679,"Dunkin' Donuts","Las Vegas","NV","89121",36.1005270562,-115.1021624451,"0","Food, Bagels, Donuts, Coffee & Tea"
"607",102646,"Tim Horton's","North York","ON","M6B 3X8",43.7014215,-79.4637525,"1","Coffee & Tea, Cafes, Bakeries, Donuts, Restaurants, Food"
"608",76939,"Dunkin' Donuts","Sun Prairie","WI","53590",43.1877771489,-89.2292440879,"1","Food, Coffee & Tea, Donuts, Bakeries"
"609",77089,"Dunkin' Donuts","Chandler","AZ","85224",33.3768178,-111.8591642,"1","Donuts, Coffee & Tea, Food"
"610",141119,"Bosa Donuts","Glendale","AZ","85307",33.5372461603,-112.3572240025,"1","Breakfast & Brunch, Coffee & Tea, Donuts, Restaurants, Food"
"611",21392,"Dunkin' Donuts","Charlotte","NC","28208",35.228639,-80.86708,"1","Donuts, Coffee & Tea, Bagels, Food"
"612",39499,"Coco Donuts","Las Vegas","NV","89139",36.0433619875,-115.2434482053,"1","Coffee & Tea, Popcorn Shops, Food, Specialty Food, Donuts"
"613",153403,"Tim Hortons","Calgary","AB","T2Z 3S7",50.9167470748,-113.9587108418,"1","Coffee & Tea, Food, Sandwiches, Restaurants, Donuts, Cafes"
"614",8561,"Dunkin' Donuts","Rantoul","IL","61866",40.3060192,-88.1562125,"1","Donuts, Food, Coffee & Tea"
"615",123047,"Tim Horton's","Mississauga","ON","L4V 1E6",43.6995611,-79.6359324,"1","Donuts, Delis, Coffee & Tea, Food, Sandwiches, Restaurants, Bakeries"
"616",154314,"Tim Horton's","Mississauga","ON","L5C 1T7",43.5747675,-79.6448037,"1","Bagels, Food, Donuts, Coffee & Tea"
"617",128058,"Dunkin' Donuts","Bethel Park","PA","15102",40.3400531,-80.0231875,"1","Donuts, Coffee & Tea, Food"
"618",158937,"Dunkin' Donuts","Brentwood","PA","15227",40.3762803286,-79.9841011938,"1","Restaurants, Breakfast & Brunch, Coffee & Tea, Desserts, Food, Donuts"
"619",82261,"City Girl Donuts","Rocky River","OH","44116",41.4833814819,-81.8452498555,"0","Coffee & Tea, Breakfast & Brunch, Donuts, Food, Restaurants"
"620",142808,"Tim Hortons","Calgary","AB","T3R 1R8",51.1515807341,-114.2117056989,"1","Coffee & Tea, Cafes, Donuts, Food, Restaurants, Sandwiches"
"621",190024,"Loblaws","Richmond Hill","ON","L4B 4R2",43.8429514293,-79.4102733408,"1","Food, Health & Medical, Pharmacy, Donuts, Grocery"
"622",23184,"Pinkbox Doughnuts","Las Vegas","NV","89109",36.1054581301,-115.1723729175,"0","Donuts, Food"
"623",74846,"Tim Horton Donuts","Mississauga","ON","L5B 2C9",43.5930784,-79.6424911,"1","Donuts, Coffee & Tea, Sandwiches, Restaurants, Food"
"624",72872,"Donut Mania","Henderson","NV","89052",36.001221857,-115.0837552768,"1","Food, Bakeries, Donuts"
