"","business_id","name","city","state","postal_code","latitude","longitude","is_open","categories"
"1",59308,"Toad N Turtle Pubhouse & Grill","Calgary","AB","T2Z",50.9319378,-113.9616098,"1","Bars, Pubs, Gastropubs, Nightlife, Restaurants, Canadian (New)"
"2",88804,"Circles Grill and Market","Charlotte","NC","28277",35.0393909574,-80.7950710445,"0","Burgers, Italian, Beauty & Spas, Wine Bars, Barbers, Peruvian, American (Traditional), Bars, Gastropubs, Diners, Salad, Specialty Food, Restaurants, American (New), Nightlife, Cafes, Food"
"3",48146,"Morgane Bistro & Pub","Saint-Jean-sur-Richelieu","QC","J3B 6W2",45.3101617,-73.2524164,"1","Pubs, Gastropubs, Restaurants, Nightlife, Bars"
"4",171482,"The 3 Brewers","Toronto","ON","M5B 1N8",43.6555236,-79.3802224,"1","Breweries, Bars, Pubs, Food, Restaurants, Gastropubs, Burgers, Nightlife"
"5",182686,"Fionn MacCool's Irish Pub","Brampton","ON","L6Y 5L8",43.658148,-79.723291,"1","Pubs, Nightlife, Beer, Wine & Spirits, Food, Irish Pub, Restaurants, Gastropubs, Bars"
"6",177875,"Rott n' Grapes Uptown","Phoenix","AZ","85012",33.5071180897,-112.0742981546,"1","Lounges, Gastropubs, Sports Bars, Breakfast & Brunch, Bars, Wine Bars, Nightlife, Restaurants, Pubs, Italian, Beer, Wine & Spirits, Food, Tapas/Small Plates, Beer Bar"
"7",175912,"6th Street Gastro Pub & Pizza","Toronto","ON","M9A 1B8",43.6485461,-79.52892,"0","Lounges, Nightlife, Bars, Pizza, Restaurants, Gastropubs, Southern, Tex-Mex, Pubs"
"8",70952,"Red Lantern Kitchen & Bar","Cleveland","OH","44111",41.4513105983,-81.8186925352,"1","Restaurants, Gastropubs"
"9",146524,"P.J. Clarke's New York Chophouse","Las Vegas","NV","89109",36.118399,-115.172945,"0","Steakhouses, Gastropubs, Seafood, American (New), Venues & Event Spaces, Beer, Wine & Spirits, Restaurants, Food, Event Planning & Services"
"10",59034,"Local 8th Avenue","Calgary","AB","T2P 1C1",51.0456856,-114.0686148,"1","Canadian (New), Gastropubs, Bars, Nightlife, Restaurants, Pubs"
"11",87468,"Ground Control At Verrado","Buckeye","AZ","85396",33.4959165,-112.5128746,"0","Cafes, Gastropubs, Restaurants"
"12",100565,"Harvey's in Cornelius","Cornelius","NC","28031",35.4794726,-80.8931981,"1","American (Traditional), Restaurants, Pubs, Gastropubs, Event Planning & Services, Caterers, Nightlife, Bars"
"13",41606,"Eastland Inn","Berea","OH","44017",41.362061,-81.8444905,"1","American (New), Gastropubs, Dive Bars, Burgers, Nightlife, Pubs, Karaoke, Bars, Diners, Restaurants, American (Traditional)"
"14",4777,"MadisonTap","Madison","WI","53703",43.0814961,-89.3736962,"1","Restaurants, Gastropubs, Beer Bar, Beer Gardens, Nightlife, Bars, Food, Breweries, Pubs"
"15",153845,"Tom's Urban","Las Vegas","NV","89109",36.102928,-115.173847,"1","Gastropubs, Nightlife, Restaurants, American (New), Bars, Sports Bars"
"16",46656,"Rudy's Pub","Cleveland Heights","OH","44118",41.5001579,-81.5651076,"1","American (Traditional), Bars, Restaurants, Pubs, Nightlife, Gastropubs"
"17",165777,"The Hub Champaign","Champaign","IL","61820",40.1111448,-88.2391289,"1","Restaurants, American (Traditional), Bars, Sports Bars, Dance Clubs, Nightlife, Gastropubs"
"18",138990,"Spitfire Grill & Tavern","Tempe","AZ","85284",33.3346157829,-111.9120597839,"0","Bars, Gastropubs, Pubs, Restaurants, American (New), Nightlife"
"19",30901,"The Wicket Bar","Toronto","ON","M6P 1A6",43.6554790884,-79.4565081126,"1","Beer, Wine & Spirits, Sports Bars, Gastropubs, Restaurants, Bars, Food, Nightlife, Pubs, Venues & Event Spaces, Event Planning & Services"
"20",55596,"The Red Zone Madison","Madison","WI","53715",43.067954,-89.406295,"1","Nightlife, Gastropubs, Sports Bars, Bars, Music Venues, Arts & Entertainment, Restaurants, American (Traditional)"
"21",147426,"The Glen Tavern","Halton Hills","ON","L7G 3S9",43.669632,-79.926119,"1","Gastropubs, Restaurants"
"22",159353,"Pub l'Île Noire","Montréal","QC","H2X 3K4",45.515216,-73.5633803,"1","Nightlife, Bars, Lounges, Cocktail Bars, Pubs, Restaurants, Gastropubs"
"23",81603,"Pub BreWskey","Montréal","QC","H2Y 1H3",45.508949,-73.55153,"1","Brasseries, Gastropubs, Bars, Food, Breweries, Pubs, Restaurants, Nightlife"
"24",188026,"Standard Tap Public House","Airdrie","AB","T4B 3K3",51.2889626757,-114.0148311036,"0","Restaurants, Gastropubs, Food, Beer, Wine & Spirits"
"25",21040,"Centurion","Phoenix","AZ","85003",33.4588497,-112.0771341,"0","Gastropubs, Tapas/Small Plates, Italian, Restaurants, French, Pizza"
"26",162751,"Dierks Bentley's Whiskey Row","Scottsdale","AZ","85251",33.501037,-111.922358,"1","American (Traditional), Breakfast & Brunch, Food, Whiskey Bars, Desserts, Restaurants, Bars, Country Dance Halls, Arts & Entertainment, Nightlife, Music Venues, American (New), Gastropubs"
"27",90392,"Bar Hop","Toronto","ON","M5V 2H3",43.6491064981,-79.3934956921,"1","Bars, Pubs, Gastropubs, Restaurants, Nightlife"
"28",113429,"Nonna Urban Eatery","Scottsdale","AZ","85251",33.4932738,-111.9249317,"1","Nightlife, Bars, Italian, Asian Fusion, Tapas/Small Plates, French, Restaurants, Gastropubs, Latin American, Wine Bars"
"29",113171,"The Guild","Calgary","AB","T2P 1B5",51.046049,-114.0661432,"1","Steakhouses, Diners, Gastropubs, Local Flavor, Restaurants, Cafes"
"30",184866,"The Irv Gastro Pub","Toronto","ON","M5A",43.6635399,-79.3705826,"1","Restaurants, Gastropubs, Nightlife, Bars, Pubs, Burgers"
"31",123081,"Taverne Gaspar","Montréal","QC","H2Y 1J1",45.506283,-73.552868,"1","Food, Gastropubs, Restaurants, Beer, Wine & Spirits"
"32",192342,"Grayhawk Beer Co","Scottsdale","AZ","85255",33.6762908,-111.9231242,"0","Salad, Bars, Sports Bars, Beer Bar, Nightlife, Breakfast & Brunch, Food, Burgers, Desserts, Gastropubs, American (New), Restaurants"
"33",51946,"Public School 702","Las Vegas","NV","89135",36.151269,-115.332772,"1","Gastropubs, Bars, American (New), Restaurants, Nightlife"
"34",97870,"Indie Ale House","Toronto","ON","M6P 1Y9",43.6654413783,-79.4652382136,"1","Restaurants, Food, Breweries, Gastropubs, Pizza"
"35",92483,"Bad Tom Smith Brewing","Cleveland","OH","44113",41.4860496,-81.7052058,"1","Bar Crawl, Food, Beer, Wine & Spirits, Breweries, Nightlife, Gastropubs, Bars, Restaurants, Beer Bar"
"36",25529,"King Henry's Arms","Richmond Hill","ON","L4C 1V4",43.8540988068,-79.4326051274,"1","Restaurants, Gastropubs, Beer, Wine & Spirits, Nightlife, British, Pubs, Bars, Food"
"37",35740,"The Saint Tavern","Toronto","ON","M6J 3A1",43.6490619,-79.4204784,"0","Nightlife, Bars, Restaurants, Gastropubs"
"38",169294,"Maison Close 1888","Toronto","ON","M5T 2J8",43.6531924,-79.3999578,"1","Nightlife, Gastropubs, Bars, Cocktail Bars, Canadian (New), Restaurants, Pubs"
"39",25005,"Oliver's Ale House","Mississauga","ON","L5T 1X5",43.6493753,-79.6615253,"1","Pubs, Seafood, Gastropubs, Bars, Burgers, Beer, Wine & Spirits, Chicken Wings, Steakhouses, Food, Nightlife, Restaurants"
"40",94153,"P J Marley's","Medina","OH","44256",41.1392621013,-81.8635507409,"1","Restaurants, Gastropubs, Burgers, American (New)"
"41",142310,"The Belsize Public House","Toronto","ON","M4S 2M5",43.7026552,-79.3877002,"1","Restaurants, American (Traditional), Gastropubs"
"42",111709,"Pierre et Pierre","Montréal","QC","H2J 2L4",45.5243634,-73.5831934,"0","Nightlife, Food, Bars, Beer, Wine & Spirits, Canadian (New), Restaurants, Modern European, Gastropubs"
"43",104022,"Azarias","Toronto","ON","M8X 1C4",43.6469981,-79.5131954,"1","Restaurants, Gastropubs, Canadian (New), Food, Beer, Wine & Spirits"
"44",96452,"Bacus Bros Hotdogs and Beer","Tempe","AZ","85281",33.4259647,-111.9402513,"0","Nightlife, Hot Dogs, Beer Bar, Restaurants, Gastropubs, American (Traditional), Bars"
"45",149881,"Zipps Sports Grill","Phoenix","AZ","85018",33.4949347,-112.0020575,"1","Restaurants, Gastropubs, Bars, Nightlife, Sports Bars"
"46",124748,"Taps & Tales","Toronto","ON","M4J 1M6",43.681931,-79.3302083,"0","Gastropubs, Restaurants"
"47",20682,"The Main Dish","Calgary","AB","T2E 9E1",51.0529848,-114.041442,"1","Breakfast & Brunch, Restaurants, Food, Coffee & Tea, American (New), Gastropubs, Delis, Canadian (New), Grocery, Cafes, Gluten-Free"
"48",52780,"The Daughter","Toronto","ON","M6P 3S6",43.665269,-79.4540472,"0","Comfort Food, Cocktail Bars, Restaurants, Seafood, Canadian (New), Nightlife, Breakfast & Brunch, Gastropubs, Bars"
"49",172367,"Billie Jax Grill & Bar","Whitby","ON","L1N 2K8",43.8870486,-78.9118552,"1","American (Traditional), Gastropubs, Nightlife, Bars, Restaurants"
"50",183776,"Saddle Mountain Brewing Company","Goodyear","AZ","85338",33.4565678849,-112.3955378188,"1","Restaurants, Nightlife, Gastropubs, Food, American (Traditional), Breweries, Bars"
"51",81443,"Citizen Public House","Scottsdale","AZ","85251",33.49821,-111.927963,"1","Cocktail Bars, Bars, Nightlife, American (New), Local Flavor, Gastropubs, Salad, Restaurants"
"52",56099,"Heritage Tavern","Madison","WI","53703",43.0768340202,-89.3832337316,"1","Gastropubs, Restaurants, American (New), Breakfast & Brunch"
"53",158024,"Chez Boss & Fils","Verdun","QC","H4G 1T6",45.4676081106,-73.5665655009,"1","Restaurants, Seafood, Gastropubs"
"54",151346,"The Kennedy Public House","Toronto","ON","M6S 1N2",43.6511284,-79.4752387,"0","Gastropubs, Restaurants"
"55",155604,"Forage Public House","Lakewood","OH","44107",41.4853630329,-81.7979407095,"1","Brasseries, Restaurants, Gastropubs, American (New)"
"56",192485,"Pour Beer Wine Food","Calgary","AB","T3P 0M9",51.1739614397,-114.108559303,"0","Nightlife, Gastropubs, Beer, Wine & Spirits, Restaurants, Food, Bars"
"57",13786,"Crêpe Cellar","Charlotte","NC","28205",35.2467073,-80.8059197,"1","American (New), Creperies, Sandwiches, Gastropubs, Restaurants, Modern European"
"58",50887,"The Passenger","Toronto","ON","M6P 1Y8",43.6655725786,-79.4685156825,"0","Nightlife, Gastropubs, Restaurants, Bars"
"59",151417,"Door FiftyFive","Mississauga","ON","L5G 1C9",43.5522949,-79.5845307,"1","Cocktail Bars, Nightlife, Restaurants, Gastropubs, Southern, Bars"
"60",69642,"Davidson Street Public House","Charlotte","NC","28205",35.2473196,-80.8048763,"0","Beer, Wine & Spirits, American (New), Food, Restaurants, Breweries, Tapas/Small Plates, Gastropubs"
"61",93696,"Whelan's Gate Gastropub","Toronto","ON","M6P 1A6",43.6552541,-79.4564717,"1","Restaurants, Irish Pub, Gastropubs, Nightlife, Bars"
"62",4564,"Ground Control","Litchfield Park","AZ","85340",33.507094,-112.358767,"1","Food, Coffee & Tea, Gastropubs, Ice Cream & Frozen Yogurt, Beer, Wine & Spirits, Pizza, Restaurants"
"63",66821,"The Smashed Pig Gastropub","Las Vegas","NV","89101",36.16881,-115.140343,"1","Nightlife, British, American (New), Bars, Gastropubs, Pubs, Restaurants"
"64",189246,"Fionn MacCool's Irish Pub","Oakville","ON","L6H 6Z9",43.4872015711,-79.7173084578,"1","Food, British, Bars, Gastropubs, Pubs, Restaurants, Beer, Wine & Spirits, Nightlife"
"65",182991,"The Grill","Scottsdale","AZ","85255",33.6406334,-111.9086326,"0","Seafood, Gastropubs, Restaurants, Hotels & Travel, Hotels, Event Planning & Services"
"66",106980,"ReBAR","Las Vegas","NV","89104",36.156507104,-115.1535546407,"1","Gastropubs, Dive Bars, Bars, Shopping, Wine Bars, Nightlife, Pubs, Restaurants, Antiques"
"67",138374,"Fireside Restaurant & Tavern","Las Vegas","NV","89183",35.999495,-115.128018,"1","Gastropubs, Nightlife, Bars, Food, American (New), Restaurants"
"68",53581,"Toasted","Phoenix","AZ","85013",33.4974771,-112.0832205,"0","Sandwiches, Gastropubs, Restaurants, American (Traditional)"
"69",28600,"Thirsty Lion Gastropub & Grill","Scottsdale","AZ","85215",33.5033917707,-111.9270379984,"1","Nightlife, American (Traditional), Bars, Pubs, Beer, Wine & Spirits, Food, Diners, Gastropubs, Restaurants"
"70",144989,"Soubois","Montréal","QC","H3A 1M7",45.5005568,-73.5746235,"1","Canadian (New), Gastropubs, Bars, Nightlife, Dance Clubs, Restaurants"
"71",30814,"The Blind Pig","Las Vegas","NV","89103",36.1073888656,-115.1815900952,"0","Beer, Wine & Spirits, Restaurants, Gastropubs, Sports Bars, American (Traditional), Cocktail Bars, Bars, Food, Lounges, Cafes, Nightlife, Breakfast & Brunch, Bakeries"
"72",191697,"Angels Trumpet Ale House","Phoenix","AZ","85004",33.4570541765,-112.0715672453,"1","Restaurants, Nightlife, American (New), Gastropubs, Bars"
"73",128318,"The Oxley","Toronto","ON","M5R 1C4",43.6707168,-79.393126,"1","Gastropubs, Pubs, Bars, British, Restaurants, Nightlife"
"74",140703,"Tipperary Taphouse","Whitchurch-Stouffville","ON","L4A 1T2",43.9699156777,-79.2592570195,"1","Restaurants, Gastropubs"
"75",98272,"The Liberty","Charlotte","NC","28203",35.2114719,-80.8584451,"0","Restaurants, Burgers, Gastropubs"
"76",26966,"Thirsty Lion Gastropub & Grill","Gilbert","AZ","85297",33.3089841,-111.7425551,"1","Bars, Food, Beer, Wine & Spirits, Pubs, American (Traditional), Restaurants, Beer Bar, Nightlife, Gastropubs"
"77",123540,"Duckworth's Grill & Taphouse","Charlotte","NC","28202",35.22924,-80.83971,"1","Bars, Nightlife, American (Traditional), Sports Bars, Beer, Wine & Spirits, Food, Gastropubs, Chicken Wings, Cocktail Bars, Cheesesteaks, Restaurants"
"78",32841,"Elda","Montréal","QC","H2T 1S1",45.5238223,-73.5949011,"0","Bars, Restaurants, Gastropubs, Bistros, Nightlife, Breakfast & Brunch, Wine Bars"
"79",78593,"Draught","Charlotte","NC","28202",35.2284474,-80.8547776,"1","Beer, Wine & Spirits, Sports Bars, Food, Nightlife, Breakfast & Brunch, Bars, Gastropubs, Restaurants, American (New)"
"80",145171,"Yama Izakaya","Charlotte","NC","28205",35.2205641897,-80.8156105215,"1","Nightlife, Tapas Bars, Cocktail Bars, Ramen, Teppanyaki, Japanese, Tapas/Small Plates, Bars, Asian Fusion, Restaurants, Sushi Bars, Gastropubs, Izakaya"
"81",5433,"Habits Gastropub","Toronto","ON","M6H 1A4",43.6538869245,-79.4258462167,"0","Restaurants, Lounges, Nightlife, Bars, Cafes, Gastropubs"
"82",92857,"Sierra Gold","Las Vegas","NV","89128",36.2037425,-115.2598768,"1","Venues & Event Spaces, American (New), Event Planning & Services, Restaurants, Nightlife, Bars, Gastropubs, Sports Bars, Pubs"
"83",112825,"Fracas Restaurant","Cleveland","OH","44118",41.5080553,-81.580663,"0","Gastropubs, Restaurants, Nightlife, American (New), Bars"
"84",34902,"The Office Pub","Toronto","ON","M5V 2E2",43.6482362,-79.3901892,"1","Beer, Wine & Spirits, Restaurants, Food, Bars, Karaoke, Nightlife, Sports Bars, Gastropubs, Pubs, American (Traditional)"
"85",160342,"Pyrus Bistronomique","Montréal","QC","H2J 1H8",45.5344041,-73.5829548,"0","Gastropubs, Food, Restaurants, American (Traditional), Breakfast & Brunch, Diners, Desserts, Tapas Bars"
"86",52168,"Cogburn's","Gilbert","AZ","85233",33.3345115,-111.8048307,"1","Gastropubs, Bars, Chicken Wings, Sports Bars, Restaurants, American (New), Nightlife"
"87",10610,"The Peasant Table","Toronto","ON","M4M 1H4",43.6595356509,-79.3473240556,"1","Restaurants, Comfort Food, Italian, Gastropubs, Canadian (New), Breakfast & Brunch, American (New)"
"88",173449,"Docktails","Scottsdale","AZ","85256",33.5556735,-111.8769802,"1","Bars, Tacos, Cocktail Bars, Nightlife, Gastropubs, Restaurants, American (New), Tapas/Small Plates, Mexican"
"89",1139,"The Corner Bank","Toronto","ON","M1L 4C5",43.73104,-79.2883761,"1","Pool Halls, Sports Bars, Canadian (New), Restaurants, Gastropubs, Nightlife, Bars"
"90",112052,"CraftHaus Brewery","Henderson","NV","89011",36.0547206,-115.0162932,"1","Lounges, Gastropubs, Food, Beer Bar, Beer, Wine & Spirits, Breweries, Pubs, Bars, Nightlife, Restaurants"
"91",100782,"Lot St.","Toronto","ON","M6J 1E6",43.6469673,-79.4050707,"0","Tapas Bars, Gastropubs, Food, Beer, Wine & Spirits, Tapas/Small Plates, Canadian (New), Restaurants"
"92",57658,"Les 3 Brasseurs","Montreal","QC","H2Y 1G7",45.5067667,-73.5530952,"1","Pubs, Restaurants, Breweries, Brasseries, Gastropubs, Nightlife, Bars, Food"
"93",105472,"Two Bucks","Eastlake","OH","44095",41.6422110355,-81.4366428148,"1","Bars, Restaurants, American (New), Nightlife, Caterers, Burgers, Event Planning & Services, Gastropubs"
"94",43552,"The Borough","Toronto","ON","M4J 1M9",43.6822742,-79.3286788,"0","Breakfast & Brunch, Pubs, Restaurants, Bars, Gastropubs, Canadian (New), Chinese, Nightlife, British"
"95",121243,"Yours Truly","Toronto","ON","M6J 2Z9",43.6491361,-79.4206948,"0","Canadian (New), Restaurants, Gastropubs, Vegetarian, American (New)"
"96",50042,"Le Saint - Sau Pub Gourmand","Saint-Sauveur","QC","J0R 1R0",45.8941178184,-74.1578109037,"1","Gastropubs, Restaurants"
"97",9608,"The Merchant","Toronto","ON","M5H 2X7",43.6492591,-79.3852965,"0","Restaurants, Gastropubs"
"98",111932,"James Street Gastropub & Speakeasy","Pittsburgh","PA","15212",40.4544265,-80.0010731,"0","Bars, Speakeasies, American (New), Jazz & Blues, Restaurants, Gastropubs, Arts & Entertainment, Nightlife"
"99",175141,"Lager & Vine","Medina","OH","44256",41.139364,-81.863411,"0","Bars, Wine Bars, Nightlife, Gastropubs, Restaurants"
"100",31990,"Vine Tavern & Eatery","Tempe","AZ","85284",33.348714,-111.9266829,"1","Restaurants, Bars, Food, Beer, Wine & Spirits, Nightlife, American (Traditional), Irish, Gastropubs"
"101",168296,"Killingtons Restaurant & Pub","Huntersville","NC","28078",35.4090885,-80.8605753,"1","American (Traditional), Restaurants, Gastropubs"
"102",10326,"Brooklin Pour House","Whitby","ON","L1M 1B3",43.9586835,-78.9601093,"0","Steakhouses, Nightlife, Gastropubs, Restaurants, Italian, Bars, Wine Bars"
"103",18166,"Auberge Willow Inn","Hudson","QC","J0P 1H0",45.44792,-74.108763,"1","Venues & Event Spaces, Hotels, Hotels & Travel, Event Planning & Services, Restaurants, Gastropubs"
"104",84800,"Alcove","Montréal","QC","H3T 1Y7",45.4968878,-73.6240884,"1","Burgers, Restaurants, Gastropubs"
"105",152174,"Hudsons Canada's Pub","Calgary","AB","T2R 0Y6",51.0415933273,-114.0743968606,"1","Gastropubs, Burgers, Sports Bars, Restaurants, Nightlife, Bars, Chicken Wings, Pubs"
"106",166076,"Les Incorruptibles","Montréal","QC","H2C 1S1",45.561529,-73.656989,"0","Nightlife, Lounges, Bars, Wine Bars, Restaurants, Gastropubs, Cocktail Bars, French"
"107",150327,"Bistro Tôt ou Tard","Montréal","QC","H2L 1H7",45.521617,-73.5666103,"1","Restaurants, Gastropubs, Breakfast & Brunch, French"
"108",134103,"Twisted Grove Parlor + Bar","Scottsdale","AZ","85258",33.555796,-111.898942,"1","American (New), Diners, Gastropubs, Bars, Nightlife, Seafood, Restaurants, Cocktail Bars"
"109",113911,"Short Leash Hotdogs & Rollover Doughnuts","Phoenix","AZ","85013",33.4974838,-112.0832669,"1","Restaurants, Food, Donuts, Gastropubs, Coffee & Tea, Hot Dogs, American (New)"
"110",191164,"Valhalla Pub and Eatery","Charlotte","NC","28202",35.2261079,-80.8468595,"1","Pubs, Scandinavian, Bars, Restaurants, Nightlife, Gastropubs, Breakfast & Brunch"
"111",5248,"Joy Bistro","Toronto","ON","M4M 1J3",43.6604177399,-79.3434817648,"0","Venues & Event Spaces, American (Traditional), Gastropubs, American (New), Canadian (New), Bars, Nightlife, Wine Bars, Breakfast & Brunch, French, Comfort Food, Pubs, Event Planning & Services, Restaurants"
"112",84483,"Saint-Houblon","Montréal","QC","H2X 3K3",45.5147086,-73.5622046,"1","Bars, Restaurants, Brewpubs, Brasseries, Nightlife, Gastropubs, Food, Breweries, Beer, Wine & Spirits"
"113",174790,"Bar Maximus","Phoenix","AZ","85003",33.458871,-112.077177,"0","Restaurants, Nightlife, Food, Gastropubs, Beer, Wine & Spirits, Wine Bars, Bars"
"114",74242,"Market","Rocky River","OH","44116",41.4817724,-81.8402898,"1","American (New), Gastropubs, Food, American (Traditional), Restaurants, Beer, Wine & Spirits"
"115",157627,"La Grange","Morin-Heights","QC","J0R 1H0",45.9038512182,-74.2369738162,"1","Canadian (New), Gastropubs, Restaurants"
"116",31970,"Carson Kitchen","Las Vegas","NV","89101",36.1678783157,-115.1406404749,"1","Bars, Restaurants, Nightlife, Cocktail Bars, American (New), Seafood, Gastropubs, Food, Comfort Food, Salad, Tapas/Small Plates, Burgers, Desserts, Vegan"
"117",34446,"Royal Britannia Gastro Pub","Las Vegas","NV","89109",36.12203,-115.1696504,"1","Restaurants, Beer Bar, Bars, Gastropubs, British, Nightlife"
"118",68959,"The Flats on Carson","Pittsburgh","PA","15203",40.4289167733,-79.9828482301,"1","Bars, Restaurants, American (Traditional), Gastropubs, Cocktail Bars, Pizza, Nightlife, Dance Clubs"
"119",100073,"Cuisine & Wine Bistro","Gilbert","AZ","85233",33.3359225,-111.8212295,"1","Bars, Gastropubs, Restaurants, French, Nightlife, American (Traditional), Wine Bars, Tapas/Small Plates, Bistros"
"120",63390,"Copperleaf","Scottsdale","AZ","85251",33.4970886,-111.927495,"0","American (New), Nightlife, Restaurants, Gastropubs"
"121",180303,"Union","Toronto","ON","M6J 2Y7",43.6458334,-79.4195681,"1","Bars, Restaurants, Nightlife, Gastropubs, Wine Bars, French"
"122",183372,"Cabaret du Roy","Montréal","QC","H2Y 1J3",45.5091064,-73.5511025,"0","Canadian (New), Caribbean, Restaurants, Gastropubs"
"123",54615,"Tenth Street Landing","Calgary","AB","T2N 1W3",51.0570262,-114.0854309,"0","Pubs, Nightlife, Bars, Gastropubs, Pizza, Restaurants"
"124",46026,"Maison Publique","Montréal","QC","H2J 3Y6",45.5336197,-73.5787475,"1","Gastropubs, British, Restaurants"
"125",21855,"Holy Craft!","Cleveland","OH","44113",41.500169,-81.699414,"0","Gastropubs, Bars, Sandwiches, Beer, Wine & Spirits, Breweries, American (New), Pubs, Food, Restaurants, Nightlife"
"126",68155,"Goods & Provisions","Toronto","ON","M4M",43.6622969,-79.3351969,"1","Restaurants, Gastropubs, Nightlife, Bars, French"
"127",44950,"Le St Mark","Longueuil","QC","J4H 1E7",45.536293,-73.512638,"1","Gastropubs, Restaurants, Steakhouses"
"128",138204,"Miss Prêt à Manger","Montréal","QC","H2Z 1N4",45.5046701,-73.5639297,"1","Modern European, Bakeries, Food, Mediterranean, Event Planning & Services, Caterers, Restaurants, Gastropubs"
"129",116331,"Second Story Restaurant & Liquor Bar","Scottsdale","AZ","85251",33.4966118344,-111.9263542816,"1","Whiskey Bars, Food, Restaurants, American (New), Cocktail Bars, Beer, Wine & Spirits, Bars, Lounges, Gluten-Free, Gastropubs, Seafood, Nightlife"
"130",171096,"The Paddock Tavern","Toronto","ON","M5V 2R4",43.6468318,-79.4042451,"1","Restaurants, Gastropubs, Lounges, Canadian (New), Bars, Nightlife"
"131",126836,"Bad Water Brewing","Scottsdale","AZ","85251",33.4972769,-111.9245142,"0","Restaurants, Gastropubs, Food, Sandwiches, Breweries, Bars, Nightlife, Pubs, Beer, Wine & Spirits"
"132",62728,"The Tap & Tankard","Whitby","ON","L1N 4K1",43.8783371,-78.9417513,"1","Bars, Gastropubs, Restaurants, Pubs, Nightlife"
"133",11960,"Dierks Bentley's Whiskey Row","Gilbert","AZ","85234",33.355972,-111.789546,"1","Bars, Gastropubs, Restaurants, Arts & Entertainment, Nightlife, Music Venues, American (New)"
"134",309,"Duke Of Cornwall","Toronto","ON","M5G 1S5",43.653439,-79.3882456,"1","Nightlife, Restaurants, Pubs, Gastropubs, Bars"
"135",191626,"TRES Tempe","Tempe","AZ","85283",33.3549549,-111.8954715,"1","Mediterranean, Restaurants, Gastropubs"
"136",88215,"Midtown Gastro Hub","Toronto","ON","M4T 1Z8",43.6900916195,-79.3946665898,"1","Gastropubs, American (New), Restaurants, American (Traditional)"
"137",59337,"Marco Polo Restobar","Mississauga","ON","L5J 1J6",43.5128874,-79.628468,"0","Restaurants, Mediterranean, Gastropubs"
"138",178718,"McDuffy's Sports Grill","Chandler","AZ","85225",33.3176189883,-111.8277740479,"0","Pubs, Gastropubs, Restaurants, American (Traditional), Sports Bars, Nightlife, Bars, Burgers"
"139",84685,"Mario's Tap House","Wickliffe","OH","44092",41.621512,-81.451979,"1","Restaurants, Nightlife, Bars, Gastropubs"
"140",123986,"Greyfriars Pub","Oakville","ON","L6H 7S8",43.48251,-79.7158103,"0","Restaurants, British, Gastropubs"
"141",109360,"Resto Pub Bord'Eaux","Sainte-Anne-de-Bellevue","QC","H9X 1L5",45.4033767,-73.9495687,"1","Gastropubs, Restaurants, Nightlife, Canadian (New), Pubs, Bars"
"142",139336,"The Greenhouse Tavern","Cleveland","OH","44115",41.499074,-81.690421,"1","Breakfast & Brunch, French, Gastropubs, American (New), Restaurants"
"143",131580,"English's Quintessentially British","Las Vegas","NV","89119",36.0687375761,-115.1771344056,"0","Breakfast & Brunch, Tea Rooms, Restaurants, British, Desserts, Food, Gastropubs"
"144",15025,"Pennsbury Pub & Grill","Pittsburgh","PA","15205",40.428912,-80.100112,"1","Gastropubs, Restaurants, American (New), Pubs, Nightlife, Bars, Chicken Wings"
"145",13133,"Stock & Stable","Phoenix","AZ","85014",33.5177994,-112.0654413,"1","Gastropubs, American (New), American (Traditional), Italian, Restaurants"
"146",47211,"Huss Brewing Co - Uptown Taproom","Phoenix","AZ","85012",33.510505,-112.071786,"1","Breweries, Gastropubs, Food, Restaurants"
"147",3677,"Flour & Barley","Las Vegas","NV","89109",36.117357,-115.170387,"1","Restaurants, Pizza, Gastropubs, Italian"
"148",188815,"Hard Hat Lounge","Las Vegas","NV","89102",36.1511093,-115.1598508,"1","Nightlife, Bars, Beer, Wine & Spirits, Food, Dive Bars, Gastropubs, Restaurants"
"149",91522,"Local Liberty Village","Toronto","ON","M6K 3P6",43.6384689262,-79.4192124903,"1","Restaurants, Pubs, Tapas/Small Plates, Beer Bar, Gastropubs, Breakfast & Brunch, Burgers, Nightlife, Canadian (New), Bars, Sports Bars"
"150",3344,"Orange et Pamplemousse","Saint-Sauveur","QC","J0R 1R6",45.897511,-74.151252,"1","Gastropubs, Breakfast & Brunch, Restaurants, Cafes"
"151",140546,"Spur Gastropub","Calgary","AB","T2P 1R2",51.0493041,-114.0694927,"0","Restaurants, Gastropubs"
"152",185816,"Her Father's Cider Bar & Kitchen","Toronto","ON","M5S 1G7",43.6623256,-79.4045706,"1","Restaurants, Nightlife, Pubs, Gastropubs, Food, Bars, Canadian (New)"
"153",68468,"Smokeless Joe","Toronto","ON","M6G 1A4",43.6562566,-79.4095854,"0","Seafood, Restaurants, Nightlife, Gastropubs, Bars"
"154",32987,"Brasserie Bernard","Montréal","QC","H2V 1V7",45.5201272,-73.6089836,"1","Canadian (New), Pubs, Restaurants, French, Gastropubs, Nightlife, Bars"
"155",183747,"Public House","Las Vegas","NV","89109",36.122828,-115.169206,"1","Gastropubs, Restaurants"
"156",62888,"M Resto-Bar","Sainte-Catherine","QC","J5C 1T1",45.3874509,-73.5530945,"1","Gastropubs, Bars, Restaurants, Nightlife"
"157",121874,"Fuze On Fourth","Calgary","AB","T2S 0H3",51.033268,-114.069575,"0","American (New), Gastropubs, Restaurants, Canadian (New)"
"158",152739,"Bitters Bar & Food","Scottsdale","AZ","85257",33.4644255891,-111.9257825865,"1","Tapas/Small Plates, Nightlife, Bars, Beer Bar, Cocktail Bars, Restaurants, Gastropubs"
"159",152928,"Ambiyan","Unionville","ON","L3R 2G8",43.8663305,-79.3111036,"1","Restaurants, Gastropubs, Indian"
"160",120944,"Desert Rose Pizza & Gastropub","Glendale","AZ","85301",33.536672,-112.182229,"1","Bars, Shopping, Restaurants, Gastropubs, Sports Bars, Tobacco Shops, Nightlife, Pizza"
"161",170455,"The Vig McCormick","Scottsdale","AZ","85258",33.5430289,-111.9052457,"1","Breakfast & Brunch, Beer Bar, Gastropubs, Cocktail Bars, Nightlife, American (New), Food, Bars, Restaurants, Beer, Wine & Spirits, American (Traditional)"
"162",95035,"Graze","Madison","WI","53703",43.075094045,-89.3820914577,"1","Gastropubs, Diners, American (New), Local Flavor, Restaurants"
"163",40415,"Rocky's Bar and Grill","Las Vegas","NV","89123",36.0347089,-115.1353948,"1","Breakfast & Brunch, American (Traditional), Bars, Restaurants, Gastropubs, Nightlife"
"164",103489,"Park on Fremont","Las Vegas","NV","89101",36.169326,-115.140097,"1","Breakfast & Brunch, Nightlife, Restaurants, American (New), Bars, Lounges, Gastropubs"
"165",138288,"Adelaide Street Pub","Toronto","ON","M5V 1R4",43.6474352,-79.3927368,"0","Restaurants, Gastropubs"
"166",154368,"Sporting Life Bar","Las Vegas","NV","89139",36.048195,-115.224919,"1","Pubs, Restaurants, American (New), Gastropubs, Sports Bars, Bars, Nightlife"
"167",21696,"Williams Landing Bar Grill Hub Restaurant","Toronto","ON","M6K 3P6",43.6389515597,-79.4175598995,"1","Gastropubs, Canadian (New), Bars, American (New), Nightlife, Comfort Food, Restaurants"
"168",107792,"Gin Mill","Toronto","ON","M6S 1N4",43.6514389,-79.475629,"1","Gastropubs, Restaurants"
"169",10293,"Voro","Montréal","QC","H2T 2M7",45.5209077,-73.5974472,"0","Mediterranean, Gastropubs, Restaurants"
"170",11243,"6ix Bar and Grill","Newmarket","ON","L3Y 5L8",44.0467614,-79.4778774,"0","Restaurants, Gastropubs, Nightlife, Sandwiches, Sports Bars, Bars"
"171",110181,"Peanuts Public House","Calgary","AB","T2H 0M4",50.975992,-114.0716996,"1","Pubs, Gastropubs, Hotels, Restaurants, Nightlife, Event Planning & Services, Bars, Hotels & Travel, Shopping"
"172",150999,"Shakespeare's Grille & Pub","Henderson","NV","89052",36.0029432795,-115.1076953153,"1","Karaoke, American (Traditional), Restaurants, British, Gastropubs, Nightlife, Pubs, Bars"
"173",92532,"The Station Ale House","Toronto","ON","M6S 1P7",43.6490049,-79.4846163,"1","Bars, Gastropubs, Pubs, Nightlife, Restaurants"
"174",189129,"Jack's Place Public House","Scottsdale","AZ","85251",33.495833,-111.932901,"0","American (New), Gastropubs, Burgers, Restaurants, Sports Bars, Dive Bars, Bars, Nightlife"
"175",119117,"Starpointe Cafe","Goodyear","AZ","85338",33.3553453,-112.4410139,"0","American (Traditional), Gastropubs, Restaurants, Cafes"
"176",74491,"Brittlebush Bar & Grill","Scottsdale","AZ","85254",33.6256407,-111.9325467,"1","Gastropubs, Restaurants, American (New)"
"177",11673,"Restaurant A Maison","Blainville","QC","J7C 2J6",45.6627024,-73.8638893,"1","Restaurants, Gastropubs, Tapas Bars"
"178",27543,"Two Bucks North Olmsted","North Olmsted","OH","44070",41.430197,-81.889853,"1","Nightlife, Restaurants, Bars, Gastropubs"
"179",12928,"Rex's Den","Toronto","ON","M1C 1A3",43.784981,-79.186941,"1","Sandwiches, Poutineries, Bars, Restaurants, Gastropubs, Nightlife, Beer, Wine & Spirits, Pubs, Food"
"180",106242,"The Rogue Irish Pub and Kitchen","Charlotte","NC","28203",35.2018125,-80.8437902,"0","Irish, Nightlife, Gastropubs, Sports Bars, Irish Pub, Breakfast & Brunch, Bars, American (New), Restaurants, Food, Desserts"
"181",15968,"1847 At the Stamm House","Middleton","WI","53562",43.1045005,-89.4945568,"1","Supper Clubs, French, Restaurants, Gastropubs, American (New), American (Traditional)"
"182",143825,"Oak Tree Tavern","Calgary","AB","T2N",51.0529034,-114.0855356,"1","Restaurants, Pubs, Nightlife, Gastropubs, Bars"
"183",180464,"The Rustic Social House","Toronto","ON","M8V",43.6300462551,-79.476598056,"1","Cocktail Bars, Nightlife, Gastropubs, Bars, Restaurants"
"184",136359,"Axis Gastropub","Toronto","ON","M6G 1K4",43.664728,-79.4126047,"0","Restaurants, Gastropubs"
"185",5738,"Southern Tier Brewery Pittsburgh","Pittsburgh","PA","15212",40.4463787,-80.0104128,"1","Nightlife, Breweries, Restaurants, Pubs, Bars, Food, Gastropubs"
"186",125552,"Fionn MacCool's Irish Pub","Vaughan","ON","L4H 0R2",43.77429624,-79.6225329755,"1","Bars, Pubs, Nightlife, Canadian (New), Gastropubs, Food, Beer, Wine & Spirits, Restaurants"
"187",43830,"Michael Mina Pub 1842","Las Vegas","NV","89109",36.1034816784,-115.1685149968,"1","Bars, Gastropubs, Irish, Pubs, Nightlife, Restaurants"
"188",99425,"Le Rouge Gorge","Montréal","QC","H2J 1Y2",45.5291117541,-73.577978164,"1","French, Tapas/Small Plates, Music Venues, Gastropubs, Nightlife, Wine Bars, Restaurants, Arts & Entertainment, Hotels & Travel, Bars, Hotels, Event Planning & Services"
"189",85633,"The Church Public Inn","Palgrave","ON","L7E 0K8",43.9506701,-79.83684,"1","Steakhouses, Gastropubs, American (Traditional), Restaurants"
"190",127930,"National at Westhills","Calgary","AB","T3H 3C8",51.0158223926,-114.167538397,"1","Canadian (New), Restaurants, Gastropubs"
"191",62171,"The Bar","Phoenix","AZ","85016",33.4960222,-112.0140681,"1","Bars, Nightlife, Gastropubs, Cocktail Bars, Dive Bars, Sports Bars, American (Traditional), Restaurants"
"192",191408,"TK's Urban Tavern","Scottsdale","AZ","85254",33.6234374495,-111.924623251,"0","Restaurants, American (Traditional), Gastropubs, American (New)"
"193",178717,"OHSO Gilbert","Gilbert","AZ","85234",33.3562143,-111.7893667,"1","Food, Gastropubs, Breakfast & Brunch, Breweries, Restaurants, American (Traditional), Brewpubs"
"194",71137,"The Map Room Grill & Bar","Pittsburgh","PA","15218",40.4321990555,-79.8937211913,"1","Sandwiches, American (New), Gastropubs, Restaurants, Seafood"
"195",64414,"Bistro le Ste-Cath","Montréal","QC","H1V 1X6",45.5500938,-73.5339922,"1","Brasseries, Restaurants, Gastropubs, Cafes"
"196",125857,"The Victorian Monkey","Toronto","ON","M1N 1V2",43.7080941,-79.2504752,"1","American (Traditional), Salad, Restaurants, Desserts, Burgers, Gastropubs, Food"
"197",127316,"Refinery Public House","Toronto","ON","M8V 1K5",43.5997903,-79.5091289,"1","Burgers, Pubs, Gastropubs, Restaurants, Bars, Nightlife, Diners, Salad, Cocktail Bars"
"198",55030,"The Atlantic","Toronto","ON","M6K 1T9",43.6497872,-79.4349547,"0","Gastropubs, Tapas/Small Plates, Restaurants"
"199",108209,"Bull & Barrister Draft House and Grille","Charlotte","NC","28216",35.324582085,-80.9464529157,"0","Steakhouses, Food, Gastropubs, Local Flavor, American (Traditional), Beer, Wine & Spirits, Restaurants"
"200",157167,"Bridgetown Taphouse","Ambridge","PA","15003",40.5913083,-80.2302252,"1","American (Traditional), Music Venues, Nightlife, Restaurants, Bars, Sports Bars, Gastropubs, Arts & Entertainment"
"201",53197,"Typhoon Lounge","Montréal","QC","H4A 1E9",45.4736659869,-73.6242682609,"1","Restaurants, Gastropubs, Lounges, Nightlife, Bars"
"202",3565,"Local 1794","Toronto","ON","M4C 1H8",43.6846013,-79.3188542,"1","Canadian (New), Gastropubs, Restaurants"
"203",181174,"Design District Urban Tavern","Calgary","AB","T2R 0E1",51.0426178,-114.0754846,"0","American (New), Burgers, Restaurants, Gastropubs, Canadian (New), Local Flavor, Food, Breweries"
"204",112260,"Sip Coffee & Beer Garage","Phoenix","AZ","85018",33.4954355191,-112.0035115621,"1","Cocktail Bars, Bars, Nightlife, Food, Restaurants, Coffee & Tea, Beer Bar, Gastropubs, Beer, Wine & Spirits"
"205",26549,"Mother Bunch Brewing","Phoenix","AZ","85006",33.4573066,-112.0648429,"1","Nightlife, Breweries, American (New), Pubs, Food, Restaurants, Bars, Gastropubs"
"206",23303,"Pub Bricco","Akron","OH","44313",41.1357176,-81.5558131,"1","American (New), Nightlife, Bars, Restaurants, Gastropubs, Pubs, Event Planning & Services, Venues & Event Spaces, Burgers"
"207",37211,"The Cellar at Duckworth's","Charlotte","NC","28202",35.22924,-80.83971,"1","Bars, Nightlife, Tapas/Small Plates, Restaurants, Tapas Bars, Cocktail Bars, Lounges, Gastropubs, American (New)"
"208",118507,"Griffintown Café","Montréal","QC","H3C 1K8",45.4919348,-73.5653922,"0","Southern, Breakfast & Brunch, Gastropubs, Burgers, Nightlife, Restaurants, Piano Bars, Tapas/Small Plates"
"209",12773,"Duggan's Brewery","Toronto","ON","M5C 2B1",43.6514616,-79.3775275,"0","Pubs, Food, Breweries, Bars, Gastropubs, Nightlife, Restaurants"
"210",76954,"1918 Tap & Table","Calgary","AB","T2N 3R5",51.0527570651,-114.10401454,"1","Restaurants, Gastropubs, Canadian (New), Bars, Nightlife"
"211",63123,"Ste-Catherine & Burger","Montréal","QC","H2X 1K6",45.510784,-73.5633278,"1","Restaurants, Fast Food, Nightlife, Bars, Gastropubs, Burgers"
"212",84178,"BottleHouse","Calgary","AB","T2N 1V3",51.0522069,-114.0855119,"0","Beer, Wine & Spirits, Restaurants, Nightlife, Gastropubs, Bars, Burgers, Breakfast & Brunch, Pubs, Food"
"213",26262,"Duckworths Grill & Taphouse","Huntersville","NC","28078",35.440001,-80.867257,"1","Gastropubs, Chicken Wings, Bars, Restaurants, American (Traditional), Sports Bars, Nightlife, Cheesesteaks"
"214",73719,"The Summerhill","Nobleton","ON","L0G 1T0",43.921109049,-79.6567385336,"1","Beer, Wine & Spirits, Gastropubs, Canadian (New), Restaurants, Nightlife, Wine Bars, Food, Bars, Modern European, Seafood"
"215",108383,"State 48 Brewery","Surprise","AZ","85374",33.6382373275,-112.3578000069,"1","Pubs, Bars, Fish & Chips, Gastropubs, Restaurants, Nightlife, American (New), Food, Pizza, Breweries"
"216",122465,"Bier's Pub","Pittsburgh","PA","15233",40.4520412,-80.0167679,"1","Brewpubs, Gastropubs, Breweries, Restaurants, Bars, Burgers, Food, Pubs, Nightlife, Cocktail Bars"
"217",97151,"The Waypoint Public House","Monona","WI","53716",43.046028,-89.328565,"1","Breakfast & Brunch, Nightlife, American (Traditional), American (New), Restaurants, Bars, Pubs, Gastropubs"
"218",109939,"The Attic Ale House","Phoenix","AZ","85018",33.494594,-111.9893939,"1","Restaurants, Nightlife, American (New), Pizza, Burgers, Pubs, Wine Bars, Beer Gardens, Gastropubs, Bars"
"219",11402,"MWC Bistro","Gilbert","AZ","85233",33.3359143,-111.8212783,"0","Tapas/Small Plates, American (Traditional), Tapas Bars, Wine Bars, Gluten-Free, Gastropubs, Lounges, Bars, Restaurants, American (New), Nightlife"
"220",75743,"Folly Brewing","Toronto","ON","M6H 1A4",43.6538448,-79.4258332,"1","Food, Brewpubs, Breweries, Restaurants, Bars, Gastropubs, Nightlife"
"221",140461,"Modern Grove Views","Scottsdale","AZ","85256",33.5556735,-111.8769802,"1","Gastropubs, Nightlife, Bars, Event Planning & Services, Wine Bars, Sandwiches, Pizza, Breakfast & Brunch, American (Traditional), American (New), Restaurants, Venues & Event Spaces, Cocktail Bars"
"222",163960,"Vices et Versa","Montréal","QC","H2S 3C5",45.5313378,-73.610497,"1","Poutineries, Bars, Local Flavor, Restaurants, Nightlife, Brasseries, Brewpubs, Burgers, Pubs, Beer, Wine & Spirits, Food, Gastropubs, Breweries"
"223",148463,"Prohibition Gastrohouse","Toronto","ON","M4P 3A4",43.7070968174,-79.3972781559,"1","Restaurants, Gastropubs, Sports Bars, Bars, American (Traditional), Cocktail Bars, Nightlife"
"224",129188,"Fionn MacCool's Irish Pub","Calgary","AB","T2P 5C2",51.052022,-114.0704866,"1","Beer, Wine & Spirits, Food, Restaurants, Tapas Bars, Bars, Pubs, Irish, Gastropubs, Hotels, Nightlife, Hotels & Travel, Event Planning & Services"
"225",68774,"Cutting Board Filipino Gastropub","Las Vegas","NV","89128",36.19767,-115.24738,"1","Gastropubs, Spanish, Restaurants, Filipino"
"226",184664,"Brixton Pub","Phoenix","AZ","85051",33.5789118,-112.1200141,"1","Bars, Gastropubs, Restaurants, Nightlife, Pubs"
"227",66853,"The Pub","Rocky River","OH","44116",41.4818903,-81.8361428,"0","Food, Bars, Pubs, Nightlife, Beer, Wine & Spirits, Gastropubs, British, Restaurants, Fish & Chips"
"228",140720,"Social Table","Las Vegas","NV","89103",36.1144167,-115.1990649,"0","Pubs, Gastropubs, Restaurants, Bars, Sports Bars, Food Court, Nightlife"
"229",50471,"Fionn MacCool's Irish Pub","Toronto","ON","M5V 3B6",43.6440201,-79.390814,"1","Restaurants, Beer, Wine & Spirits, Food, Irish, Bars, Gastropubs, Nightlife"
"230",69235,"Dirt Dog","Las Vegas","NV","89139",36.0359228984,-115.2429071871,"1","Hot Dogs, Street Vendors, Food, Restaurants, American (Traditional), American (New), Desserts, Gastropubs"
"231",151951,"Batch","Toronto","ON","M5C 2B1",43.651547105,-79.3772784818,"1","Restaurants, Gastropubs, Breweries, Food"
"232",176102,"The Yard","Pittsburgh","PA","15228",40.3570036,-80.051746,"1","American (New), American (Traditional), Gastropubs, Restaurants"
"233",19743,"Dad's Pub & Grub","Monroeville","PA","15146",40.43369,-79.750897,"1","Gastropubs, Restaurants"
"234",96956,"Taco Guild","Phoenix","AZ","85012",33.4877467396,-112.0656646769,"1","Restaurants, Gastropubs, Mexican, Tex-Mex, Nightlife, Cocktail Bars, Bars"
"235",113712,"SpeakEasy 21","Toronto","ON","M5H 1N1",43.650043,-79.3801475,"1","Speakeasies, Gastropubs, Bars, Restaurants, Nightlife"
"236",170789,"Axis Gallery & Grill","Toronto","ON","M6P 1Z3",43.6655864,-79.4708382,"1","Art Galleries, Gastropubs, Arts & Entertainment, Nightlife, Restaurants, Pubs, Bars, Shopping"
"237",12426,"Old Town Whiskey","Scottsdale","AZ","85251",33.4940319,-111.921845,"0","American (New), Bars, Nightlife, Pubs, Restaurants, Gastropubs"
"238",42162,"Libertine Social","Las Vegas","NV","89119",36.091256278,-115.1767653721,"1","Bars, Cocktail Bars, Gastropubs, Nightlife, Beer, Wine & Spirits, Food, American (New), Restaurants"
"239",192054,"Growler USA - Indian Trail","Indian Trail","NC","28079",35.051743,-80.646974,"1","Bars, Restaurants, Gastropubs, Nightlife, Beer Bar, Breweries, Chicken Wings, Food, Pubs, American (Traditional)"
"240",54417,"Nawab Fusion Grill","Toronto","ON","M2N",43.7661188,-79.4120121,"0","Restaurants, Indian, Gastropubs"
"241",3721,"Le H4C","Montréal","QC","H4C 2R9",45.4774372,-73.5859357,"1","Gastropubs, Breakfast & Brunch, Restaurants, French, Canadian (New)"
"242",69332,"Beer2Beer","Toronto","ON","M5T 2M2",43.6569165,-79.402666,"1","Pubs, Canadian (New), Nightlife, Gastropubs, Restaurants, Bars, Breakfast & Brunch, Beer Bar, Cocktail Bars"
"243",179915,"ANIQ","Toronto","ON","M6R 2N1",43.6509623,-79.4507167,"1","Pan Asian, Gastropubs, Asian Fusion, Tapas/Small Plates, Restaurants"
"244",41419,"The Office Pub on King","Toronto","ON","M5C 3C5",43.6490655,-79.37693,"1","American (Traditional), Restaurants, Gastropubs, Nightlife, Bars"
"245",180602,"Darby's on Fifty-Nine","Cuyahoga Falls","OH","44221",41.1474659,-81.4708021,"1","Nightlife, Bars, American (Traditional), Restaurants, Gastropubs, Seafood"
"246",177662,"The Yard","Pittsburgh","PA","15222",40.44144,-80.0027028,"1","American (New), Nightlife, Restaurants, Gastropubs, Bars"
"247",191245,"Essex Bar & Bistro","Charlotte","NC","28280",35.2264845,-80.8427089,"1","Mediterranean, Gastropubs, American (New), Cocktail Bars, Bars, Restaurants, Nightlife"
"248",103912,"The Wallace","Toronto","ON","M4S 1Z4",43.6995068,-79.3968547,"1","Bars, Nightlife, Restaurants, Pubs, Gastropubs"
"249",39682,"Snakes & Lattes College","Toronto","ON","M6G 1A5",43.6558739,-79.4091916,"1","Pubs, Restaurants, Shopping, Cafes, Nightlife, Gastropubs, Bars, Tabletop Games"
"250",5111,"Merchant Tavern","Akron","OH","44313",41.1348977,-81.5552486,"1","American (New), American (Traditional), Restaurants, Gastropubs"
"251",76703,"Todd English P.U.B.","Las Vegas","NV","89158",36.1083176,-115.174085,"0","Food, British, Restaurants, Nightlife, Gastropubs, Bars, Beer, Wine & Spirits"
"252",140399,"Two Bucks","Avon","OH","44011",41.4520926,-82.0337535,"1","Nightlife, Gastropubs, Restaurants, Bars, American (Traditional)"
"253",16048,"Commission des Liqueurs","Montréal","QC","H2T 1R4",45.5205049656,-73.5869984786,"0","Restaurants, Gastropubs, Dance Clubs, Nightlife"
"254",160430,"North Mountain Brewing Company","Phoenix","AZ","85020",33.5679191,-112.0663979,"1","Food, Gastropubs, Breweries, Restaurants"
"255",85282,"Bar & Boeuf","Montréal","QC","H2Y 2H6",45.5009888,-73.5596071,"0","Restaurants, French, Gastropubs"
"256",143217,"The Wise","Madison","WI","53711",43.067587,-89.41251,"1","Restaurants, Breakfast & Brunch, Gastropubs, Brasseries, Tapas/Small Plates, Spanish"
"257",155981,"Manhattan Classic Grill","Toronto","ON","M6A 3B2",43.7186121,-79.4559215,"0","Gastropubs, Restaurants, Steakhouses"
"258",144962,"Royal Phoenix","Montréal","QC","H2T 1A5",45.5271739,-73.6021367,"0","Gastropubs, Nightlife, Restaurants, Bars, Karaoke, Gay Bars"
"259",119298,"Prohibition Gastrohouse","Toronto","ON","M4M 1G9",43.6588948,-79.350384,"1","Food, Bars, American (Traditional), Gastropubs, Pubs, Nightlife, Sports Bars, Restaurants, Beer, Wine & Spirits"
"260",147542,"b.B.d.’s","Las Vegas","NV","89102",36.1442045,-115.1741454,"1","Gastropubs, Bars, Nightlife, Burgers, Restaurants, Beer Bar"
"261",92226,"Baxo Cuisine Bar","Montréal","QC","H2Y 1H2",45.509175,-73.5518333,"0","Gastropubs, French, Restaurants"
"262",9308,"Jekyll & Hyde Taphouse and Grill","Matthews","NC","28105",35.1189062,-80.7191897,"1","Cocktail Bars, Bars, American (New), Beer Bar, British, Restaurants, Nightlife, Gastropubs"
"263",122283,"Kiffin","Montréal","QC","H2X 3L1",45.5174507,-73.5681999,"0","Restaurants, Arts & Crafts, Vegan, Cafes, Local Flavor, Comfort Food, Food Delivery Services, Bistros, Shopping, Gluten-Free, Gastropubs, Nightlife, Specialty Food, Cooking Classes, Tapas/Small Plates, Caterers, Food, Breakfast & Brunch, Event Planning & Services, Ice Cream & Frozen Yogurt"
"264",136045,"Mad Chef Gastropub","Phoenix","AZ","85048",33.3050646,-111.9985862,"0","Restaurants, Gastropubs"
"265",26386,"The Mill Eatery & Drafthouse","Fort Mill","SC","29708",35.061158837,-80.989773944,"0","Burgers, Gastropubs, American (Traditional), Restaurants"
"266",189098,"The Thirsty Duck","Toronto","ON","M4M 1K1",43.6613335,-79.3399866,"1","Nightlife, Bars, Restaurants, Gastropubs"
"267",23996,"Big Grove Tavern","Champaign","IL","61820",40.1183809,-88.2429963,"1","Gastropubs, Cocktail Bars, Breakfast & Brunch, Pubs, Restaurants, Bars, American (New), Nightlife"
"268",109448,"KB","Whitby","ON","L1N 4H2",43.8803171,-78.9424631,"1","Nightlife, Canadian (New), Wine Bars, Gluten-Free, Local Flavor, Bars, Restaurants, Diners, Gastropubs, Vegetarian"
"269",43979,"Local West","Cleveland","OH","44102",41.482837,-81.7355618,"1","Gastropubs, American (Traditional), Sandwiches, Restaurants, Burgers"
"270",134882,"Fionn MacCool's Irish Pub","Toronto","ON","M4W 3Y3",43.6710833,-79.3807435,"1","Gastropubs, Pubs, Nightlife, Beer, Wine & Spirits, Irish, Restaurants, Food, Bars"
"271",111170,"Pork & Beans","Las Vegas","NV","89101",36.1677598557,-115.1383169828,"0","American (New), Gastropubs, Restaurants, Fast Food"
"272",4508,"Snakes & Lagers","Toronto","ON","M6G 1A4",43.6562566,-79.4095854,"0","Arts & Entertainment, Gastropubs, Lounges, Pubs, Nightlife, Restaurants, Bars"
"273",90337,"Breakroom Bar & Grill","Phoenix","AZ","85008",33.4652475975,-111.9792589484,"1","American (Traditional), Restaurants, Breakfast & Brunch, Nightlife, Dive Bars, Bars, Gastropubs, Karaoke, Sports Bars, Pool Halls"
"274",109633,"Storm Crow Manor","Toronto","ON","M4Y 2E5",43.6667489585,-79.3816431239,"1","Nightlife, Restaurants, Gastropubs, Bars, Pubs"
"275",50411,"Pub Frato","Concord","OH","44077",41.665372,-81.241652,"1","Gastropubs, Restaurants, American (New), Nightlife, Bars, Pubs"
"276",57217,"The Phoenix Ale Brewery Central Kitchen","Phoenix","AZ","85014",33.5222176562,-112.0642463195,"1","Breweries, Food, Bars, Gastropubs, Pubs, Restaurants, American (Traditional), Nightlife"
"277",60802,"El Rey Mezcal Bar","Toronto","ON","M5T 2J7",43.6528135234,-79.4000687707,"1","Nightlife, Gastropubs, Mexican, Food, Specialty Food, Restaurants, Cocktail Bars, Bars"
"278",122782,"My Wine Cellar","Ahwatukee","AZ","85044",33.3339455,-111.977862,"1","Tapas/Small Plates, Restaurants, Beer, Wine & Spirits, Wine Bars, Breakfast & Brunch, Gastropubs, Bars, Food, Nightlife"
"279",149898,"Piper's Pub","Toronto","ON","M5J 1E4",43.645967,-79.382426,"1","Nightlife, Beer, Wine & Spirits, Bars, Gastropubs, Restaurants, Food"
"280",17445,"Patrick's Pub and Grille","Moon Township","PA","15108",40.5466245751,-80.2421342698,"1","Restaurants, Nightlife, Pubs, American (New), Gastropubs, Bars"
"281",134305,"Prenup Pub","Toronto","ON","M5T 1P9",43.6586882,-79.3948008,"1","Nightlife, Restaurants, Bars, Pubs, Gastropubs"
"282",29383,"Miller Tavern","North York","ON","M4N 2P2",43.7407705874,-79.40574646,"1","Steakhouses, Bars, Nightlife, Seafood, Restaurants, Gastropubs, Wine Bars"
"283",12994,"Yuzu","Lakewood","OH","44107",41.4768282,-81.7869709,"1","Japanese, Gastropubs, Tapas/Small Plates, Restaurants, Comfort Food, Asian Fusion, Nightlife, Cocktail Bars, Izakaya, Bars"
"284",130574,"Belfry Gastro House","Calgary","AB","T2P",51.0460093,-114.0756123,"0","Event Planning & Services, Venues & Event Spaces, Restaurants, Gastropubs"
"285",20843,"Two Brothers Tap House and Brewery","Scottsdale","AZ","85251",33.499148,-111.925728,"1","Food, Restaurants, Breweries, Gastropubs, American (Traditional)"
"286",16466,"The Bier Markt","Toronto","ON","M5E 1R2",43.6470951613,-79.37391518,"1","Restaurants, Gastropubs, Pubs, Food, Bars, Beer, Wine & Spirits, Canadian (New), Nightlife, Belgian"
"287",63304,"Avon Brewing Company","Avon","OH","44011",41.4515562,-82.0355415,"1","Breweries, Food, Bars, Salad, Beer Bar, Gastropubs, American (Traditional), Restaurants, Sandwiches, Nightlife, Sports Bars"
"288",103494,"World of Beer","Charlotte","NC","28203",35.2160913,-80.8537106,"0","Gastropubs, Music Venues, Food, Pubs, Nightlife, Sports Bars, Restaurants, American (Traditional), Arts & Entertainment, Breweries, Bars"
"289",140192,"Angel's Trumpet Ale House","Phoenix","AZ","85008",33.47430491,-111.9864308232,"1","Nightlife, Bars, Beer Bar, Restaurants, Gastropubs, American (New)"
"290",102393,"Q Tavern","Charlotte","NC","28204",35.2189223729,-80.8361534402,"1","Southern, Gastropubs, Pubs, Bars, Nightlife, Restaurants"
"291",36441,"Growler USA - Phoenix","Phoenix","AZ","85054",33.6754869,-111.9649646,"1","Bars, Pubs, Nightlife, Restaurants, Chicken Wings, Beer Bar, American (Traditional), Gastropubs"
"292",6045,"Social","Pittsburgh","PA","15206",40.4567094759,-79.9161638968,"1","Gastropubs, Nightlife, American (New), Bars, Restaurants"
"293",62277,"Skwish","Toronto","ON","M4E 1G2",43.6729833023,-79.2866801843,"0","Breakfast & Brunch, Asian Fusion, Gastropubs, Seafood, Restaurants"
"294",149339,"Joséphine","Montréal","QC","H2W 2M4",45.5208464,-73.5755691,"1","Pubs, Bars, Restaurants, Seafood, Wine Bars, Gastropubs, Nightlife"
"295",33448,"Le Gras Dur","Montréal","QC","H2E 1B3",45.5527105,-73.6192828,"1","Burgers, Buffets, Restaurants, German, Food, Internet Cafes, Breakfast & Brunch, Gastropubs, Poutineries, Fast Food"
"296",23387,"Local 75","Montréal","QC","H4A 1E2",45.4756875,-73.6230812,"1","Gastropubs, Nightlife, Pubs, Restaurants, Bars"
"297",116821,"Superior Motors","Braddock","PA","15104",40.3977638,-79.8604602,"1","American (Traditional), Food, Restaurants, Gastropubs, American (New)"
"298",190853,"Taverne Royal Merchant","Montréal","QC","H2Y 0A2",45.5018391,-73.5598009,"0","Gastropubs, Restaurants"
"299",126579,"Chez Dallaire","Montréal","QC","H3K 1W7",45.4787125,-73.5590876,"0","Cocktail Bars, Nightlife, Restaurants, Bars, Canadian (New), Pubs, Gastropubs"
"300",116634,"The Mills TapHouse + Grill","Vaughan","ON","L4K 0A4",43.8283737791,-79.5345429976,"1","Sports Bars, Restaurants, Pubs, Food, Bars, Nightlife, Gastropubs, Breweries"
"301",165466,"The County General","Toronto","ON","M4M 1H4",43.6596656459,-79.346886268,"0","Gastropubs, Canadian (New), Tapas/Small Plates, Restaurants"
"302",72716,"Black Dog Kitchen & Bar","Cleveland","OH","44114",41.500014,-81.6870667,"0","American (New), Gastropubs, Restaurants"
"303",15582,"Hawthorne Food and Drink","Toronto","ON","M5C 1N8",43.6523675077,-79.3762260675,"1","Event Planning & Services, Caterers, Canadian (New), Restaurants, Gastropubs"
"304",65552,"The Huntsman Tavern","Toronto","ON","M6H 1A3",43.6540191892,-79.4250432118,"0","Comfort Food, Gastropubs, Restaurants"
"305",128880,"Lulu Bistro","Boucherville","QC","J4B 0A5",45.591864,-73.430776,"1","Gastropubs, Restaurants"
"306",136678,"Moe's Tavern","Cleveland","OH","44114",41.5039367,-81.6806362,"1","Nightlife, Pubs, Bars, Gastropubs, Pizza, Food, Breweries, Dive Bars, Restaurants"
"307",126713,"Windsor Rose","Calgary","AB","T2X 0R2",50.8769359149,-114.036283493,"1","Restaurants, British, Gastropubs"
"308",62230,"Firangi","Brampton","ON","L6S 6H4",43.7426366,-79.6987486,"1","Restaurants, Gastropubs, Indian"
"309",177083,"Ji","Toronto","ON","M6C 1B5",43.6813532,-79.4284205,"0","Bars, Gastropubs, Restaurants, Indian, Nightlife"
"310",55403,"Zeppe's Tavern & Pizzeria","Newbury","OH","44065",41.4638981,-81.2421874,"1","Chicken Wings, Desserts, Gastropubs, Nightlife, Restaurants, Pizza, Italian, Wraps, Caterers, Event Planning & Services, Food, Burgers, Bars"
"311",101032,"The Gastro Pub","Toronto","ON","M4L 1J1",43.669814,-79.3000537,"1","Restaurants, Gastropubs, American (Traditional), International, Canadian (New), Mediterranean"
"312",173273,"Foundry Kitchen and Bar","Elyria","OH","44035",41.3680667,-82.1084074,"1","American (Traditional), Restaurants, Pizza, Gastropubs"
"313",142517,"Ribs & Burgers","Las Vegas","NV","89135",36.149123,-115.332938,"0","American (Traditional), Burgers, Barbeque, Gastropubs, Salad, Food, Restaurants"
"314",26639,"Morgan's On the Danforth","Toronto","ON","M4J 1M6",43.68194,-79.3302284,"1","Restaurants, Gastropubs"
"315",48728,"Brendan's","Las Vegas","NV","89121",36.1017747779,-115.2025861595,"0","Gastropubs, Nightlife, Bars, Pubs, Restaurants"
"316",14112,"HIghland Steak & Frites","Toronto","ON","M1C 1B6",43.7835586,-79.1705622,"0","Restaurants, Gastropubs"
"317",119649,"Ten Restaurant & Wine Bar","Mississauga","ON","L5G 1E5",43.5548611,-79.5817496,"0","Nightlife, Wine Bars, Restaurants, Bars, Gastropubs, Caterers, Event Planning & Services"
"318",82596,"Market Garden Brewery","Cleveland","OH","44113",41.484916,-81.703687,"1","Brewpubs, Restaurants, Event Planning & Services, Venues & Event Spaces, Breweries, American (New), Food, Gastropubs"
"319",31649,"Kre8 Gastropub","Charlotte","NC","28203",35.2167541,-80.8566764,"1","Restaurants, Gastropubs"
"320",191295,"Stout Pub & Kitchen","Pittsburgh","PA","15275",40.4459596,-80.1807933,"1","Gastropubs, Restaurants"
"321",138471,"Lager & Vine Gastropub & Wine Bar","Hudson","OH","44236",41.2398719788,-81.4418106079,"1","Restaurants, American (New), Burgers, Gastropubs"
"322",133063,"Sunup Brewing","Phoenix","AZ","85012",33.5095267,-112.0687232,"1","Breweries, Bars, American (Traditional), Beer, Wine & Spirits, Nightlife, Gastropubs, Restaurants, Food, Sandwiches, Pubs, American (New)"
"323",144431,"The Wilcox Gastropub","Mississauga","ON","L5R 3E7",43.6060467627,-79.6528506652,"1","Restaurants, Gastropubs"
"324",120869,"Pig & Pickle","Scottsdale","AZ","85251",33.48124,-111.90979,"1","Sandwiches, Comfort Food, Gastropubs, Restaurants"
"325",7516,"Fionn MacCool's Irish Pub","Mississauga","ON","L5V 2X8",43.6095890962,-79.6991401015,"1","Nightlife, Bars, Restaurants, Pubs, Beer, Wine & Spirits, Food, Gastropubs"
"326",169252,"Prohibition Freehouse","Calgary","AB","T2N 1X7",51.0520329894,-114.08884909,"1","Bars, Nightlife, Restaurants, Cocktail Bars, Gastropubs"
"327",18943,"The Liberty Kitchen","Phoenix","AZ","85013",33.4886989,-112.07707,"1","Gastropubs, Restaurants, Soul Food, Comfort Food, American (New)"
"328",91875,"El Furniture Warehouse","Toronto","ON","M5S",43.6659060524,-79.4080606117,"1","Pubs, Gastropubs, Restaurants, Nightlife, Bars, American (Traditional)"
"329",133955,"Station","Pittsburgh","PA","15224",40.4611146,-79.9485427,"1","Restaurants, Bars, Nightlife, American (New), Cocktail Bars, Gastropubs"
"330",142723,"The Wexford Pub","Wexford","PA","15090",40.6125456747,-80.0531454027,"1","Nightlife, Gastropubs, Bars, Restaurants, Pubs"
"331",111387,"Shiloh Grill","Pittsburgh","PA","15211",40.4308853149,-80.0069656372,"1","Bars, American (Traditional), Nightlife, Restaurants, Gastropubs, Pubs"
"332",98516,"Public House Garage","Phoenix","AZ","85044",33.3309021,-111.9785499,"0","Restaurants, Bars, Pubs, Nightlife, Gastropubs"
"333",146558,"Harvest Kitchen","Toronto","ON","M5S 1G8",43.662723,-79.4043569,"1","Local Flavor, Restaurants, Salad, Coffee & Tea, Comfort Food, Italian, Gastropubs, Nightlife, Breakfast & Brunch, Food, Vegetarian, Diners, Burgers, Bars, Coffee Roasteries, Juice Bars & Smoothies, Canadian (New)"
"334",179479,"Bistro/Restaurant Campagna","Sainte-Thérèse","QC","J7E 3H2",45.6387255,-73.8409388,"1","Restaurants, French, Gastropubs, Italian"
"335",182911,"Méchant Bœuf Bar & Brasserie","Montréal","QC","H2Y 1Z3",45.5038725,-73.5544901,"1","Nightlife, Restaurants, Brasseries, Gastropubs, Burgers, Bars, Cocktail Bars"
"336",7469,"Tremont Taphouse","Cleveland","OH","44113",41.4771805,-81.695281,"1","Bars, Food, Restaurants, Beer Bar, Nightlife, Gastropubs, American (New), Pubs, Beer, Wine & Spirits"
"337",119943,"Zingers Sports Bar & Grill","Whitby","ON","L1N",43.8620271,-78.9427751,"1","Bars, Caterers, Nightlife, American (Traditional), Restaurants, Gastropubs, Chicken Wings, Sports Bars, Event Planning & Services"
"338",114245,"Mill Street Beer Hall","Toronto","ON","M5A 3C4",43.6504424511,-79.3584427521,"1","Restaurants, Bars, Gastropubs, Nightlife, Canadian (New)"
"339",61546,"Bar Code Burger Bar","Las Vegas","NV","89119",36.1148779,-115.1318022,"1","Sports Bars, Food, Bars, Nightlife, American (Traditional), Beer, Wine & Spirits, Restaurants, Burgers, Gastropubs"
"340",96864,"GameWorks","Las Vegas","NV","89119",36.0682355,-115.1786334,"1","Bowling, Restaurants, Active Life, Arts & Entertainment, Arcades, Gastropubs, American (Traditional), American (New)"
"341",21382,"The Urban Tap","Pittsburgh","PA","15203",40.4289581,-79.9858642,"1","American (Traditional), Beer Bar, Restaurants, Mexican, Bars, Tacos, Nightlife, Sports Bars, Gastropubs, Pubs"
"342",126341,"The Junction Kitchen & Bar","Toronto","ON","M2H 3H7",43.8121683,-79.339792,"1","Bars, Comfort Food, Gastropubs, Restaurants, Chicken Wings, Nightlife"
"343",36962,"The Black Dog Pub","Scarborough","ON","M1C 2P6",43.7976257,-79.1392207,"1","Event Planning & Services, Gastropubs, Nightlife, Restaurants, Caterers"
"344",67777,"The Peculiar Rabbit","Charlotte","NC","28205",35.2194457,-80.8136856,"1","Asian Fusion, British, American (New), Gastropubs, Restaurants"
"345",64793,"4th Avenue Grille","Coraopolis","PA","15108",40.5192963,-80.1667343,"0","Local Flavor, Restaurants, American (Traditional), Burgers, Gastropubs"
"346",71344,"The Spot","Madison","WI","53703",43.0837395,-89.3768968,"0","Food, Restaurants, Bars, Nightlife, Gastropubs, Modern European, American (New)"
"347",156865,"Kelley's Pub","Cleveland","OH","44107",41.4703003472,-81.7852252722,"1","Bars, Pubs, Nightlife, Gastropubs, Restaurants"
"348",82351,"The Liberty","Charlotte","NC","28277",35.0353086,-80.80612,"0","Gastropubs, American (Traditional), Restaurants"
"349",123558,"The Bohemian Gastropub","Toronto","ON","M5V 2B6",43.647733,-79.4009999,"0","Gastropubs, Restaurants"
"350",173864,"Front Row Bar & Grill","Brook Park","OH","44142",41.4037912,-81.8034709,"1","Gastropubs, Restaurants, Arts & Entertainment, American (Traditional), Nightlife, Sports Bars, Music Venues, Bars"
"351",44342,"Fionn MacCool's Irish Pub","Ajax","ON","L1Z 1E9",43.8623304,-79.0232296,"1","Bars, Pubs, Nightlife, Beer, Wine & Spirits, Irish, Arts & Entertainment, Food, Restaurants, Music Venues, Gastropubs"
"352",162419,"Pig in a Fur Coat","Madison","WI","53703",43.0805044,-89.3685777,"1","Gastropubs, Tapas Bars, Comfort Food, Restaurants, Mediterranean, American (New)"
"353",69351,"The Tap House","Toronto","ON","M5H",43.6481715,-79.3890774,"0","Arts & Entertainment, Nightlife, Gastropubs, Bars, Dance Clubs, Restaurants, Music Venues"
"354",35897,"Black River Tavern","Elyria","OH","44035",41.397195251,-82.0927614617,"1","Bars, Automotive, Burgers, Sports Bars, American (New), American (Traditional), Nightlife, Active Life, Golf Cart Dealers, Restaurants, Gastropubs, Golf"
"355",50117,"La Saucisserie","Toronto","ON","M6J 2Z8",43.6491049,-79.4205504,"0","Nightlife, Gastropubs, Bars, Restaurants, American (Traditional), Pubs, Modern European, Lounges"
"356",99066,"Auberge Willow Inn","Hudson","QC","J0P 1H0",45.44792,-74.108763,"0","Gastropubs, Event Planning & Services, Restaurants, Hotels, Hotels & Travel, Bed & Breakfast, Venues & Event Spaces"
"357",14097,"Joe Beef","Montréal","QC","H3J 1N6",45.4830986019,-73.575179914,"1","Steakhouses, Food, Specialty Food, Gastropubs, Restaurants, Seafood, Meat Shops"
"358",20582,"The Grand","Phoenix","AZ","85004",33.4563878442,-112.0740916977,"1","Gastropubs, Nightlife, Restaurants, Speakeasies, Coffee & Tea, Cafes, Breakfast & Brunch, Bars, Beer, Wine & Spirits, Food"
"359",20743,"Les 3 Brasseurs","Montreal","QC","H3B 1B9",45.5020717196,-73.570762769,"1","Nightlife, Bars, Restaurants, Food, French, Breweries, Gastropubs, Pubs, Brasseries"
"360",80067,"Cheddar's Scratch Kitchen","Chandler","AZ","85224",33.3064492818,-111.8869385804,"1","Gastropubs, American (Traditional), Restaurants, American (New), Comfort Food"
"361",156719,"Salty Sow","Scottsdale","AZ","85254",33.5973398546,-111.9774997563,"1","American (Traditional), Beer, Wine & Spirits, Food, Gastropubs, Restaurants"
"362",10422,"Le Bureau","Montréal","QC","H3J 1M1",45.4894241,-73.5676719,"1","Tapas/Small Plates, Dive Bars, Bars, Nightlife, Lounges, Cocktail Bars, Gastropubs, Restaurants, Tapas Bars"
"363",95355,"Kimmyz Scottsdale Grill","Scottsdale","AZ","85258",33.5530194,-111.8811376,"0","American (Traditional), Sports Bars, Restaurants, Sandwiches, Nightlife, Burgers, Gastropubs, Bars"
"364",57856,"Toad 'n' Turtle Pubhouse","Airdrie","AB","T4A 0B1",51.2696070716,-113.9951679096,"1","Nightlife, Pubs, Bars, Gastropubs, Restaurants"
"365",113898,"Tavern of Independence","Independence","OH","44131",41.4117490813,-81.6412070108,"1","Restaurants, Chicken Wings, Nightlife, Wine Bars, Gastropubs, Bars, Burgers, Lounges, American (Traditional), American (New), Seafood, Sports Bars"
"366",182732,"TODO Fusion Resto-Bar","Toronto","ON","M6J",43.6488138,-79.4204931,"0","Restaurants, Nightlife, Bars, Gastropubs"
"367",175742,"La Cabane du Portugal","Montréal","QC","H2W 1Y2",45.5161673248,-73.5778488767,"1","Restaurants, Beer, Wine & Spirits, Portuguese, Mediterranean, Gastropubs, Food"
"368",48782,"Bailiwick","Las Vegas","NV","89103",36.1022086676,-115.2024850128,"1","Gastropubs, Bars, Cocktail Bars, Nightlife, Restaurants"
"369",6302,"Goose Island Pub","Las Vegas","NV","89169",36.110103,-115.1538714,"1","Restaurants, Gastropubs"
"370",52195,"Raiders E-Sports Centre","Toronto","ON","M4V 1L3",43.6873851,-79.3959042,"1","Nightlife, Arts & Entertainment, Sports Bars, Bars, Internet Cafes, Arcades, Restaurants, American (Traditional), Food, Gastropubs"
"371",146240,"Fuel & Fuddle","Pittsburgh","PA","15213",40.4412454,-79.9566016,"1","American (Traditional), Gastropubs, Restaurants"
"372",87894,"The Kettle Black Kitchen & Pub","Phoenix","AZ","85004",33.448589,-112.072136,"1","American (Traditional), Bars, Nightlife, Restaurants, Gastropubs, Irish Pub"
"373",61752,"Alchemy Food & Drink","Toronto","ON","M6H 1A3",43.6540339,-79.4250039,"1","Bars, Restaurants, Gastropubs, Wine Bars, Burgers, Cocktail Bars, Nightlife, Comfort Food"
"374",96408,"Table 21 Kitchen & Wine Bar","Toronto","ON","M8X 1G2",43.6481585463,-79.5084975176,"1","Gastropubs, Diners, Nightlife, Cocktail Bars, Breakfast & Brunch, Wine Bars, Canadian (New), Bars, American (Traditional), Lounges, Restaurants"
"375",109809,"Eulalie's Corner Store","Toronto","ON","M4L 1Z8",43.6725489,-79.3217747,"1","Gastropubs, Bars, Restaurants, Nightlife, Pubs"
"376",179012,"The Bier Markt","Toronto","ON","M3C 0H2",43.734422,-79.345021,"1","Beer, Wine & Spirits, Food, Belgian, Gastropubs, Nightlife, Canadian (New), Restaurants, Bars"
"377",184432,"The Fire Side Public House","Pittsburgh","PA","15206",40.4603948,-79.9194043,"1","Restaurants, Gastropubs, Chicken Wings, Burgers, American (New), Sandwiches, American (Traditional)"
"378",145024,"Tilted Kilt Pub & Eatery","Toronto","ON","M5E 1A1",43.6469296,-79.374978,"1","Nightlife, Bars, Pubs, American (Traditional), Chicken Wings, Restaurants, Sports Bars, Gastropubs"
"379",99931,"Pub St-Paul","Montréal","QC","H2Y 1G6",45.5069372,-73.5525448,"1","Arts & Entertainment, Pubs, Canadian (New), Music Venues, Bars, Nightlife, Restaurants, Gastropubs"
"380",26307,"The Suffolk Punch","Charlotte","NC","28203",35.200406,-80.8690417,"1","Restaurants, Cocktail Bars, Food, American (New), American (Traditional), Nightlife, Coffee & Tea, Breakfast & Brunch, Breweries, Gastropubs, Pubs, Bars, Beer Bar"
"381",145728,"The Flying Hound Alehouse","Madison","WI","53719",43.015392887,-89.482467312,"1","Chicken Wings, Pubs, Gastropubs, Food, Nightlife, Pretzels, Bars, Restaurants"
"382",95779,"Siboire","Montréal","QC","H2T 1R9",45.523177,-73.592801,"1","Bars, Gastropubs, Brasseries, Pubs, Nightlife, Breweries, Brewpubs, Restaurants, Food"
"383",60297,"Hungry Monk","Chandler","AZ","85224",33.3066102,-111.8727882,"1","Beer, Wine & Spirits, American (Traditional), Internet Cafes, Food, Bars, Barbeque, Gastropubs, Restaurants, Chicken Wings, Pubs, Nightlife"
"384",77123,"Rudy's Pub","Shaker Heights","OH","44122",41.4653508,-81.5385894,"0","Gastropubs, Restaurants"
"385",86400,"Blasted Barley Beer Company","Tempe","AZ","85281",33.4267811,-111.9408348,"1","Gastropubs, Food, Nightlife, Pubs, American (Traditional), Bars, Breweries, Event Planning & Services, Restaurants, Caterers"
"386",61900,"The Yard Gastropub","Pittsburgh","PA","15232",40.4513696,-79.9341804,"1","Burgers, American (New), Restaurants, Gastropubs"
"387",37056,"Craftsman Table & Tap","Middleton","WI","53562",43.106774,-89.4977379,"1","Desserts, American (Traditional), Food, Diners, Gastropubs, Restaurants, Breakfast & Brunch"
"388",159776,"The Vault Gastropub","Whitby","ON","L1N 4J8",43.8794674813,-78.9422430237,"1","Nightlife, Bars, Restaurants, Tapas/Small Plates, Burgers, Pubs, Gastropubs, American (Traditional)"
"389",18457,"Pt's Gold","Las Vegas","NV","89102",36.126586,-115.199517,"1","Nightlife, Sports Bars, Breakfast & Brunch, Pubs, American (Traditional), American (New), Gastropubs, Restaurants, Bars"
"390",134759,"The Oak Barrel","Valley View","OH","44125",41.399805723,-81.6257270298,"1","Pubs, Restaurants, American (New), Gastropubs, Bars, Brasseries, Nightlife"
"391",146069,"Miller's Ale House - Henderson","Henderson","NV","89104",36.0617578,-115.0455797,"1","Bars, Seafood, Nightlife, Gastropubs, Food, Breweries, American (Traditional), American (New), Sports Bars, Restaurants"
"392",105274,"Warren's Spirited Kitchen","Burton","OH","44021",41.4710188384,-81.1441246793,"1","American (Traditional), Restaurants, Bars, American (New), Wine Bars, Nightlife, Supper Clubs, Cocktail Bars, Gastropubs"
"393",72588,"June Harlowe Foods","Toronto","ON","M6P",43.6648411,-79.4553996,"0","Breakfast & Brunch, Gastropubs, Restaurants"
"394",146979,"The Bristol and Bombay","Toronto","ON","M6J 1H3",43.6433600769,-79.4221586663,"0","Tapas Bars, Breakfast & Brunch, Bars, Indian, Gastropubs, Restaurants, Nightlife, Vegetarian, Pubs, British"
"395",142837,"Soul Gastrolounge","Charlotte","NC","28205",35.2202754,-80.8133228,"1","Restaurants, Tapas Bars, Bars, Lounges, Nightlife, Gastropubs, Cocktail Bars"
"396",169313,"Bidon Taverne Culinaire","Saint-Lambert","QC","J4P",45.5029087223,-73.5132517953,"1","Gastropubs, Restaurants, Comfort Food, Canadian (New)"
"397",35192,"Cornish Pasty","Las Vegas","NV","89104",36.158705,-115.15293,"1","Food, Bars, Pubs, Gastropubs, Nightlife, Restaurants, British, Specialty Food"
"398",55629,"Wally's American Pub N Grill","Phoenix","AZ","85018",33.5104882,-111.9861795,"1","Gastropubs, Restaurants, Sandwiches, American (Traditional)"
"399",158981,"Babes Grill & Bar","Madison","WI","53711",43.0469096,-89.4770975,"1","Gastropubs, American (New), Nightlife, Sports Bars, Seafood, Bars, American (Traditional), Restaurants"
"400",70195,"Poppy Den","Las Vegas","NV","89145",36.1674743315,-115.2872813349,"0","Gastropubs, Restaurants, Asian Fusion"
"401",38583,"Bevvy Uptown","Phoenix","AZ","85014",33.5183824,-112.0652159,"1","Sports Bars, Nightlife, Gastropubs, Burgers, Bars, Restaurants"
"402",47175,"The Crest","Toronto","ON","M6C 1B6",43.6810114,-79.429802,"0","Gastropubs, Restaurants, Canadian (New)"
"403",115880,"Bistro l'Enchanteur","Montréal","QC","H2R 2B1",45.5380056,-73.6181321,"1","Gastropubs, Breakfast & Brunch, Cafes, Restaurants, French"
"404",147968,"The Craft Brasserie & Grille","Toronto","ON","M6K 1Y2",43.6394076329,-79.4208196352,"1","Pubs, Gastropubs, Brasseries, Nightlife, Beer, Wine & Spirits, Food, Bars, Restaurants"
"405",184240,"Queen City Craft and Gourmet","Charlotte","NC","28277",35.0619601882,-80.7729914412,"1","Burgers, Bars, Wine Bars, Gastropubs, Nightlife, American (New), Restaurants, Tapas/Small Plates"
"406",101452,"Black Hoof","Toronto","ON","M6J 1W3",43.6509775,-79.4132797,"0","Bars, Nightlife, Champagne Bars, Gastropubs, Restaurants, Cocktail Bars"
"407",14406,"Laylow Brewery","Toronto","ON","M6H 1B6",43.652495,-79.4338518,"1","Restaurants, Breweries, Pubs, Gastropubs, Food, Nightlife, Bars"
"408",30985,"595 Craft And Kitchen","Las Vegas","NV","89118",36.0987812631,-115.2425049511,"1","Restaurants, Asian Fusion, Bars, Cocktail Bars, Nightlife, Gastropubs, Beer Bar"
"409",23629,"The Fox","Toronto","ON","M5J 1J5",43.6426125942,-79.3774290313,"1","Gastropubs, Bars, Restaurants, Pubs, Nightlife"
"410",43929,"Projet 67","Montréal","QC","H2T 1R5",45.5221214,-73.5910089,"0","Restaurants, Canadian (New), Gastropubs"
"411",133809,"Deagan's Kitchen & Bar","Lakewood","OH","44107",41.4851918,-81.8001448,"1","American (Traditional), Restaurants, Bars, American (New), Gastropubs, Pubs, Nightlife"
"412",22838,"Le Bistro Balmoral","Montréal","QC","H2X 2A1",45.5067722126,-73.5667249688,"0","Arts & Entertainment, Restaurants, Festivals, Gastropubs, French"
"413",70406,"Great Dane Pub & Brewing Co","Madison","WI","53718",43.085345,-89.279863,"1","Restaurants, Breweries, Gift Shops, Pubs, Flowers & Gifts, Bars, Gastropubs, Food, Nightlife, Shopping, American (Traditional)"
"414",99165,"The Fifth & Terrace","Toronto","ON","M5V 1W2",43.6493079441,-79.3893122699,"1","French, Bars, Italian, Event Planning & Services, American (Traditional), Mediterranean, Canadian (New), Gastropubs, Modern European, Nightlife, Restaurants, Steakhouses, Venues & Event Spaces"
"415",161490,"Rush Lane & Co","Toronto","ON","M5V 2B3",43.6478512,-79.4006604,"1","Gastropubs, Bars, Nightlife, Lounges, Restaurants, Cocktail Bars"
"416",131017,"Grindstone Tap House","Berea","OH","44017",41.3880615,-81.8526134,"1","Restaurants, Beer, Wine & Spirits, Sports Bars, American (New), Karaoke, American (Traditional), Barbeque, Bars, Event Planning & Services, Pizza, Gastropubs, Nightlife, Caterers, Food"
"417",171611,"Commerce Bar Gastronomique","Montréal","QC","H2Y 2H6",45.5009888,-73.5596071,"0","Restaurants, Gastropubs"
"418",187264,"Bevvy","Scottsdale","AZ","85251",33.5008423138,-111.9223565712,"1","Salad, Nightlife, Bars, Arts & Entertainment, Pubs, Burgers, Breakfast & Brunch, Sports Bars, Gastropubs, Restaurants"
"419",42652,"Karben4 Brewing","Madison","WI","53704",43.126006,-89.325671,"1","Local Flavor, Gastropubs, Breweries, Food, Restaurants"
"420",22860,"Freiburg Gastropub","Madison","WI","53711",43.0575507,-89.4285296,"0","Gastropubs, Restaurants, German, Beer Bar, Bars, Nightlife"
"421",143218,"Thirsty Lion Gastropub & Grill","Tempe","AZ","85281",33.4330350802,-111.9055581093,"1","Gastropubs, Bars, Nightlife, American (Traditional), Pubs, Restaurants"
"422",67638,"Le Balthazar Quartier DIX30","Brossard","QC","J4Y 0L1",45.446592,-73.437167,"1","Canadian (New), Food, Gastropubs, Beer, Wine & Spirits, Pubs, Restaurants, Bars, Nightlife, Sports Bars"
"423",163217,"The Perch Brewery","Chandler","AZ","85225",33.300157,-111.842515,"1","Nightlife, Pubs, Wine Bars, Restaurants, Gastropubs, Bars, Breweries, Food"
"424",170702,"Burgers 2 Beer - Concord Twp.","Painesville","OH","44077",41.6627100271,-81.2407391891,"1","Gastropubs, Restaurants, Bars, Nightlife, Burgers, Beer Bar"
"425",151952,"Pedal Haus Brewery","Tempe","AZ","85281",33.4232598,-111.9415535,"1","American (Traditional), Pizza, Beer Gardens, Sandwiches, Gastropubs, Burgers, Food, Bars, Nightlife, Restaurants, Breweries"
"426",130207,"Pt's Gold","Las Vegas","NV","89147",36.1212821,-115.3144094,"1","Nightlife, Pubs, American (New), American (Traditional), Breakfast & Brunch, Gastropubs, Sports Bars, Bars, Restaurants"
"427",133948,"Cabal","Toronto","ON","M5V 1N6",43.6433569,-79.4062648,"0","Restaurants, Gastropubs"
"428",35737,"Studio 82 Calgary","Calgary","AB","T2V 2W2",50.9797139,-114.0756706,"0","Sports Bars, Restaurants, Bars, Arts & Entertainment, Dance Clubs, Casinos, Pool Halls, Music Venues, Nightlife, Gastropubs"
"429",43407,"Sparrow","Montréal","QC","H2T 1A5",45.524609,-73.5965301,"1","Gastropubs, American (New), Cocktail Bars, Bars, Nightlife, Breakfast & Brunch, Restaurants, Lounges, Canadian (New)"
"430",26364,"The Monks Kettle","Toronto","ON","M8X",43.6468135,-79.5138344,"1","Nightlife, Gastropubs, Restaurants, Beer, Wine & Spirits, Food, Bars"
"431",137952,"Cotton & Copper","Tempe","AZ","85284",33.3354902,-111.9272373,"1","Nightlife, American (Traditional), Beer, Wine & Spirits, American (New), Restaurants, Gastropubs, Bars, Cocktail Bars, Food"
"432",83731,"DeSotos Eatery","Toronto","ON","M6H 3E4",43.6786263,-79.4396588,"1","Restaurants, Gastropubs"
"433",174156,"Vita Urbana","Cleveland","OH","44102",41.484781,-81.73755,"0","American (New), Convenience Stores, Food, Nightlife, Bars, Specialty Food, Restaurants, Gastropubs"
"434",13250,"Fourk","Mentor","OH","44060",41.6790619,-81.3359019,"1","Nightlife, Gastropubs, Restaurants, Bars, American (Traditional)"
"435",191610,"Boomtown Pub & Patio","Calgary","AB","T2J 5X5",50.9650116,-114.0689224,"1","Nightlife, Pubs, Restaurants, Tapas Bars, Gastropubs, Bars"
"436",57685,"Banknote Bar","Toronto","ON","M5A 4L6",43.6526085752,-79.3660836357,"1","American (Traditional), Gastropubs, Restaurants"
"437",183651,"Top Gun Diner","Catawba Springs","NC","28037",35.4805307608,-80.9942364693,"0","Breakfast & Brunch, Gastropubs, American (New), Restaurants"
"438",93805,"Bulla Gastrobar","Charlotte","NC","28211",35.1530651,-80.8280475,"1","Spanish, Restaurants, Gastropubs, Tapas Bars"
"439",132920,"Outrigger","Toronto","ON","M4E 1E9",43.6726452,-79.2876388,"1","Gastropubs, Canadian (New), Restaurants"
"440",91183,"Fionn MacCool's Irish Pub","Newmarket","ON","L3Y 0A4",44.0612905,-79.4301699,"1","Pubs, Bars, Irish Pub, Food, Gastropubs, Breakfast & Brunch, Irish, Restaurants, Beer, Wine & Spirits, Nightlife"
"441",11728,"Punch Bowl Social Cleveland","Cleveland","OH","44113",41.4999291527,-81.7055250963,"1","Active Life, American (New), Eatertainment, Arts & Entertainment, Pubs, Gastropubs, Bowling, Restaurants, Bars, Nightlife"
"442",61492,"Marquee Beer Market","Calgary","AB","T2G 5E8",51.0119904951,-114.0644680293,"1","Music Venues, Gastropubs, Nightlife, Beer, Wine & Spirits, Arts & Entertainment, Food, Restaurants"
"443",78378,"The Bier Markt","Toronto","ON","M5V 1M3",43.6448594,-79.4000053,"1","Pubs, Nightlife, Beer, Wine & Spirits, Gastropubs, Canadian (New), Bars, Restaurants, Food, Belgian"
"444",124179,"Fionn MacCool's Irish Pub","Toronto","ON","M4S 1X8",43.6969461304,-79.3960864001,"1","Nightlife, Beer, Wine & Spirits, Restaurants, Food, Comfort Food, Gastropubs, Irish, Bars"
"445",95997,"Brasseur de Montréal","Montréal","QC","H3C 1S9",45.4899481071,-73.5640161429,"1","Breweries, Brasseries, Restaurants, Food, Gastropubs"
"446",10237,"The Tommyfield Gastro Pub","Calgary","AB","T3M 1T4",50.879688,-113.958983,"1","Bars, Pubs, Gastropubs, Restaurants, Nightlife"
"447",66567,"World of Beer","Lakewood","OH","44107",41.484597,-81.798715,"0","Nightlife, Gastropubs, Music Venues, Sports Bars, Beer Bar, Bars, Food, Arts & Entertainment, Jazz & Blues, Breweries, Restaurants, Pubs"
"448",17273,"Union Social Eatery","Toronto","ON","M2N 5N4",43.7639042111,-79.4111878641,"1","Restaurants, Gastropubs, Burgers, Barbeque"
