"","business_id","name","city","state","postal_code","latitude","longitude","is_open","categories"
"1",153313,"Nathan's Famous","Champlain","NY","12919",44.9811404098,-73.458718434,"1","Convenience Stores, Hot Dogs, Gas Stations, Burgers, Automotive, Food Stands, Restaurants, Comfort Food, Food, Fast Food"
"2",34573,"Joeys of Chicago","Phoenix","AZ","85018",33.4949805,-111.9898781,"0","Soup, Sandwiches, Hot Dogs, Restaurants"
"3",22378,"Steves New York Hotdog Shop","Pittsburgh","PA","15212",40.455929,-80.0065429,"0","Hot Dogs, Restaurants"
"4",44157,"Pop's Dairy Bar","Calgary","AB","T2G 4L1",51.0409874,-114.0431246,"0","Food, Hot Dogs, Desserts, Ice Cream & Frozen Yogurt, Restaurants"
"5",6536,"Cheeks Homemade Burgers & Good Eats","Bolton","ON","L7E 1E8",43.8798484,-79.7375796,"1","Restaurants, Burgers, Hot Dogs"
"6",68394,"JP's Dog House","Phoenix","AZ","85016",33.5238568924,-112.0472845529,"1","Barbeque, Restaurants, Hot Dogs, Food Stands, American (New)"
"7",150498,"Sam's Gyros","Phoenix","AZ","85020",33.567452,-112.073536,"0","Fast Food, Hot Dogs, Middle Eastern, Restaurants"
"8",54624,"The Corndog Company LV","Las Vegas","NV","89149",36.2684007,-115.2956118,"1","Food Trucks, Street Vendors, Food, Hot Dogs, Restaurants"
"9",46281,"The Little Dog","Toronto","ON","M6G 1A9",43.6557382,-79.412564,"0","Restaurants, Hot Dogs, Specialty Food, Food"
"10",137499,"Dairy Queen","North Las Vegas","NV","89084",36.2919853,-115.1806678,"1","Ice Cream & Frozen Yogurt, Hot Dogs, Restaurants, Food, Juice Bars & Smoothies"
"11",185966,"McDonald's","Cuyahoga Falls","OH","44224",41.1627833345,-81.4758901298,"1","Coffee & Tea, Restaurants, Hot Dogs, Burgers, Fast Food, Food"
"12",15075,"Hot Dog Daddy","Cave Creek","AZ","85331",33.8337859956,-111.9492445886,"0","Restaurants, Hot Dogs, Street Vendors, Food"
"13",83351,"La Reyna Del Hot Dog","Glendale","AZ","85302",33.5668574215,-112.1873552861,"0","Hot Dogs, Ethnic Food, American (Traditional), Specialty Food, Food, Mexican, Restaurants"
"14",8191,"Boomer's Sweet Home Chicago","Glendale","AZ","85308",33.6403912,-112.1870284,"0","Restaurants, American (New), Burgers, Fast Food, Hot Dogs"
"15",34473,"Five Guys","Las Vegas","NV","89135",36.1449420006,-115.3328382992,"1","Burgers, Restaurants, Fast Food, Hot Dogs"
"16",91406,"Mad Dogs Eatery","Madison","WI","53703",43.0751242,-89.390236,"0","Hot Dogs, Restaurants"
"17",189440,"Buldogis Gourmet Hot Dogs","Las Vegas","NV","89117",36.1470835,-115.2982993,"1","Korean, Restaurants, Asian Fusion, Chicken Wings, Hot Dogs"
"18",74997,"Texas Burger Drive-Inn","Ajax","ON","L1S 2B8",43.858621,-79.023949,"1","Hot Dogs, Burgers, Restaurants"
"19",119402,"Harvey's","North York","ON","M3C 1V6",43.7265892,-79.340989,"1","Hot Dogs, Restaurants, Burgers, American (Traditional), Fast Food"
"20",3858,"Burger King","Charlotte","NC","28208",35.2240066,-80.8976778,"1","Burgers, Hot Dogs, Restaurants, Fast Food"
"21",14018,"Burger King","Phoenix","AZ","85008",33.466085,-112.013243,"1","Fast Food, Restaurants, Burgers, Hot Dogs"
"22",61280,"Sweet Home Wisconsin","Madison","WI","53715",43.0678178,-89.4016726,"1","Restaurants, Burgers, Hot Dogs, Sandwiches"
"23",22241,"Fancy Franks","Toronto","ON","M5T 1S3",43.6576393,-79.4026451,"1","Donuts, Burgers, Poutineries, Fast Food, Hot Dogs, Food, Restaurants"
"24",30218,"Wendy's","North Olmsted","OH","44070",41.4186553,-81.9177204,"1","Fast Food, Burgers, Hot Dogs, Restaurants"
"25",144487,"Starr Ave Burger","Whitby","ON","L1N 4J6",43.8923328,-78.9473329,"1","Restaurants, Burgers, Hot Dogs"
"26",182276,"Burger King","Montréal","QC","H3B 4G5",45.502466,-73.5713041,"1","Burgers, Hot Dogs, Restaurants, Fast Food"
"27",80880,"Wendy's","Las Vegas","NV","89107",36.1697444,-115.2054358,"0","Fast Food, Hot Dogs, Burgers, Restaurants"
"28",107956,"Keep It Simple","Phoenix","AZ","85023",33.612162,-112.099112,"0","Restaurants, Burgers, Hot Dogs"
"29",141007,"Ocean Palate","Markham","ON","L3T 0C7",43.8035434,-79.4195738,"1","Ethnic Food, Indian, Breakfast & Brunch, Food, Specialty Food, Halal, Hot Dogs, Restaurants, Vegetarian, Seafood"
"30",51593,"La Pasadita Hot Dogs","Phoenix","AZ","85031",33.494573,-112.158665,"1","Restaurants, Hot Dogs, Mexican"
"31",77263,"Burger King","Kent","OH","44240",41.154171,-81.34961,"1","Restaurants, Fast Food, Burgers, Hot Dogs"
"32",153182,"BurgerFi","Mentor","OH","44060",41.672228,-81.326862,"1","American (Traditional), Restaurants, Burgers, Hot Dogs, American (New)"
"33",76769,"Dilallo Burger Original 1929","Montréal","QC","H4E 2M1",45.4503781,-73.598287,"1","Restaurants, Burgers, Hot Dogs"
"34",109001,"King Kone","Chardon","OH","44024",41.583577,-81.190312,"1","Hot Dogs, Ice Cream & Frozen Yogurt, Restaurants, Desserts, Food Stands, Food"
"35",123857,"Magoo's Gourmet Hamburgers & Ice-Cream","Etobicoke","ON","M8X 1Y6",43.6591102,-79.5145218,"1","Food, Restaurants, Ice Cream & Frozen Yogurt, Burgers, Hot Dogs, Fast Food"
"36",33110,"BnD'z Burgerz & Dogz","South Park Township","PA","15129",40.28694,-80.021663,"1","Burgers, Restaurants, Hot Dogs, American (Traditional)"
"37",14853,"Wendy's","Charlotte","NC","28213",35.2757164,-80.7931498,"1","Hot Dogs, Burgers, Fast Food, Restaurants"
"38",61987,"Big Al,s Chicago Deli","Las Vegas","NV","89119",36.085713,-115.149418,"1","Restaurants, Hot Dogs"
"39",32863,"Crepe De Licious","Urbana","IL","61801",40.1097387,-88.2273147,"0","Food, Breakfast & Brunch, Hot Dogs, Desserts, Creperies, Restaurants, Burgers"
"40",23442,"Brew House Great Links Grill","Las Vegas","NV","89115",36.2418152711,-115.0533288618,"0","American (Traditional), Hot Dogs, Restaurants, Burgers"
"41",186962,"Burger King","Phoenix","AZ","85034",33.4352284,-111.9978273,"0","Hot Dogs, Fast Food, Restaurants, Burgers"
"42",178861,"Burger King","North Olmsted","OH","44070",41.4198868,-81.9133868,"1","Restaurants, Hot Dogs, Burgers, Fast Food"
"43",13538,"Wurstle Gourmet Sausages","Las Vegas","NV","89119",36.0667781,-115.1722474,"0","Fast Food, Hot Dogs, Restaurants"
"44",75090,"Nathan's Famous","Las Vegas","NV","89109",36.103191,-115.168455,"1","Restaurants, Cheesesteaks, Hot Dogs, American (New), Fast Food"
"45",57768,"Mojo's Famous Hot Dogs","Charlotte","NC","28269",35.278766,-80.83513,"1","Restaurants, Street Vendors, American (New), Food, Hot Dogs"
"46",77710,"Chicago Tasty Dogs","Las Vegas","NV","89183",36.0123098,-115.1189623,"0","American (Traditional), American (New), Hot Dogs, Restaurants"
"47",8884,"MOOYAH Burgers Fries & Shakes","Rocky River","OH","44116",41.4648632,-81.8418473,"0","Food, Salad, Ice Cream & Frozen Yogurt, American (Traditional), Restaurants, Fast Food, Hot Dogs, Burgers"
"48",152773,"BurgerFi","Cuyahoga Falls","OH","44223",41.1487888471,-81.5079707822,"1","American (Traditional), Burgers, Hot Dogs, Restaurants, American (New)"
"49",29615,"Pechocho Sonora Style HotDogs","Peoria","AZ","85345",33.5820918,-112.2390304,"1","Restaurants, Food, Hot Dogs, Food Trucks"
"50",30049,"Americana Hot Dog Co","Toronto","ON","M4E 1T5",43.6807677,-79.2845855,"0","Hot Dogs, Food, Restaurants"
"51",149458,"Wienerschnitzel","Las Vegas","NV","89146",36.1436433,-115.2257357,"1","Hot Dogs, Restaurants, Food, Fast Food, Desserts, Burgers"
"52",160275,"Don Juan's","Toronto","ON","M5V 2W6",43.6443497443,-79.386719875,"1","Fast Food, Food Trucks, Food, Restaurants, Hot Dogs"
"53",171549,"Buldogis Eatery","Las Vegas","NV","89103",36.1002959743,-115.2266693115,"0","Restaurants, Korean, Burgers, Hot Dogs"
"54",114280,"Gio Rana's Really Really Nice Restaurant","Toronto","ON","M4M 1L7",43.6633353362,-79.3304189287,"1","Tapas/Small Plates, Italian, Hot Dogs, Restaurants"
"55",10047,"New York Pretzel","Las Vegas","NV","89109",36.102723,-115.174286,"1","Comfort Food, Food, Hot Dogs, Bakeries, Restaurants, Pretzels"
"56",149707,"Le Roi du Hot-dog","Montréal","QC","H4H 1K5",45.4537199,-73.5719113,"1","Ice Cream & Frozen Yogurt, Hot Dogs, Restaurants, Food, Pizza"
"57",167626,"MOOYAH Burgers, Fries & Shakes","Matthews","NC","28105",35.128028,-80.702461,"1","Food, Hot Dogs, Ice Cream & Frozen Yogurt, Burgers, American (Traditional), Restaurants"
"58",103206,"Burger King","Toronto","ON","M6K 1E6",43.63922,-79.4270414,"1","Hot Dogs, Fast Food, Restaurants, Burgers"
"59",120266,"Barton Snacks","Toronto","ON","M6J 1H8",43.643452,-79.4234321,"0","Hot Dogs, Restaurants, Fast Food"
"60",116962,"La Frita Pizzeria","Montréal","QC","H4C 1S9",45.4709495,-73.590611,"0","Hot Dogs, Poutineries, Pizza, Restaurants"
"61",108814,"La Traite","Montréal","QC","H3A 2K4",45.5067229547,-73.5680980453,"0","Canadian (New), Barbeque, Restaurants, Breakfast & Brunch, Hot Dogs"
"62",54756,"Burger Inn","Calgary","AB","T2J 0P6",50.9679946,-114.0717495,"0","Burgers, Restaurants, Hot Dogs, Fast Food"
"63",96452,"Bacus Bros Hotdogs and Beer","Tempe","AZ","85281",33.4259647,-111.9402513,"0","Nightlife, Hot Dogs, Beer Bar, Restaurants, Gastropubs, American (Traditional), Bars"
"64",18201,"Canadian BBQ","Mississauga","ON","L4Y 2C1",43.6038454138,-79.5876101312,"1","Restaurants, Hot Dogs, Barbeque"
"65",192524,"Sr Ozzy's Tacos Y Mariscos","Phoenix","AZ","85041",33.3917798242,-112.0957354076,"1","Hot Dogs, Mexican, Food Trucks, Restaurants, Food, Seafood"
"66",110701,"Burger King","Willowick","OH","44095",41.6428275041,-81.4686055854,"1","Burgers, Hot Dogs, Fast Food, Restaurants"
"67",168851,"The Lunch Box","Las Vegas","NV","89119",36.1051599,-115.136178,"0","Vegetarian, Hot Dogs, Restaurants, Fast Food"
"68",95247,"A Worthy Dog","Charlotte","NC","28105",35.1105564,-80.7103532,"1","Food Trucks, Food Stands, Restaurants, Food, Hot Dogs"
"69",38480,"McDonald's","Carnegie","PA","15106",40.3868181,-80.0937399,"0","Hot Dogs, Burgers, Restaurants, Fast Food"
"70",72114,"Wendy's","Cleveland","OH","44130",41.3692811,-81.8046083,"1","Hot Dogs, Fast Food, Restaurants, Burgers"
"71",11074,"I Went To Philly","Toronto","ON","M6C 2C7",43.6996716018,-79.4311594677,"0","Restaurants, Hot Dogs, Burgers, Food, Desserts, American (Traditional), Cheesesteaks"
"72",13610,"Detroit Coney Grill","Tempe","AZ","85282",33.4078922,-111.9539189,"1","Restaurants, Hot Dogs, Burgers, Fast Food, American (Traditional), American (New)"
"73",110050,"BoBo's BBQ","Champaign","IL","61820",40.1125152,-88.2715751,"1","Hot Dogs, Restaurants, Barbeque"
"74",58238,"Wendy's","Gastonia","NC","28054",35.2627229,-81.1569273,"0","Burgers, Hot Dogs, Restaurants, Fast Food"
"75",164554,"Taco's el Rancho","Phoenix","AZ","85017",33.5099233,-112.1186821,"1","Tacos, Food, Restaurants, Food Trucks, Mexican, Hot Dogs"
"76",78621,"K Dogs World Famous Hot Dog","Charlotte","NC","28273",35.117001,-80.961721,"0","Restaurants, Hot Dogs, American (Traditional)"
"77",161170,"Burger King","Ajax","ON","L1S 2G2",43.841352,-79.027193,"1","Fast Food, Burgers, Hot Dogs, Restaurants"
"78",76813,"Fancy Franks","Toronto","ON","M6H 1L4",43.6616496385,-79.4279493419,"1","Burgers, Hot Dogs, Poutineries, Restaurants"
"79",184732,"Rocket Burger & Subs","Chandler","AZ","85224",33.3077745,-111.8788527,"0","Burgers, Restaurants, Fast Food, Sandwiches, Food, Hot Dogs, Specialty Food"
"80",64267,"Wienerschnitzel","Chandler","AZ","85225",33.336451,-111.8248361,"1","Restaurants, Sandwiches, Fast Food, Hot Dogs, American (New)"
"81",142502,"Burger King Restaurants","Pickering","ON","L1V 1A6",43.817968,-79.1182661,"1","Restaurants, Fast Food, Hot Dogs, Burgers"
"82",14892,"Nathan's Famous","Las Vegas","NV","89109",36.1139518,-115.1678245,"1","Cheesesteaks, Hot Dogs, Restaurants, Fast Food, American (New), Breakfast & Brunch"
"83",192561,"Smashburger","Peoria","AZ","85383",33.711579,-112.272855,"1","Burgers, Hot Dogs, American (New), Restaurants"
"84",27305,"Chizona's Pizza","Scottsdale","AZ","85250",33.5242438,-111.8992733,"1","Restaurants, Pizza, Sandwiches, Hot Dogs"
"85",10112,"George's Chicken and Fish","Sun Prairie","WI","53590",43.1958805,-89.2112233,"1","Soul Food, Southern, Fast Food, Hot Dogs, Restaurants, Chicken Wings, American (Traditional)"
"86",73461,"T & D Steak-Burger","Whitby","ON","L1N 8Y9",43.8995341,-78.9384357,"1","Burgers, Restaurants, Hot Dogs"
"87",20044,"Apache Burgers","Etobicoke","ON","M9B 1A7",43.6392600147,-79.5377321559,"1","Restaurants, Hot Dogs, Burgers"
"88",187009,"Lukes Of Chicago","Chandler","AZ","85224",33.3202869,-111.8905049,"0","Sandwiches, Restaurants, Hot Dogs"
"89",27933,"Ted's Hot Dogs","Tempe","AZ","85282",33.4071015546,-111.909668432,"1","Restaurants, Hot Dogs, Burgers, Gluten-Free"
"90",191525,"Burger King","Mississauga","ON","L5C 3A6",43.5783871619,-79.6535695454,"1","Restaurants, Burgers, Hot Dogs, Fast Food"
"91",56114,"The Rockhouse","Las Vegas","NV","89109",36.122736,-115.170273,"1","Dive Bars, Nightlife, Hot Dogs, Mexican, Restaurants, Bars, Sports Bars, Tacos, Burgers, Salad"
"92",175879,"Hometown Dogs","Fountain Hills","AZ","85268",33.604594,-111.717516,"0","American (Traditional), Hot Dogs, Mexican, Food, Restaurants"
"93",94278,"Big M Burgers","Pickering","ON","L1W 1G4",43.8216786143,-79.0837272761,"1","Hot Dogs, Burgers, Restaurants"
"94",138439,"Hot Diggity Dawgs","Cave Creek","AZ","85331",33.7963381,-111.9663373,"1","Food, Food Stands, Fast Food, Hot Dogs, Restaurants, Street Vendors"
"95",89421,"Wienerschnitzel","Glendale","AZ","85306",33.6111675,-112.1879644,"1","Hot Dogs, Sandwiches, Restaurants, Fast Food"
"96",60888,"BoatYard Eats","Cornelius","NC","28031",35.4650935859,-80.8707325429,"1","Arts & Entertainment, Nightlife, Restaurants, Mediterranean, Music Venues, Chicken Wings, Bars, American (Traditional), Hot Dogs"
"97",67596,"Apiecalypse Now!","Toronto","ON","M6G 1L5",43.6633496,-79.4185625,"1","Hot Dogs, Pizza, Sandwiches, Food, Restaurants, Specialty Food, Ice Cream & Frozen Yogurt, Vegan"
"98",7302,"Charlotte's Ice Cream","Willoughby","OH","44094",41.6920079392,-81.3996329159,"1","Ice Cream & Frozen Yogurt, Restaurants, Food, Hot Dogs"
"99",114276,"Taqueria El Buen Pastor","Las Vegas","NV","89101",36.1701107329,-115.1421220601,"1","Mexican, Hot Dogs, Food, Restaurants, Street Vendors"
"100",29360,"Woody's Chicago Style","Charlotte","NC","28202",35.2253544,-80.8461468,"0","Restaurants, Hot Dogs"
"101",98780,"Hot Dog On A Stick","Las Vegas","NV","89169",36.1250406,-115.1357793,"1","Food, Hot Dogs, Restaurants"
"102",12591,"Labelle","Lachute","QC","J8H 1Y2",45.6559026381,-74.3386937625,"1","Restaurants, French, Hot Dogs, Poutineries, Burgers"
"103",105227,"Yovi's","Pittsburgh","PA","15222",40.4413090845,-80.0028008223,"1","Sandwiches, Fast Food, Restaurants, Hot Dogs"
"104",13693,"Scooter's Dawghouse","Mentor","OH","44060",41.7244588,-81.2944416,"1","Food, American (New), Ice Cream & Frozen Yogurt, Restaurants, Hot Dogs"
"105",90763,"Hot Dog on a Stick","Las Vegas","NV","89107",36.1725319,-115.197258,"1","Hot Dogs, Restaurants"
"106",98843,"Wendy's","Las Vegas","NV","89130",36.2424474,-115.2349356,"1","Hot Dogs, Fast Food, Burgers, Restaurants"
"107",89959,"Picnic","Cleveland","OH","44115",41.4991795994,-81.6888903175,"0","Sandwiches, Food Stands, Burgers, Hot Dogs, Restaurants"
"108",78011,"Dilallo","Sainte-Catherine","QC","J5C 1V9",45.3885607,-73.5640972,"1","Restaurants, Burgers, Hot Dogs"
"109",122775,"Burgers-N-Beer","Willoughby","OH","44094",41.6419669,-81.4063498,"0","Restaurants, Breakfast & Brunch, Burgers, Sandwiches, Hot Dogs"
"110",10427,"The Grande Stand","Scottsdale","AZ","85260",33.5843843752,-111.9224720645,"1","Tacos, Restaurants, Burgers, Hot Dogs, Mexican, Nightlife, Bars"
"111",162285,"Poutine Dare To Be Fresh","Brampton","ON","L6W 2C3",43.6855043,-79.7592255,"1","Fast Food, Restaurants, French, Poutineries, Hot Dogs"
"112",103071,"Pete's Gourmet Burgers","Pickering","ON","L1V 1W3",43.836533,-79.0915571,"1","Hot Dogs, Restaurants, Burgers"
"113",18770,"Hot Dog on a Stick","Mesa","AZ","85202",33.3892,-111.86058,"0","Restaurants, Hot Dogs"
"114",126543,"Hot Dog On A Stick","Las Vegas","NV","89109",36.0988311768,-115.1757659912,"1","Restaurants, Food, Fast Food, Hot Dogs"
"115",93515,"Original Hot Dog Shop","Pittsburgh","PA","15213",40.442147,-79.956513,"1","Pizza, Burgers, Hot Dogs, Restaurants"
"116",72753,"The Wiener's Circle","Las Vegas","NV","89108",36.2490667,-115.2429424,"0","Restaurants, Burgers, Hot Dogs"
"117",179681,"Tom's BBQ","Tempe","AZ","85283",33.3777444,-111.9382295,"1","Restaurants, Barbeque, Hot Dogs, Caterers, Event Planning & Services"
"118",188923,"Franktuary","Pittsburgh","PA","15222",40.4411888,-79.9988332,"0","Hot Dogs, Vegetarian, Restaurants"
"119",137145,"Stuft Gourmet Sausages","Toronto","ON","",43.653226,-79.3831843,"1","Restaurants, Food Stands, Hot Dogs"
"120",59775,"Charlie Graingers","Concord","NC","28027",35.385188,-80.6891052,"0","Barbeque, Restaurants, Hot Dogs"
"121",121339,"Poppa Coronofoulos Gyros & Chicago Style Deli","Madison","WI","53716",43.073723,-89.307305,"0","Restaurants, Hot Dogs"
"122",33805,"The DawgFather Grill","Phoenix","AZ","85012",33.506856,-112.073396,"0","Restaurants, Hot Dogs, American (Traditional)"
"123",61871,"Nathan's Famous","Las Vegas","NV","89111",36.0819322382,-115.1476657966,"1","Chicken Wings, Restaurants, Burgers, Hot Dogs"
"124",16418,"McDonald's","Charlotte","NC","28202",35.0976152,-80.7817087,"0","Hot Dogs, Burgers, Fast Food, Restaurants"
"125",33307,"Pittsburgh Willy's","Chandler","AZ","85225",33.303081,-111.843515,"0","Restaurants, Hot Dogs"
"126",160165,"West Side Coney Island","Akron","OH","44320",41.0913532705,-81.5564814582,"1","Food, American (Traditional), Comfort Food, Hot Dogs, Desserts, Restaurants, Seafood"
"127",10722,"Burger King","Scarborough","ON","M1H 1B3",43.757291,-79.2293784,"1","Hot Dogs, Fast Food, Burgers, Restaurants"
"128",174410,"Franktuary","Pittsburgh","PA","15222",40.4410869,-80.0033104,"0","Restaurants, Vegetarian, Poutineries, Salad, Hot Dogs"
"129",171036,"Hotdog On a Stick","Phoenix","AZ","85051",33.573648,-112.1246887,"0","Restaurants, Hot Dogs, Food"
"130",27135,"Burger Nuts","Willoughby","OH","44094",41.627228,-81.431391,"0","Hot Dogs, Burgers, Restaurants"
"131",92444,"Lo-Lo's Chicken & Waffles","Phoenix","AZ","85004",33.435393,-112.074021,"1","Waffles, Hot Dogs, Restaurants, Chicken Wings, Southern, Barbeque, Chicken Shop"
"132",97864,"Lafayette","Montréal","QC","H2K 2H5",45.5232784795,-73.5515689063,"1","Imported Food, Pizza, Restaurants, Food, Specialty Food, Breakfast & Brunch, Greek, Hot Dogs, Ethnic Food, Burgers"
"133",174186,"Checkers","Las Vegas","NV","89131",36.2768608473,-115.2062449604,"1","Hot Dogs, Burgers, Fast Food, Restaurants"
"134",152770,"Bueno Burger Mex American Grill","Glendale","AZ","85302",33.5817279,-112.1542308,"0","Hot Dogs, Mexican, Restaurants, Burgers"
"135",47310,"Cheffini's Hot Dogs","Las Vegas","NV","89101",36.1677987235,-115.1382032304,"1","Hot Dogs, Beer, Wine & Spirits, Restaurants, Coffee & Tea, Food"
"136",176528,"Resto Burgers & Benedicts","Montréal","QC","H3H 1N2",45.4901147,-73.5846202,"0","Restaurants, Burgers, Hot Dogs"
"137",141325,"El Güero Canelo","Phoenix","AZ","85035",33.465612,-112.170335,"1","Restaurants, Mexican, Hot Dogs"
"138",97279,"Sammy's Burger & Ice Cream","Mississauga","ON","L5C 1C6",43.5575649,-79.6457634,"1","Burgers, Restaurants, Hot Dogs"
"139",119272,"Auntie Anne's","Las Vegas","NV","89123",36.0549747,-115.169106,"1","Pretzels, Restaurants, Food, Hot Dogs"
"140",2183,"Sweet Buzz Bean & Bistro","Harrison City","PA","15636",40.3550933347,-79.6515513495,"1","Coffee & Tea, Restaurants, Bagels, Food, American (Traditional), American (New), Hot Dogs, Bakeries, Breakfast & Brunch"
"141",60018,"Corner Store","Buckeye","AZ","85396",33.4648965,-112.5049572,"1","Car Wash, Convenience Stores, Automotive, Gas Stations, Food, Restaurants, Hot Dogs"
"142",93858,"NDG Hotdog","Montréal","QC","H4B 1R7",45.455754,-73.641176,"1","Burgers, Hot Dogs, Restaurants"
"143",13025,"Smashburger","Phoenix","AZ","85050",33.6759907223,-111.9708819669,"1","American (Traditional), Salad, Hot Dogs, Restaurants, Burgers, Sandwiches, Chicken Wings"
"144",57059,"La Fringale","Belœil","QC","J3G 4G3",45.5480274634,-73.2236547103,"1","Fast Food, Poutineries, Hot Dogs, Restaurants"
"145",109097,"Omega Coney Island","Indian Trail","NC","28079",35.0739843,-80.6840979,"1","Diners, Hot Dogs, Breakfast & Brunch, Restaurants, Indian"
"146",83897,"Burger King Restaurant","Calgary","AB","T2Y 3W5",50.9041942935,-114.0676797088,"1","Fast Food, Burgers, Restaurants, Hot Dogs"
"147",125534,"Boardwalk on Carson","Pittsburgh","PA","15203",40.4289338,-79.9830046,"0","Restaurants, Hot Dogs"
"148",63613,"Cook Out","Concord","NC","28027",35.396075,-80.612061,"1","Hot Dogs, Food, Burgers, Restaurants, American (Traditional), Fast Food"
"149",152237,"Frank Food Truck","Phoenix","AZ","85007",33.4462721,-112.0893682,"1","Restaurants, Food, Hot Dogs, Food Trucks"
"150",82129,"Binion's Deli","Las Vegas","NV","89101",36.1716327,-115.1442634,"1","Sandwiches, Salad, Hot Dogs, Delis, Restaurants, Food Stands, American (New)"
"151",129468,"Let's Be Frank","Toronto","ON","M5T 2G8",43.6575542,-79.4000236,"0","Comfort Food, Pubs, Food, Nightlife, Bars, Food Trucks, Hot Dogs, Restaurants, Arts & Entertainment, Music Venues"
"152",170866,"Burger King","Cleveland","OH","44130",41.3724565,-81.8264978,"1","Burgers, Hot Dogs, Restaurants, Fast Food"
"153",27903,"Chez Tousignant","Montréal","QC","H2S 2T3",45.5361242,-73.6123335,"1","Canadian (New), Restaurants, Hot Dogs, Comfort Food, Sandwiches, Fast Food, Burgers"
"154",110025,"McDonald's","Akron","OH","44313",41.1348395,-81.5544762,"1","Food, Fast Food, Coffee & Tea, Burgers, Hot Dogs, Restaurants"
"155",59086,"Original Chicken Tender","Las Vegas","NV","89109",36.1050061565,-115.1752979109,"0","Food Court, Fast Food, Restaurants, Hot Dogs, Cheesesteaks, American (New), Chicken Wings"
"156",153098,"Carnival's","Madison","WI","53715",43.055992,-89.3976859,"0","Food, Hot Dogs, Ice Cream & Frozen Yogurt, Restaurants, Cheesesteaks"
"157",29724,"Bono's","Las Vegas","NV","89119",36.0577328,-115.1583224,"0","Fast Food, Restaurants, Sandwiches, Hot Dogs, Greek"
"158",74842,"D-Moe's Famous Hot Dogs","Indian Trail","NC","28079",35.081264,-80.6598099,"0","Hot Dogs, Restaurants"
"159",33516,"Two and a Fry","Monongahela","PA","15063",40.2062699799,-79.9360238761,"1","Hot Dogs, American (New), Restaurants, Burgers"
"160",61703,"McDonald's","Charlotte","NC","28202",35.2264848,-80.8427064,"0","Restaurants, Burgers, Fast Food, Hot Dogs"
"161",128945,"Royal Sous-Marins","Montréal","QC","H2T 2J7",45.527045,-73.602284,"1","Restaurants, Hot Dogs, Sandwiches, Pizza"
"162",181333,"Scotti's Market & Eatery","Tempe","AZ","85284",33.3353003813,-111.9116745517,"1","Delis, Hot Dogs, Italian, Restaurants"
"163",67378,"Jim's Famous Sauce","West Mifflin","PA","15122",40.3592252,-79.8740357,"1","Hot Dogs, Restaurants"
"164",142494,"Sonic Drive-In","Tarentum","PA","15084",40.568395,-79.8030037,"1","Ice Cream & Frozen Yogurt, Food, Fast Food, Burgers, Restaurants, Hot Dogs"
"165",156930,"The Steamie Weenie","Henderson","NV","89074",36.0297483369,-115.0859351851,"1","Fast Food, American (Traditional), Hot Dogs, Restaurants"
"166",130267,"Patty and Franks","Toronto","ON","M4K 1P4",43.6777461,-79.3500912,"0","Hot Dogs, Restaurants, Fast Food, Burgers"
"167",26251,"Wendy's","Las Vegas","NV","89117",36.1443352,-115.269105,"1","Fast Food, Burgers, Hot Dogs, Restaurants"
"168",37626,"JJ's Red Hots - Uptown","Charlotte","NC","28285",35.2252005,-80.8473796,"1","Restaurants, Hot Dogs, American (Traditional), Salad"
"169",76104,"Steve's Hot Dogs Diner","Cleveland","OH","44144",41.4303616,-81.7332512,"1","Hot Dogs, American (Traditional), Restaurants, Breakfast & Brunch, Diners"
"170",113911,"Short Leash Hotdogs & Rollover Doughnuts","Phoenix","AZ","85013",33.4974838,-112.0832669,"1","Restaurants, Food, Donuts, Gastropubs, Coffee & Tea, Hot Dogs, American (New)"
"171",121171,"Burger King","Charlotte","NC","28204",35.213617,-80.8279899,"1","Fast Food, Burgers, Restaurants, Hot Dogs"
"172",155801,"Lobbys Burgers","Tempe","AZ","85282",33.3950949278,-111.9088796306,"0","Restaurants, Fast Food, American (New), Burgers, Hot Dogs, Comfort Food"
"173",93347,"Vienna Hot Dog/Mrs. Fields","Las Vegas","NV","89119",36.0765176,-115.1533426,"1","Hot Dogs, Restaurants, Food Stands"
"174",145549,"Wild Wing","Thornhill","ON","L3T 2S2",43.8322629551,-79.4054093666,"1","Food, Chicken Wings, Hot Dogs, Restaurants, Desserts"
"175",47865,"Wendy's","Charlotte","NC","28205",35.2159398,-80.7803021,"1","Restaurants, Burgers, Hot Dogs, Fast Food"
"176",78674,"Red Robin Gourmet Burgers","Goodyear","AZ","85395",33.4640123,-112.3727544,"1","Burgers, Hot Dogs, Restaurants, American (Traditional)"
"177",21236,"Big City Dogs","Charlotte","NC","28262",35.320054,-80.740913,"0","Hot Dogs, Food, Fast Food, Specialty Food, Restaurants, Desserts"
"178",75961,"Popeyes Louisiana Kitchen","Las Vegas","NV","89119",36.100395,-115.1363065,"1","American (Traditional), Restaurants, Southern, Hot Dogs, Chicken Wings, Fast Food"
"179",131867,"Five Guys","Pittsburgh","PA","15222",40.4402035143,-80.00286879,"1","Restaurants, Burgers, Fast Food, Food, Hot Dogs"
"180",84752,"Nathan's Famous","Pittsburgh","PA","15222",40.439226,-80.0017249,"0","Hot Dogs, Restaurants, American (New), Food"
"181",183442,"Frenchys Caribbean Dogs","Phoenix","AZ","85004",33.468251,-111.958437,"0","Street Vendors, Hot Dogs, Restaurants, Food"
"182",53443,"Burger King","Toronto","ON","M5T 1R6",43.6576462,-79.399561,"1","Restaurants, Burgers, Fast Food, Hot Dogs"
"183",102701,"Burger Hut Foods","North York","ON","M2K 1C3",43.7697354,-79.3744215,"0","Restaurants, Burgers, Hot Dogs"
"184",119432,"Louie's Bar & Grille","Akron","OH","44310",41.1017645485,-81.4909990195,"1","Burgers, Hot Dogs, Dive Bars, Nightlife, Restaurants, Chicken Wings, Bars, Fast Food"
"185",139758,"The Shake and Dog","Henderson","NV","89074",36.0441924,-115.0466392,"0","Restaurants, Hot Dogs"
"186",102592,"Resto Lafleur","Lasalle","QC","H8R 3H9",45.4334309,-73.6457723,"1","Fast Food, Poutineries, Hot Dogs, Restaurants, Burgers"
"187",58913,"Cook Out","Charlotte","NC","28262",35.2799303,-80.7940878,"1","Fast Food, Sandwiches, Hot Dogs, Burgers, Restaurants"
"188",47396,"Nathan's Famous","Las Vegas","NV","89109",36.127308,-115.171459,"1","American (New), Restaurants, Cheesesteaks, Fast Food, Hot Dogs"
"189",100062,"Luke's Of Chicago","Scottsdale","AZ","85260",33.6228299458,-111.8921899795,"0","Italian, Restaurants, Hot Dogs, Sandwiches"
"190",133207,"Five Guys","Tarentum","PA","15084",40.5707022,-79.8017529,"1","Restaurants, Fast Food, Hot Dogs, Sandwiches, Burgers, American (New)"
"191",76567,"Twist-n-Shake","Elyria","OH","44035",41.3743922,-82.0886505,"1","Burgers, Hot Dogs, Restaurants, Ice Cream & Frozen Yogurt, Food"
"192",24178,"BullDawg's","Pittsburgh","PA","15224",40.4616003,-79.941423,"1","Hot Dogs, Burgers, Restaurants, Food Trucks, Food"
"193",49677,"Fat Tuesday","Las Vegas","NV","89109",36.118822,-115.178192,"1","Sports Bars, Bars, Nightlife, American (New), Hot Dogs, Restaurants"
"194",18646,"Dirt Dog - Las Vegas Strip","Las Vegas","NV","89109",36.113791,-115.171633,"1","Hot Dogs, Restaurants, Street Vendors, Desserts, Food"
"195",121498,"Benny's Burgers & BBQ","Sun City","AZ","85351",33.6372393,-112.2754603,"1","Hot Dogs, American (Traditional), Restaurants, Barbeque, Burgers"
"196",33714,"Wendy's","Aurora","ON","L4G 1J5",44.00364885,-79.4517731509,"1","Burgers, Restaurants, Fast Food, Hot Dogs"
"197",166013,"Burger King","Rantoul","IL","61866",40.3086275,-88.1734807,"1","Burgers, Hot Dogs, Restaurants"
"198",97106,"Smokes Poutinerie","Ajax","ON","L1S 7M9",43.861418934,-79.0196112916,"1","Poutineries, Food Court, Hot Dogs, Restaurants"
"199",99784,"Voodoo Dogs Mobile Cart","Peoria","AZ","85345",33.552259201,-112.2688138028,"1","Food Stands, Food, Restaurants, Hot Dogs, Food Trucks"
"200",76657,"Whiskey Dogg","North Olmsted","OH","44070",41.4272746224,-81.8944282626,"0","Restaurants, Bars, Hot Dogs, Nightlife"
"201",153451,"Hot Dog On A Stick","Henderson","NV","89014",36.05586,-115.056284,"0","Hot Dogs, Restaurants"
"202",55537,"Matt's Chicago Dog","Charlotte","NC","28202",35.2240131,-80.8464728,"1","Hot Dogs, Burgers, Sandwiches, Restaurants"
"203",119423,"River Dog Cafe","Rocky River","OH","44116",41.4800612,-81.8419343,"0","American (Traditional), Food Trucks, Breakfast & Brunch, Pubs, Restaurants, Bars, Nightlife, Hot Dogs, Cafes, Burgers, Food, Internet Cafes, American (New)"
"204",86915,"Lick's Homeburgers & Ice Cream","Toronto","ON","M5S 2T9",43.6654057,-79.4033777,"0","Burgers, Hot Dogs, Restaurants"
"205",30864,"Joe's Hot Dog Shop","McKees Rocks","PA","15136",40.451124,-80.127768,"0","Hot Dogs, Restaurants"
"206",110961,"Lock & Dam Dog Shop","Pittsburgh","PA","15206",40.4880474,-79.9200024,"1","Burgers, Restaurants, Sandwiches, Hot Dogs"
"207",7341,"Montreal Pool Room","Montréal","QC","H2X 2S5",45.5097681,-73.5631655,"1","Hot Dogs, Poutineries, Restaurants, Comfort Food"
"208",179104,"Gyros & More","Lorain","OH","44052",41.457819,-82.1677302,"1","Sandwiches, Burgers, Restaurants, Hot Dogs"
"209",140739,"La Belle Province","Dollard-des-Ormeaux","QC","H9B 1Z6",45.483321,-73.7916754,"1","Sandwiches, Hot Dogs, Fast Food, Restaurants"
"210",45786,"Al's Chicago Style Hot Dogs","Gilbert","AZ","85234",33.351375,-111.7549934,"0","Restaurants, Hot Dogs"
"211",122391,"Wendy's","Las Vegas","NV","89128",36.1964299,-115.2479644,"1","Hot Dogs, Burgers, Restaurants, Fast Food"
"212",26440,"Burgers Park","Toronto","ON","M2J 0E9",43.7701985391,-79.332440571,"1","Burgers, Restaurants, Hot Dogs, Desserts, Food"
"213",145665,"Wendy's","Cleveland","OH","44125",41.4189569,-81.6069748,"1","Restaurants, Fast Food, Hot Dogs, Burgers"
"214",54444,"Hot Dog on a Stick","Chandler","AZ","85225",33.3022462,-111.897967,"0","Restaurants, Hot Dogs, American (Traditional)"
"215",102065,"Short Leash Hot Dogs","Phoenix","AZ","85016",33.5107400895,-112.0281837375,"1","Food, Hot Dogs, Food Trucks, Restaurants"
"216",104827,"Burger King","Phoenix","AZ","85020",33.5394968,-112.064706,"1","Hot Dogs, Burgers, Restaurants"
"217",70211,"Mugsy Dogs","Higley","AZ","85295",33.2634958399,-111.7213661224,"1","American (Traditional), Hot Dogs, Food Trucks, Food, Restaurants, Fast Food, Burgers"
"218",79597,"Fish & Fixin's","Concord","NC","28027",35.430901,-80.615953,"1","Sandwiches, Restaurants, Hot Dogs, Seafood, Fast Food"
"219",8912,"Pittsburgh Willy's Gourmet Hot Dogs & More","Chandler","AZ","85225",33.3311915899,-111.8408632278,"0","Hot Dogs, Restaurants, Breakfast & Brunch, Food"
"220",120651,"A Taste of Buffalo","Glendale","AZ","85308",33.6403500704,-112.1859491982,"0","Hot Dogs, Restaurants, Sandwiches, Chicken Wings, American (New), American (Traditional)"
"221",2772,"Dairy Freeze","Toronto","ON","M6E 1C9",43.6751174,-79.4548844,"0","Hot Dogs, Breakfast & Brunch, Diners, Burgers, Fast Food, Restaurants"
"222",35690,"Mr Martz Hot Dogs","Glendale","AZ","85302",33.4657423475,-112.0694320276,"1","Restaurants, Hot Dogs, Food Stands"
"223",87754,"Nathans","Westlake","OH","44145",41.4596133,-81.9509647,"1","Restaurants, Food, Food Stands, Street Vendors, Hot Dogs"
"224",116765,"P & J Hamburgers Inn","Mississauga","ON","L5E 1E3",43.5755496,-79.5607218,"1","Restaurants, Burgers, Hot Dogs"
"225",118012,"Krazy Dogz","Pittsburgh","PA","15203",40.4285797,-79.9855204,"0","Restaurants, Hot Dogs"
"226",117316,"Pizza Forte","Henderson","NV","89014",36.0604553,-115.0410892,"1","Hot Dogs, Pizza, Restaurants, Italian"
"227",32881,"Hero Certified Burgers","Toronto","ON","M5H 1T1",43.6489001,-79.3835731,"0","Hot Dogs, Restaurants, Burgers"
"228",5275,"Chi Town Dogz","Phoenix","AZ","85016",33.5106684,-112.029752,"1","Hot Dogs, Food Stands, Food, Restaurants, Food Trucks"
"229",156855,"Sodawgs","Mesa","AZ","85204",33.3890984578,-111.766345546,"0","Food, Hot Dogs, Food Trucks, Restaurants, American (Traditional)"
"230",43633,"Times Square To Go","Las Vegas","NV","89136",36.1023786,-115.1745465,"1","Restaurants, Specialty Food, Hot Dogs, Food"
"231",187901,"McDonald's","Pittsburgh","PA","15219",40.4404086,-79.9986599,"1","Burgers, Fast Food, Coffee & Tea, Restaurants, Hot Dogs, Food"
"232",49234,"Big Mouth's","Champaign","IL","61820",40.1102889,-88.2324709,"0","Hot Dogs, Burgers, American (Traditional), Restaurants"
"233",115289,"Redhot Cabana","South Euclid","OH","44121",41.521169,-81.519121,"0","American (New), Restaurants, Hot Dogs"
"234",188717,"Coney Island Grill","Phoenix","AZ","85003",33.4493297,-112.0739934,"0","Hot Dogs, Mediterranean, American (Traditional), Burgers, Greek, Restaurants"
"235",29972,"MOOYAH Burgers, Fries & Shakes","Madison","WI","53703",43.0748002,-89.3954462,"1","Ice Cream & Frozen Yogurt, Restaurants, Salad, Burgers, Food, Hot Dogs"
"236",182491,"Rocket Burger & Subs","Phoenix","AZ","85029",33.5958365,-112.134591,"1","Restaurants, Sandwiches, Burgers, Salad, Hot Dogs"
"237",12610,"The New York Hot Dog Shop","Pittsburgh","PA","15237",40.570918,-80.0376689,"1","Hot Dogs, Restaurants, American (Traditional)"
"238",65601,"Jumbo Burger","Toronto","ON","M6S 3A4",43.6660667,-79.4821832,"1","Restaurants, Hot Dogs, Fish & Chips, Burgers"
"239",11390,"Danny's Ice Cream & Burgers","Macedonia","OH","44056",41.3128082,-81.4950887,"1","Hot Dogs, Food, Burgers, Restaurants, Ice Cream & Frozen Yogurt"
"240",81362,"South St. Burger","East York","ON","M4G 4H9",43.7102781,-79.3630118,"1","Burgers, Hot Dogs, Restaurants"
"241",115100,"Big B's Hangover","Scottsdale","AZ","85251",33.4985046387,-111.9262771606,"0","Restaurants, Hot Dogs, Cheesesteaks, Burgers, Sandwiches"
"242",111868,"Restaurant Chez Luma","Montréal","QC","H4G 3B3",45.4710665,-73.5641096,"1","Burgers, Hot Dogs, Restaurants, Breakfast & Brunch"
"243",170048,"Poppa Naps BBQ","Las Vegas","NV","89121",36.1165487,-115.0881146,"1","American (New), Barbeque, Food Stands, Caterers, Hot Dogs, Restaurants, Event Planning & Services"
"244",65717,"Wienerschnitzel","Las Vegas","NV","89104",36.1592640772,-115.0779689563,"1","Hot Dogs, Fast Food, Restaurants, Sandwiches"
"245",190532,"Freddy's Frozen Custard & Steakburgers","Las Vegas","NV","89102",36.1586242,-115.2047571,"1","Restaurants, Burgers, Food, Hot Dogs, Fast Food, Ice Cream & Frozen Yogurt"
"246",103516,"Retro Bleu Cafe","Las Vegas","NV","89146",36.1586808,-115.2367199,"0","Hawaiian, Comfort Food, Barbeque, Hot Dogs, Asian Fusion, Restaurants"
"247",92618,"Subs N Such","Charlotte","NC","28269",35.3509222,-80.8416534,"0","Salad, Restaurants, Sandwiches, Greek, Hot Dogs, Cheesesteaks, Fast Food, Caribbean"
"248",141781,"El Sabroso Hot Dogs","Phoenix","AZ","85017",33.4945719002,-112.130257152,"1","Food Trucks, Food, Restaurants, Hot Dogs, Mexican"
"249",86916,"Fatburger","Calgary","AB","T2H 3B8",50.9822264185,-114.0406230157,"1","American (Traditional), Hot Dogs, Burgers, Restaurants, Fast Food"
"250",185083,"Burger Dogs","Las Vegas","NV","89123",36.0318870615,-115.138092041,"0","Restaurants, Burgers, Hot Dogs"
"251",55027,"Wiener Waggin","Mesa","AZ","85210",33.4119261,-111.8347803,"1","Street Vendors, Food Trucks, Food, Caterers, Event Planning & Services, Restaurants, Food Stands, Hot Dogs"
"252",99112,"New York Original","Pittsburgh","PA","15219",40.4330076,-80.0045618,"1","Restaurants, Shaved Ice, Hot Dogs, Food, Juice Bars & Smoothies"
"253",132322,"Double Headers","Phoenix","AZ","85004",33.4454508,-112.0666996,"1","Restaurants, Burgers, Hot Dogs"
"254",162910,"The Blue Chip Truck","Toronto","ON","M5S 3H8",43.6606173,-79.3973224,"0","Food Stands, Hot Dogs, Restaurants"
"255",29114,"Burger King","Montréal","QC","H3B 1A6",45.504193,-73.5683899,"1","Fast Food, Burgers, Restaurants, Hot Dogs"
"256",107705,"Ninny's Chicago Style Hot Dogs","Cuyahoga Falls","OH","44221",41.1461926,-81.4739775,"1","Sandwiches, American (Traditional), Hot Dogs, Restaurants"
"257",108434,"Burger King","Scarborough","ON","M1T 3L4",43.7841871,-79.2921506,"1","Burgers, Fast Food, Restaurants, Hot Dogs"
"258",30882,"Burger King","Las Vegas","NV","89146",36.1260743,-115.2434261,"1","Hot Dogs, Burgers, Restaurants, Fast Food"
"259",80226,"Stufrageous Stuffed Burgers","Mesa","AZ","85210",33.3935288,-111.8541105,"1","Hot Dogs, Food, Burgers, Desserts, Restaurants"
"260",174280,"MR Burger","Scarborough","ON","M1B 2G5",43.8147847,-79.2326185,"1","Restaurants, Poutineries, Burgers, Fast Food, Hot Dogs"
"261",141388,"Jumbo Burger Restaurant","Pickering","ON","L1V 1A6",43.8140251,-79.1235195,"1","Hot Dogs, Restaurants, Burgers"
"262",151177,"Tommy Burger Bar","Calgary","AB","T2J 0P6",50.99415,-114.0716675,"0","Restaurants, Burgers, Hot Dogs"
"263",189008,"Ivy League Dogs","Goodyear","AZ","85338",33.4564349,-112.3942338,"0","Hot Dogs, Restaurants"
"264",10965,"Zog Dogs","Cleveland","OH","44116",41.4592465,-81.861548,"0","Hot Dogs, Restaurants"
"265",159647,"Hot Dog Heaven","Las Vegas","NV","89183",36.011942,-115.136169,"0","Hot Dogs, Restaurants, American (Traditional), Sandwiches"
"266",9185,"Nathan's Famous","Las Vegas","NV","89109",36.095424,-115.175922,"1","Cheesesteaks, Fast Food, Hot Dogs, Comfort Food, American (New), Restaurants"
"267",172101,"Wendy's","Pittsburgh","PA","15237",40.5380720754,-80.0118948193,"1","Hot Dogs, Restaurants, Fast Food, Burgers"
"268",77425,"Hot Dog Stand","Toronto","ON","M4W 1A7",43.6644223,-79.3993359,"1","Restaurants, Hot Dogs"
"269",154007,"Gibby's Good Eats N Treats","Coraopolis","PA","15108",40.5205291193,-80.1697828307,"1","Ice Cream & Frozen Yogurt, Burgers, Hot Dogs, Food, Restaurants"
"270",54836,"Dog Haus Biergarten","Las Vegas","NV","89169",36.108898,-115.151261,"1","Hot Dogs, Restaurants, Desserts, Food, Beer Gardens, Burgers, Nightlife"
"271",114503,"Wienerschnitzel","Henderson","NV","89074",36.041976,-115.0987475,"1","Fast Food, Sandwiches, Hot Dogs, Restaurants"
"272",175705,"Feeney's Weenies","Pittsburgh","PA","15216",40.4054010662,-80.0301221386,"0","Event Planning & Services, Sandwiches, Caterers, Restaurants, Hot Dogs, Specialty Food, Fast Food, Meat Shops, Food"
"273",36624,"King's  Sausage","Las  Vegas","NV","89101",36.1697096,-115.1236952,"1","Restaurants, Fast Food, Sandwiches, Food Trucks, Hot Dogs, Food, Burgers, Modern European"
"274",126921,"Two Hippies Groovy Beach House","Phoenix","AZ","85032",33.623899,-112.031235,"0","Diners, Mexican, Gluten-Free, Hot Dogs, Restaurants"
"275",80935,"Wendy's","Charlotte","NC","28208",35.2461011,-80.8932264,"1","Restaurants, Hot Dogs, Fast Food, Burgers"
"276",27542,"Burger King","Richmond Hill","ON","L4C 3E3",43.8938974553,-79.4417363614,"0","Fast Food, Hot Dogs, Burgers, Restaurants"
"277",71282,"Frank's Bratwurst","Cleveland","OH","44178",41.484888,-81.703348,"1","Specialty Food, Hot Dogs, Food, Restaurants, Sandwiches, Food Trucks, Ethnic Food"
"278",100144,"Chi Town Dogs","Las Vegas","NV","89146",36.1587612,-115.2096005,"0","Restaurants, Hot Dogs"
"279",36924,"Wienerschnitzel","Tempe","AZ","85281",33.4210209,-111.9096446,"1","Restaurants, Hot Dogs, Ice Cream & Frozen Yogurt, Food, Sandwiches, Desserts, Fast Food"
"280",137424,"Nathans Famous Hotdogs","Phoenix","AZ","85034",33.4341094982,-111.9969141483,"1","Food, Specialty Food, Hot Dogs, Restaurants"
"281",62372,"Thirsty Dog 2 Go","Tempe","AZ","85281",33.425332,-111.940459,"1","Convenience Stores, Food, Breakfast & Brunch, Hot Dogs, Restaurants"
"282",171558,"Carlton Burger Palace","Toronto","ON","M5A 3W7",43.6632507,-79.3751627,"0","Hot Dogs, Breakfast & Brunch, Restaurants, Burgers"
"283",122109,"Chez Ma Tante","Montreal-Nord","QC","H1H 2R3",45.57946,-73.6438685,"1","Restaurants, Poutineries, Hot Dogs"
"284",43808,"Burger King","Gastonia","NC","28054",35.2333569,-81.1694742,"1","Burgers, Restaurants, Hot Dogs"
"285",114469,"Two Hippies Beach House","Scottsdale","AZ","85251",33.4819226,-111.9261289,"0","Restaurants, Burgers, Hot Dogs, Mexican"
"286",153732,"Akron City Tavern","Akron","OH","44310",41.1064302921,-81.5108124912,"0","Restaurants, Food, Bars, Beer Bar, American (New), Gluten-Free, Lounges, Nightlife, Seafood, Beer, Wine & Spirits, American (Traditional), Cocktail Bars, Hot Dogs"
"287",96399,"Cook Out","Charlotte","NC","28270",35.1407686,-80.7356176,"1","Burgers, Hot Dogs, Fast Food, American (New), Barbeque, Restaurants"
"288",107978,"Kegonsa Cove","Mc Farland","WI","53558",42.98137,-89.2676751,"1","Pubs, American (Traditional), Burgers, Sandwiches, Boating, Nightlife, Bars, Active Life, Restaurants, Hot Dogs, American (New)"
"289",181577,"Seti's Polish Boys","Cleveland","OH","44113",41.4811796,-81.7110783,"1","Food, Street Vendors, Food Trucks, Restaurants, Food Stands, American (Traditional), Hot Dogs, Fast Food"
"290",132720,"Sonic Drive-In","Gilbert","AZ","85297",33.2765357,-111.7200343,"1","Ice Cream & Frozen Yogurt, Fast Food, Restaurants, Burgers, Food, Hot Dogs"
"291",91113,"The Hot Dog Diner & Burger Co.","Parma","OH","44129",41.4122529,-81.7359086,"1","Restaurants, Hot Dogs, Burgers, American (Traditional)"
"292",128004,"Waterfront Deli","Toronto","ON","M5J 2V7",43.642138,-79.37579,"1","Chinese, Burgers, Sandwiches, Delis, Restaurants, Hot Dogs"
"293",128506,"Neighborhood Cafe","Charlotte","NC","28216",35.240149,-80.85902,"0","Beauty & Spas, Barbers, Hot Dogs, American (New), Sandwiches, Restaurants, Cafes"
"294",94918,"wiener shop","Madison","WI","53703",43.0736723016,-89.3948453665,"0","Vegan, Restaurants, Hot Dogs, American (New)"
"295",7521,"King's Sausage","Las Vegas","NV","89101",36.166757,-115.135551,"0","Bars, Food, Restaurants, Nightlife, Hot Dogs, Specialty Food, Ethnic Food, Street Vendors"
"296",69719,"Burger King","Champaign","IL","61821",40.112532,-88.2815084,"1","Hot Dogs, Burgers, Restaurants"
"297",103305,"The Real McCoy Burgers & Pizza","Scarborough","ON","M1H 2Y5",43.7740553,-79.2306408,"1","Burgers, Restaurants, Hot Dogs, Pizza"
"298",126175,"Burger King","Rock Hill","SC","29732",34.9683969,-80.9935391,"1","Fast Food, Burgers, Restaurants, Hot Dogs"
"299",166913,"Frank N Steins","Surprise","AZ","85374",33.6385585,-112.3628541,"0","Hot Dogs, American (Traditional), Restaurants"
"300",82799,"Hot Dog Heaven","Henderson","NV","89015",36.0382439,-114.9833676,"0","Fast Food, Restaurants, Delis, Hot Dogs, Italian"
"301",165238,"The Doghouse","Lakewood","OH","44107",41.484644,-81.8011269,"0","Hot Dogs, Restaurants"
"302",129943,"Burger King","North York","ON","M9M 2C7",43.75192,-79.545456,"1","Restaurants, Burgers, Fast Food, Hot Dogs"
"303",70019,"Burger King","El Mirage","AZ","85335",33.565909,-112.3240819,"1","Burgers, Hot Dogs, Restaurants"
"304",140672,"Mange-Moi","Montréal","QC","H2T 1N4",45.520599,-73.586196,"1","Poutineries, Restaurants, Hot Dogs, Burgers, American (Traditional)"
"305",70205,"McDonald's","Kent","OH","44240",41.1424156,-81.3582094,"1","Fast Food, Coffee & Tea, Hot Dogs, Food, Burgers, Restaurants"
"306",115906,"Doodle Dogs","Peoria","AZ","85383",33.7125104,-112.2676482,"1","Hot Dogs, Restaurants, Food Stands"
"307",6877,"Burger King","Medina","OH","44256",41.1356993,-81.789114,"1","Fast Food, Burgers, Restaurants, Hot Dogs"
"308",154775,"Nathans Famous Hotdogs","Tempe","AZ","85282",33.383123,-111.964485,"0","Restaurants, Hot Dogs"
"309",33335,"J&B's Pizza, BBQ And Deli","Mesa","AZ","85208",33.4081202,-111.615811,"0","Convenience Stores, Restaurants, Pizza, Shopping, Barbeque, Hot Dogs, Beer, Wine & Spirits, Tobacco Shops, Delis, Food"
"310",11301,"Buldogis","Las Vegas","NV","89146",36.1255279,-115.2234859,"0","Chicken Wings, Breakfast & Brunch, Korean, Restaurants, Cafes, Hot Dogs"
"311",72265,"McDonald's","Lower Burrell","PA","15068",40.5518704511,-79.756955,"1","Restaurants, Burgers, Hot Dogs, Food, Fast Food, Coffee & Tea"
"312",147380,"Auntie Anne's","Las Vegas","NV","89109",36.1376416,-115.1653861,"1","Pretzels, Food Stands, Food, Restaurants, Hot Dogs"
"313",67743,"Franks A Lot","Phoenix","AZ","85034",33.4483495,-111.9953819,"0","Food, Restaurants, Hot Dogs, Burgers, Sandwiches"
"314",159257,"Luke's of Chicago's","Phoenix","AZ","85016",33.4949113273,-112.047176727,"1","Hot Dogs, Burgers, Sandwiches, Restaurants, Italian"
"315",107226,"The Burger's Priest","Mississauga","ON","L5G 1E5",43.5544705,-79.5823233,"1","Hot Dogs, Food, Restaurants, Burgers"
"316",98969,"Popeyes Louisiana Kitchen","Akron","OH","44310",41.1033649472,-81.5150625656,"1","Restaurants, Fast Food, Hot Dogs, Chicken Wings, American (Traditional)"
"317",63629,"Two Hippie Beach House","Mesa","AZ","85202",33.3783069,-111.8611821,"0","Food Stands, Restaurants, Burgers, Food, Hot Dogs"
"318",16329,"Dude Where's my Hotdog","Las Vegas","NV","89147",36.1148054,-115.2778317,"1","Fast Food, Food, Restaurants, Hot Dogs, Food Trucks"
"319",174645,"Micky's Hot Dogs","Mesa","AZ","85210",33.4080371,-111.8346059,"1","Fast Food, Mexican, Restaurants, Hot Dogs"
"320",20469,"Blu Burger Grille","Scottsdale","AZ","85266",33.780022,-111.925077,"1","Fish & Chips, Restaurants, Fast Food, Sandwiches, American (Traditional), Cocktail Bars, Bars, Vegetarian, Burgers, Nightlife, Hot Dogs"
"321",39384,"Restaurant Lafleur","Montréal","QC","H2X 2A1",45.5068844,-73.5660924,"1","Hot Dogs, Fast Food, Restaurants, Poutineries"
"322",174404,"T-Bones Sizzling Steaks & Burgers Drive-In Restaurant","Scarborough","ON","M1K 2R5",43.7353417,-79.2561259,"1","Restaurants, Hot Dogs, Burgers, Steakhouses"
"323",121246,"Chez Benny","Montréal","QC","H3W 2A1",45.4857724,-73.6276484,"0","Food, Burgers, Hot Dogs, Restaurants"
"324",181546,"Burger King Canada","Mississauga","ON","L5N 1A6",43.5977563,-79.7350582,"1","Fast Food, Burgers, Hot Dogs, Restaurants"
"325",91611,"BurgerFi","Tempe","AZ","85281",33.4216469,-111.9252006,"1","Hot Dogs, Restaurants, American (Traditional), Burgers, American (New)"
"326",129126,"Nathan's Famous Hot Dogs","Las Vegas","NV","89101",36.17145,-115.145281,"0","Restaurants, Hot Dogs"
"327",40418,"Hot Dog On A Stick","Las Vegas","NV","89109",36.1277253,-115.1744147,"0","Fast Food, Hot Dogs, Restaurants"
"328",109907,"Burger King","Elyria","OH","44035",41.3941912,-82.1069614,"1","Burgers, Restaurants, Fast Food, Hot Dogs"
"329",171992,"1360 West Grill","Mesa","AZ","85202",33.394484,-111.861487,"0","American (New), Restaurants, Hot Dogs, Breakfast & Brunch, American (Traditional), Burgers"
"330",28157,"Hot Dog Heaven","Amherst","OH","44001",41.4011849,-82.2215901,"1","Hot Dogs, Restaurants"
"331",95041,"La Pataterie","Montréal","QC","H1W 1S4",45.5477779,-73.5427807,"1","Burgers, Poutineries, Hot Dogs, Restaurants"
"332",98505,"CHAR'D Brisket Dogs + Burgers","Tempe","AZ","85281",33.4174192,-111.9258865,"1","American (Traditional), Restaurants, Burgers, Hot Dogs"
"333",58183,"Burger King","Mississauga","ON","L5E 3E5",43.5938497,-79.5653926,"1","Restaurants, Fast Food, Burgers, Hot Dogs"
"334",151433,"G's Food","Phoenix","AZ","85037",33.4939156776,-112.2819471359,"0","Restaurants, Cheesesteaks, Mexican, Tacos, Hot Dogs, Sandwiches, American (New), American (Traditional)"
"335",39004,"Puzzlers Restaurant & Lounge","McKeesport","PA","15132",40.332814,-79.847123,"1","Barbeque, Restaurants, Nightlife, American (New), Hot Dogs, American (Traditional), Breakfast & Brunch, Bars"
"336",21351,"The Hot 'n Dog","Toronto","ON","M6K",43.640458,-79.4359905,"0","Hot Dogs, Restaurants"
"337",74190,"Wendy's","Cleveland","OH","44122",41.4641062,-81.5365526,"1","Fast Food, Burgers, Hot Dogs, Restaurants"
"338",29692,"King of Wings","Las Vegas","NV","89107",36.1752776,-115.2064866,"0","Chicken Wings, Hot Dogs, Food, Desserts, Restaurants"
"339",11632,"New Canada Hot-Dog","Montréal","QC","H2G 1M7",45.5463158,-73.5936892,"1","Burgers, Restaurants, Hot Dogs"
"340",170009,"Epic Hot Dogs","Phoenix","AZ","85003",33.449188,-112.0772,"0","Restaurants, Hot Dogs, Food Stands"
"341",92756,"D's Six Pax & Dogz","Pittsburgh","PA","15218",40.432083,-79.893639,"1","Bars, Restaurants, Pubs, Hot Dogs, American (Traditional), Nightlife, Beer, Wine & Spirits, Food"
"342",27829,"Peters' Drive-In","Calgary","AB","T2E 1J9",51.0666562305,-114.0581936419,"1","Burgers, Restaurants, Hot Dogs, Fast Food"
"343",46964,"Chicago Dogs","Las Vegas","NV","89106",36.1830457036,-115.1806836946,"0","Fast Food, Burgers, Restaurants, Hot Dogs"
"344",125001,"McDonald's","Pittsburgh","PA","15222",40.4492906,-79.9862857908,"1","Hot Dogs, Burgers, Restaurants, Fast Food, Coffee & Tea, Food"
"345",6176,"Wienerschnitzel","Las Vegas","NV","89102",36.152902,-115.243109,"1","Fast Food, Restaurants, Hot Dogs, Sandwiches"
"346",5182,"Chicagoland Hotdogs & More","Mesa","AZ","85205",33.4365129,-111.684937,"1","Restaurants, Food, Sandwiches, Imported Food, Specialty Food, Ice Cream & Frozen Yogurt, Hot Dogs, Ethnic Food"
"347",69235,"Dirt Dog","Las Vegas","NV","89139",36.0359228984,-115.2429071871,"1","Hot Dogs, Street Vendors, Food, Restaurants, American (Traditional), American (New), Desserts, Gastropubs"
"348",27160,"Restaurants D Lafleur","Montréal","QC","H2X 3L7",45.517817,-73.5699549,"1","Restaurants, Fast Food, Hot Dogs"
"349",183900,"Luna Street Tacos & Hot Dogs","Mesa","AZ","85207",33.4148199918,-111.6322198883,"1","Food Stands, Hot Dogs, Mexican, Tacos, Street Vendors, Food Trucks, Restaurants, Food"
"350",103626,"Giant Hamburgers & Fish & Chips","Calgary","AB","T3E 0A8",51.0378461,-114.1279227,"0","Burgers, Seafood, Fast Food, Restaurants, Hot Dogs"
"351",4949,"Wynder Dogs","Phoenix","AZ","85012",33.5066764,-112.0733964,"0","Restaurants, Hot Dogs, American (Traditional)"
"352",76612,"Cook Out","Concord","NC","28027",35.3675643,-80.7111718,"1","Hot Dogs, Restaurants, Fast Food, Burgers"
"353",149805,"Yogi's Bistro","Phoenix","AZ","85001",33.4470635,-112.0720131,"1","Food, Restaurants, Street Vendors, Food Stands, American (Traditional), Hot Dogs"
"354",62731,"Fritzs Footlong Bar & Grill","Mesa","AZ","85203",33.4159,-111.793652,"0","Restaurants, American (New), Hot Dogs"
"355",76844,"Lyly's Kitchen","York","SC","29745",35.0904986,-81.0986331,"1","Food, Grocery, Convenience Stores, Gas Stations, Automotive, Restaurants, Hot Dogs"
"356",191275,"American Heroes and Dogs","Phoenix","AZ","85037",33.4951,-112.2553,"0","Hot Dogs, Restaurants, American (Traditional), Sandwiches"
"357",25045,"Wendy's","Huntersville","NC","28078",35.4090152,-80.8553793,"1","Restaurants, Burgers, Hot Dogs, Fast Food"
"358",157939,"Cook Out","Charlotte","NC","28210",35.0915732,-80.8691066,"1","Restaurants, Desserts, Food, Fast Food, American (Traditional), Hot Dogs, Burgers"
"359",113816,"Burger King","North York","ON","M3L 1A5",43.7194774,-79.5110727,"1","Restaurants, Hot Dogs, Fast Food, Burgers"
"360",71066,"Dirty Dogs","Montréal","QC","H2T 1N4",45.520516,-73.58615,"0","Restaurants, Hot Dogs"
"361",3848,"McDonald's","Charlotte","NC","28205",35.2132805487,-80.7816660404,"1","Hot Dogs, Food, Coffee & Tea, Restaurants, Burgers, Fast Food"
"362",96593,"Burger King","Oakville","ON","L6H 2R9",43.4704864,-79.6939836,"1","Restaurants, Burgers, Hot Dogs, Fast Food"
"363",70441,"Franktuary Truck","Pittsburgh","PA","15222",40.4475255,-79.9933976,"1","Food, Food Trucks, Hot Dogs, Food Stands, Restaurants"
"364",11522,"Round the Horn","Toronto","ON","M6R 2M8",43.649194155,-79.4499439001,"1","Sports Bars, Bars, Beer Bar, Nightlife, Restaurants, Hot Dogs, Pubs"
"365",144013,"El Caprichoso Hot Dogs Estilo Sonora","Phoenix","AZ","85009",33.479886,-112.134721,"1","Fast Food, Restaurants, Food, Street Vendors, Hot Dogs"
"366",57467,"Hounds Hotdogs & Gyros","Parma Heights","OH","44130",41.3780824095,-81.784671396,"1","Burgers, Fast Food, Restaurants, Hot Dogs"
"367",168207,"Hardee's","Charlotte","NC","28213",35.2955556,-80.7411676,"1","Burgers, Restaurants, Hot Dogs"
"368",91117,"Peace -N- Hominy Q","Belmont","NC","28012",35.2430105,-81.0285592,"1","Appliances, Breakfast & Brunch, Barbeque, Home & Garden, Southern, Shopping, American (Traditional), Hot Dogs, Burgers, Restaurants"
"369",191083,"Chick-N-Burger","Scarborough","ON","M1N 1T7",43.7032881,-79.2528547,"1","Restaurants, Hot Dogs, Burgers"
"370",169225,"Burger Shack","Toronto","ON","M4R 1A9",43.7048225,-79.4057001,"1","Burgers, Restaurants, Hot Dogs"
"371",128486,"Johnnie's Chicago Red Hots","Phoenix","AZ","85013",33.4799723,-112.0766623,"0","Hot Dogs, Restaurants, Fast Food"
"372",190088,"Wienerschnitzel","Las Vegas","NV","89118",36.078714,-115.243167,"1","Sandwiches, Hot Dogs, Restaurants, Fast Food"
"373",181455,"Valentine","Montréal","QC","H3B 4W3",45.50111,-73.5722427,"1","Burgers, Hot Dogs, Poutineries, Restaurants"
"374",51171,"Wendy's","Charlotte","NC","28277",35.0295307,-80.8509383,"1","Fast Food, Burgers, Restaurants, Hot Dogs"
"375",183188,"Fernandez Hot-Dogs","Las Vegas","NV","89104",36.1589789702,-115.1222431032,"1","Food, Hot Dogs, Restaurants, Food Trucks"
"376",7563,"Five Guys","Middleton","WI","53562",43.0906280441,-89.5241067527,"1","Fast Food, Burgers, Restaurants, Hot Dogs"
"377",46357,"Burger King","North York","ON","M2N 5X2",43.7625088,-79.4105316,"0","Restaurants, Fast Food, Hot Dogs, Burgers"
"378",178548,"Deli Green Stop","Montréal","QC","H4E 3H6",45.4570945,-73.5953407,"1","Barbeque, Delis, Poutineries, Sandwiches, Breakfast & Brunch, Hot Dogs, Restaurants"
"379",20443,"Wendy's","Las Vegas","NV","89106",36.180793,-115.1783787,"1","Restaurants, Burgers, Fast Food, Hot Dogs"
"380",91194,"Chicago Bobs","Fountain Hills","AZ","85268",33.5738374,-111.7142695,"0","Hot Dogs, Restaurants"
"381",45117,"Emilio's Tacos & Hotdogs","Phoenix","AZ","85023",33.6118594038,-112.0995116489,"1","Restaurants, Hot Dogs, Mexican, Tacos"
"382",118764,"Burger King","Toronto","ON","M5B 1N8",43.654819,-79.3798828,"1","Hot Dogs, Restaurants, Fast Food, Burgers"
"383",86488,"Long Wong's Dobson","Mesa","AZ","85202",33.408847922,-111.8752602115,"1","Hot Dogs, Chicken Wings, Burgers, Sandwiches, Restaurants"
"384",144435,"Wienerschnitzel","Las Vegas","NV","89121",36.1151772,-115.0719214,"1","Restaurants, Sandwiches, Fast Food, Hot Dogs"
"385",164047,"McDonald's","Pittsburgh","PA","15205",40.427407,-80.0533794,"1","Restaurants, Hot Dogs, Coffee & Tea, Fast Food, Burgers, Food"
"386",167270,"Auntie Anne's","Phoenix","AZ","85032",33.6021872,-111.9836094,"1","Restaurants, Food Stands, Pretzels, Specialty Food, Food, Hot Dogs"
"387",130738,"Cook Out","Rock Hill","SC","29732",34.970997,-80.9905956,"1","Hot Dogs, Burgers, Fast Food, Restaurants"
"388",19616,"Wienerschnitzel","Las Vegas","NV","89123",36.0209001,-115.1247688,"1","Fast Food, Hot Dogs, Restaurants, Sandwiches, American (New)"
"389",163888,"Louanne's Famous Fries","Georgetown","ON","L7G 4S5",43.607759149,-79.8937876735,"1","Canadian (New), Hot Dogs, Sandwiches, Food Trucks, Food, Burgers, Restaurants"
"390",166573,"Golden Star Burgers","Thornhill","ON","L3T 2A8",43.8015863022,-79.4205856289,"1","Diners, Restaurants, Hot Dogs, Burgers"
"391",31433,"Fib's Fine Italian Beef & Sausage","Madison","WI","53703",43.0739899506,-89.3830275536,"0","Food Trucks, Food, Restaurants, Hot Dogs"
"392",14988,"Smashburger","Scottsdale","AZ","85260",33.6297775,-111.8874099,"1","Hot Dogs, Burgers, American (New), Restaurants"
"393",5277,"Freddy's Frozen Custard & Steakburgers","Mesa","AZ","85209",33.3908717,-111.6831903,"1","Ice Cream & Frozen Yogurt, Hot Dogs, Restaurants, Fast Food, Food, Burgers"
"394",5819,"Burger King","Scarborough","ON","M1L 2K1",43.72524,-79.298012,"1","Burgers, Fast Food, Hot Dogs, Restaurants"
"395",140627,"Hero Certified Burgers - Aurora","Aurora","ON","L4G 7J1",44.00661,-79.444633,"1","Desserts, Restaurants, Food, Burgers, Gluten-Free, Hot Dogs"
"396",9493,"Dirty Dogs","Montréal","QC","H2X 3K4",45.5156080167,-73.5640598461,"0","Restaurants, Hot Dogs"
"397",123480,"Burger King","Avon","OH","44011",41.4585553,-82.0250287,"1","Restaurants, Burgers, Fast Food, Hot Dogs, Food"
"398",15763,"Nathan's Famous","Las Vegas","NV","89119",36.092492,-115.1762609,"1","Restaurants, Hot Dogs"
"399",23353,"Hardee's Red Burrito","Charlotte","NC","28269",35.3075103,-80.8438767,"1","Burgers, Restaurants, Hot Dogs, American (Traditional), Mexican"
"400",102969,"Zombie Dogs Vegas","Las Vegas","NV","89109",36.1463861,-115.1662162,"0","Food Trucks, Hot Dogs, Caterers, Food, Restaurants, Event Planning & Services"
"401",35482,"Windy City Beefs N Dogs","Las Vegas","NV","89128",36.1973944,-115.2579239,"1","Restaurants, Hot Dogs, Food"
"402",29263,"Lick's Ice Cream & Burger","Oakville","ON","L6J 3J2",43.4576048,-79.6817274,"0","Restaurants, Burgers, Hot Dogs"
"403",78725,"Lil' Buddy's Popcorn","Oregon","WI","53575",42.9254237,-89.3831179,"1","Popcorn Shops, Candy Stores, Food, Specialty Food, Hot Dogs, Restaurants"
"404",70997,"McDonald's","Pittsburgh","PA","15206",40.4630795,-79.9269035,"0","Burgers, Fast Food, Restaurants, Hot Dogs"
"405",55542,"Arizona Hot Dog","Sun City","AZ","85345",33.5657183321,-112.2811625898,"0","Restaurants, Hot Dogs"
"406",152523,"Two Hippies Beach House - Bell Road","Phoenix","AZ","85032",33.640408,-111.995167,"0","Restaurants, Mexican, Gluten-Free, Hot Dogs"
"407",154110,"Burger King Restaurant","Calgary","AB","T3K 4Y7",51.1546659566,-114.0530861177,"1","Restaurants, Fast Food, Hot Dogs, Burgers"
"408",65366,"Patate Rouge","Montréal","QC","H2M 1M1",45.548949,-73.63631,"1","Hot Dogs, Restaurants, Poutineries, Burgers"
"409",6526,"Scottsdale Burger Bar","Scottsdale","AZ","85255",33.6999744,-111.9249084,"1","Restaurants, Hot Dogs, Burgers, Fast Food"
"410",64324,"Hot Dog Heaven","Las Vegas","NV","89141",35.9952905,-115.2068006,"0","Restaurants, Hot Dogs"
"411",81689,"Smashburger","Scottsdale","AZ","85257",33.4789478,-111.9260831,"1","Burgers, Restaurants, Hot Dogs, Fast Food, American (New)"
"412",26171,"Papaya King","Las Vegas","NV","89109",36.1038696344,-115.1733058976,"0","Hot Dogs, Restaurants, Food, Beer, Wine & Spirits"
"413",88936,"Gyros on Central","Phoenix","AZ","85020",33.567452,-112.073536,"1","Cheesesteaks, Restaurants, Fast Food, Hot Dogs, Greek, Middle Eastern"
"414",37410,"Manna Hamburgers","Newmarket","ON","L3Y 2R2",44.062852,-79.4464807,"1","Restaurants, Greek, Hot Dogs, Burgers"
"415",26141,"Hot Dog Stop","Scottsdale","AZ","85250",33.6352362336,-111.923569083,"0","Hot Dogs, Food, Restaurants"
"416",96706,"Poutine en Folie","Montréal","QC","H2P 1X1",45.5494356851,-73.6219925837,"1","Fast Food, Burgers, Restaurants, Hot Dogs"
"417",26826,"Grillway Subs & Burgers","Toronto","ON","M6P 1S1",43.6599496025,-79.479805281,"1","Mediterranean, Greek, Sandwiches, Canadian (New), Burgers, Hot Dogs, Restaurants, Pizza"
"418",226,"Five Guys","Brossard","QC","J4Y 0G4",45.4501751,-73.4425174,"1","Sandwiches, Hot Dogs, Fast Food, Burgers, American (Traditional), Restaurants"
"419",26565,"Cook Out","Charlotte","NC","28208",35.2370364,-80.8812656,"1","Fast Food, Hot Dogs, Restaurants, Burgers"
"420",78236,"Shakes and Franks","Toronto","ON","M4L 1J4",43.6704042293,-79.2984681576,"0","Desserts, Fast Food, Restaurants, Milkshake Bars, Hot Dogs, American (Traditional), Food"
"421",82493,"Le Petit Quebec","Chambly","QC","J4L 1X4",45.4558695,-73.3018249,"1","Hot Dogs, Restaurants, Burgers, Poutineries"
"422",86650,"Lenny's Burger Shop","Phoenix","AZ","85029",33.6095285045,-112.1342353674,"1","Burgers, Restaurants, American (Traditional), Hot Dogs"
"423",47547,"Nana Tee's Hometown Dogs","Phoenix","AZ","85209",33.5982609415,-112.1508913901,"0","Sandwiches, Restaurants, American (Traditional), Burgers, Mexican, Hot Dogs, Delis, American (New)"
"424",187129,"Pink's Hot Dogs","Las Vegas","NV","89109",36.109413,-115.172353,"0","Fast Food, Hot Dogs, Restaurants"
"425",149463,"Burger King","Cleveland","OH","44109",41.469542,-81.705804,"1","Burgers, Restaurants, Hot Dogs"
"426",55502,"Spartan Pita & Gyro","Phoenix","AZ","85018",33.4804959,-111.9844634191,"1","Mediterranean, Restaurants, Greek, Hot Dogs"
"427",26100,"Tucky's","Mayfield Heights","OH","44124",41.519687,-81.454724,"0","Restaurants, Hot Dogs"
"428",168847,"BP's Hotdogs & More","Phoenix","AZ","85064",33.4483771,-112.0740373,"1","Food Stands, Food Trucks, Party & Event Planning, Caterers, Restaurants, Burgers, Food, Event Planning & Services, Hot Dogs"
"429",9754,"Burger King Restaurants","Brampton","ON","L6T 5J1",43.7403369,-79.6987394,"1","Hot Dogs, Fast Food, Burgers, Restaurants"
"430",11351,"Wendy's","Las Vegas","NV","89146",36.1574851,-115.2441902,"1","Hot Dogs, Burgers, Restaurants, Fast Food"
"431",20458,"Chez Gérard","Fabreville","QC","H7P 2P3",45.5762133,-73.7880236,"1","Restaurants, Burgers, Hot Dogs"
"432",74639,"Burger Boy","Etobicoke","ON","M9V 4E4",43.7313908,-79.600123,"1","Restaurants, Burgers, Hot Dogs"
"433",47881,"Burger Royal","Montréal","QC","H2W 1X6",45.5156494125,-73.5766624597,"1","Restaurants, Comfort Food, Salad, Hot Dogs, Vegan, Food, Burgers, Poutineries"
"434",75521,"Wendy's","Charlotte","NC","28210",35.0906289415,-80.8695297661,"1","Hot Dogs, Burgers, Fast Food, Restaurants"
"435",106426,"Jody Maroni's Sausage Kingdom","Phoenix","AZ","85034",33.4359957,-112.0108423,"1","Hot Dogs, Fast Food, Food, Restaurants, Specialty Food"
"436",58229,"Happy's Hamburgers","Scottsdale","AZ","85253",33.5816197,-111.92407,"1","Breakfast & Brunch, Diners, Restaurants, Burgers, American (Traditional), Hot Dogs"
"437",43387,"Jack In The Box","Tempe","AZ","85283",33.3642222,-111.9291702,"1","Restaurants, Fast Food, Hot Dogs"
"438",103657,"Snack Bar","Las Vegas","NV","89119",36.1079183842,-115.1364018447,"0","Mexican, Sandwiches, Food, Juice Bars & Smoothies, Desserts, Hot Dogs, Restaurants, Cafes, Ice Cream & Frozen Yogurt"
"439",75434,"Wendy's","Ajax","ON","L1Z 1G1",43.8648525,-79.0127201,"1","Fast Food, Burgers, Hot Dogs, Restaurants"
"440",67505,"Dogos El Yori","Mesa","AZ","85204",33.4077769155,-111.7889148374,"1","Food, Street Vendors, Mexican, Hot Dogs, Restaurants"
"441",144899,"Great Links Brewhouse & Grill","Las Vegas","NV","89130",36.2397672787,-115.2259352022,"1","Sandwiches, Hot Dogs, Burgers, Restaurants, Diners, American (Traditional)"
"442",156748,"McDonald's","Charlotte","NC","28213",35.2769791069,-80.7940015197,"1","Restaurants, Burgers, Hot Dogs, Coffee & Tea, Fast Food, Food"
"443",69238,"Let's Be Frank","Toronto","ON","M5V 1M9",43.6436801,-79.4036887,"0","Food Trucks, Hot Dogs, Restaurants, Food"
"444",149580,"Mr. Beaners Drive-Thru Weiners","Pittsburgh","PA","15235",40.4820067,-79.809186,"0","Restaurants, Sandwiches, Hot Dogs, Fast Food"
"445",110528,"Five Guys","Toronto","ON","M3B 1Y6",43.7541711,-79.3494929,"1","Burgers, Sandwiches, Fast Food, Hot Dogs, Restaurants"
"446",175068,"Gridirne Cookery","Medina","OH","44256",41.143245,-81.8552196,"1","Hot Dogs, Restaurants, Specialty Food, Food, Caterers, Barbeque, Event Planning & Services"
"447",136690,"John Anderson Charcoal Broil Hamburgers","Mississauga","ON","L5C 1C3",43.5578713,-79.643092,"1","Burgers, Restaurants, Hot Dogs"
"448",188150,"Felix Hot Dog Taco Shop","Las Vegas","NV","89104",36.1524766,-115.1519918,"0","Restaurants, Mexican, Hot Dogs"
"449",135030,"Sonic Drive-In","Chandler","AZ","85286",33.2754253,-111.8422271387,"1","Hot Dogs, Ice Cream & Frozen Yogurt, Fast Food, Food, Burgers, Restaurants"
"450",45453,"Wiener World","Pittsburgh","PA","15222",40.4422344518,-79.9971354078,"1","Hot Dogs, Sandwiches, Restaurants"
"451",31631,"Buster's Dawg House","Las Vegas","NV","89129",36.2330997,-115.2719048,"1","Food Trucks, Food, Food Stands, Hot Dogs, Restaurants, Street Vendors"
"452",89874,"Jody Maroni's Sausage Kingdom","Las Vegas","NV","89109",36.1030009,-115.1735161,"0","Hot Dogs, Restaurants"
"453",131157,"Cantine Bernard","Sainte-Madeleine","QC","J0H 1S0",45.5966363,-73.087464,"1","Restaurants, Hot Dogs, Poutineries, Burgers"
"454",155701,"Kopper Kitchen","Pickering","ON","L1V 0C5",43.8216947,-79.1117537,"0","Greek, Restaurants, Burgers, Hot Dogs"
"455",103725,"Burger King","North Versailles","PA","15137",40.3862116,-79.82183,"1","Hot Dogs, Restaurants, Burgers"
"456",91400,"Burger King","Mint Hill","NC","28227",35.17282,-80.65732,"1","Burgers, Restaurants, American (New), Hot Dogs"
"457",164734,"Brian's Dog House Grill","Huntersville","NC","28078",35.409146,-80.861385,"0","Restaurants, Hot Dogs, Burgers"
"458",52324,"Pepito Shack","Las Vegas","NV","89104",36.1524769658,-115.1519448544,"0","Hot Dogs, Restaurants, Burgers, Food Stands, Sandwiches"
"459",19252,"Tacos Y Hot Dogs Sonora","Las Vegas","NV","89101",36.1875247,-115.1164322,"1","Tacos, Street Vendors, Food, Hot Dogs, Restaurants, Food Trucks, Mexican"
"460",161984,"Burger King Restaurant","Calgary","AB","T2A 0V2",51.0380988,-113.964686,"1","Burgers, Hot Dogs, Fast Food, Restaurants"
"461",171436,"Boogies Burgers","Calgary","AB","T2E 3K1",51.0600919,-114.0541465,"1","Burgers, Hot Dogs, Restaurants"
"462",183999,"Big Boy's Burgers","Scarborough","ON","M1M 1N2",43.721669,-79.236062,"1","Sandwiches, Canadian (New), Poutineries, Restaurants, Hot Dogs, Burgers, Salad"
"463",156331,"Leadbelly's","Champaign","IL","61821",40.121049763,-88.2828940451,"0","Bars, Restaurants, Hot Dogs, Nightlife, Whiskey Bars"
"464",110074,"Pizza Forte","Las Vegas","NV","89169",36.110267,-115.155337,"1","Italian, Hot Dogs, Restaurants, Pizza"
"465",36053,"Super Burger","Etobicoke","ON","M8W 1N1",43.5962248,-79.5250561,"1","Hot Dogs, Restaurants, Burgers"
"466",29380,"Cook Out","Denver","NC","28037",35.4443416,-80.9925895,"1","Ice Cream & Frozen Yogurt, Fast Food, Hot Dogs, Burgers, Food, Restaurants"
"467",1884,"Décarie Hot Dogs","Saint-Laurent","QC","H4L 3M3",45.5136173,-73.6814824,"1","Restaurants, Poutineries, Burgers, Hot Dogs"
"468",39656,"Hot Dog On A Stick","Las Vegas","NV","89119",36.0664995,-115.1722265,"1","Breakfast & Brunch, American (Traditional), Fast Food, Hot Dogs, Restaurants"
"469",71488,"T C's Fish & Burgers","Aurora","ON","L4G 1L9",43.9983101087,-79.4674283651,"1","Hot Dogs, Burgers, Restaurants, Seafood"
"470",154149,"Wayback Burgers","Matthews","NC","28105",35.1197611,-80.7189513,"1","Burgers, American (Traditional), Restaurants, Hot Dogs"
"471",80376,"Monsieur Burger","Blainville","QC","J7C 2H3",45.651428,-73.846439,"0","Hot Dogs, Restaurants, Burgers"
"472",177071,"Hardee's","Charlotte","NC","28214",35.2435812,-80.938286,"1","Restaurants, Burgers, Hot Dogs, Fast Food"
"473",18799,"The Shady Dog","Pittsburgh","PA","15232",40.451096,-79.9332613,"1","Hot Dogs, Restaurants, Street Vendors, Food"
"474",138717,"Cruisin Coneheads","Perry","OH","44081",41.7728019,-81.1673208,"1","Restaurants, Ice Cream & Frozen Yogurt, Hot Dogs, Food"
"475",168919,"Dawg Haus","North Las Vegas","NV","89032",36.1977868,-115.1918335,"0","Restaurants, Hot Dogs, Food, Street Vendors"
"476",190718,"South St. Burger","Markham","ON","L6G 0A2",43.848948,-79.32367,"1","Hot Dogs, Food, Fast Food, Ice Cream & Frozen Yogurt, Burgers, American (Traditional), Restaurants"
"477",5300,"Cook Out","Charlotte","NC","28273",35.1215097,-80.9498363,"1","Burgers, Hot Dogs, Barbeque, Restaurants, Fast Food"
"478",50099,"The Gorilla","Lakewood","OH","44107",41.4771746247,-81.7733764558,"1","Hot Dogs, Ice Cream & Frozen Yogurt, Restaurants, Food, Barbeque, Fast Food"
"479",161960,"Farside","Toronto","ON","M4M 1Y3",43.6658383,-79.3518547,"1","Hot Dogs, Arts & Entertainment, Nightlife, Restaurants, Bars, Event Planning & Services, Venues & Event Spaces"
"480",143555,"La Pasadita Hot Dogs","Phoenix","AZ","85019",33.5092716,-112.1363882,"1","Hot Dogs, Restaurants, Mexican"
"481",178639,"Church's Chicken","Charlotte","NC","28216",35.241532,-80.858991,"1","Restaurants, Fast Food, Hot Dogs, Chicken Shop, Breakfast & Brunch, Chicken Wings"
"482",4621,"Pink's","Las Vegas","NV","89135",36.1565593907,-115.3343584617,"0","Hot Dogs, Restaurants, American (Traditional)"
"483",48551,"Nathan's Famous","Las Vegas","NV","89109",36.1023786,-115.1745465,"1","Restaurants, Hot Dogs, Burgers, Cheesesteaks"
"484",67427,"Packs & Dogs","Pittsburgh","PA","15211",40.4299312,-80.0070634,"1","Bars, Hot Dogs, Restaurants, Nightlife"
"485",155779,"Nathan's Famous","Las Vegas","NV","89103",36.114375,-115.19581,"0","Cheesesteaks, American (Traditional), Restaurants, Hot Dogs, Fast Food, American (New)"
"486",86360,"Mexicali Raspados","Las Vegas","NV","89121",36.1008099,-115.1017582,"1","Hot Dogs, Restaurants, Shaved Ice, Food, Ice Cream & Frozen Yogurt"
"487",19833,"Hank's Hotdogs Too","Pittsburgh","PA","15226",40.3928642,-80.0183512,"1","Restaurants, Hot Dogs, Burgers"
"488",176700,"McDonald's","Gastonia","NC","28052",35.262766,-81.153491,"1","Coffee & Tea, Hot Dogs, Fast Food, Burgers, Restaurants, Food"
"489",130703,"My Sausage Buddy","Charlotte","NC","28105",35.1105564,-80.7103532,"1","Food, Italian, Food Trucks, Hot Dogs, Restaurants"
"490",146037,"Nathan's Famous","North Las Vegas","NV","89084",36.2926598068,-115.1791308942,"1","Hot Dogs, Restaurants"
"491",144756,"The Village Melt","Sewickley","PA","15143",40.5409783,-80.1816454,"0","Hot Dogs, Sandwiches, Restaurants, Burgers"
"492",598,"Nathan's Famous","Las Vegas","NV","89109",36.104544,-115.175439,"0","Hot Dogs, Cheesesteaks, Fast Food, American (New), Restaurants"
"493",59293,"Freddy's Frozen Custard & Steakburgers","Anthem","AZ","85086",33.8436442996,-112.131864801,"1","Fast Food, Food, Hot Dogs, Burgers, Ice Cream & Frozen Yogurt, Desserts, Restaurants"
"494",3050,"BurgerFi","Mesa","AZ","85204",33.380437,-111.753369,"1","American (Traditional), Burgers, Hot Dogs, American (New), Restaurants"
"495",184128,"JJ's Red Hots - Ballantyne","Charlotte","NC","28277",35.0531562,-80.8471264,"1","Sandwiches, Restaurants, Hot Dogs, American (New)"
"496",103411,"Joey's of Chicago","Surprise","AZ","85379",33.6089132,-112.3590953,"0","Sandwiches, Restaurants, Italian, American (Traditional), Hot Dogs, Burgers"
"497",37096,"Fat City Franks","Calgary","AB","T2S 1W6",51.0344894877,-114.0717252887,"0","Restaurants, Hot Dogs"
"498",168598,"Wendy's","Charlotte","NC","28216",35.3239736,-80.9460663,"1","Burgers, Restaurants, Hot Dogs, Fast Food"
"499",174665,"Wienerschnitzel","Champaign","IL","61821",40.1132173068,-88.2831241065,"1","Fast Food, Hot Dogs, Sandwiches, Restaurants, Burgers"
"500",77403,"Joey's of Chicago","Glendale","AZ","85308",33.6385521909,-112.2041201591,"0","Restaurants, Hot Dogs"
"501",123383,"The Counter: Custom Built Burgers","Charlotte","NC","28211",35.1521263838,-80.8279180527,"0","Hot Dogs, Restaurants, Burgers"
"502",11752,"Burger King","Queen Creek","AZ","85142",33.2814172644,-111.6856128861,"1","Hot Dogs, Burgers, Restaurants"
"503",122126,"Water & Ice Cream","Phoenix","AZ","85013",33.487964,-112.084175,"0","Restaurants, Shaved Ice, Hot Dogs, Ice Cream & Frozen Yogurt, Food"
"504",180342,"Restaurant Station Hot-Dog Montreal","Pierrefonds","QC","H9H 4K3",45.4802046,-73.8644208,"1","Restaurants, Burgers, Breakfast & Brunch, Hot Dogs"
"505",60723,"Brighton Hot Dog Shoppe","Moon TWP","PA","15108",40.5212671,-80.2197775,"1","Hot Dogs, Restaurants"
"506",129429,"Hot Dog Haus","Las Vegas","NV","89104",36.1439997,-115.146423,"0","Restaurants, Hot Dogs"
"507",8530,"Fancy Franks","Toronto","ON","M5V 2A9",43.6484153,-79.3969927,"1","Restaurants, Food, Fast Food, Hot Dogs, Burgers"
"508",122813,"Restaurant Mont Royal Hot Dog","Montréal","QC","H2J 1X7",45.5274955,-73.5798438,"1","Hot Dogs, Restaurants, Burgers, Fast Food"
"509",9238,"Detroit Coney Grill","Phoenix","AZ","85003",33.449487,-112.0742204,"1","American (New), Event Planning & Services, Hot Dogs, Restaurants, Burgers, Caterers"
"510",51559,"Cook Out","Charlotte","NC","28212",35.2020726,-80.7348944,"1","Hot Dogs, Restaurants, Burgers, Sandwiches, Fast Food"
"511",164699,"Burger Inn","Calgary","AB","T2S 1V8",51.0372431,-114.0719353,"1","Burgers, Hot Dogs, Fast Food, Restaurants"
"512",8014,"Miller & Kasper","Gastonia","NC","28052",35.2637329102,-81.1819915771,"0","Diners, Sandwiches, Restaurants, Hot Dogs, Food"
"513",32475,"Alexander's Burgers & More","Richmond Hill","ON","L4B 1G9",43.8534828,-79.3839517,"0","Restaurants, Hot Dogs, Burgers"
"514",3699,"Dirty Dogs","Montréal","QC","H2X 1A1",45.5147539242,-73.574196964,"1","Restaurants, Canadian (New), Hot Dogs, Vegan, Burgers, Poutineries"
"515",85304,"Burger King","Elyria","OH","44035",41.3778146,-82.074526,"1","Restaurants, Burgers, Fast Food, Hot Dogs"
"516",156736,"Lupita's Hot Dogs","Phoenix","AZ","85032",33.6378373236,-112.0136707705,"1","Restaurants, Food Stands, Hot Dogs"
"517",119356,"Wienerschnitzel","Las Vegas","NV","89108",36.2173600884,-115.213061701,"1","Sandwiches, Food, Ice Cream & Frozen Yogurt, Hot Dogs, Fast Food, Restaurants"
"518",67578,"Burger King","Phoenix","AZ","85043",33.4225043,-112.2228701,"1","Restaurants, Burgers, Hot Dogs"
"519",142207,"Wendy's","Gilbert","AZ","85295",33.2987727995,-111.7439163617,"1","Restaurants, Hot Dogs, Burgers, Fast Food"
"520",26510,"Manhattan Streets","Las Vegas","NV","89109",36.1087723175,-115.1726355169,"0","Hot Dogs, Restaurants, Food"
"521",117944,"Will's Doggn' It","Ranlo","NC","28054",35.2806598656,-81.1332070827,"1","Delis, Restaurants, Hot Dogs, Sandwiches"
"522",56101,"Craft Dogs","Toronto","ON","M5C 1G3",43.6497601,-79.3746797,"0","Hot Dogs, Restaurants"
"523",64198,"Orange Julep","Montréal","QC","H4P 2H4",45.495696,-73.656699,"1","Fast Food, Hot Dogs, Poutineries, Juice Bars & Smoothies, Canadian (New), Restaurants, Ice Cream & Frozen Yogurt, Food"
"524",47574,"McDonald's","Rock Hill","SC","29730",34.9723156,-80.9876685,"1","Hot Dogs, Burgers, Coffee & Tea, Fast Food, Restaurants, Food"
"525",164420,"Not Just Franks","Concord","NC","28025",35.4090355,-80.5797955,"1","Hot Dogs, Restaurants"
"526",112805,"Station Street Hot Dogs","Pittsburgh","PA","15206",40.460424,-79.919386,"0","Restaurants, Hot Dogs"
"527",141389,"Pita +","Las Vegas","NV","89109",36.1070686,-115.1713614,"1","Restaurants, Hot Dogs, Mediterranean, Food, Middle Eastern, Internet Cafes, Coffee & Tea"
"528",25213,"Burger King","Gilbert","AZ","85234",33.3591388937,-111.7902455948,"1","Restaurants, Fast Food, Hot Dogs, Burgers"
"529",61635,"Motor City Coney Island","Henderson","NV","89015",36.0354393,-114.9855761,"0","Restaurants, Hot Dogs"
"530",125752,"Big Dawgs","Phoenix","AZ","85004",33.4453626,-112.0674961,"1","Hot Dogs, Restaurants, Sandwiches, Salad"
"531",130499,"Don Guido's Chicago Style Hot Dogs","Phoenix","AZ","85073",33.566128,-112.07346,"0","Restaurants, Hot Dogs"
"532",48916,"Wendy's","Mc Kees Rocks","PA","15136",40.4755186,-80.099449,"1","Fast Food, Hot Dogs, Burgers, Restaurants"
"533",185758,"Green's Lunch","Charlotte","NC","28202",35.2282322,-80.846666,"1","Hot Dogs, American (Traditional), Restaurants, Breakfast & Brunch"
"534",10070,"Burger King","Denver","NC","28037",35.4495747532,-81.0036249795,"1","Restaurants, Hot Dogs, Burgers"
"535",130730,"Queen City Bites & Crafts","Charlotte","NC","28202",35.2256661,-80.8468307,"1","Food, Nightlife, Bars, Restaurants, Beer, Wine & Spirits, Burgers, Hot Dogs"
"536",73649,"Mom's Hot Dogs","Boulder City","NV","89005",35.9686485291,-114.857553814,"1","Restaurants, Fast Food, American (Traditional), Hot Dogs"
"537",82284,"Wildburger","Las Vegas","NV","89106",36.193937,-115.191902,"1","Burgers, Hot Dogs, Restaurants"
"538",158474,"Laura's Burgers and More","Avondale","AZ","85323",33.435586,-112.348691,"1","Ice Cream & Frozen Yogurt, Desserts, American (Traditional), Food, American (New), Hot Dogs, Restaurants, Burgers, Sandwiches, Specialty Food"
"539",43422,"Wonderdogs","Champaign","IL","61820",40.1113062,-88.2289026,"0","Hot Dogs, Restaurants"
"540",190059,"The Dog House","Cleveland","OH","44118",41.5081911492,-81.5807058048,"0","American (New), Restaurants, Food, Hot Dogs"
"541",10243,"Sammy's L.A. Pastrami & Burgers","Las Vegas","NV","89103",36.1154362,-115.2081788,"0","Sandwiches, Burgers, Hot Dogs, Restaurants, Fast Food"
"542",28501,"Maui Dog","Phoenix","AZ","85018",33.4954475,-112.0050862,"0","Hot Dogs, Restaurants, Food"
"543",39360,"The Coney Company","Cleveland","OH","44109",41.4414064507,-81.7038597764,"0","Restaurants, American (Traditional), Hot Dogs, Burgers"
"544",126218,"Hero Certified Burgers - Queen & Palmerston","Toronto","ON","M6J 1E4",43.653094,-79.3804946,"0","Hot Dogs, Burgers, Restaurants"
"545",10005,"La Pasadita Hot Dogs","Phoenix","AZ","85303",33.4939412,-112.2369546,"1","Burgers, Hot Dogs, Restaurants"
"546",165528,"Tubby Dog","Calgary","AB","T2T 0A5",51.037994,-114.085597,"1","Restaurants, Hot Dogs"
"547",162962,"Windy City Dogs","El Mirage","AZ","85335",33.5748903,-112.3260929,"1","Fast Food, Restaurants, Food, American (New), Hot Dogs"
"548",18462,"Five Guys","Calgary","AB","T2Z 0N3",50.9312805186,-113.9608194361,"1","Restaurants, Hot Dogs, Fast Food, Burgers"
"549",75557,"Queen City Wings","Charlotte","NC","28204",35.2087924477,-80.8332824707,"1","Seafood, Chicken Wings, Restaurants, Hot Dogs"
"550",122754,"Hot Dog Kings","Queen Creek","AZ","85142",33.278719896,-111.6855737487,"1","Food, Restaurants, Hot Dogs"
"551",148014,"Fusia Dog","Toronto","ON","M5V 1Z4",43.6499311,-79.3892003,"0","Hot Dogs, Restaurants"
"552",150400,"D's Sixpax & Dogz","Monroeville","PA","15146",40.43369,-79.750897,"0","Restaurants, Beer, Wine & Spirits, Food, Hot Dogs, Cocktail Bars, Nightlife, Bars"
"553",39184,"Skyline Chili","Stow","OH","44224",41.1799708,-81.4808038,"1","Restaurants, Fast Food, Hot Dogs, American (Traditional)"
"554",41253,"Haute Doggery","Las Vegas","NV","89109",36.11737,-115.171964,"1","Restaurants, Hot Dogs, American (Traditional)"
"555",67018,"Boomer's Sweet Home Chicago","Phoenix","AZ","85037",33.4780159,-112.254559,"0","Fast Food, Hot Dogs, Restaurants, Burgers"
"556",3801,"Burger King","Scarborough","ON","M1P 4W5",43.7510126,-79.2655088,"1","Fast Food, Restaurants, Hot Dogs, Burgers"
"557",129301,"Little Richies Chicago Style Beef and Dogs at Treasure Island","Las Vegas","NV","89109",36.1240302,-115.1711726,"1","Sandwiches, Restaurants, Delis, Hot Dogs"
"558",35668,"Burger King","Streetsboro","OH","44241",41.2441662,-81.3568302,"1","Restaurants, Burgers, Hot Dogs"
"559",28508,"Barton Snacks","Toronto","ON","M5R 1G8",43.6680665,-79.4120473,"0","Food, Mexican, Restaurants, Ice Cream & Frozen Yogurt, Hot Dogs"
"560",188412,"La Katra Hot Dog Cart","Tempe","AZ","85283",33.3777823,-111.9637636,"0","Food Stands, Restaurants, Hot Dogs"
"561",129605,"Burger King","Bethel Park","PA","15102",40.331439,-80.0231444,"1","Burgers, Hot Dogs, Restaurants"
"562",179367,"Topz Healthier Burger Grill","Charlotte","NC","28277",35.0429741913,-80.863494873,"0","Hot Dogs, Restaurants, Burgers"
"563",3538,"Burger King","Cleveland","OH","44109",41.4638351,-81.6874242,"1","Burgers, Fast Food, Hot Dogs, Restaurants"
"564",140740,"Sin City Dogs","Las Vegas","NV","89139",36.17311,-115.125401,"0","Food Trucks, Hot Dogs, Food, Restaurants"
"565",46022,"South St Burger","North York","ON","M3J 3N2",43.7851614279,-79.477533102,"1","Burgers, Hot Dogs, Restaurants"
"566",189280,"Nogales Hot Dogs","Phoenix","AZ","85017",33.5094668,-112.118593,"0","Restaurants, Hot Dogs, Food Trucks, Mexican, Food, Street Vendors"
"567",46066,"Burger King","Montréal","QC","H2X 3V4",45.509845,-73.5638153,"0","Hot Dogs, Fast Food, Restaurants, Burgers"
"568",103047,"Joe's Doghouse","Pittsburgh","PA","15217",40.441739,-79.941576,"1","Restaurants, Hot Dogs, Food Trucks, Food"
"569",158051,"Five Guys","Parma","OH","44129",41.3845298,-81.7429301,"1","Restaurants, Sandwiches, Burgers, Fast Food, Hot Dogs"
"570",99700,"Big Hurt's Snack Shack","Las Vegas","NV","89109",36.1183787,-115.1726202,"0","Hot Dogs, Food, Restaurants, Burgers"
"571",148341,"Higley Hot Dog Hut","Gilbert","AZ","85297",33.3067339,-111.7231562,"1","Hot Dogs, Food, Restaurants"
"572",57899,"Oh My Dog BBQ","Calgary","AB","T2X 1J6",50.9138058248,-114.0623104753,"0","American (Traditional), Poutineries, Restaurants, Sandwiches, Hot Dogs"
"573",159218,"New York Hot Dogs","Las Vegas","NV","89146",36.1522539,-115.2438386,"0","Restaurants, Food, Hot Dogs"
"574",174338,"Burger King Canada","Mississauga","ON","L4Z 1S7",43.6191086,-79.6688703,"1","Fast Food, Restaurants, Hot Dogs, Burgers"
"575",171190,"Sonio's Cafe","Las Vegas","NV","89102",36.159412,-115.192923,"1","Hot Dogs, Salad, American (Traditional), Cafes, Vegetarian, Mediterranean, Diners, Restaurants, Chicken Shop"
"576",189306,"Vincent Sous-Marins","Montréal","QC","H2R 2N2",45.540957,-73.613377,"1","Burgers, Restaurants, Hot Dogs, Fast Food"
"577",58866,"Windy City Beefs N Pizza","Las Vegas","NV","89183",36.0124990687,-115.1195255995,"1","Pizza, Restaurants, Hot Dogs"
"578",7293,"Burger Fresh","Brecksville","OH","44141",41.32112,-81.625362,"1","Restaurants, Vegetarian, Hot Dogs, Burgers"
"579",4490,"Buldogis Unleashed Food Truck","Las Vegas","NV","89117",36.1470835,-115.2982993,"1","Food Trucks, Korean, Restaurants, Hot Dogs, Food"
"580",121944,"Checkers","Las Vegas","NV","89169",36.1075972875,-115.152489349,"1","Fast Food, Hot Dogs, Burgers, Restaurants"
"581",33038,"Coney Island Gourmet Hotdogs","Las Vegas","NV","89169",36.172097,-115.19684,"1","Hot Dogs, Restaurants"
"582",142179,"The Great Dane Restaurant","Phoenix","AZ","85014",33.52812,-112.0646901,"0","Restaurants, Sandwiches, Hot Dogs"
"583",137629,"Old Fashion Hot Dogs","Cleveland","OH","44113",41.4805523,-81.7134136,"1","Restaurants, Hot Dogs, Fast Food, Burgers, Sandwiches"
"584",180193,"Brighton Hot Dog Shoppe","Pittsburgh","PA","15205",40.4268646,-80.0572905,"1","Hot Dogs, Fast Food, Restaurants, Burgers"
"585",133565,"The Prime Burger","Markham","ON","L3R 2N8",43.8469874,-79.3574889,"0","Restaurants, Hot Dogs, Burgers"
"586",109172,"Restaurant Sauvé","Hudson","QC","J7T 2H9",45.4570892915,-74.1383851369,"1","Restaurants, Burgers, Hot Dogs"
"587",145438,"Cook Out","Huntersville","NC","28078",35.4137761,-80.8566812,"1","Hot Dogs, Restaurants, Barbeque, Fast Food, Burgers, Food"
"588",71185,"Chicago Hot Dogs & Subs","Las Vegas","NV","89104",36.1475403082,-115.1558043435,"1","Hot Dogs, Food, Restaurants"
"589",142372,"Cone Zone and Grill","Cleveland","OH","44135",41.4437904,-81.8181024,"1","American (Traditional), Hot Dogs, Restaurants, Ice Cream & Frozen Yogurt, Food"
"590",77356,"El Sabroso Hot Dog","Phoenix","AZ","85019",33.495908,-112.148492,"1","Food, Hot Dogs, Mexican, Food Trucks, Restaurants"
"591",50821,"Papaya King","Las Vegas","NV","89169",36.1077114762,-115.1530939713,"0","Hot Dogs, Juice Bars & Smoothies, Food, Restaurants"
"592",1885,"Nana's Hot Dog Shop","Pittsburgh","PA","15212",40.455929,-80.0065429,"1","American (Traditional), Restaurants, Food, American (New), Hot Dogs"
"593",43094,"Windy City Express","Urbana","IL","61801",40.1161725,-88.2086633,"1","Hot Dogs, Restaurants, Burgers"
"594",18873,"Wendy's","Charlotte","NC","28212",35.1796815,-80.7536019,"0","Fast Food, Hot Dogs, Burgers, Restaurants"
"595",187280,"Wienerschnitzel","Glendale","AZ","85305",33.5525657,-112.2609671,"1","Sandwiches, Hot Dogs, Restaurants, Fast Food"
"596",9736,"Taste of Chicago","Scottsdale","AZ","85254",33.6129703,-111.927068,"1","Restaurants, Hot Dogs"
"597",168095,"Cook Out","Charlotte","NC","28215",35.2368507385,-80.7379760742,"1","Hot Dogs, Burgers, Restaurants, Fast Food"
"598",19178,"Dog Town Chili Dogs","Tempe","AZ","85281",33.423411,-111.94049,"0","Food, Restaurants, Hot Dogs"
"599",27377,"Smashburger","Mesa","AZ","85215",33.467537,-111.682818,"1","Salad, Restaurants, Hot Dogs, American (Traditional), Burgers"
