"","business_id","name","city","state","postal_code","latitude","longitude","is_open","categories"
"1",159540,"Ravi Soups","Toronto","ON","M5V 1R1",43.6475853,-79.3920316,"1","Soup, Restaurants, Sandwiches"
"2",55440,"Restaurant Nhu Y","Montréal","QC","H2R 2X1",45.5331108,-73.6195176,"0","Vietnamese, Restaurants, Soup"
"3",132930,"Panera Bread","Chandler","AZ","85248",33.2481682645,-111.8397652668,"0","Food, Sandwiches, Restaurants, Soup, Bakeries, Salad"
"4",34573,"Joeys of Chicago","Phoenix","AZ","85018",33.4949805,-111.9898781,"0","Soup, Sandwiches, Hot Dogs, Restaurants"
"5",116415,"Panera Bread","Richmond Hill","ON","L4C 5G2",43.8568578495,-79.4344568253,"1","Salad, Bagels, Breakfast & Brunch, Sandwiches, Food, Bakeries, Soup, Restaurants"
"6",92600,"Imsiam Thai Restaurant and Noodle","Las Vegas","NV","89102",36.1440225,-115.195896,"0","Thai, Noodles, Soup, Restaurants"
"7",90410,"Ravi Soup","Toronto","ON","M6R 1A7",43.6393223111,-79.4425679049,"1","Sandwiches, Soup, Restaurants"
"8",80030,"Earl of Sandwich","Tempe","AZ","85281",33.4251725238,-111.9397368282,"0","Salad, Wraps, Event Planning & Services, Soup, Caterers, Sandwiches, Food, Restaurants"
"9",117928,"Pizza Ranchini","Verona","PA","15147",40.5024446,-79.8125826,"1","Italian, Restaurants, Chicken Wings, Soup, Pizza"
"10",75689,"Œuf et Bœuf","Montréal","QC","H1Y 1X8",45.54922,-73.5741848,"0","Restaurants, Breakfast & Brunch, Soup"
"11",111929,"Pho Tai Bac","Richmond Hill","ON","L4C 9M5",43.8598981278,-79.4338684157,"1","Vietnamese, Soup, Restaurants"
"12",89018,"Panera Bread","North Ridgeville","OH","44039",41.385899,-81.9751,"1","Sandwiches, Bagels, Soup, Breakfast & Brunch, Salad, Restaurants, Bakeries, Food"
"13",181507,"YasikNara","Las Vegas","NV","89102",36.1258783,-115.203633,"1","Soup, Nightlife, Bars, Korean, Restaurants"
"14",81918,"Panera Bread","Tempe","AZ","85281",33.432945436,-111.9055820909,"1","Soup, Sandwiches, Restaurants, Salad"
"15",155666,"King & I","Las Vegas","NV","89119",36.1001658,-115.1389824,"1","Thai, Salad, Soup, Restaurants"
"16",181866,"Soupesoup","Montréal","QC","H2W 1G8",45.5178756,-73.5785416,"0","Sandwiches, Restaurants, Cafes, Soup"
"17",18060,"Panera Bread","Murrysville","PA","15668",40.421806,-79.661538,"1","Restaurants, Breakfast & Brunch, Sandwiches, Bagels, Food, Salad, Soup"
"18",139494,"Panera Bread","Allison Park","PA","15101",40.602218,-79.945617,"1","Bagels, Soup, Salad, Restaurants, Food, Sandwiches, Breakfast & Brunch"
"19",157938,"China Wok","Middleton","WI","53562",43.0967246413,-89.4980389997,"1","Soup, Seafood, Restaurants, Chinese"
"20",99336,"Cafe 56","Cleveland","OH","44124",41.5214960134,-81.4373204383,"1","Salad, Sandwiches, Soup, Restaurants"
"21",96962,"Lafontaine - Comptoir & Marché Express","Montréal","QC","H2L 3M8",45.5244414,-73.5726497,"1","Organic Stores, Restaurants, Juice Bars & Smoothies, Food, Soup"
"22",170774,"Pho Bamboo","Mesa","AZ","85201",33.413244,-111.8735797,"0","Restaurants, Vietnamese, Soup, Noodles"
"23",21904,"Mr Sub","Scarborough","ON","M1X 1E6",43.8223937,-79.2472657,"1","Salad, Soup, Restaurants, Sandwiches"
"24",57261,"Mekong Restaurant","Pittsburgh","PA","15216",40.395543,-80.034904,"1","Chinese, Soup, Vietnamese, Restaurants, Asian Fusion"
"25",178750,"Spitfirez Catering","Wilmerding","PA","15148",40.395472,-79.806074,"1","Food Delivery Services, Event Planning & Services, Restaurants, Food, Barbeque, Bartenders, Caterers, Soup, Sandwiches"
"26",168420,"Spice and Aroma","Mississauga","ON","L5A 1W4",43.5838643,-79.6127916,"1","Soup, Restaurants, Chinese"
"27",157279,"Potbelly Sandwich Shop","Madison","WI","53719",43.058245,-89.504807,"1","Juice Bars & Smoothies, Food, Salad, Soup, Delis, Fast Food, Restaurants, Sandwiches"
"28",33200,"The Farm Kitchen","Phoenix","AZ","85042",33.390829,-112.0129594,"1","Sandwiches, Soup, Restaurants, Breakfast & Brunch, Salad"
"29",114955,"Sweet Tomatoes","Phoenix","AZ","85012",33.5096666571,-112.0717401263,"0","Buffets, Salad, Soup, Vegetarian, Restaurants"
"30",153306,"Freshii","Toronto","ON","M5V 2L4",43.6477264,-79.3962471,"1","Soup, Juice Bars & Smoothies, Restaurants, Food, Sandwiches"
"31",139269,"Panera Bread","Highland Heights","OH","44143",41.539594,-81.451432,"1","Bagels, Restaurants, Sandwiches, Soup, Breakfast & Brunch, Salad, Bakeries, Food"
"32",190145,"Sweet Tomatoes Field Kitchen","Peoria","AZ","85382",33.637715,-112.2223053,"0","Vegetarian, Soup, Restaurants, Buffets, Salad"
"33",156770,"C'mon Let's Eat","Cleveland","OH","44115",41.499097,-81.68919,"0","Food, Soup, Restaurants, Desserts"
"34",5782,"Thé Mon Café","Montréal","QC","H2Y 3Y8",45.5018456042,-73.5588258505,"1","Desserts, Soup, Sandwiches, Breakfast & Brunch, Restaurants, Coffee & Tea, Food, Cafes"
"35",120818,"Ravi Soups","Toronto","ON","M6P",43.661585,-79.455197,"1","Sandwiches, Restaurants, Soup"
"36",122533,"Spice Spirit Chinese Cuisine and Bar","Mesa","AZ","85201",33.4133181,-111.8740924,"1","Restaurants, Szechuan, Soup, Noodles, Chinese, Seafood"
"37",110159,"Red's Catering","Twinsburg","OH","44087",41.2847462774,-81.4410142888,"1","Soup, Event Planning & Services, Buffets, Sandwiches, Caterers, Restaurants, Breakfast & Brunch, Salad"
"38",110592,"Pho MC","Brossard","QC","J4X 2S6",45.448805,-73.471791,"1","Vietnamese, Barbeque, Restaurants, Soup"
"39",179233,"China Ichiban","Pleasant Hills","PA","15236",40.3375560832,-79.9761933088,"1","Chinese, Seafood, Restaurants, Soup"
"40",112140,"Orca  The Sandwich Shoppe","Toronto","ON","M6N 3S3",43.685922,-79.4869324,"1","Soup, Sandwiches, Salad, Restaurants"
"41",61410,"Buk Chang Dong Soon Tofu","Richmond Hill","ON","L4B 1Y3",43.8503381,-79.4079651,"1","Soup, Restaurants, Korean"
"42",159423,"Inchin's Bamboo Garden","Charlotte","NC","28262",35.3164051,-80.7400202,"1","Noodles, Soup, Asian Fusion, Restaurants, Chinese, Salad, Pan Asian"
"43",43242,"Panera Bread","Chandler","AZ","85248",33.248227,-111.839767,"1","Sandwiches, Soup, Restaurants, Salad, Cafes"
"44",106791,"Ladles","Fort Mill","SC","29715",35.0571301,-80.9344997,"1","Sandwiches, Soup, Restaurants, Salad"
"45",70753,"Panera Bread","Las Vegas","NV","89118",36.0573979,-115.2422172,"1","Restaurants, Salad, Sandwiches, Soup"
"46",174695,"Xavier Artisan","Montréal","QC","H2Y 2B2",45.5025048,-73.5546985,"0","Sandwiches, Soup, Ice Cream & Frozen Yogurt, Food, Restaurants"
"47",65124,"Q Bistro","Las Vegas","NV","89146",36.1273969,-115.2240685,"1","American (New), Nightlife, Korean, Bars, Barbeque, Chicken Wings, Restaurants, Asian Fusion, Pizza, Soup"
"48",36216,"Royal Indian Bistro","Las Vegas","NV","89103",36.1168022203,-115.1856471948,"1","Ethnic Food, Indian, Food, Vegan, Bars, Vegetarian, Specialty Food, Nightlife, Restaurants, Soup"
"49",185360,"Café Zupas","Las Vegas","NV","89118",36.0603197442,-115.2416230813,"1","Salad, Restaurants, Soup, Sandwiches, American (New)"
"50",21005,"Freshii","Toronto","ON","M4W 1A9",43.670347,-79.3853019,"1","Restaurants, Soup, Sandwiches, Breakfast & Brunch"
"51",60719,"Twisted Meltz","Kent","OH","44240",41.1535258,-81.3568781,"1","Sandwiches, Burgers, Food, Soup, Ice Cream & Frozen Yogurt, Restaurants, American (Traditional), Salad"
"52",134909,"Ô Claf","Montréal","QC","H3G 1W9",45.500084,-73.577303,"1","Sandwiches, Specialty Food, Soup, Salad, Delis, Restaurants, Food"
"53",169546,"Saigon Gourmet Vietnamese Restaurant","Calgary","AB","T2C 2C5",50.9974558,-114.0203494,"1","Vietnamese, Restaurants, Noodles, Soup"
"54",131117,"The Submarine","Calgary","AB","T2E 2Z6",51.0951903,-114.0629513,"1","Restaurants, Vietnamese, Sandwiches, Soup"
"55",151702,"Soupesoup","Montréal","QC","H3G 2C1",45.49876,-73.5786786,"0","Soup, Canadian (New), American (New), Sandwiches, Restaurants"
"56",89948,"Pho 90","Las Vegas","NV","89102",36.1260081178,-115.1984550092,"1","Restaurants, Vietnamese, Food, Sandwiches, Coffee & Tea, Breakfast & Brunch, Soup"
"57",187126,"Hawthorn Grill","Las Vegas","NV","89145",36.175749,-115.291755,"1","Bars, Restaurants, Nightlife, Soup, American (New), Steakhouses"
"58",93975,"Pizza Care","Pittsburgh","PA","15219",40.438725,-79.984349,"1","Restaurants, Soup, Pizza, Wraps, Specialty Food, Pasta Shops, Italian, Sandwiches, Food, American (New)"
"59",35411,"Gadzooks Enchiladas & Soup","Phoenix","AZ","85014",33.4872149418,-112.0647604613,"1","Restaurants, Specialty Food, Food, Soup, Breakfast & Brunch, Local Flavor, Mexican, Tacos"
"60",68403,"Deer Garden Signatures","Richmond Hill","ON","L4B 3Z4",43.844369,-79.384662,"1","Soup, Restaurants, Chinese, Noodles"
"61",167825,"Me Vietnamese Kitchen","Gastonia","NC","28056",35.2613882214,-81.1321284994,"1","Restaurants, Comfort Food, Vietnamese, Bubble Tea, Sandwiches, Gluten-Free, Soup, Noodles, Food"
"62",159737,"Souvlaki Hut","Toronto","ON","M6S 1M8",43.6517188,-79.4745649,"1","Food, Restaurants, Salad, Greek, Sandwiches, Soup"
"63",31901,"Panera Bread","Phoenix","AZ","85016",33.5102572705,-112.028929691,"0","Salad, Soup, Sandwiches, Restaurants"
"64",62682,"Booming Pot Noodles","Las Vegas","NV","89102",36.1268272,-115.2075436,"0","Taiwanese, Restaurants, Chinese, Soup"
"65",97677,"Panera Bread","Pittsburgh","PA","15237",40.5702463735,-80.021790831,"1","Salad, Sandwiches, Soup, Restaurants"
"66",115735,"Panera Bread","Strongsville","OH","44136",41.3141693629,-81.83472,"1","Breakfast & Brunch, Bagels, Soup, Sandwiches, Salad, Food, Restaurants"
"67",159209,"Panera Bread","Tempe","AZ","85284",33.334007,-111.967197,"1","Sandwiches, Restaurants, Salad, Soup"
"68",24665,"Swaddee Thai Cuisine","Chandler","AZ","85226",33.3193026,-111.9288807,"1","Vegetarian, Restaurants, Seafood, Thai, Soup"
"69",21214,"Tony's Vietnamese Noodle Restaurant","Airdrie","AB","T4A 0E1",51.2621353,-113.9938213,"1","Vegetarian, Restaurants, Soup, Vietnamese"
"70",86742,"Shorty's Sandwich Shop","Phoenix","AZ","85040",33.4066905,-112.0001763,"1","Breakfast & Brunch, Restaurants, Salad, Food, Sandwiches, Event Planning & Services, Soup, Grocery, Delis, Caterers"
"71",140301,"My Sandwich","Toronto","ON","M5V 1Z7",43.6501306,-79.3904119,"0","Soup, Restaurants, Sandwiches"
"72",135678,"Cafe Zupas","Glendale","AZ","85308",33.6399609671,-112.2198586911,"0","Sandwiches, American (Traditional), Salad, Restaurants, Soup"
"73",172455,"Panera Bread","Charlotte","NC","28210",35.151154,-80.841072,"1","Restaurants, Bagels, Breakfast & Brunch, Bakeries, Soup, Salad, Sandwiches, Food"
"74",32232,"Pho Vaughan","Vaughan","ON","L4K",43.8286745,-79.537128,"1","Noodles, Vietnamese, Soup, Restaurants"
"75",140628,"Pho Bo To","North York","ON","M6L 3C9",43.7045581,-79.4921887,"1","Noodles, Soup, Vietnamese, Restaurants"
"76",85569,"Momofuku Noodle Bar","Toronto","ON","M5H 0A3",43.649678,-79.386275,"1","Ramen, Soup, Korean, Japanese, Asian Fusion, American (New), Chinese, Restaurants"
"77",32018,"Spice Cafe and Lounge","Calgary","AB","T2P",51.0482063,-114.0790428,"1","Asian Fusion, Restaurants, Malaysian, Soup, Burgers"
"78",82136,"Chopstixpress","Toronto","ON","M6M 2P5",43.702525,-79.4771997,"1","Noodles, Restaurants, Fast Food, Chinese, Soup"
"79",25078,"Zoup!","Richmond Hill","ON","L4B 0E2",43.8615176,-79.3894713,"0","Soup, Restaurants, Sandwiches, Salad"
"80",160216,"Soupe Café","Montréal","QC","H3J 1N9",45.4817384,-73.5773604,"1","Restaurants, Soup"
"81",148127,"Fondue de Pekin","Brossard","QC","J4X 1C2",45.4516057511,-73.46872475,"1","Restaurants, Fondue, Chinese, Hot Pot, Soup"
"82",70847,"Brock Sandwich","Toronto","ON","M6H 1N5",43.6589060729,-79.4405779422,"1","Fast Food, Sandwiches, Restaurants, Soup, Salad"
"83",157713,"Ariel's Grill Point","Phoenix","AZ","85022",33.6395601368,-112.04735443,"0","Restaurants, Russian, Mediterranean, Salad, Soup, Steakhouses, Kosher"
"84",141155,"Souper Market","Cleveland","OH","44111",41.4504923693,-81.8152962638,"1","Salad, Restaurants, Vegetarian, Soup"
"85",29156,"Potbelly Sandwich Shop","Charlotte","NC","28202",35.225247,-80.84618,"1","Fast Food, Salad, Soup, Sandwiches, Restaurants, Delis"
"86",141197,"Jolina's Mediterranean Cuisine","Pittsburgh","PA","15226",40.392146,-80.0172701,"1","Restaurants, Mediterranean, Middle Eastern, Soup"
"87",101847,"Dagwoods Sandwichs et Salades","Montréal","QC","H3Z 1X5",45.4895058,-73.5852657,"1","Restaurants, Salad, Caterers, Sandwiches, Soup, Event Planning & Services"
"88",100042,"Souk Tabule","Toronto","ON","M5A 1H7",43.653625746,-79.354342011,"1","Salad, Soup, Restaurants, Middle Eastern"
"89",65263,"Sushi Queen Sushi and Grill","Concord","NC","28027",35.3905776,-80.6204293,"1","Restaurants, Sushi Bars, Soup, Japanese"
"90",92623,"Panera Bread","Charlotte","NC","28277",35.053051,-80.850809,"1","Bakeries, Salad, Breakfast & Brunch, Food, Bagels, Restaurants, Soup, Sandwiches"
"91",42319,"Panera Bread","Pittsburgh","PA","15213",40.436272,-79.958116,"1","Breakfast & Brunch, Salad, Sandwiches, Food, Soup, Bagels, Restaurants"
"92",94629,"The Mayobird","Charlotte","NC","28203",35.199882772,-80.8412359308,"1","American (New), Salad, Chicken Wings, Sandwiches, Restaurants, Soup, Food, Food Trucks"
"93",160362,"Panera Bread","Parma","OH","44129",41.384195,-81.741537,"1","Sandwiches, Salad, Soup, Restaurants"
"94",177319,"Wongs To Go","Phoenix","AZ","85040",33.3988083,-112.0643361,"0","Soup, Restaurants, Chinese, Noodles"
"95",93932,"Spats Cafe","Mentor","OH","44060",41.673491,-81.282728,"1","Soup, American (New), Restaurants, Italian, Nightlife, Bars"
"96",168358,"Patron Mexican Grill","Pittsburgh","PA","15238",40.5123635794,-79.8798751831,"1","Mexican, Soup, Restaurants, Salad"
"97",23661,"Panera Bread","Madison","WI","53717",43.0731892532,-89.5248886945,"1","Salad, Bagels, Soup, Breakfast & Brunch, Food, Restaurants, Sandwiches"
"98",168906,"Panera Bread","Las Vegas","NV","89169",36.1149599775,-115.155506283,"1","Sandwiches, Salad, Restaurants, Soup"
"99",70794,"Maharana Indian Restaurant","Madison","WI","53704",43.1224002,-89.3108083,"1","Soup, Restaurants, Seafood, Indian"
"100",20256,"Panera Bread","Westlake","OH","44145",41.468284,-81.909276,"1","Breakfast & Brunch, Restaurants, Salad, Soup, Sandwiches, Bakeries, Bagels, Food"
"101",148897,"Soupçon Cochon","Montréal","QC","H2T 1A5",45.5252807861,-73.5974929109,"0","Salad, Sandwiches, Soup, Restaurants"
"102",167837,"Cookhouse","Cornelius","NC","28031",35.4883868,-80.8753534,"1","Breakfast & Brunch, American (Traditional), Soup, Restaurants"
"103",12951,"Pho Hoa","Las Vegas","NV","89169",36.1071917,-115.1521039,"1","Restaurants, Vietnamese, Soup"
"104",42130,"Terra Restaurant","Thornhill","ON","L3T 2C6",43.8277098,-79.4263009,"1","Arts & Entertainment, Nightlife, Salad, Canadian (New), Restaurants, Soup, Seafood, American (New), Jazz & Blues"
"105",106750,"Manuel's Mexican Restaurant & Cantina - Glendale","Glendale","AZ","85302",33.5821731,-112.1807053,"1","Restaurants, Mexican, Salad, Soup"
"106",134068,"Panera Bread","Charlotte","NC","28208",35.1829212854,-80.9157988331,"1","Restaurants, Salad, Sandwiches, Food, Breakfast & Brunch, Bakeries, Soup"
"107",185894,"Kazuki Sushi","Las Vegas","NV","89141",35.995198,-115.206747,"1","Restaurants, Sushi Bars, Soup, Japanese"
"108",64551,"Pho Saigon Viet-Nam","Montréal","QC","H2Z 1J6",45.5084101,-73.5600052,"1","Soup, Vietnamese, Restaurants, Chinese"
"109",129208,"Subway","Las Vegas","NV","89113",36.055948,-115.2680615,"1","Restaurants, Sandwiches, Fast Food, Soup"
"110",47366,"Panera Bread","Mentor","OH","44060",41.6540041778,-81.3784173131,"1","Sandwiches, Soup, Bagels, Breakfast & Brunch, Salad, Food, Restaurants"
"111",187127,"Great Wall Chinese Restaurant","Gilbert","AZ","85297",33.3061762584,-111.7208425684,"1","Soup, Chinese, Restaurants, Seafood"
"112",182350,"Han Chinese Kabob & Grill","Cleveland","OH","44114",41.5093232,-81.6621933,"1","Restaurants, Chinese, Noodles, Specialty Food, Kebab, Soup, Food"
"113",145855,"Perfect Pear Bistro","Phoenix","AZ","85048",33.3050931742,-112.0566525463,"1","Comfort Food, Food, Bars, Sandwiches, Salad, Wine Bars, Vegetarian, Nightlife, American (New), Soup, Restaurants, Beer, Wine & Spirits, Italian"
"114",137187,"Tam's Kitchen","Airdrie","AB","T4B 0R6",51.293432,-114.0133111,"1","Soup, Asian Fusion, Chinese, Vietnamese, Restaurants, Burgers"
"115",138018,"The One That Got Away","Toronto","ON","M5V 1M1",43.6443239,-79.3998254,"1","Soup, Restaurants, Sandwiches, Fish & Chips"
"116",66590,"Potbelly Sandwich Shop","Toronto","ON","M5S 2V6",43.6688572,-79.3949978,"1","Soup, Sandwiches, Restaurants, Salad, Ice Cream & Frozen Yogurt, Food"
"117",60554,"Panera Bread","Phoenix","AZ","85032",33.6003666,-111.9852719,"1","Salad, Soup, Restaurants, Sandwiches"
"118",150016,"Panera Bread","Pittsburgh","PA","15236",40.3593333319,-80.0017954577,"1","Soup, Salad, Sandwiches, Restaurants"
"119",187341,"Freshii","Toronto","ON","M5A 1L1",43.6512261293,-79.3645856157,"1","Food, Juice Bars & Smoothies, Salad, Restaurants, Fast Food, Soup"
"120",64817,"Saigon Pho & Seafood","Chandler","AZ","85224",33.3272817338,-111.858255,"1","Korean, Vietnamese, Restaurants, Seafood, Soup"
"121",186026,"Arizona Bread Company","Scottsdale","AZ","85254",33.583122,-111.9293283,"1","Sandwiches, Bakeries, Soup, Food, Restaurants"
"122",184765,"JINYA Ramen Bar","Las Vegas","NV","89103",36.1157508,-115.2068476,"1","Restaurants, Soup, Japanese, Ramen, Japanese Curry, Tapas/Small Plates"
"123",120109,"Zoup!","Willoughby","OH","44094",41.6271011,-81.4299227,"0","Soup, Sandwiches, Restaurants, Salad"
"124",178020,"Moe Pancer's","Toronto","ON","M3H 3N3",43.740755,-79.43535,"0","Delis, Restaurants, Soup, Sandwiches"
"125",88309,"Zoup!","Avon","OH","44011",41.4590595,-82.0176979,"1","Restaurants, Sandwiches, Soup, Salad"
"126",99830,"Panera Bread","Champaign","IL","61821",40.097838,-88.275366,"1","Bagels, Sandwiches, Salad, Breakfast & Brunch, Bakeries, Soup, Restaurants, Food"
"127",155132,"Three Brothers Restaurant","Etobicoke","ON","M8Y 1K8",43.6270685,-79.4985962,"1","Soup, Restaurants, Barbeque, Canadian (New), Salad, Mediterranean, Nightlife, Modern European, Bars"
"128",1726,"Cafe Sanuki","Las Vegas","NV","89102",36.124884,-115.207619,"1","Cafes, Restaurants, Japanese, Soup, Noodles"
"129",77804,"Pho Hoang Duc","Phoenix","AZ","85017",33.5083788223,-112.134555392,"1","Vietnamese, Restaurants, Soup, Asian Fusion"
"130",136505,"Souper Salad","Las Vegas","NV","89119",36.116392,-115.1358846,"0","Restaurants, Soup"
"131",52076,"Phu Quoc Island Vietnamese Restaurant","Richmond Hill","ON","L4B 3Z4",43.8448702,-79.383705,"0","Thai, Tea Rooms, Singaporean, Restaurants, Soup, Vietnamese, Food"
"132",52855,"Pho Mai Mai Restaurant","North Las Vegas","NV","89030",36.2404462279,-115.1163002245,"1","Noodles, Restaurants, Vietnamese, Soup"
"133",110260,"Panera Bread","Scottsdale","AZ","85253",33.5648452339,-111.9255567892,"1","Restaurants, Soup, Salad, Sandwiches"
"134",147503,"The Porch at Schenley","Pittsburgh","PA","15213",40.442777,-79.953151,"1","Restaurants, Soup, Sandwiches, Pizza, Burgers, American (New)"
"135",132354,"Soup-Pa","Newmarket","ON","L3Y 3Z3",44.0525474,-79.4570005,"1","Restaurants, Soup"
"136",71350,"Panera Bread","Peoria","AZ","85382",33.6377710596,-112.222918421,"1","Sandwiches, Soup, Cafes, Bakeries, Salad, Food, Restaurants"
"137",177851,"China Passion","Las Vegas","NV","89121",36.1391176,-115.0669695,"1","Food Delivery Services, Food, Soup, Chinese, Restaurants"
"138",168868,"Hot Wok Chinese Restaurant","Chandler","AZ","85225",33.3221126,-111.8221113,"1","Restaurants, Seafood, Chinese, Soup"
"139",84560,"Manuel's Mexican Restaurant & Cantina - Tempe","Tempe","AZ","85282",33.3935275,-111.888252,"1","Tacos, Tex-Mex, Soup, Mexican, Restaurants, Seafood"
"140",31179,"Panera Bread","Pittsburgh","PA","15232",40.456066,-79.937436,"1","Soup, Food, Sandwiches, Breakfast & Brunch, Salad, Bagels, Restaurants"
"141",135101,"Chan's Tea House","West View","PA","15229",40.515967754,-80.0378046557,"1","Soup, Chinese, Restaurants, Noodles"
"142",145597,"TangTangTang","Las Vegas","NV","89146",36.1261368,-115.2235111,"1","Korean, Restaurants, Soup"
"143",107872,"583 Bistro","Bay Village","OH","44140",41.47915,-81.92073,"0","Food, Bars, Nightlife, Cocktail Bars, Sandwiches, Desserts, American (New), Soup, Beer, Wine & Spirits, Diners, Restaurants"
"144",156129,"Nama Sushi","Toronto","ON","M6C 1B5",43.6813834,-79.42814,"1","Salad, Soup, Sushi Bars, Restaurants"
"145",98559,"Aishiteru Asian Bistro","Phoenix","AZ","85022",33.5961862,-112.0361235,"0","Asian Fusion, Restaurants, Soup, Breakfast & Brunch"
"146",78995,"Ginger Garden","Gilbert","AZ","85296",33.291205,-111.721475,"1","Chinese, Restaurants, Seafood, Soup"
"147",133930,"Potbelly Sandwich Shop","Phoenix","AZ","85004",33.447811,-112.072741,"1","Delis, Fast Food, Soup, Sandwiches, Restaurants, Salad"
"148",123649,"Panera Bread","Solon","OH","44139",41.392065,-81.442852,"1","Sandwiches, Food, Bagels, Salad, Breakfast & Brunch, Soup, Bakeries, Restaurants, Cafes"
"149",38921,"Pho Kim","Mesa","AZ","85202",33.4081147091,-111.8739799948,"1","Vietnamese, Desserts, Food, Soup, Restaurants"
"150",81770,"Vermont Sandwich Co","Scottsdale","AZ","85260",33.6396513,-111.8913939,"0","Sandwiches, Vegetarian, Restaurants, Breakfast & Brunch, Food, Soup, Salad, Bagels"
"151",104510,"Zheng Qing Qiao","Montréal","QC","H2Z 1Y2",45.5075526631,-73.5618257056,"0","Chinese, Soup, Fast Food, Taiwanese, Restaurants"
"152",2378,"A Xiang","Toronto","ON","M1V",43.8046042448,-79.2878653854,"1","Soup, Chinese, Restaurants"
"153",128332,"Fugu","Madison","WI","53703",43.074392,-89.3936635,"1","Chinese, Seafood, Dim Sum, Soup, Town Car Service, Asian Fusion, Limos, Local Services, Restaurants, Transportation, Hotels & Travel, Beauty & Spas, Szechuan, Thai, Day Spas, Septic Services"
"154",33568,"Chicago Deli","Solon","OH","44139",41.384056,-81.435055,"1","Soup, Delis, Sandwiches, Restaurants"
"155",121532,"The Chopped Leaf","Calgary","AB","",50.9810085587,-114.0398606086,"1","Soup, Salad, Fast Food, Restaurants"
"156",60679,"Little City Grill","Kent","OH","44240",41.1598873,-81.359595,"1","Soup, Beer, Wine & Spirits, American (Traditional), Restaurants, Food"
"157",176694,"Café Zupas","Phoenix","AZ","85016",33.508736,-112.041489,"1","Restaurants, American (New), Salad, Soup, Sandwiches"
"158",155139,"Tom + Chee","Broadview Heights","OH","44147",41.3145655,-81.6582629,"1","Salad, Soup, Sandwiches, Restaurants"
"159",103676,"Zoup!","Warrensville Heights","OH","44122",41.4470864803,-81.4972728027,"1","Soup, Restaurants, Salad, Sandwiches"
"160",177805,"Freshii","Toronto","ON","M5H 3X7",43.6478537168,-79.3829644359,"1","Salad, Restaurants, Food Court, Food, Soup, Juice Bars & Smoothies"
"161",100299,"Frais & Fresh","Montréal","QC","H2Y",45.4989482,-73.5540371,"1","Restaurants, Salad, Soup, Sandwiches, Health Markets, Specialty Food, Food"
"162",62121,"Panera Bread","Medina","OH","44256",41.16388,-81.861382,"1","Salad, Food, Sandwiches, Bagels, Restaurants, Soup, Breakfast & Brunch"
"163",49634,"Outback Steakhouse","Phoenix","AZ","85054",33.6562553802,-111.9316076825,"1","Seafood, Restaurants, Soup, Steakhouses"
"164",469,"Potbelly Sandwich Shop","Cleveland","OH","44106",41.509531,-81.604837,"1","Food, Italian, Breakfast & Brunch, Sandwiches, Fast Food, Delis, Salad, Restaurants, Juice Bars & Smoothies, Soup, Desserts"
"165",109856,"Café Zupas","Glendale","AZ","85308",33.6396122212,-112.2199456954,"1","Soup, American (New), Sandwiches, Restaurants, Cafes"
"166",160761,"Panera Bread","Champaign","IL","61820",40.138507,-88.243173,"1","Breakfast & Brunch, Bagels, Restaurants, Soup, Food, Coffee & Tea, Salad, Sandwiches, Bakeries"
"167",68380,"Delicious by Aldu Dominican Cuisine","Gilbert","AZ","85296",33.3346675,-111.7844293,"1","Burgers, Beer, Wine & Spirits, Sandwiches, Latin American, Nightlife, Salad, Breakfast & Brunch, Dominican, Soup, Restaurants, Caribbean, Food, Bars"
"168",2860,"Kenzo Ramen","Toronto","ON","M5G 1C3",43.6556064,-79.3848519,"1","Japanese, Ramen, Soup, Restaurants"
"169",144182,"Le Showwok","Montréal","QC","H3H 1M6",45.4915639,-73.5825277,"0","Soup, Asian Fusion, Restaurants"
"170",164494,"Panera Bread","Charlotte","NC","28207",35.201751,-80.824406,"1","Bagels, Food, Salad, Breakfast & Brunch, Coffee & Tea, Soup, Sandwiches, Delis, Restaurants"
"171",43196,"Empress Court","Chagrin Falls","OH","44023",41.4143997,-81.3453343,"1","Restaurants, Chinese, Chicken Shop, Soup"
"172",155484,"Red Robin Gourmet Burgers and Brews","Surprise","AZ","85374",33.6382058,-112.3625793,"1","Restaurants, American (New), Soup, Burgers, Salad"
"173",127556,"Sweet Tomatoes","Peoria","AZ","85382",33.6375975506,-112.2223644995,"1","Restaurants, Soup, Salad, Buffets, Vegetarian"
"174",107056,"Famous Toastery","Charlotte","NC","28262",35.310253,-80.749391,"1","Soup, Restaurants, Event Planning & Services, Salad, Breakfast & Brunch, Caterers, American (Traditional), Fast Food"
"175",136545,"PT Noodle","Surprise","AZ","85379",33.6088164,-112.3571291,"1","Restaurants, Food, Juice Bars & Smoothies, Noodles, Vietnamese, Soup"
"176",124976,"East Coast Wings & Grill","Waxhaw","NC","28173",34.9552617,-80.7591402,"1","Salad, Food, Chicken Wings, Soup, American (Traditional), Desserts, Tex-Mex, Restaurants"
"177",71757,"Potbelly Sandwich Shop","Scottsdale","AZ","85260",33.62767,-111.891829,"1","Fast Food, Sandwiches, Restaurants, Delis, Salad, Soup"
"178",187054,"Thai Tai","Airdrie","AB","T4B 3G2",51.26541743,-114.0042937736,"1","Bubble Tea, Restaurants, Food, Vietnamese, Soup, Noodles"
"179",177832,"Mandy's","Montréal","QC","H3G 2C1",45.49847,-73.5777443,"1","Soup, Salad, Restaurants, Cafes"
"180",44929,"Pancho & Lefty's","Stow","OH","44224",41.157987,-81.4435851,"1","Mexican, Salad, Soup, Restaurants"
"181",170925,"Panera Bread","Willoughby","OH","44094",41.627283,-81.431397,"1","Food, Coffee & Tea, Soup, Bagels, Restaurants, Breakfast & Brunch, Sandwiches, Salad"
"182",164634,"Capriotti's Sandwich Shop","Boulder City","NV","89005",35.97519,-114.8450811,"1","Restaurants, Soup, Sandwiches, Food, Food Delivery Services"
"183",42223,"Hof Kelsten","Montréal","QC","H2T 1N4",45.5203886,-73.5870333,"1","Salad, Soup, Restaurants, Bakeries, Sandwiches, Cafes, Food"
"184",64395,"Panera Bread","Las Vegas","NV","89102",36.1456186,-115.1725657,"1","Food, Sandwiches, Restaurants, Bakeries, Salad, Soup"
"185",67098,"Deer Garden Signature","Mesa","AZ","85202",33.4130573,-111.8759932,"1","Restaurants, Chinese, Asian Fusion, Soup"
"186",164801,"Sawasdee Thai & Sushi","Pittsburgh","PA","15228",40.3518600673,-80.0501363622,"1","Chicken Wings, Restaurants, Soup, Thai"
"187",32432,"Anaya's Eatery","Brampton","ON","L6T 0C2",43.726828,-79.666284,"0","Restaurants, Breakfast & Brunch, Salad, Soup, Coffee & Tea, Burgers, Food"
"188",31878,"Panera Bread","Pittsburgh","PA","15205",40.4403206,-80.1492465,"1","Soup, Bagels, Food, Breakfast & Brunch, Sandwiches, Salad, Restaurants"
"189",182678,"Pho Bosa","Las Vegas","NV","89102",36.1224049688,-115.1909583807,"1","Soup, Restaurants, Vietnamese"
"190",192605,"Surang's Thai Kitchen","Las Vegas","NV","89148",36.089771,-115.297907,"1","Thai, Restaurants, Salad, Soup"
"191",159449,"Panera Bread","Amherst","OH","44001",41.4127637372,-82.2394618394,"1","Salad, Sandwiches, Breakfast & Brunch, Bakeries, Restaurants, Cafes, Soup, Bagels, Food"
"192",140274,"Les Deux Copains","Montréal","QC","H2B 1K5",45.5726630824,-73.6500528082,"1","Burgers, Restaurants, Soup"
"193",166852,"Loving Hut Tempe","Tempe","AZ","85281",33.4214672,-111.945216,"1","Vegetarian, Soup, Vegan, Noodles, American (Traditional), Asian Fusion, Restaurants"
"194",125944,"Biryani House Kabab And Grill","Monroeville","PA","15146",40.4396998,-79.7686518,"1","Halal, Indian, Pakistani, Restaurants, Soup"
"195",64462,"Pho King Vietnamese Kitchen","Las Vegas","NV","89123",36.0189545176,-115.1172992215,"1","Vietnamese, Soup, Restaurants"
"196",124994,"The Soup Pot","Solon","OH","44139",41.3846427,-81.4352995,"0","Salad, Soup, Restaurants, Sandwiches"
"197",12182,"Panera Bread","North Olmsted","OH","44070",41.418357,-81.911685,"1","Breakfast & Brunch, Restaurants, Bagels, Food, Salad, Soup, Cafes, Bakeries, Sandwiches"
"198",55195,"Johnny's","Wilmerding","PA","15148",40.3927887,-79.8100605,"1","Restaurants, Salad, Italian, American (Traditional), Soup"
"199",37883,"Health-A-Licious","Penn Hills Township","PA","",40.4729882325,-79.8202362657,"1","Soup, Food, Food Trucks, Salad, Restaurants, Wraps"
"200",126869,"Xavier Artisan","Montréal","QC","H2Y 2W8",45.5050585,-73.5569257,"1","Soup, Ice Cream & Frozen Yogurt, Restaurants, Sandwiches, Food, Coffee & Tea"
"201",142941,"TRUE Crafted Pizza","Charlotte","NC","28277",35.0607983043,-80.8172035334,"1","Food, Restaurants, Salad, Soup, Pizza, Sandwiches"
"202",183625,"Veranda Bistro & Bar","Avon","OH","44011",41.4576201,-81.9698005,"1","Bars, Salad, Nightlife, Restaurants, Sandwiches, American (New), Soup, French"
"203",135468,"Panera Bread","Toronto","ON","M3C 0H8",43.734813402,-79.3440060318,"1","Salad, Soup, Restaurants, Bagels, Food, Sandwiches, Breakfast & Brunch"
"204",152513,"Yunshang Rice Noodle House - Warden","Markham","ON","L3R 5V1",43.821098294,-79.3267161772,"1","Noodles, Chinese, Restaurants, Soup"
"205",149691,"Panera Bread","Brunswick","OH","44212",41.237308923,-81.8128332496,"1","Salad, Restaurants, Soup, Sandwiches"
"206",102866,"Soup Du Jour","Gibsonia","PA","15101",40.5942955229,-79.9698965803,"1","Soup, Specialty Food, Grocery, Event Planning & Services, Cafes, Coffee & Tea, Food, Caterers, Desserts, Restaurants"
"207",19163,"Red House Family Restaurant","Calgary","AB","T2N 2A4",51.0595164,-114.0947531,"0","Breakfast & Brunch, Chinese, Soup, Restaurants"
"208",64649,"Marché Soupson","Montréal","QC","H2R 2W9",45.5331438,-73.6198701,"0","Food, Grocery, Sandwiches, Convenience Stores, Soup, Restaurants"
"209",105347,"Pho 88","Las Vegas","NV","89139",36.0447344,-115.2425,"1","Vietnamese, Soup, Restaurants, Noodles"
"210",122704,"Panera Bread","Las Vegas","NV","89148",36.0957996497,-115.2966007591,"1","Breakfast & Brunch, Soup, Food, Bagels, Salad, Restaurants, Sandwiches"
"211",145800,"Panera Bread","Scottsdale","AZ","85251",33.502782846,-111.9293627143,"1","Soup, Restaurants, Sandwiches, Salad"
"212",94200,"Thai Long-An","Phoenix","AZ","85013",33.5019465832,-112.0821349695,"1","Restaurants, Salad, Soup, Thai"
"213",182950,"Viet Noodle Bar","Las Vegas","NV","89146",36.1265668,-115.2132314,"1","Soup, Vietnamese, Barbeque, Restaurants"
"214",79584,"Your GG's Kitchen","Indian Trail","NC","28079",35.0632821,-80.6374175,"1","Restaurants, Soup, American (Traditional)"
"215",188232,"Rita Sandwiches & Catering","Calgary","AB","T2P 1H4",51.046243,-114.078352,"1","Event Planning & Services, Sandwiches, Soup, Caterers, Restaurants"
"216",38432,"Golden Dragon","Glendale","AZ","85306",33.625613,-112.18665,"1","Restaurants, Soup, Noodles, Chinese"
"217",79355,"Zoup!","South Euclid","OH","44118",41.501639,-81.537999,"1","Salad, Sandwiches, Restaurants, Soup"
"218",133806,"Panera Bread","Pittsburgh","PA","15220",40.395932,-80.067397,"1","Soup, Restaurants, Breakfast & Brunch, Coffee & Tea, Bagels, Food, Bakeries, Salad, Sandwiches"
"219",11489,"KINTON RAMEN","Toronto","ON","M5T 1L1",43.6560081758,-79.3935581626,"1","Noodles, Ramen, Restaurants, Japanese, Soup"
"220",153840,"Flock Rotisserie + Greens","Toronto","ON","M5V 1R4",43.647493,-79.392508,"1","Restaurants, Health Markets, Food, Fast Food, Soup, Specialty Food, Chicken Shop, Salad"
"221",50698,"Saffron Spice Kitchen","Toronto","ON","M5V 2A9",43.6485506,-79.3972173,"1","Restaurants, Indian, Soup, Sandwiches"
"222",30900,"Pho MyMy","Montréal","QC","H2J 1N2",45.5256578,-73.5860241,"1","Restaurants, Soup, Vietnamese"
"223",124739,"Thai Express","Brampton","ON","L6W 0A5",43.6784774,-79.7208288,"1","Soup, Restaurants, Thai, Fast Food"
"224",165919,"Echo Sushi","Phoenix","AZ","85086",33.7998310355,-112.1278555691,"1","Salad, Japanese, Restaurants, Sushi Bars, Soup"
"225",68531,"King's - On The Hill","Calgary","AB","T2E 3J6",51.0587454504,-114.0540491583,"1","Restaurants, Soup, Breakfast & Brunch, Chinese"
"226",87981,"China House Chinese Restaurant","Wexford","PA","15090",40.6316199,-80.059946,"1","Chinese, Restaurants, Soup, Noodles"
"227",71913,"Cherry Blossom Chinese Restaurant","Charlotte","NC","28277",35.0953817,-80.7780359,"1","Barbeque, Seafood, Ethnic Food, Chinese, Restaurants, Food, Specialty Food, Soup"
"228",16708,"Soup Nutsy","Toronto","ON","M5V 3C7",43.6459076,-79.3878224,"1","Event Planning & Services, Caterers, Breakfast & Brunch, Restaurants, Specialty Food, Soup, Food, Salad"
"229",31388,"Banh Mi 24","Toronto","ON","M1V 0C8",43.8051951,-79.2896449,"0","Vietnamese, Sandwiches, Soup, Restaurants"
"230",139287,"Coconut Seasons Hot Pot","Toronto","ON","M1V 5N1",43.8227120104,-79.3008523062,"1","Hot Pot, Soup, Restaurants"
"231",109601,"Sweet Tomatoes","Scottsdale","AZ","85250",33.538186,-111.887991,"1","Restaurants, Vegetarian, Soup, Buffets, Salad"
"232",96551,"China Lin","Pittsburgh","PA","15201",40.483491,-79.948853,"1","Chinese, Soup, Breakfast & Brunch, Restaurants, Noodles"
"233",92790,"Abokichi","Toronto","ON","M5R 1V7",43.6751348,-79.4065469,"0","Sandwiches, Japanese, Restaurants, Soup, Event Planning & Services, Caterers"
"234",106940,"Sakura Sushi","Phoenix","AZ","85044",33.348359,-111.983325,"1","Soup, Buffets, Japanese, Sushi Bars, Restaurants, Salad"
"235",143633,"Café Zupas","Mesa","AZ","85204",33.3796537,-111.7571343,"1","American (New), Restaurants, Salad, Soup, Cafes, Sandwiches"
"236",70536,"Flock","Toronto","ON","M5H 1Z5",43.6509528464,-79.3819611534,"1","Restaurants, Chicken Shop, Soup, Salad"
"237",17529,"Subway","Las Vegas","NV","89141",35.9974897,-115.2056326,"1","Soup, Sandwiches, Restaurants, Fast Food"
"238",99693,"Omelet House","Henderson","NV","89015",36.0427355,-114.9846324,"1","American (New), American (Traditional), Soup, Diners, Breakfast & Brunch, Restaurants, Burgers"
"239",46053,"Chop Crazy Créations","Montréal","QC","H3B 2M4",45.5001121,-73.5665224,"1","Restaurants, Salad, Sandwiches, Soup"
"240",145937,"Hillary Salades","Montréal","QC","H2W 2M4",45.5195447,-73.5727567,"1","Caterers, Soup, Food, Restaurants, Event Planning & Services, Food Delivery Services, Salad"
"241",61263,"Thai BBQ","Las Vegas","NV","89103",36.1129254,-115.2243713,"1","Soup, Restaurants, Chinese, Thai, Salad"
"242",173798,"Amlee Chinese Cuisine","Las Vegas","NV","89120",36.0706957,-115.0911257,"1","Soup, Chinese, Restaurants, Salad"
"243",51735,"Cousins Subs","Madison","WI","53704",43.11744,-89.323049,"1","Restaurants, Soup, Delis, Sandwiches, Event Planning & Services, Caterers"
"244",75806,"Bread Basket","Mesa","AZ","85213",33.4235200243,-111.769993566,"1","Food, Restaurants, Sandwiches, Bakeries, Soup, Coffee & Tea"
"245",42033,"Panera Bread","Pittsburgh","PA","15235",40.429091169,-79.8130032421,"1","Salad, Bagels, Sandwiches, Food, Breakfast & Brunch, Soup, Bakeries, Restaurants"
"246",187042,"Panera Bread","South Euclid","OH","44118",41.5016104641,-81.5394338967,"1","Breakfast & Brunch, Restaurants, Bakeries, Soup, Bagels, Food, Salad, Sandwiches"
"247",73318,"Souper Market","Cleveland","OH","44103",41.5021954,-81.6364003,"1","Restaurants, Food, Soup"
"248",56717,"Shang Artisan Noodle","Las Vegas","NV","89103",36.1148685,-115.2097115,"1","Restaurants, Noodles, Asian Fusion, Chinese, Soup"
"249",8182,"China One","Las Vegas","NV","89121",36.0994431805,-115.1176200807,"1","Soup, Salad, Restaurants, Chinese"
"250",29677,"Rosie's Eatery","Toronto","ON","M5M 3Y6",43.7284177,-79.4183041,"1","Vegan, Cafes, Gluten-Free, Salad, Restaurants, Soup"
"251",37697,"The Tavern of Stow","Stow","OH","44224",41.2006727685,-81.4410854504,"1","Beer, Wine & Spirits, American (Traditional), Food, Restaurants, Italian, Wraps, Soup"
"252",36084,"Ravi Soups","Toronto","ON","M6G 1A4",43.6562802,-79.4097497,"1","Salad, Breakfast & Brunch, Soup, Restaurants"
"253",188787,"Sweet Tomatoes","Tempe","AZ","85282",33.393496,-111.914905,"1","American (New), Salad, Soup, Restaurants, Vegetarian, Buffets"
"254",21581,"Hot Duck","Gilbert","AZ","85233",33.3362723,-111.8219235,"1","Soup, Noodles, Restaurants, Chinese"
"255",12647,"Panera Bread","McMurray","PA","15317",40.263010369,-80.131316185,"1","Breakfast & Brunch, Sandwiches, Bagels, Restaurants, Food, Bakeries, Salad, Soup"
"256",168958,"Garionban","Las Vegas","NV","89103",36.1259897637,-115.2024704218,"1","Restaurants, Barbeque, Soup, Korean"
"257",166324,"Panera Bread","Charlotte","NC","28226",35.0982,-80.782767,"1","Cafes, Soup, Salad, Restaurants, American (New), Sandwiches"
"258",117236,"AAamazing Salad","Toronto","ON","M5T 3K7",43.6550092448,-79.3997564537,"1","Soup, Salad, Restaurants, Fast Food, Vegetarian, Sandwiches, Noodles"
"259",87214,"Szechuan Cafe","Cleveland","OH","44114",41.5085099,-81.669681,"1","Soup, Noodles, Szechuan, Chinese, Restaurants"
"260",149312,"Zoup!","Pittsburgh","PA","15238",40.4883414,-79.8809845,"1","Salad, Sandwiches, Restaurants, Soup"
"261",183387,"Panera Bread","Matthews","NC","28105",35.051472999,-80.7689756317,"1","Sandwiches, Restaurants, Soup, Salad"
"262",175540,"Goto Queen","Las Vegas","NV","89108",36.2026400864,-115.2422241122,"0","Filipino, Restaurants, Soup, Asian Fusion"
"263",160757,"Twist Bar & Grill","Madison","WI","53719",43.0555199905,-89.4958404233,"1","Restaurants, American (New), Bars, Lounges, Sandwiches, Soup, Nightlife, Salad"
"264",32154,"Good Food Low Carb Cafe","Madison","WI","53716",43.085104,-89.300966,"1","Soup, Food Stands, Restaurants, Salad, Wraps, Breakfast & Brunch, Gluten-Free"
"265",162056,"Shalimar Bistro","Brampton","ON","L6W 2E2",43.6761398,-79.7459899,"1","Restaurants, Soup, Nightlife, Bars, Bistros, Indian"
"266",77756,"XiangXiang Noodle","Las Vegas","NV","89102",36.1255570226,-115.1967729393,"0","Restaurants, Noodles, Chinese, Soup"
"267",25912,"Bagolac Saigon","Calgary","AB","T2H 0G3",50.9983635,-114.0668951,"1","Soup, Thai, Restaurants, Salad, Vietnamese"
"268",6238,"Red Rocks Cafe-Huntersville","Huntersville","NC","28078",35.445159,-80.879415,"1","Soup, Salad, Nightlife, Event Planning & Services, Restaurants, Venues & Event Spaces, Steakhouses, Cafes, Diners, Bars, Seafood, American (Traditional)"
"269",85991,"The Grill House Local Tavern","Madison","WI","53703",43.0747897,-89.3815166,"0","Soup, American (Traditional), Sandwiches, Restaurants"
"270",132254,"Panera Bread","Oakmont","PA","15139",40.52108,-79.841511,"1","Soup, Bagels, Breakfast & Brunch, Salad, Food, Restaurants, Sandwiches"
"271",165682,"Earth Inspired Salads","Pittsburgh","PA","15219",40.4414818,-79.9965325,"1","Gluten-Free, Restaurants, Salad, Sandwiches, Vegetarian, Soup"
"272",24516,"Wok Box","Calgary","AB","T3R 1J1",51.164981,-114.127564,"1","Restaurants, Noodles, Soup, Asian Fusion"
"273",186390,"Panera Bread","Chandler","AZ","85249",33.2779994338,-111.7915685185,"1","Restaurants, Sandwiches, Salad, Soup"
"274",2318,"Panera Bread","Cleveland","OH","44106",41.509763,-81.603852,"1","Salad, Breakfast & Brunch, Sandwiches, Soup, Bagels, Restaurants, Food, Bakeries"
"275",98606,"Noodles & Company","Charlotte","NC","28262",35.3090905,-80.7477275,"1","Asian Fusion, Specialty Food, Soup, Noodles, Food, Salad, Restaurants, Pasta Shops, Thai, Italian, American (New)"
"276",128658,"Soup It Up","Toronto","ON","M5X 1K7",43.6486362,-79.3817439,"1","Soup, Restaurants"
"277",112468,"Chaya Japanese Cuisine","Pittsburgh","PA","15217",40.4338841,-79.923134,"1","Soup, Japanese, Restaurants, Sushi Bars"
"278",189283,"Panera Bread","Pittsburgh","PA","15213",40.4416203898,-79.9566856027,"1","Bakeries, Breakfast & Brunch, Restaurants, Salad, Sandwiches, Bagels, Soup, Delis, Coffee & Tea, Food"
"279",1853,"Yunnan Steamed Fish Pot","Toronto","ON","M1V 0C7",43.8058769951,-79.2883170024,"1","Soup, Restaurants, Chinese"
"280",27236,"Maison Minh","Laval","QC","H7G 2V1",45.569683085,-73.6917906627,"1","Vietnamese, Soup, Restaurants"
"281",36261,"Zheng's Kitchen","Goodyear","AZ","85338",33.4372004435,-112.4101525027,"1","Seafood, Restaurants, Soup, Chinese"
"282",145600,"Panera Bread","Chandler","AZ","85224",33.3197244,-111.8901747,"0","Soup, Restaurants, Salad, Sandwiches"
"283",11754,"Bonimi","Toronto","ON","M8X 1E7",43.6451573,-79.5204622,"1","Soup, Salad, Modern European, Restaurants, Cafes"
"284",106689,"Crile Food Emporium","Cleveland","OH","44106",41.5023661891,-81.6176582873,"1","Breakfast & Brunch, Sandwiches, Pizza, Restaurants, Soup, Food Court"
"285",184633,"OP To Go","Calgary","AB","T2S 1W3",51.03486,-114.0715028,"0","Restaurants, Vietnamese, Asian Fusion, Soup"
"286",190978,"Hachi Ramen","Tempe","AZ","85284",33.33294,-111.947758,"1","Ramen, Soup, Japanese, Noodles, Restaurants"
"287",19507,"Wraps On The Go","Toronto","ON","M5S 2W7",43.6694519,-79.3923569,"0","Event Planning & Services, Soup, Caterers, Sandwiches, Food, Restaurants, Coffee & Tea, Salad"
"288",54511,"Super Dragon","Phoenix","AZ","85020",33.5530668,-112.0558575,"1","Seafood, Restaurants, Chinese, Soup"
"289",63634,"Capriotti's Sandwich Shop","Scottsdale","AZ","85251",33.4942993,-111.9259041,"1","Sandwiches, Food, Restaurants, Salad, Soup, Cheesesteaks"
"290",74608,"My House","Chandler","AZ","85249",33.2459845,-111.7902982,"1","Chinese, Restaurants, Seafood, Soup"
"291",183367,"Simple Ingredients","Pittsburgh","PA","15222",40.4426104418,-79.9994991189,"0","Salad, Vegetarian, Soup, Restaurants, Food, Juice Bars & Smoothies"
"292",7076,"Umi Japanese Fine Dining","Ajax","ON","L1S 3V4",43.8418819271,-79.0279730782,"0","Japanese, Asian Fusion, Soup, Restaurants, Thai, Salad"
"293",80739,"Panini Factory","North York","ON","M3J 3G8",43.7551671,-79.4686885,"0","Soup, Restaurants, Italian, Sandwiches, Pizza"
"294",53978,"Panera Bread","Matthews","NC","28105",35.123889,-80.707596,"1","Sandwiches, Delis, Food, Restaurants, Soup, Breakfast & Brunch, Bagels, Salad"
"295",53246,"Panera Bread","Bridgeville","PA","15017",40.366003,-80.10807,"1","Salad, Sandwiches, Soup, Restaurants"
"296",120836,"Sweet Tomatoes Express","Henderson","NV","89052",36.0004729,-115.1055811,"0","Soup, Vegetarian, Buffets, Food, Restaurants, Salad"
"297",71417,"Good Food","Madison","WI","53703",43.0740986906,-89.3828237057,"1","Restaurants, Salad, Food, Sandwiches, Street Vendors, Food Stands, Soup"
"298",93198,"Sweet Tomatoes","Phoenix","AZ","85021",33.5779313,-112.1161484,"1","Vegetarian, Salad, Soup, Restaurants, Buffets"
"299",191566,"Panera Bread","Pittsburgh","PA","15238",40.4891772611,-79.8925406952,"1","Soup, Salad, Breakfast & Brunch, Bagels, Sandwiches, Food, Restaurants, Bakeries"
"300",150317,"Osha Thai Cafe","Scottsdale","AZ","85259",33.5855766,-111.8344051,"1","Salad, Chinese, Restaurants, Soup, Thai"
"301",11163,"Panera Bread","Henderson","NV","89014",36.0646853186,-115.039139986,"1","Soup, Food, Bakeries, Salad, Bagels, Breakfast & Brunch, Restaurants, Sandwiches"
"302",16027,"Aachi South Indian Kitchen","Tempe","AZ","85284",33.349118,-111.944979,"0","Indian, Buffets, Restaurants, Vegetarian, Seafood, Soup"
"303",140377,"The Little Sandwich Shoppe","Richmond Hill","ON","L4B 3P2",43.8461479,-79.3793528,"1","Sandwiches, Soup, Restaurants, Salad"
"304",138919,"Sweet Tomatoes Field Kitchen","Tempe","AZ","85282",33.3931044,-111.9149789,"0","Buffets, Restaurants, Vegetarian, Salad, Soup"
"305",154943,"The Chopped Leaf","Calgary","AB","T2Z",50.9326702493,-113.9628524705,"1","Salad, Sandwiches, Soup, Restaurants"
"306",31415,"Manuel's Mexican Restaurant & Cantina | Goodyear","Goodyear","AZ","85338",33.463143,-112.345783,"1","Salad, Restaurants, Mexican, Soup"
"307",71019,"Panera Bread","Brooklyn","OH","44144",41.423111,-81.760827,"1","Sandwiches, American (Traditional), Food, Restaurants, Soup, Breakfast & Brunch, Salad, Bagels"
"308",155900,"Panera Bread","Avondale","AZ","85392",33.4643757587,-112.2742706537,"1","Salad, Soup, Restaurants, Bakeries, Food, Sandwiches"
"309",82145,"Panera Bread","Hudson","OH","44236",41.238893,-81.446344,"1","Bagels, Salad, Soup, Breakfast & Brunch, Restaurants, Food, Sandwiches"
"310",101976,"Au Bon Pain","Cleveland","OH","44113",41.5013127,-81.6951744,"1","Coffee & Tea, Soup, Bakeries, Restaurants, Food"
"311",96383,"The Chopped Leaf - Airdrie","Airdrie","AB","T4B 0V7",51.2921361596,-114.0246898662,"1","Restaurants, Salad, Soup, Fast Food"
"312",3243,"Panera Bread","Toronto","ON","M5B 1R8",43.6571142451,-79.3815341592,"1","Delis, Restaurants, Sandwiches, Food, Salad, Breakfast & Brunch, Soup, Bagels, Bakeries"
"313",166246,"The Goods","Toronto","ON","M6R 2M3",43.6465869014,-79.4490116419,"1","Juice Bars & Smoothies, Fruits & Veggies, Salad, Organic Stores, Food, Vegan, Health Markets, Specialty Food, Restaurants, Vegetarian, Soup, Live/Raw Food"
"314",189584,"Fabarnak Community Cafe and Catering","Toronto","ON","M4Y 2C9",43.6665099,-79.3810045,"1","Restaurants, American (New), Cafes, Soup, Vegetarian, Canadian (New), Sandwiches, Caterers, Event Planning & Services"
"315",135117,"Panera Bread","Thornhill","ON","L4J 3M8",43.809673,-79.457857,"0","Bagels, Salad, Breakfast & Brunch, Sandwiches, Restaurants, Bakeries, Internet Cafes, Soup, Food"
"316",60865,"Earl of Sandwich","Las Vegas","NV","89109",36.109418,-115.1718738,"1","Food Delivery Services, Salad, Sandwiches, Soup, Food, Event Planning & Services, American (New), Restaurants, Caterers, Wraps"
"317",66395,"Sweet Tomatoes","Las Vegas","NV","89108",36.1972325,-115.2404624,"1","Soup, American (Traditional), Buffets, Vegetarian, Restaurants, Salad"
"318",67835,"Café Zupas","Phoenix","AZ","85050",33.6755087129,-111.9715400531,"1","American (New), Cafes, Restaurants, Sandwiches, Soup"
"319",76525,"Kaiseki Yuzu","Las Vegas","NV","89183",36.01411,-115.13497,"1","Sushi Bars, Soup, Bars, Noodles, Nightlife, Salad, Japanese, Restaurants"
"320",2349,"Panera Bread","Madison","WI","53705",43.075946,-89.446009,"1","Food, Bagels, Soup, Breakfast & Brunch, Sandwiches, Restaurants, Salad"
"321",192309,"El Veracruz Mexican Restaurant","Pineville","NC","28134",35.083984,-80.882776,"1","Soup, Restaurants, Seafood, Mexican"
"322",141167,"Affogato","Bellevue","PA","15202",40.496863,-80.058902,"0","Food, Coffee & Tea, Soup, Restaurants, Bagels"
"323",73271,"Pho Rachel","Montréal","QC","H2W 1C5",45.5182271,-73.5812756,"1","Soup, Vietnamese, Restaurants"
"324",172446,"Great Wall China Buffet","North Olmsted","OH","44070",41.415672135,-81.9118310469,"1","Chinese, Buffets, Restaurants, Soup"
"325",160329,"Fujo","Charlotte","NC","28202",35.2235104,-80.8441795,"1","Soup, Noodles, Sushi Bars, Asian Fusion, Restaurants"
"326",138811,"Zoup!","Solon","OH","44139",41.396077,-81.466119,"1","Sandwiches, Soup, Salad, American (New), Restaurants"
"327",34480,"Pholicious","Concord","NC","28027",35.3697207603,-80.7232173532,"0","Restaurants, Bubble Tea, Noodles, Soup, Food, Vietnamese"
"328",355,"Karizma","Las Vegas","NV","89103",36.1165039,-115.2068875,"0","Restaurants, Nightlife, Soup, Hookah Bars, Salad, Bars, Mediterranean"
"329",14062,"Thai Basil","Tempe","AZ","85281",33.4215393,-111.9447821,"1","Soup, Restaurants, Noodles, Thai, Delis"
"330",172606,"Potbellly Sandwich Shop","Charlotte","NC","28210",35.1526916,-80.8403747,"1","Salad, Soup, Sandwiches, Fast Food, Restaurants"
"331",102173,"The Iowa Cafe","Mesa","AZ","85205",33.4364405,-111.7184971,"1","Sandwiches, Soup, Restaurants, Flowers & Gifts, Arts & Crafts, Shopping, American (Traditional), Event Planning & Services, Cards & Stationery"
"332",93802,"Zoup!","Independence","OH","44131",41.3961257,-81.6419992,"1","Sandwiches, Salad, Soup, Food, Restaurants"
"333",113385,"Paradise Bakery & Cafe","Mesa","AZ","85206",33.390482,-111.690237,"1","Mediterranean, Restaurants, Soup, Food"
"334",185283,"Koryo Samgaetang","North York","ON","M2H 1W8",43.798412,-79.368898,"1","Korean, Restaurants, Soup, Asian Fusion, Hot Pot, Chicken Wings"
"335",37182,"Calan Beef Noodle","Calgary","AB","T2E 2T4",51.0719639,-114.0630136,"1","Soup, Noodles, Chinese, Restaurants"
"336",81283,"Subway","Las Vegas","NV","89135",36.1588236324,-115.317226641,"1","Fast Food, Restaurants, Soup, Sandwiches"
"337",123534,"The Baro Chopped Salad Shoppe","Toronto","ON","M5V 2A7",43.6484934,-79.3981133,"0","Gluten-Free, Restaurants, Salad, Fast Food, Soup"
"338",141222,"ZZ Yum Fun","Kent","OH","44240",41.1565023,-81.303316,"0","Soup, Food, Restaurants, Chinese, Vietnamese, Hot Pot, Asian Fusion, Desserts"
"339",62348,"Panera Bread","Mesa","AZ","85206",33.3902978407,-111.6899829731,"1","Salad, Restaurants, Sandwiches, Soup"
"340",134542,"Pho Vn Vietnamese Cuisine","Phoenix","AZ","85023",33.6114522,-112.1014797592,"1","Asian Fusion, Restaurants, Soup, Vietnamese, Noodles"
"341",121544,"LaoDiFang Asian Kitchen","Las Vegas","NV","89147",36.1160271,-115.2944197,"1","Restaurants, Asian Fusion, Chinese, Food Delivery Services, Soup, Food"
"342",172787,"Ravi Soups","Toronto","ON","M6J 1J3",43.6432975696,-79.4239881013,"1","Food, Restaurants, Soup"
"343",44132,"New Wok Chinese Food","Avondale","AZ","85323",33.4344308,-112.3039232,"1","Chinese, Restaurants, Soup"
"344",127587,"Potbelly Sandwich Shop","Toronto","ON","M2N 5X2",43.7625088,-79.4105316,"1","Restaurants, Soup, Sandwiches, Salad"
"345",48428,"Sprouts Restaurant","Mississauga","ON","L5N 8J4",43.6105627,-79.7487108,"1","Soup, Sandwiches, Vegan, Food, Restaurants, Salad, Gluten-Free, Canadian (New)"
"346",56068,"Chengdu Gourmet","Pittsburgh","PA","15217",40.4295421035,-79.9223725553,"1","Restaurants, Seafood, Soup, Chinese"
"347",183845,"Kusina Ni Lorraine","Las Vegas","NV","89148",36.0978155097,-115.2977913219,"1","Restaurants, Specialty Food, Barbeque, Seafood, Soup, Grocery, Filipino, Food, Ethnic Food"
"348",137858,"E-Jo Korean Restaurant","Las Vegas","NV","89104",36.1442356,-115.1453288,"1","Soup, Korean, Noodles, Restaurants"
"349",150666,"Soup Nancys","Pittsburgh","PA","15222",40.4538071,-79.9804811,"0","Soup, Restaurants"
"350",83816,"Chun Fai Chinese Eatery","Las Vegas","NV","89148",36.0689682903,-115.2986838217,"1","Restaurants, Chinese, Bubble Tea, Food, Thai, Soup"
"351",140021,"Gyros Place","Mississauga","ON","L4W 4M1",43.6413062608,-79.6321875975,"1","Soup, Restaurants, Greek, Salad"
"352",81676,"Thai Chili","Avon Lake","OH","44012",41.493608553,-82.0171231534,"1","Thai, Food, Soup, Bubble Tea, Restaurants"
"353",68923,"Eat Lunch","Toronto","ON","M6B 1P5",43.7024917,-79.4565008,"1","Event Planning & Services, Soup, Cafes, Restaurants, Sandwiches, Caterers"
"354",27565,"Leaf and Plate","Pittsburgh","PA","15232",40.4577813,-79.9279191,"0","Sandwiches, Soup, Restaurants, Mongolian, Food, Chinese, Salad, Tea Rooms"
"355",107871,"Pho Vistro","Toronto","ON","M5V 1Z4",43.6501281,-79.389043,"1","Restaurants, Soup, Breakfast & Brunch, Vietnamese, Vegetarian, Asian Fusion, Noodles, Vegan, Juice Bars & Smoothies, Food"
"356",83033,"Ping's Cafe","Fountain Hills","AZ","85268",33.571248,-111.712772,"1","Soup, Chinese, Restaurants, Chicken Shop"
"357",68979,"Chicken Salad Chick","Charlotte","NC","28280",35.2265794,-80.8428142,"0","Delis, Salad, Soup, Southern, Chicken Shop, Restaurants, American (Traditional), Cafes, Sandwiches"
"358",113299,"52nd Street Market","Pittsburgh","PA","15201",40.4787953,-79.9519381,"1","Food, Grocery, Restaurants, Soup"
"359",80270,"Potbelly Sandwich Shop","Phoenix","AZ","85003",33.466,-112.081829,"1","Sandwiches, Salad, Fast Food, Delis, Restaurants, Soup"
"360",91554,"Xe Lua Restaurant","Richmond Hill","ON","L4C 2K9",43.8771512812,-79.4160240889,"1","Vietnamese, Soup, Restaurants"
"361",123800,"Little Shop of Ice Cream","Brampton","ON","L6V 1H7",43.6871103,-79.7602275,"1","Sandwiches, Food, Restaurants, Soup, Ice Cream & Frozen Yogurt"
"362",117836,"Panera Bread","Phoenix","AZ","85034",33.4352284,-111.9978273,"1","Food, Sandwiches, Restaurants, Soup, Salad"
"363",184235,"The Chicken Scoop","Scottsdale","AZ","85254",33.6355829,-111.9210891,"1","Southern, American (Traditional), Restaurants, Sandwiches, Breakfast & Brunch, Salad, Soup"
"364",136657,"Sonata's Restaurant","Scottsdale","AZ","85253",33.5776501,-111.9277496,"1","Modern European, Soup, Nightlife, Salad, Restaurants, Bars, Event Planning & Services, Venues & Event Spaces"
"365",17017,"Cousins Subs","Middleton","WI","53562",43.1053884,-89.5101019,"0","Soup, Delis, Sandwiches, Restaurants"
"366",79226,"Hansol","Cleveland","OH","44114",41.5098858804,-81.6625014693,"0","Korean, Restaurants, Seafood, Soup, Barbeque"
"367",22769,"Aladdin's Eatery","Pittsburgh","PA","15217",40.4378199,-79.9199427,"1","Vegan, Juice Bars & Smoothies, Food, Mediterranean, Nightlife, Bars, Soup, Restaurants, Vegetarian, Middle Eastern"
"368",179761,"Si Jang","Las Vegas","NV","89103",36.1237099,-115.2073495,"1","Korean, Restaurants, Soup, Noodles"
"369",57913,"Susy's Soup & Deli","Cleveland","OH","44113",41.4969048,-81.6936185,"1","Restaurants, Sandwiches, Soup"
"370",120273,"Souper Salad","Phoenix","AZ","85008",33.478444,-111.9864838,"0","Restaurants, Soup, Buffets, Salad"
"371",158639,"Moon China Bistro - Ocotillo","Chandler","AZ","85248",33.2605025,-111.8569511,"1","Soup, Barbeque, Noodles, Restaurants, Chicken Wings, Chinese"
"372",74390,"Lucky Noodle","Markham","ON","L3R",43.8336238577,-79.3065843992,"1","Restaurants, Soup, Chinese, Food, Sushi Bars, Noodles, Japanese, Coffee & Tea"
"373",2897,"Newk's Eatery","Charlotte","NC","28246",35.227787,-80.842835,"1","Sandwiches, Caterers, Event Planning & Services, Restaurants, Soup, Pizza, Food"
"374",144249,"Potbelly Sandwich Shop","Champaign","IL","61820",40.110141,-88.231874,"1","Fast Food, Delis, Sandwiches, Restaurants, Salad, Soup"
"375",81456,"China Gourmet","Las Vegas","NV","89146",36.126426,-115.211517,"1","Chinese, Restaurants, Soup"
"376",76717,"Lehman's Deli","Westlake","OH","44145",41.4700289,-81.897178,"1","Soup, Sandwiches, Restaurants, Delis"
"377",58336,"Sandwicherie St-Henri","Montréal","QC","H4C",45.4798317,-73.5802307,"1","Sandwiches, Soup, Salad, Restaurants"
"378",149980,"Forth Avenue Kitchen & Bar","Toronto","ON","M4C 1H8",43.684691,-79.318434,"0","Bars, Lounges, Soup, Comfort Food, Burgers, Nightlife, Canadian (New), Restaurants"
"379",81097,"Beneficial Beans","Phoenix","AZ","85004",33.4624062,-112.0730776,"0","Sandwiches, Cafes, Breakfast & Brunch, Salad, Soup, Food, Restaurants, Coffee & Tea"
"380",153090,"Panera Bread","Broadview Heights","OH","44147",41.29162,-81.675579,"1","Soup, Breakfast & Brunch, Salad, Bagels, Sandwiches, Food, Restaurants"
"381",181560,"Rockaberry","Montréal","QC","H3C 1K8",45.4919261842,-73.5653467991,"1","Restaurants, Bakeries, Salad, Food, Cafes, Desserts, Soup"
"382",151749,"Mandy's","Montréal","QC","H2T 2N9",45.5209621379,-73.5949444771,"1","Vegan, Restaurants, Salad, Live/Raw Food, Cafes, Soup, American (New), Canadian (New)"
"383",22491,"Sofia's Cafe","Las Vegas","NV","89102",36.1286741,-115.1988504,"1","Italian, Pizza, Mediterranean, Restaurants, Middle Eastern, Soup"
"384",40768,"La Bodega","Cleveland","OH","44113",41.4786647,-81.6856774,"1","Restaurants, Salad, Soup, Sandwiches"
"385",40146,"Grounded Cafe & Beanery","Pittsburgh","PA","15220",40.4246266,-80.0406861,"1","Sandwiches, Coffee & Tea, Bakeries, Cafes, Restaurants, Soup, Food"
"386",170537,"Lucky Buddha","Goodyear","AZ","85395",33.4866169,-112.3657692,"1","Soup, Restaurants, Chinese, Breakfast & Brunch"
"387",90273,"Panera Bread","Ajax","ON","L1Z 1G1",43.8645723499,-79.0133500099,"1","Restaurants, Salad, Sandwiches, Soup"
"388",22502,"Café Zupas","Middleton","WI","53562",43.0907398949,-89.5257015091,"1","Salad, Sandwiches, American (New), Soup, Cafes, Restaurants"
"389",103911,"Panera Bread","Bainbridge Township","OH","44023",41.413695,-81.33986,"1","Soup, Bagels, Restaurants, Sandwiches, Bakeries, Salad, Breakfast & Brunch, Food"
"390",125274,"Anchan Thai Kitchen","Toronto","ON","M5V 1P5",43.6422885,-79.4113172,"0","Restaurants, Noodles, Thai, Soup"
"391",80257,"TangTangTang 2","Las Vegas","NV","89139",36.03172,-115.2443042,"1","Barbeque, Restaurants, Korean, Soup"
"392",84920,"The Chopped Leaf","Calgary","AB","T3R",51.1520846,-114.2095631,"1","Sandwiches, Soup, Restaurants, Salad"
"393",164744,"Crown of India","Strongsville","OH","44136",41.3114006,-81.8361247,"1","Buffets, Restaurants, Seafood, Soup, Indian"
"394",43534,"Café Zupas","Gilbert","AZ","85297",33.279561,-111.788569,"1","Restaurants, American (New), Sandwiches, Salad, Soup"
"395",57248,"Hama Sushi","Vaughan","ON","L4H 0A2",43.844798,-79.554861,"1","Japanese, Sushi Bars, Restaurants, Soup"
"396",167917,"Quidleys Delight","Charlotte","NC","28262",35.3146025,-80.7024203,"1","Restaurants, Seafood, Caribbean, Comfort Food, Vegetarian, Soup, Breakfast & Brunch"
"397",164833,"Aujla's Restaurant Bar & Grill","Calgary","AB","T3N 0E4",51.1629523,-113.959621,"1","Bars, Nightlife, American (Traditional), Soup, Restaurants"
"398",81166,"Lou Malnati's Pizzeria","Phoenix","AZ","85012",33.5105022014,-112.0722487486,"1","Pizza, Soup, Sandwiches, Restaurants, Italian"
"399",125248,"Souperfoods","Toronto","ON","M1W 3P7",43.7963926594,-79.3186916783,"1","Chinese, Restaurants, Soup"
"400",148854,"King's Cafe","Las Vegas","NV","89106",36.1778864,-115.1787423,"1","Soup, Sandwiches, Cafes, Restaurants"
"401",173785,"Pho D'licious","Las Vegas","NV","89102",36.125883,-115.203712,"0","Restaurants, Barbeque, Soup, Vietnamese"
"402",49510,"Zoup!","Middleton","WI","53562",43.0897479,-89.5275719,"1","Soup, Restaurants, Sandwiches, Salad"
"403",69610,"Café Zupas","Chandler","AZ","85226",33.3047757,-111.8983593,"1","American (New), Soup, Salad, Restaurants, Sandwiches"
"404",121219,"Panera Bread","Charlotte","NC","28211",35.153198,-80.833016,"1","Soup, Restaurants, Salad, Sandwiches"
"405",17897,"Yummy Korea","Richmond Hill","ON","L4C 3B2",43.8769309,-79.4383634,"1","Sandwiches, Japanese, Soup, Restaurants, Korean"
"406",181969,"Panera Bread","Brecksville","OH","44141",41.3206373827,-81.6227467172,"1","Salad, Soup, Bakeries, Sandwiches, Restaurants, Breakfast & Brunch, Food, Coffee & Tea, Bagels"
"407",60848,"Nüjoy","Cleveland","OH","44106",41.50847,-81.60601,"1","Chinese, Nightlife, Restaurants, Bars, Soup"
"408",137494,"Au Bout de l'Isle","Sainte-Anne-de-Bellevue","QC","H9X 1M3",45.4042503701,-73.9534094533,"1","Soup, Breakfast & Brunch, Sandwiches, Restaurants, Cafes"
"409",88872,"Panera Bread","Mentor","OH","44060",41.684725,-81.295681,"1","Bagels, Restaurants, Soup, Sandwiches, Salad, Food, Breakfast & Brunch"
"410",140568,"Pho Xinh Xinh","Calgary","AB","T2S 1A7",51.0159280655,-114.0638911352,"1","Vietnamese, Restaurants, Soup"
"411",180781,"Noodles & Company","Charlotte","NC","28203",35.206689,-80.860924,"0","Salad, Fast Food, Asian Fusion, Soup, American (Traditional), Noodles, Comfort Food, Italian, Food, Chinese, Desserts, Restaurants, Thai"
"412",63234,"Souper Market","Lakewood","OH","44107",41.4849316,-81.800013,"1","American (Traditional), Restaurants, Soup, Vegetarian"
"413",156335,"Landing Noodles","Toronto","ON","M5T 1R9",43.6578923948,-79.4016634673,"1","Restaurants, Soup, Food, Noodles"
"414",154894,"Big Wong Restaurant","Las Vegas","NV","89146",36.126663,-115.20992,"1","Chinese, Restaurants, Noodles, Taiwanese, Malaysian, Soup, Asian Fusion"
"415",175369,"Pasto di Forno","Scottsdale","AZ","85254",33.585623,-111.9276099,"0","Italian, Event Planning & Services, Restaurants, Soup, Food, Breakfast & Brunch, Sandwiches, Caterers, Desserts"
"416",63222,"Mandy's","Montréal","QC","H3B 3E9",45.5041121847,-73.5684036402,"1","Restaurants, Soup, Salad"
"417",70823,"Dragon Express","Mesa","AZ","85210",33.3783527282,-111.858223191,"1","Ethnic Food, Specialty Food, Chinese, Desserts, Food, Imported Food, Soup, Restaurants"
"418",103151,"Panera Bread","Pleasant Hills","PA","15236",40.3314729865,-79.9439789169,"1","Bakeries, Bagels, Restaurants, Soup, Salad, Sandwiches, Food, Breakfast & Brunch"
"419",62141,"Panera Bread","Sheffield Village","OH","44035",41.41887269,-82.0776329935,"1","Bagels, Restaurants, Cafes, Sandwiches, Salad, Soup, Bakeries, Food"
"420",94538,"Bottlescrew Bill's Pub / Buzzards Restaurant & Bar","Calgary","AB","T2R 0A3",51.0436825,-114.0650951,"1","Soup, Pubs, Bars, Hotels & Travel, Steakhouses, Nightlife, Tours, American (Traditional), British, Restaurants"
"421",187781,"Zoup!","Mentor","OH","44060",41.6516283,-81.3795306,"1","Soup, Salad, Restaurants, Sandwiches"
"422",39175,"Pho So 1","Las Vegas","NV","89102",36.1249835,-115.2064306,"1","Restaurants, Soup, Vietnamese"
"423",46917,"Panera Bread","Vaughan","ON","L4L 9M3",43.7884093154,-79.5453011245,"1","Italian, Bakeries, Salad, Food, Cafes, Sandwiches, Coffee & Tea, Restaurants, Soup"
"424",27239,"Scotty's Brewhouse","Champaign","IL","61820",40.092351,-88.246124,"1","Restaurants, Breweries, Brewpubs, Nightlife, Food, Burgers, American (Traditional), Beer Bar, Sports Bars, Bars, Soup, Salad"
"425",87060,"Panera Bread","Mount Lebanon","PA","15228",40.3573572094,-80.0519013405,"1","Food, Restaurants, Breakfast & Brunch, Soup, Bagels, Sandwiches, Salad"
"426",151978,"Poki Bar Central","Phoenix","AZ","85016",33.4954365,-112.0197856,"0","Sushi Bars, Restaurants, Poke, Food, Hawaiian, Japanese, Vietnamese, Soup"
"427",111299,"Freshii","Markham","ON","L3R 4X8",43.8524663,-79.3588559,"1","Juice Bars & Smoothies, Salad, Food, Restaurants, Soup"
"428",166870,"Natural Blendz","Charlotte","NC","28270",35.1355636796,-80.7380024615,"0","Food, Soup, Vegetarian, Cafes, Restaurants, Juice Bars & Smoothies, Sandwiches"
"429",101012,"Freshii","Montréal","QC","H3G 1M8",45.4995316,-73.576138,"1","Restaurants, Salad, Soup, Sandwiches"
"430",17626,"Panera Bread","Madison","WI","53703",43.067837,-89.395321,"1","Sandwiches, Bakeries, Bagels, Food, Salad, Restaurants, Soup, Breakfast & Brunch"
"431",175041,"MAD Greens - Northeast Scottsdale","Scottsdale","AZ","85260",33.6200266,-111.876887,"1","Restaurants, Food, Wraps, Juice Bars & Smoothies, Soup, Vegetarian, Salad, Sandwiches"
"432",140030,"Noodles & Company","Tempe","AZ","85281",33.4334346309,-111.9016219676,"1","Comfort Food, Asian Fusion, Salad, Chinese, Sandwiches, Japanese, Soup, Food, Specialty Food, Italian, Pasta Shops, Noodles, Restaurants, Fast Food"
"433",167311,"Zoup!","Mississauga","ON","L4W 5K1",43.638171,-79.621934,"1","Restaurants, Sandwiches, Soup, Salad"
"434",50443,"Surprise Pho Vietnamese Restaurant","Surprise","AZ","85374",33.6267644436,-112.393878899,"1","Vietnamese, Noodles, Soup, Restaurants"
"435",139650,"Panera Bread","Goodyear","AZ","85338",33.4639352,-112.3920331,"1","Soup, Restaurants, Sandwiches, Salad"
"436",159621,"Sweet Tomatoes","Phoenix","AZ","85050",33.6769879109,-111.9762262207,"1","Vegetarian, Restaurants, Soup, Buffets, Salad"
"437",13408,"Potbelly Sandwich Shop","Madison","WI","53704",43.129161,-89.303566,"1","Delis, Restaurants, Sandwiches, Salad, Fast Food, Soup"
"438",184095,"Panera Bread","Stow","OH","44224",41.164024,-81.474849,"1","Sandwiches, Soup, Salad, Restaurants"
"439",138715,"Corner Bakery Cafe","Phoenix","AZ","85004",33.452388,-112.069737,"1","Soup, Salad, Sandwiches, Cafes, Breakfast & Brunch, Bakeries, Food, Restaurants"
"440",142737,"Sugar Jam Bake Shop & Bistro","Scottsdale","AZ","85260",33.6142564,-111.9095556,"1","Food, Restaurants, Cafes, Sandwiches, Food Trucks, Barbeque, Desserts, Bakeries, Food Delivery Services, Event Planning & Services, Custom Cakes, Southern, Caterers, Soup, Coffee & Tea, Breakfast & Brunch"
"441",125566,"Mother's Tamales","Mesa","AZ","85204",33.4083552,-111.7890631,"0","Soup, Breakfast & Brunch, Mexican, Restaurants, Food, Desserts"
"442",144325,"Pulp Juice And Smoothie Bar","Mayfield Heights","OH","44124",41.519676,-81.468395,"1","Juice Bars & Smoothies, Food, Wraps, Soup, Salad, Restaurants"
"443",58759,"Zoup!","Westlake","OH","44145",41.460959,-81.953802,"1","Soup, Sandwiches, Restaurants, Salad, Vegetarian"
"444",145837,"Panera Bread","Concord","NC","28027",35.372239,-80.718169,"1","Soup, Bagels, Breakfast & Brunch, American (New), Bakeries, Salad, Sandwiches, Restaurants, Food"
"445",121355,"Gordon Ramsay Steak","Las Vegas","NV","89109",36.1123377749,-115.1716961371,"1","Steakhouses, Restaurants, Soup, Salad, American (New)"
"446",65586,"Fiasco Gelato","Calgary","AB","T2E 7M2",51.0510523,-114.0092799,"1","Food, Ice Cream & Frozen Yogurt, Street Vendors, Restaurants, Soup, Desserts"
"447",41213,"Salads UP","Madison","WI","53703",43.0744997298,-89.3956347777,"1","Soup, Salad, Restaurants, Juice Bars & Smoothies, Food, Vegetarian"
"448",122522,"Manuel's Mexican Restaurant & Cantina","Phoenix","AZ","85016",33.4953188,-112.0207629,"1","Mexican, Salad, Soup, Restaurants"
"449",15654,"Lamp Cafe","Scottsdale","AZ","85255",33.7007176275,-111.8888978893,"0","Soup, Pizza, Sandwiches, Salad, Restaurants, Italian"
"450",166296,"Noodle & Grill House","Calgary","AB","T2P 3P8",51.0472453,-114.0780948,"1","Vietnamese, Restaurants, Chinese, Noodles, Soup"
"451",79089,"Brioche Dorée","Montréal","QC","H3B 4M7",45.5006094945,-73.5692811148,"1","Food, Coffee & Tea, Sandwiches, Restaurants, Bakeries, Soup"
"452",19209,"Panera Bread","Northfield","OH","44067",41.313541,-81.524147,"1","Breakfast & Brunch, Soup, Restaurants, Sandwiches, Bagels, Food, Salad"
"453",78054,"Top Shabu-Shabu & Lounge","Pittsburgh","PA","15213",40.4412353,-79.9581511,"1","Hot Pot, Sushi Bars, Asian Fusion, Soup, Restaurants, Japanese, Seafood, Chinese"
"454",41118,"Soupesoup","Montréal","QC","H2J 1X1",45.5260517,-73.580712,"1","Sandwiches, Salad, Restaurants, Cafes, Soup"
"455",116801,"Barrio Queen","Phoenix","AZ","85050",33.6763581978,-111.9736683644,"1","Desserts, Mexican, Nightlife, Food, Restaurants, Bars, Soup"
"456",110296,"Wiang Kuk Thai Food","Markham","ON","L3R 3P9",43.8493841403,-79.3521881104,"1","Thai, Soup, Restaurants, Fast Food"
"457",180449,"Honey Baked Ham Company","Tolleson","AZ","85353",33.464052,-112.271003,"1","Restaurants, Sandwiches, Delis, Specialty Food, Meat Shops, Salad, Food, Soup"
"458",77200,"Cultures","Montréal","QC","H3B 4W5",45.4981757,-73.5663859,"1","Soup, Restaurants, Sandwiches, Salad"
"459",131665,"Café O'marguerites","Sainte-Marguerite-du-Lac-Masson","QC","J0T 1L0",46.031176771,-74.0575075597,"1","Vegetarian, Cafes, Sandwiches, Soup, Restaurants, Food, Bakeries"
"460",69914,"Saigon Jade Restaurant","Mesa","AZ","85202",33.3902489,-111.8652993,"1","Restaurants, Soup, Sandwiches, Vietnamese"
"461",187163,"Soda Bun Thai Food","Mesa","AZ","85210",33.3653600592,-111.8606037893,"1","Food Delivery Services, Food, Thai, Vegetarian, Restaurants, Salad, Soup"
"462",126796,"Sisters Tea","Mentor","OH","44060",41.6699911284,-81.332749549,"1","Sandwiches, Restaurants, Food, Soup, Coffee & Tea, Salad, Breakfast & Brunch"
"463",154360,"Golden Mango Thai Cuisine","Bradford","ON","L3Z 0G1",44.1090946,-79.5861127,"1","Juice Bars & Smoothies, Restaurants, Noodles, Soup, Food, Ramen, Thai, Japanese"
"464",93562,"Edomae Sushi and Hibachi Grill","Charlotte","NC","28216",35.3481219371,-80.8591259301,"1","Sushi Bars, Japanese, Restaurants, Food, Soup, Desserts"
"465",50061,"Panera Bread","Monroeville","PA","15146",40.438351,-79.765068,"1","Sandwiches, Soup, Food, Restaurants, Breakfast & Brunch, Bagels, Bakeries, Salad"
"466",54042,"Pho So 1","Las Vegas","NV","89102",36.1249835,-115.2064306,"0","Restaurants, Vietnamese, Thai, Soup, Korean, Noodles"
"467",61466,"The Chopped Leaf","Calgary","AB","T2C 5E1",50.9631022984,-114.0093820484,"1","Sandwiches, Salad, Fast Food, Soup, Vegetarian, Restaurants"
"468",141368,"Silk Thai Restaurant","Toronto","ON","M6P 1Z1",43.66517,-79.4661916,"1","Thai, Soup, Noodles, Restaurants"
"469",4512,"Hello Bistro","Wexford","PA","15090",40.633312,-80.058721,"1","Burgers, Restaurants, Soup, Salad"
"470",12618,"Munch A Lunch","Tempe","AZ","85281",33.4170969,-111.9618469,"1","Caterers, Event Planning & Services, American (Traditional), Sandwiches, Food, Salad, Restaurants, Soup, Coffee & Tea, Cafes"
"471",124989,"The Grill at 11 Union","Concord","NC","28025",35.4104943,-80.5807749,"1","Soup, Salad, Sandwiches, American (Traditional), Restaurants"
"472",1908,"Green Leaf's & Bananas","Las Vegas","NV","89106",36.163691,-115.157758,"1","Food, Salad, Juice Bars & Smoothies, Soup, Ice Cream & Frozen Yogurt, Restaurants"
"473",79329,"Just Braise Sandwiches","Oakville","ON","L6M 4L9",43.4661337845,-79.7464131564,"1","Sandwiches, Soup, Restaurants, Asian Fusion"
"474",74132,"Kenko - Kent","Kent","OH","44240",41.1520029,-81.3566989,"1","Sushi Bars, Restaurants, Soup, Food, Bubble Tea, Japanese"
"475",163084,"Buster's Kitchen X Bar","Etobicoke","ON","M8W 1P9",43.5927242,-79.54015,"1","Restaurants, Fish & Chips, Soup, Sandwiches, Seafood"
"476",121373,"Wildflower","Gilbert","AZ","85234",33.378983,-111.7582579,"1","Restaurants, American (Traditional), Sandwiches, Soup, Bakeries, Breakfast & Brunch, Food"
"477",56486,"Eadie's Market and Catering","Pittsburgh","PA","15219",40.4383265,-79.9990768,"1","Event Planning & Services, Soup, Restaurants, Cafes, Food, Caterers, Sandwiches, Comfort Food, Bakeries"
"478",50416,"Panera Bread","Phoenix","AZ","85051",33.5805209878,-112.122338411,"1","Bakeries, Salad, Soup, Food, Sandwiches, Cafes, Restaurants"
"479",31201,"Fresh Everyday","Markham","ON","L3R 5M3",43.857400321,-79.3030345887,"0","Soup, Canadian (New), Food Delivery Services, Chinese, Restaurants, Food"
"480",171006,"Panera Bread","Strongsville","OH","44136",41.3084543,-81.8204263,"1","Food, Soup, Caterers, Sandwiches, Breakfast & Brunch, Bagels, Event Planning & Services, Salad, Restaurants"
"481",110756,"Fish Soup Noodles House","Thornhill","ON","L3T 7P6",43.84226,-79.385677,"0","Soup, Chinese, Restaurants"
"482",98035,"Pho Bang New York","Montréal","QC","H2Z 1J4",45.5080204,-73.5592282,"1","Restaurants, Beauty & Spas, Vietnamese, Soup, Day Spas"
"483",29010,"Fujimi Japanese Steakhouse","Matthews","NC","28105",35.1268022,-80.7082811,"0","Restaurants, Soup, Japanese, Sushi Bars"
"484",79023,"Café Zupas","Avondale","AZ","85392",33.464232,-112.279894,"1","Restaurants, Sandwiches, American (New), Food, Soup, Salad"
"485",117446,"Panera Bread","Phoenix","AZ","85020",33.5378848104,-112.0574565473,"0","Food, Soup, Restaurants, Bakeries, Salad, Coffee & Tea, Sandwiches"
"486",115812,"Souper Salad","Phoenix","AZ","85051",33.5764166,-112.1180035,"1","Soup, Buffets, Salad, Restaurants"
"487",13963,"China Palace of Wexford","Wexford","PA","15090",40.6068339,-80.0525208,"1","Restaurants, Soup, Chinese, Sushi Bars"
"488",179991,"Charlotte's Homemade Goodies","Mississauga","ON","L4Z 3E4",43.6288349439,-79.667045268,"1","Sandwiches, Bakeries, Restaurants, Food, Desserts, Soup"
"489",58415,"Saigon 27","Montréal","QC","H2P 2M9",45.5411566,-73.6384782,"0","Asian Fusion, Soup, Vietnamese, Restaurants, Thai"
"490",38311,"Pho Viet Vietnamese Restaurant","Glendale","AZ","85308",33.6400698,-112.1498222,"1","Soup, Restaurants, Ethnic Food, Specialty Food, Vietnamese, Food"
"491",109745,"Panera Bread","Charlotte","NC","28277",35.051396,-80.769075,"1","Soup, Restaurants, Salad, Sandwiches"
"492",141029,"Kickstart Grille","Wickliffe","OH","44095",41.6209429,-81.455569,"0","Nightlife, Bars, Sports Bars, American (Traditional), Burgers, Salad, American (New), Soup, Restaurants"
"493",28177,"Panera Bread","Charlotte","NC","28262",35.31172178,-80.7451719046,"1","Soup, Breakfast & Brunch, Salad, Bagels, Food, Bakeries, Sandwiches, Coffee & Tea, Restaurants"
"494",41510,"Chopstick Cuisine","Mississauga","ON","L4T 1A6",43.703145,-79.644282,"1","Food, Seafood, Restaurants, Chinese, Soup"
"495",56607,"Panera Bread","Pittsburgh","PA","15206",40.456611,-79.914994,"1","Soup, Food, Bagels, Restaurants, Breakfast & Brunch, Coffee & Tea, Salad, Sandwiches"
"496",71888,"Saigon Y2K Vietnamese Restaurant","Calgary","AB","T2M 3Y7",51.069973,-114.116699,"1","Restaurants, Vietnamese, Soup, Asian Fusion"
"497",90668,"Panera Bread","Glendale","AZ","85308",33.642218,-112.2256502,"1","Sandwiches, Restaurants, Food, Salad, Soup"
"498",146707,"Panera Bread","Peoria","AZ","85383",33.711766,-112.272748,"1","Restaurants, Sandwiches, Salad, Soup"
"499",86162,"Mint Vietnamese Cuisine","Calgary","AB","T2S",51.0371059824,-114.070672,"1","Vietnamese, Restaurants, Soup"
"500",465,"Panera Bread","Pittsburgh","PA","15237",40.5427447296,-80.0086909533,"1","Soup, Restaurants, Sandwiches, Cafes, Salad"
"501",180572,"Red Lantern Pho Vietnamese Grill","Las Vegas","NV","89148",36.0864360649,-115.307593419,"1","Chicken Wings, Vietnamese, Soup, Restaurants"
"502",44875,"Mom's Family Restaurant","Cleveland","OH","44102",41.4697976,-81.7306887,"1","American (Traditional), Soup, Restaurants, Breakfast & Brunch, American (New)"
"503",85607,"Room 112","Charlotte","NC","28284",35.2270964,-80.8438287,"1","Restaurants, Chinese, Sushi Bars, Soup, Asian Fusion"
"504",65234,"Salads N Such","Mesa","AZ","85210",33.3939286,-111.8413777,"0","Restaurants, Delis, Sandwiches, Soup"
"505",16793,"Ron's Steakhouse","Las Vegas","NV","89107",36.163438,-115.207179,"1","Casinos, Event Planning & Services, Hotels, Salad, Restaurants, Steakhouses, Seafood, Hotels & Travel, Soup, Arts & Entertainment"
"506",72251,"Star Wok 2","Peoria","AZ","85381",33.5962378,-112.2197938,"0","Chinese, Restaurants, Soup"
"507",69747,"Oma's Place","Mesa","AZ","85210",33.3944393,-111.8541615,"0","Sandwiches, German, Restaurants, Soup"
"508",161300,"Café Zupas","Las Vegas","NV","89117",36.1594764,-115.2886202,"1","Soup, Salad, Sandwiches, Restaurants, American (New)"
"509",191365,"D E Thai Kitchen","Las Vegas","NV","89104",36.1584415,-115.1512002,"1","Food, Restaurants, Thai, Soup, Vegan, Seafood, Noodles"
"510",164605,"Kalok Express","Markham","ON","L3R 3P9",43.84985,-79.3476695,"1","Street Vendors, Soup, Food, Restaurants, Chinese"
"511",151795,"Village Inn","Mesa","AZ","85212",33.3248801415,-111.688051888,"1","Restaurants, American (Traditional), Breakfast & Brunch, Soup, Diners"
"512",6336,"Zoup!","Akron","OH","44333",41.1341285206,-81.6386036575,"1","Soup, Sandwiches, Restaurants, Salad"
"513",110058,"The Memory Thai","Las Vegas","NV","89121",36.1292179,-115.0875123,"1","Restaurants, Soup, Noodles, Seafood, Thai, Food, Vegetarian, Food Delivery Services, Asian Fusion"
"514",26649,"Swinging Door Bar & Grill","Rocky River","OH","44116",41.4649238586,-81.8439483643,"1","Soup, Nightlife, Bars, Restaurants, Dive Bars, Pizza"
"515",24226,"Thai Fusion","Clover","SC","29710",35.1156317005,-81.0764505342,"1","Restaurants, Thai, Soup, Noodles, Vegan"
"516",69584,"Marios Pizza House","North Versailles","PA","15137",40.3715495,-79.8278578,"1","Chicken Wings, Food Stands, Food, Restaurants, Soup, Desserts, Salad, Gluten-Free, Pizza"
"517",63187,"Noodles & Company","Madison","WI","53705",43.07572,-89.44916,"1","Salad, Restaurants, Soup, Noodles"
"518",86930,"Fu Sheng","Mesa","AZ","85205",33.4159841883,-111.7255952954,"1","Seafood, Chinese, Restaurants, Soup"
"519",139434,"Just Soups Take Out & Catering","Toronto","ON","M1B",43.8011818,-79.1990738,"1","Imported Food, Restaurants, Specialty Food, Ethnic Food, Food, Soup, Caribbean"
"520",5806,"Panera Bread","Phoenix","AZ","85022",33.639934,-112.068172,"1","Sandwiches, Salad, Restaurants, Soup"
"521",110949,"The Cantina By Campbell's","Toronto","ON","M5V 2B4",43.648026,-79.3985414,"0","Restaurants, Do-It-Yourself Food, Shopping, Pop-up Shops, Food, Soup"
"522",83024,"Pho for Days","Peoria","AZ","85382",33.6271966768,-112.2368825717,"1","Sandwiches, Juice Bars & Smoothies, Food, Vietnamese, Soup, Restaurants"
"523",187595,"Fuji Sushi & Hibachi","Middleton","WI","53562",43.0911123,-89.5275719,"1","Restaurants, Japanese, Sushi Bars, Soup"
"524",172452,"Potbelly Sandwich Shop","Tempe","AZ","85281",33.409667,-111.926046,"1","Restaurants, Delis, Soup, Fast Food, Salad, Sandwiches"
"525",29190,"Panera Bread","Fitchburg","WI","53711",43.016974,-89.42269,"1","Food, Salad, Breakfast & Brunch, Soup, Restaurants, Bakeries, Sandwiches, Bagels"
"526",172490,"Good Earth Coffeehouse","Toronto","ON","M5B 2B7",43.6568051,-79.374686,"0","Bakeries, Soup, Coffee & Tea, Sandwiches, Food, Restaurants"
"527",60662,"Joey's PSG","Mesa","AZ","85203",33.4155922556,-111.8085510479,"0","Pizza, Restaurants, Soup, Sandwiches"
"528",133223,"Panera Bread","Tempe","AZ","85283",33.3613225565,-111.9102875143,"1","Salad, Restaurants, Soup, Sandwiches"
"529",37949,"XiangZi Hotpot","Markham","ON","L3R 5M6",43.8581154,-79.3237169,"1","Chinese, Do-It-Yourself Food, Food, Hot Pot, Restaurants, Soup"
"530",99130,"Pearl Harbourfront Chinese Cuisine","Toronto","ON","M5J 1A7",43.6388865,-79.380352,"1","Chinese, Noodles, Seafood, Restaurants, Specialty Food, Food, Ethnic Food, Dim Sum, Japanese, Soup"
"531",168531,"Pane E Vino","Mississauga","ON","L4Z 3E8",43.6284956,-79.6734524,"1","Health Markets, Specialty Food, Soup, Food, Italian, Sandwiches, Coffee & Tea, Vegan, Salad, Restaurants"
"532",35238,"Tokyo Cafe","North Las Vegas","NV","89030",36.2395748,-115.1146614,"1","Ramen, Restaurants, Soup, Japanese Curry, Japanese, Salad"
"533",147870,"Lawrence","Montréal","QC","H2T 1S4",45.524132,-73.594817,"1","Canadian (New), French, Restaurants, Diners, Soup, American (New), Modern European, Breakfast & Brunch, Tapas/Small Plates"
"534",180168,"June Bug's Bar","Sutersville","PA","15083",40.238554,-79.8043036,"1","Restaurants, Breakfast & Brunch, Soup, Burgers"
"535",10251,"Panera Bread","Rocky River","OH","44116",41.464592,-81.841481,"1","Soup, Restaurants, Breakfast & Brunch, Bakeries, Food, Sandwiches, Salad, Bagels, Coffee & Tea"
"536",164341,"Carmine's Pizza Kitchen","Las Vegas","NV","89148",36.0690889,-115.2988065,"1","Food, Food Delivery Services, Salad, Restaurants, Italian, Pizza, Soup"
"537",61718,"Republic Ramen + Noodles","Tempe","AZ","85281",33.4215513185,-111.9167033545,"1","Restaurants, Food, Soup, Noodles, Specialty Food, Japanese, Ramen, Ethnic Food"
"538",29166,"Panera Bread","Bethel Park","PA","15102",40.332715,-80.022094,"1","Breakfast & Brunch, Food, Sandwiches, Soup, Salad, Bagels, Bakeries, Restaurants"
"539",44574,"Ahipoki Bowl","Scottsdale","AZ","85257",33.4792331,-111.9257468,"1","Sushi Bars, Restaurants, Desserts, Poke, Soup, Seafood, Food, Hawaiian"
"540",15772,"iPho","Charlotte","NC","28209",35.1611334,-80.8492823,"0","Vegan, Soup, Sandwiches, Vegetarian, Chicken Wings, Restaurants, Vietnamese, Noodles"
"541",189403,"Angus Pho House","Markham","ON","L3R 3P3",43.848192,-79.349857,"1","Restaurants, Noodles, Soup, Vietnamese"
"542",140903,"süüp health bar","Toronto","ON","M5B 1S8",43.6592409,-79.38286,"1","Restaurants, Salad, Vegetarian, Soup, Vegan, Bars, Nightlife"
"543",40868,"Tien Wong Hot Pot","Chandler","AZ","85224",33.33985,-111.860002,"0","Soup, Taiwanese, Restaurants, Chinese"
"544",179181,"Café In Vivo","Montréal","QC","H1V 3N7",45.5558691759,-73.5511330882,"1","Soup, Restaurants, Nightlife, Bars, Sandwiches, Cafes, Beer, Wine & Spirits, Internet Cafes, Salad, Food"
"545",101550,"Panera Bread","Etobicoke","ON","M9C 1A7",43.6150376753,-79.5560713195,"1","Bakeries, Salad, Sandwiches, Soup, Food, Restaurants, Bagels"
"546",134754,"Foodie North","Mississauga","ON","L5B 3X9",43.5831178,-79.6383911,"1","Noodles, Chinese, Restaurants, Soup"
"547",175347,"Char Kitchen + Bar","Scottsdale","AZ","85250",33.5257467786,-111.9246715533,"1","American (New), Soup, Burgers, Beer Bar, Restaurants, Bars, Mediterranean, Nightlife, Breakfast & Brunch"
"548",86859,"Shabu Fondue","Phoenix","AZ","85020",33.5515412417,-112.0579686775,"1","Asian Fusion, Hot Pot, Restaurants, Soup, Fondue"
"549",110268,"Panera Bread","Lakewood","OH","44107",41.484839,-81.79852,"1","Salad, Coffee & Tea, Food, Breakfast & Brunch, Soup, Restaurants, Sandwiches, Bagels"
"550",143260,"AZ Food Crafters - Kitchen and Catering","Chandler","AZ","85225",33.3200036,-111.8583025,"1","Empanadas, Bakeries, Event Planning & Services, Do-It-Yourself Food, Caterers, Breakfast & Brunch, Restaurants, Cafes, Food, Food Delivery Services, Specialty Food, Desserts, Soup"
"551",108390,"Bonefish Grill","Las Vegas","NV","89117",36.158502,-115.285179,"1","Soup, Seafood, American (New), Cocktail Bars, Restaurants, Nightlife, Bars"
"552",12971,"Manuel's Mexican Restaurant & Cantina - Bell Rd","Phoenix","AZ","85023",33.6397742,-112.0877381,"1","Soup, Event Planning & Services, Caterers, Mexican, Salad, Restaurants"
"553",49230,"Freshii","Toronto","ON","M9C 1A7",43.6193762011,-79.554612413,"1","Mediterranean, Food, Restaurants, Soup, Juice Bars & Smoothies, Salad, Mexican"
"554",174227,"Austins Steakhouse","North Las Vegas","NV","89032",36.1979948329,-115.1921561671,"0","Steakhouses, Salad, Soup, Restaurants"
"555",32954,"Omoide Noodles & Bowls","Las Vegas","NV","89139",36.0477111,-115.2435475,"1","Noodles, Soup, Ramen, Restaurants, Japanese"
"556",69487,"Pedro's Mexican Restaurant","Glendale","AZ","85301",33.5387032,-112.1662867,"0","Soup, Salad, Restaurants, Mexican, Tacos"
"557",19401,"24 Karrot Kitchen","Brecksville","OH","44141",41.3228269,-81.6270979,"1","Restaurants, Gluten-Free, Food, Salad, Soup, Coffee & Tea, Vegetarian"
"558",26296,"Song Huong Vietnamese Restaurant","Calgary","AB","T2E 7A2",51.0783855,-114.0124835,"1","Soup, Vietnamese, Restaurants"
"559",139670,"Fajitas A Sizzlin Celebration","Phoenix","AZ","85021",33.5764501,-112.1162953,"1","Restaurants, Tex-Mex, Salad, Soup, Mexican"
"560",170656,"Panera Bread","Broadview Heights","OH","44147",41.2924309872,-81.6714084148,"1","Coffee & Tea, Soup, Breakfast & Brunch, Bagels, Salad, Food, Restaurants, Bakeries, Sandwiches"
"561",122721,"Redwood Steakhouse","Las Vegas","NV","89101",36.1730667437,-115.1448063583,"1","Salad, Steakhouses, Soup, Restaurants"
"562",190444,"Jjanga Fusion Pocha","Las Vegas","NV","89146",36.1429443,-115.2265555,"0","Pizza, Karaoke, Soup, Nightlife, Restaurants, Asian Fusion, Bars"
"563",18215,"Panera Bread","Phoenix","AZ","85085",33.7145586134,-112.1107135423,"1","Salad, Soup, Bakeries, Food, Restaurants, Sandwiches"
"564",146094,"California Pizza Kitchen","Las Vegas","NV","89119",36.0814661072,-115.1377658982,"1","Salad, Restaurants, Soup, American (Traditional), Pizza"
"565",50871,"Salvadoreno Restaurant","Las Vegas","NV","89101",36.179507,-115.141043,"1","Latin American, Breakfast & Brunch, Soup, Restaurants"
"566",147887,"Panera Bread","Charlotte","NC","28203",35.2034162,-80.8385574,"1","Restaurants, Sandwiches, Soup, Salad"
"567",27087,"Esther Queen of Soups","Toronto","ON","M4W 3E2",43.6704775,-79.3872779,"1","Soup, Restaurants"
"568",3356,"Minneci's at the Crossing","Champaign","IL","61822",40.081711927,-88.2963885071,"0","Wine Bars, Bars, Soup, Restaurants, Italian, Nightlife"
"569",87301,"Hong Kong Cafe","Las Vegas","NV","89109",36.1242284,-115.168472,"1","Hotels & Travel, Hotels, Arts & Entertainment, Hong Kong Style Cafe, Asian Fusion, Restaurants, Dim Sum, Noodles, Event Planning & Services, Nightlife, Soup, Chinese, Casinos, Bars"
"570",146520,"Arizona Sandwich Co & Catering","Tempe","AZ","85281",33.4213995886,-111.9691525955,"1","Sandwiches, Food, Fruits & Veggies, Restaurants, Specialty Food, Soup, Food Delivery Services, Internet Cafes, Salad, Caterers, Breakfast & Brunch, Event Planning & Services, Delis"
"571",113158,"QDOBA Mexican Eats","Tempe","AZ","85287",33.4172791,-111.9342492,"1","Fast Food, Soup, Caterers, Breakfast & Brunch, Mexican, Event Planning & Services, Restaurants"
"572",99272,"Abacus Inn Chinese Restaurant","Phoenix","AZ","85053",33.6092435,-112.1345905,"1","Cantonese, Hotels, Vegetarian, Hotels & Travel, Restaurants, Chinese, Event Planning & Services, Caterers, Chicken Wings, Soup, Noodles"
"573",190981,"Egg Works","Henderson","NV","89052",35.9952824,-115.1016894,"1","Nightlife, Bars, Restaurants, Cafes, American (Traditional), Breakfast & Brunch, Soup, Burgers"
"574",112195,"Hua Sang Seafood Restaurant","Toronto","ON","M5T 1Y9",43.6557848,-79.3937013,"1","Soup, Noodles, Seafood, Restaurants"
"575",137084,"Erbert and Gerbert's","Sun Prairie","WI","53590",43.1878208,-89.2278884,"1","Restaurants, Sandwiches, Fast Food, Soup"
"576",80263,"Bowl Of Pho","Woodmere","OH","44122",41.4633454,-81.4854769,"1","Vietnamese, Restaurants, Specialty Food, Ethnic Food, Soup, Food, Vegetarian"
"577",90583,"Panera Bread","Mayfield Heights","OH","44124",41.5161522695,-81.4506535606,"0","Soup, Sandwiches, Food, Bagels, Breakfast & Brunch, Bakeries, Salad, Restaurants"
"578",52102,"Zoup!","Oakville","ON","L6H 6A2",43.5203011,-79.682368,"0","Soup, Salad, Sandwiches, Restaurants"
"579",97759,"Corner 11 Bowl & Wrap","Cleveland","OH","44113",41.479503,-81.6890007,"1","Food, Restaurants, Soup, Poke, Asian Fusion"
"580",77389,"Potbelly Sandwich Shop","Cleveland","OH","44135",41.407609,-81.841614,"1","Chicken Shop, Delis, American (Traditional), Soup, Salad, Sandwiches, Fast Food, Restaurants"
"581",51940,"Panera Bread","Amherst","OH","44001",41.3787986,-82.2112654,"1","Salad, Sandwiches, Soup, Bagels, Restaurants, Breakfast & Brunch, Food"
"582",146556,"Subway","Calgary","AB","T3M 0J4",50.8802870414,-113.9781841636,"1","Salad, Fast Food, Soup, Sandwiches, Restaurants"
"583",164685,"Silver Mine Subs","Scottsdale","AZ","85251",33.4952695,-111.9000346,"1","Wraps, Sandwiches, Soup, Restaurants"
"584",189270,"The Noodle Man","Las Vegas","NV","89118",36.0634970519,-115.2417327988,"1","Noodles, Taiwanese, Local Flavor, Chinese, Food, Pasta Shops, Restaurants, Szechuan, Specialty Food, Soup"
"585",60720,"Wing Kee","Cleveland","OH","44128",41.4357413332,-81.5152082,"1","Seafood, Soup, Restaurants, Chinese"
"586",111874,"Eddie's European Bistro","Surprise","AZ","85374",33.6403618,-112.4216827,"0","Soup, Sandwiches, Polish, Salad, Restaurants"
"587",161002,"Arizona Sandwich Co. & Catering","Tempe","AZ","85284",33.334017,-111.95945,"1","Restaurants, Sandwiches, Caterers, Breakfast & Brunch, Soup, Event Planning & Services, Fast Food"
"588",188946,"Caboose Coffee House","Toronto","ON","M6P 2A4",43.6654514,-79.4812508,"0","Sandwiches, Restaurants, Food, Coffee & Tea, Cafes, Soup"
"589",73681,"Golden China","Las Vegas","NV","89130",36.2399124,-115.2304425,"1","Restaurants, Chinese, Soup, Noodles"
"590",182565,"Halinas Cafe","Denver","NC","28037",35.4490135,-81.0019866,"0","Cafes, Breakfast & Brunch, Salad, Restaurants, Soup"
"591",49171,"Saladworks","Scottsdale","AZ","85260",33.6288709,-111.886982,"0","Food, Fruits & Veggies, Restaurants, Salad, Sandwiches, Specialty Food, Soup"
"592",127618,"Rusty's Deli & Grille","Charlotte","NC","28210",35.1171464,-80.8575796,"1","American (Traditional), Delis, Soup, Sandwiches, Restaurants"
"593",3294,"Potbelly Sandwich Shop","Cleveland","OH","44114",41.500053,-81.689442,"1","Fast Food, Delis, Sandwiches, Soup, Restaurants, Salad"
"594",22418,"Primal Soup Company","Calgary","AB","T2H 0M1",50.985018,-114.071713,"1","Restaurants, Specialty Food, Soup, Sandwiches, Gluten-Free, Coffee & Tea, Food"
"595",173953,"Panera Bread","Mississauga","ON","L5M 5H7",43.5576613337,-79.7086388936,"1","Sandwiches, Salad, Food, Soup, Restaurants, Coffee & Tea"
"596",92161,"Panera Bread","Mississauga","ON","L5B 0E2",43.5969248417,-79.6426394954,"1","Salad, Sandwiches, Food, Restaurants, Bagels, Breakfast & Brunch, Soup, Bakeries"
"597",72962,"Panera Bread","Madison","WI","53704",43.131264,-89.301283,"1","Soup, Food, Restaurants, American (Traditional), Sandwiches, Breakfast & Brunch, Bakeries, Salad, Bagels"
"598",190697,"Bella Frutteto","Wexford","PA","15090",40.6149852494,-80.0913311142,"1","Nightlife, Restaurants, Italian, Soup, Bars"
"599",126758,"Blarney's Gate","Mississauga","ON","L5C 1C6",43.5575649,-79.6457634,"0","Nightlife, Pubs, Soup, Bars, Irish, Restaurants, Irish Pub"
"600",166183,"Dave's Cosmic Subs","Chagrin Falls","OH","44022",41.4315,-81.3925753,"1","Sandwiches, Salad, Restaurants, Soup"
"601",93064,"Pho Khanh Hoa","Saint-Léonard","QC","H1S 1K7",45.576846,-73.583377,"1","Sandwiches, Soup, Restaurants, Vietnamese"
"602",19431,"Panera Bread","Independence","OH","44131",41.393934,-81.643735,"1","Restaurants, Coffee & Tea, Soup, Breakfast & Brunch, Bakeries, Food, Bagels, Sandwiches, Salad"
"603",95837,"Nicky's Thai Kitchen","Pittsburgh","PA","15237",40.550984,-80.0876623,"1","Salad, Restaurants, Thai, Soup"
"604",18736,"Kenzo Ramen","Mississauga","ON","L5C 3X3",43.5780657694,-79.6524653406,"1","Japanese, Soup, Vegetarian, Restaurants"
"605",6229,"Panera Bread","Charlotte","NC","28216",35.349778,-80.854491,"1","Food, Soup, Salad, Bagels, Sandwiches, Breakfast & Brunch, Restaurants"
"606",179974,"Pasta & Provisions","Charlotte","NC","28207",35.1864682,-80.8220131,"1","Caterers, Ethnic Food, Food, Grocery, Appliances, Home & Garden, Restaurants, Beer, Wine & Spirits, Event Planning & Services, Soup, Delis, Shopping, Specialty Food, Pasta Shops"
"607",77712,"Asian One Noodle Soup & Grill","Las Vegas","NV","89119",36.1209172572,-115.1354880651,"0","Soup, Desserts, Noodles, Restaurants, Vietnamese, Food Court, Food"
"608",22590,"Green Republic Food","Toronto","ON","M5G 2H6",43.654453,-79.387024,"0","Breakfast & Brunch, Health Markets, Fast Food, Soup, Seafood, Acai Bowls, Food, Vegetarian, Sandwiches, Coffee & Tea, Specialty Food, Restaurants, Canadian (New)"
"609",15747,"Chicken Place","Toronto","ON","M3J 2C6",43.7646781,-79.4763099,"1","Lebanese, Middle Eastern, Restaurants, Food, Chicken Shop, Desserts, Salad, Soup"
"610",176310,"Imperia Pizza","Pittsburgh","PA","15237",40.5431741,-80.0289628,"0","Restaurants, Chicken Wings, Pizza, Salad, Soup"
"611",69360,"Pho Ngoc Tuan","Montréal","QC","H1R 1X6",45.5770499,-73.5983084,"1","Restaurants, Vietnamese, Vegetarian, Soup, Asian Fusion"
"612",24194,"Pho Phuong","Calgary","AB","T2W 1G8",50.9489596815,-114.0854565769,"1","Noodles, Vietnamese, Soup, Restaurants"
"613",173583,"Panera Bread","Charlotte","NC","28244",35.224819,-80.843626,"1","Food, Breakfast & Brunch, Sandwiches, Restaurants, Bagels, Salad, Bakeries, Soup"
"614",114324,"Freshii","Toronto","ON","L4W",43.6850626069,-79.6237010881,"1","Restaurants, Ice Cream & Frozen Yogurt, Soup, Salad, Food"
"615",71760,"Marché Soupson","Montréal","QC","H2R 2W7",45.5335851,-73.6191303,"1","Grocery, Restaurants, Food, Sandwiches, Soup"
"616",49644,"McCormick Qwik Chinese Restaurant","Scottsdale","AZ","85258",33.5436148529,-111.9046917996,"1","Vegetarian, Chinese, Restaurants, Food Delivery Services, Asian Fusion, Food, Caterers, Soup, Event Planning & Services"
"617",23547,"Rosita's Place","Phoenix","AZ","85006",33.466035,-112.032386,"1","Mexican, Fast Food, Soup, Restaurants, Breakfast & Brunch"
"618",6426,"North Park Lounge Lawrenceville","Pittsburgh","PA","15201",40.4745801,-79.9579403,"1","Restaurants, Lounges, Burgers, Soup, Bars, Nightlife"
"619",184749,"Panera Bread","Charlotte","NC","28226",35.087992,-80.846242,"1","Salad, Bagels, Food, Restaurants, Bakeries, Sandwiches, Breakfast & Brunch, Soup"
"620",178247,"Pho Leo","Mesa","AZ","85203",33.4157124506,-111.7935410142,"1","Vietnamese, Restaurants, Soup, Pan Asian"
"621",136820,"Potbelly Sandwich Shop","Madison","WI","53703",43.074987,-89.394888,"1","Sandwiches, Delis, Fast Food, Restaurants, Salad, Soup"
"622",147042,"South East Gears & Cheers Restaurant & Bar","Bedford Heights","OH","44146",41.4175121,-81.5145101,"1","Restaurants, Sports Bars, Music Venues, Nightlife, Bars, Burgers, Beer, Wine & Spirits, Sandwiches, Arts & Entertainment, Soup, Breakfast & Brunch, American (Traditional), Food, Wine Bars, American (New), Cocktail Bars"
"623",79172,"Zoup!","Cleveland","OH","44114",41.4996009,-81.6912314,"0","Restaurants, Sandwiches, Salad, Soup, Food"
"624",67838,"Pho Express","Calgary","AB","T3E 7C7",51.0140460322,-114.1404486862,"1","Soup, Restaurants, Vietnamese, Noodles"
"625",21191,"WTPho","Las Vegas","NV","89178",36.02093,-115.269738,"1","Salad, Vietnamese, Restaurants, Soup"
"626",30981,"Blimpie America's Sub Shop","Charlotte","NC","28262",35.303872,-80.749548,"0","Sandwiches, Restaurants, Soup, Salad"
"627",25739,"Souppe Shoppe","Toronto","ON","M5T 2W6",43.6514248,-79.4041234,"0","Food, Soup, Food Stands, Restaurants, Street Vendors"
"628",179872,"Sweet Tomatoes","Henderson","NV","89014",36.0556942302,-115.0469222101,"1","Food, American (Traditional), Restaurants, Buffets, Soup, Vegetarian, Do-It-Yourself Food, Salad"
"629",25667,"Freshii","Mississauga","ON","L5M 4Z5",43.5586447,-79.7115912,"1","Restaurants, Salad, Juice Bars & Smoothies, Soup, Food Court, Food"
"630",79519,"Mama Meatball's Pizzeria","Turtle Creek","PA","15145",40.4239307,-79.8344482,"1","Soup, Caterers, Restaurants, Event Planning & Services, Food Delivery Services, Food, Italian, Pizza"
"631",38155,"Panera Bread","Pittsburgh","PA","15275",40.44935,-80.174279,"1","Breakfast & Brunch, Food, Bagels, Soup, Restaurants, Salad, Sandwiches"
"632",32805,"Café Zupas","Phoenix","AZ","85085",33.7150963,-112.1136988,"1","American (New), Soup, Restaurants, Sandwiches, Salad"
"633",172330,"Hunan's Palace","Pittsburgh","PA","15221",40.415564,-79.848911,"1","Restaurants, Noodles, Soup, Chinese"
"634",146162,"Bonflavor","Vaughan","ON","L4J 7Y1",43.797877,-79.4255983,"0","Chinese, Seafood, Restaurants, Soup, Dim Sum"
"635",172163,"Panera Bread","West Homestead","PA","15120",40.407174,-79.916603,"1","Breakfast & Brunch, Restaurants, Salad, Soup, Food, Sandwiches, Bagels"
"636",22177,"Panera Bread","Mississauga","ON","L5R 3T7",43.6114468552,-79.6932794038,"1","Salad, Restaurants, Cafes, Sandwiches, Soup"
"637",78007,"Panera Bread","Huntersville","NC","28078",35.442832,-80.859496,"1","Salad, Bagels, Sandwiches, Soup, Food, Breakfast & Brunch, Restaurants"
"638",134008,"Taste of China","Monona","WI","53716",43.0602545,-89.3267209,"1","Chinese, Restaurants, Seafood, Soup"
"639",187420,"Pho Tay Ho","Montréal","QC","H2S 2R7",45.533616,-73.6047339,"1","Vietnamese, Restaurants, Soup"
"640",45288,"Superior Pho","Cleveland","OH","44114",41.5104851,-81.6696382,"1","Vietnamese, Food, Restaurants, Soup, Sandwiches"
"641",93000,"Goldenview Chinese Restaurant","Mississauga","ON","L5N 0C3",43.6060451848,-79.7285520389,"1","Imported Food, Specialty Food, Chinese, Food, Seafood, Restaurants, Soup, Ethnic Food"
"642",28787,"Sunshine Vietnamese Restaurant","Calgary","AB","T2J 7C3",50.930988,-114.0642469,"1","Soup, Vietnamese, Noodles, Restaurants"
"643",181693,"Panera Bread","Scottsdale","AZ","85260",33.6198065,-111.8922234,"1","Restaurants, Soup, Salad, Sandwiches"
"644",48101,"Wraps On The Go","Toronto","ON","M4W 3E2",43.6710946,-79.3874456,"1","Salad, Food, Sandwiches, Cafes, Coffee & Tea, Restaurants, Event Planning & Services, Soup, Caterers"
"645",30766,"Susy's Soup & Deli","Cleveland","OH","44114",41.5030589624,-81.6854063193,"1","Soup, Delis, Restaurants"
"646",151002,"Potbelly Sandwich Shop","Avondale","AZ","85392",33.464212,-112.279962,"1","Delis, Italian, Fast Food, Salad, Restaurants, Sandwiches, Soup"
"647",144252,"Soup Nutsy","Toronto","ON","M5K 1K7",43.6475345,-79.379924,"1","Soup, Caterers, Fast Food, Salad, Event Planning & Services, Breakfast & Brunch, Food, Restaurants, Specialty Food"
"648",142705,"Taigu","Middleton","WI","53562",43.096083,-89.51364,"1","Ethnic Food, Seafood, Noodles, Chinese, Restaurants, Specialty Food, Soup, Food"
"649",58451,"Zoup!","Toronto","ON","M5V 3K2",43.6449355,-79.386151,"1","Sandwiches, Soup, Restaurants, Salad"
"650",47672,"Coyote's Cafe & Cantina","Henderson","NV","89014",36.0715027,-115.07842,"1","Restaurants, Salad, Mexican, Soup"
"651",49671,"Shanghai 360","Toronto","ON","M5H 1T1",43.6499721,-79.3832232,"1","Soup, Fast Food, Food Court, Restaurants, Chinese, Dim Sum, Noodles"
"652",10505,"Panera Bread","Amherst","OH","44001",41.3798516553,-82.222956419,"1","Bagels, Salad, Soup, Sandwiches, Food, Breakfast & Brunch, Restaurants"
"653",133287,"Pho An","Aurora","ON","L4G 0K3",44.0058098,-79.4463034,"1","Noodles, Restaurants, Soup, Vietnamese"
"654",66669,"Sasaki Sushi & Bar","Scottsdale","AZ","85251",33.492301,-111.923019,"1","Soup, Japanese, Nightlife, Restaurants, Cocktail Bars, Sushi Bars, Bars"
"655",137852,"La Fiesta Grande","Charlotte","NC","28214",35.336302,-80.961875,"1","Mexican, Salad, Soup, Restaurants"
"656",147709,"Jim Chai Kee Wonton Noodle","Toronto","ON","M1V 0B3",43.8145956,-79.2922628,"1","Soup, Chinese, Restaurants"
"657",65068,"Umami","Tempe","AZ","85281",33.42399,-111.939011,"0","Restaurants, Ramen, Asian Fusion, Japanese, Soup"
"658",59532,"China Village","Phoenix","AZ","85016",33.4954022,-112.0229986,"1","Chinese, Restaurants, Event Planning & Services, Caterers, Asian Fusion, Soup, Noodles"
"659",15281,"Noodles & Company","Gastonia","NC","28054",35.2618867596,-81.1394690722,"1","Soup, Noodles, Salad, Restaurants"
"660",37224,"Hawthorne Cafe","Milton","ON","L9T 7J3",43.5280806191,-79.8374067837,"1","Event Planning & Services, Caterers, Restaurants, Cafes, Polish, Desserts, Salad, Sandwiches, Soup, Coffee & Tea, Food"
"661",22111,"Souper Salad","Mesa","AZ","85208",33.3903866,-111.6819183,"1","Soup, Restaurants, American (New), Buffets, Salad"
"662",103188,"Soup 'n Such","Toronto","ON","M6R 1X4",43.6551912,-79.4523232,"0","Soup, Restaurants, Cafes, Sandwiches, Salad"
"663",154938,"Ramen Sora","Las Vegas","NV","89102",36.1265169,-115.2017455,"1","Noodles, Japanese, Restaurants, Ramen, Soup"
"664",23244,"MK Foodie","Scottsdale","AZ","85258",33.5662471,-111.9255139,"0","Nightlife, Sandwiches, Soup, Restaurants, Pubs, Bars, American (New), American (Traditional)"
"665",126290,"Café 92","Montréal","QC","H4B 1P3",45.462297,-73.632286,"1","Coffee & Tea, Sandwiches, Soup, Restaurants, Food"
"666",150263,"Soupesoup","Montréal","QC","H2X 3J6",45.5131,-73.559376,"1","Restaurants, Coffee & Tea, Food, Sandwiches, Soup"
"667",32451,"Byte Cafe","Cleveland","OH","44114",41.5128891,-81.6654561,"1","Sandwiches, Coffee & Tea, Specialty Food, Soup, Food, Restaurants, Salad, Cafes"
"668",33507,"Panera Bread","Fort Mill","SC","29715",35.025155,-80.96115,"1","Bakeries, Restaurants, Soup, Sandwiches, Food, American (New), Salad, American (Traditional)"
"669",151855,"Panera Bread","Ross Township","PA","15237",40.537139,-80.013116,"1","Restaurants, Soup, Bagels, Food, Breakfast & Brunch, Salad, Bakeries, Sandwiches"
"670",158744,"Mi Pueblito Mexican Food","Glendale","AZ","85303",33.5251953,-112.2037812,"1","Soup, Seafood, Mexican, Fast Food, Restaurants"
"671",173737,"Sichuan Gourmet","Pittsburgh","PA","15217",40.4358226,-79.9230998,"1","Seafood, Szechuan, Soup, Restaurants, Chinese"
"672",156275,"Sweet Tomatoes","Phoenix","AZ","85044",33.3194479165,-111.9833421707,"1","Restaurants, Vegetarian, Soup, Salad, Buffets"
"673",125222,"Kkulmat Korean Kitchen","Las Vegas","NV","89146",36.126117586,-115.2179326862,"1","Korean, Restaurants, Noodles, Soup"
"674",179361,"Island Malaysian Cuisine 2","Las Vegas","NV","89102",36.125908,-115.197904,"0","Food, Specialty Food, Malaysian, Thai, Chinese, Soup, Restaurants, Ethnic Food"
"675",122130,"iQ Food","Toronto","ON","M5K 1B1",43.6477523723,-79.383430481,"1","Restaurants, Soup, Salad, Vegetarian, Breakfast & Brunch, Gluten-Free, Fast Food"
"676",86312,"Zoup!","Rocky River","OH","44116",41.4592148,-81.8586907,"1","Sandwiches, Restaurants, Soup, Salad"
"677",26842,"The Cherry Inn","Calgary","AB","T2K 6G9",51.1122654,-114.0562046,"1","Restaurants, Noodles, Specialty Food, Food, Soup, Seafood, Ethnic Food, Chinese"
"678",64508,"Soupesoup","Montréal","QC","H2S 3A2",45.5347733,-73.6151008,"1","Restaurants, Sandwiches, Salad, Soup, Canadian (New), Cafes"
"679",3576,"Sunflower Vietnamese Restaurant","North Las Vegas","NV","89032",36.2397761,-115.196633,"1","Sandwiches, Restaurants, Vietnamese, Noodles, Soup"
"680",70661,"Tootsie's Diner","Coraopolis","PA","15108",40.520363,-80.171706,"1","American (Traditional), Burgers, Soup, Breakfast & Brunch, Restaurants, Salad, Diners"
"681",152718,"Cyclo Sandwichs","Saint-Lambert","QC","J4S 1H1",45.4767975595,-73.4751349626,"1","Sandwiches, Soup, Asian Fusion, Restaurants, Vietnamese"
"682",73334,"Nonni's Pizza","Blawnox","PA","15238",40.4926174,-79.8630663,"1","Soup, Restaurants, Chicken Wings, Pizza"
"683",46228,"Panera Bread","Surprise","AZ","85374",33.6382027972,-112.3610799255,"1","Salad, Soup, Sandwiches, Restaurants, Bakeries, Food, Breakfast & Brunch"
"684",139033,"Mandy's","Montréal","QC","H4A 1S9",45.4769153,-73.606333,"1","Restaurants, Canadian (New), Live/Raw Food, Salad, American (New), Cafes, Vegan, Soup"
"685",190173,"Panera Bread","Warrensville Heights","OH","44122",41.44481,-81.4971732,"1","Restaurants, Breakfast & Brunch, Sandwiches, Coffee & Tea, Salad, Food, Bagels, Soup"
"686",9052,"Chowder House Cafe","Cuyahoga Falls","OH","44223",41.1288249,-81.5077652,"1","Seafood, Soup, Restaurants"
"687",89292,"Gotham Provisions Company","Sun Prairie","WI","53590",43.1828531,-89.2203346,"0","Sandwiches, Food, Restaurants, Soup, Bagels"
"688",130428,"Asia Hut","Pickering","ON","L1V 1C1",43.841844,-79.083881,"1","Restaurants, Soup, Chinese, Caribbean"
"689",162304,"Pho Maisonneuve","Montréal","QC","H2L 1Z1",45.5174297,-73.5588731,"1","Vietnamese, Soup, Restaurants"
