"","business_id","name","city","state","postal_code","latitude","longitude","is_open","categories"
"1",109616,"The Steady Cafe & Bar","Toronto","ON","M6H 1M4",43.6604937,-79.432099,"0","Restaurants, Nightlife, Breakfast & Brunch, Vegan, Food, Tapas Bars, Bars, Southern, Coffee & Tea"
"2",184313,"Apteka","Pittsburgh","PA","15224",40.4656937,-79.9493238,"1","Nightlife, Bars, Polish, Modern European, Restaurants, Vegan"
"3",71864,"Not Your Mother","Toronto","ON","M6K 1L4",43.6417075708,-79.432192035,"1","Desserts, Ice Cream & Frozen Yogurt, Food, Restaurants, Vegan"
"4",55551,"Veltree","Charlotte","NC","28262",35.29692,-80.75539,"1","Vegan, Soul Food, Restaurants, Food, Juice Bars & Smoothies"
"5",52267,"La Vida Cocoa Craft Bakery & Cafe","Thornhill","ON","L4J 6X3",43.7953286,-79.4347723,"1","Gluten-Free, Food, Bakeries, Restaurants, Vegan, Cafes"
"6",81009,"Si Lom Thai Bistro","Toronto","ON","M4Y",43.6650073,-79.3808111,"1","Thai, Restaurants, Vegan"
"7",75324,"Pastoli's Pizza, Pasta & Paisans","Pittsburgh","PA","15217",40.4358226,-79.9230998,"1","Gluten-Free, Italian, Chicken Wings, Restaurants, Vegan, Pizza, Vegetarian"
"8",69117,"Chino Locos Original","Toronto","ON","M4L 2P4",43.6644821,-79.3255005,"1","Asian Fusion, Vegetarian, Vegan, Mexican, Restaurants"
"9",131558,"Magic Oven","Toronto","ON","M6K 3E4",43.6396613343,-79.4219483696,"0","Pizza, Gluten-Free, Vegan, Restaurants"
"10",171229,"Living Kitchen","Charlotte","NC","28203",35.2090265771,-80.8611555105,"1","Restaurants, Vegan, Live/Raw Food, Vegetarian"
"11",180035,"Nanashake","Toronto","ON","M2N 0J6",43.760058175,-79.412188931,"1","Food, Restaurants, Vegetarian, Ice Cream & Frozen Yogurt, Vegan"
"12",164433,"Whyld Ass","Phoenix","AZ","85014",33.5082255667,-112.0654389911,"1","Restaurants, Vegan"
"13",157273,"Seed Shack","Gilbert","AZ","85234",33.3785337,-111.7490249,"1","Food, Vegan, Restaurants, Juice Bars & Smoothies, Vegetarian"
"14",190125,"Leena's Food","Pittsburgh","PA","15289",40.4418197,-79.9571314,"0","Halal, Vegan, Sandwiches, Vegetarian, Ethnic Food, Greek, Middle Eastern, Restaurants, Specialty Food, Mediterranean, Food"
"15",81747,"Couscous Express","Phoenix","AZ","85006",33.4656279532,-112.0409429446,"0","Moroccan, Vegan, Halal, Mediterranean, Restaurants"
"16",159022,"Real & Yummy Juice","Brampton","ON","L6R 1W4",43.7603206,-79.7298279,"1","Restaurants, Juice Bars & Smoothies, Food, Bubble Tea, Vegan"
"17",23500,"Liquid Nutrition","Montréal","QC","H3H 2M8",45.4957300578,-73.5797433355,"1","Organic Stores, Juice Bars & Smoothies, Food, Vegan, Restaurants"
"18",176519,"Kale","Toronto","ON","M4P 2E6",43.7087974,-79.3987963,"0","Restaurants, Vegan, Vegetarian"
"19",192544,"The Coronado PHX","Phoenix","AZ","85006",33.4713,-112.064761,"1","Nightlife, American (New), Restaurants, Vegan, Coffee & Tea, Cafes, Cocktail Bars, Vegetarian, Bars, Bakeries, Food"
"20",86673,"Bloom Bakery at Public Square","Cleveland","OH","44114",41.5000373,-81.6919258,"1","Coffee & Tea, Bakeries, Sandwiches, Restaurants, Food, Vegan, Desserts"
"21",112893,"Rawlicious","Toronto","ON","M5S 0B7",43.6646402,-79.41087,"0","Food, Vegan, Juice Bars & Smoothies, Salad, Gluten-Free, Vegetarian, Desserts, Restaurants"
"22",20059,"Liquid Nutrition","Montréal","QC","H3G 1V9",45.4993023,-73.5759291,"1","Vegan, Gluten-Free, Food, Restaurants, Juice Bars & Smoothies"
"23",17241,"Café Verdure","Montréal","QC","H3G 1K4",45.497496,-73.580459,"0","Vegan, Cafes, Restaurants, Gluten-Free"
"24",158122,"Fat Bastard Burrito","Richmond Hill","ON","L4B 3B4",43.8462106279,-79.3776979451,"1","Vegan, Gluten-Free, Fast Food, Mexican, Vegetarian, Food Stands, Asian Fusion, Restaurants"
"25",63883,"Greenbridge Teahouse and Cafe","Twinsburg","OH","44087",41.3116048,-81.4421747,"1","Food, Vegetarian, Cafes, Coffee & Tea, Vegan, Restaurants, Diners"
"26",179217,"Copper Branch","Montréal","QC","H2Z 1Z6",45.5042681,-73.5650312,"1","Vegan, Restaurants, Organic Stores, Food, Gluten-Free, Breakfast & Brunch, Vegetarian, Fast Food"
"27",145490,"The Hogtown Vegan","Toronto","ON","M6H 1M3",43.6605669,-79.4325733,"1","Restaurants, Southern, Beer, Wine & Spirits, Food, Vegan"
"28",76356,"Ladonia Cafe","Madison","WI","53703",43.0762856935,-89.3839881197,"0","Cafes, Food Stands, Vegetarian, Food Trucks, Restaurants, Vegan, Food"
"29",12966,"Berry Beet Juice Bar","Phoenix","AZ","85048",33.3056186,-111.9922922,"1","Acai Bowls, Vegan, Food, Restaurants, Specialty Food, Juice Bars & Smoothies, Organic Stores, Fruits & Veggies, Vegetarian"
"30",183868,"Fresh Vibes","Rock Hill","SC","29732",34.9566213518,-81.0463442387,"1","Vegan, Food, Juice Bars & Smoothies, Coffee & Tea, Restaurants"
"31",113490,"Rawlicious","Whitby","ON","L1N 4J9",43.879194332,-78.9419087023,"0","Specialty Food, Gluten-Free, Vegetarian, Restaurants, Vegan, Food, Live/Raw Food"
"32",73560,"Propulsion : Cantine Végétalienne","Montréal","QC","H2L 2H4",45.5193311,-73.5554149,"0","Vegan, Arts & Entertainment, Food, Music Venues, Restaurants, Vegetarian, Health Markets, Sandwiches, Specialty Food, Nightlife"
"33",32511,"Cinnaholic","Thornhill","ON","L4J 4P8",43.806502,-79.452413,"1","Vegan, Desserts, Restaurants, Food, Bakeries"
"34",16294,"The Zenith","Pittsburgh","PA","15203",40.426803,-79.968973,"1","Antiques, Coffee & Tea, Restaurants, Salad, Food, Breakfast & Brunch, Vegetarian, Vegan, Shopping"
"35",47026,"Sorelle & Co","Maple","ON","L6A 1S2",43.8457144395,-79.4691350835,"1","Food, Cafes, Restaurants, Custom Cakes, Bakeries, Gluten-Free, Vegan"
"36",81587,"Aunt Abby's Confections","Scottsdale","AZ","85254",33.5855700803,-111.9275214871,"1","Bakeries, Shopping, Vegan, Food, Flowers & Gifts, Restaurants, Desserts"
"37",152585,"Pizzaiolo","Toronto","ON","M3B 1Y6",43.7540931,-79.3495479,"1","Vegan, Restaurants, Gluten-Free, Pizza"
"38",106709,"Main Street Cafe","Medina","OH","44256",41.138614186,-81.8642709044,"0","Restaurants, American (New), Burgers, Vegan"
"39",49520,"Sí Café","Madison","WI","53703",43.0742752136,-89.3812054826,"0","Vegan, Speakeasies, Food, Cafes, Restaurants, Coffee Roasteries, Bars, Coffee & Tea, Nightlife"
"40",93261,"Tan Lac Vien Express","Pittsburgh","PA","15213",40.4512524,-79.9514683,"1","Noodles, Restaurants, Vietnamese, Vegan"
"41",52456,"ChuChai","Montréal","QC","H2W 2M5",45.52089,-73.576718,"1","Thai, Restaurants, Vegan, Vegetarian"
"42",176654,"Le Watson","Montréal","QC","H2S 1C8",45.5334269,-73.6143061,"1","Coffee & Tea, Food, Restaurants, Vegan, Sandwiches, Juice Bars & Smoothies, Cafes"
"43",140005,"Piccadilly Artisan Yogurt and Creamery","Mount Lebanon","PA","15228",40.3807577,-80.0444192,"0","Vegan, Restaurants, Ice Cream & Frozen Yogurt, Caterers, Event Planning & Services, Kosher, Food"
"44",61911,"Thanjai","Montréal","QC","H3W 1H8",45.4948656,-73.6374224,"1","Vegan, Indian, Restaurants, Halal"
"45",94995,"Freshii","Calgary","AB","T2P 2T8",51.0489205,-114.0711487,"1","Vegan, Delis, Restaurants"
"46",82879,"Pita Jungle","Phoenix","AZ","85018",33.4957331182,-111.9884419374,"1","Mediterranean, Restaurants, American (New), Vegan, Vegetarian, Greek"
"47",14110,"Choolaah Indian BBQ","Orange Village","OH","44122",41.4615664,-81.4870631,"1","Fast Food, Vegetarian, Restaurants, Vegan, Indian"
"48",130433,"Empress Taytu Ethiopian Restaurant","Cleveland","OH","44103",41.5240959,-81.648597,"1","Specialty Food, Restaurants, Gluten-Free, Vegetarian, Ethnic Food, Food, Vegan, Ethiopian"
"49",21780,"Royyim Thai Cuisine","Mesa","AZ","85206",33.3819298,-111.7384288,"1","Gluten-Free, Vegan, Pan Asian, Restaurants, Thai, Vegetarian, Asian Fusion"
"50",166965,"Lola Rosa","Montréal","QC","H1M 2E1",45.5174777624,-73.5908810411,"1","Vegan, Restaurants, Vegetarian, Gluten-Free"
"51",150857,"Brick-Side Eatery","Pittsburgh","PA","15213",40.4405525045,-79.9613586813,"1","Pizza, Vegan, Restaurants, Salad"
"52",142393,"Cleveland Vegan","Lakewood","OH","44107",41.4855267595,-81.8161940564,"1","Caterers, Vegan, Restaurants, Personal Chefs, Food, Vegetarian, Event Planning & Services"
"53",36216,"Royal Indian Bistro","Las Vegas","NV","89103",36.1168022203,-115.1856471948,"1","Ethnic Food, Indian, Food, Vegan, Bars, Vegetarian, Specialty Food, Nightlife, Restaurants, Soup"
"54",590,"Big Brothers Gourmet Pizza","Scarborough","ON","M1M 1P2",43.7276984981,-79.2302746698,"1","Gluten-Free, Vegan, Pizza, Restaurants, Italian"
"55",59557,"Trattoria Vaccaro","Akron","OH","44333",41.1517107,-81.6343109,"1","Restaurants, Vegan, Pizza, Italian"
"56",123728,"Cyprus Grill","Chandler","AZ","85248",33.2617999,-111.8602743,"0","Vegan, Sandwiches, Greek, Restaurants, Mediterranean"
"57",7471,"Urban Soul Grille","Mentor","OH","44060",41.6549951,-81.3731986,"1","Vegan, Soul Food, Restaurants"
"58",156688,"Anna In The Raw","Cleveland","OH","44114",41.5036068,-81.6897601,"1","Vegan, Gluten-Free, Restaurants, Juice Bars & Smoothies, Food"
"59",175621,"Kale Personal Chef Services","Scottsdale","AZ","85260",33.6167286,-111.8722293,"1","Gluten-Free, Vegan, Food Delivery Services, Arts & Crafts, Cooking Classes, Specialty Food, Party & Event Planning, Restaurants, Education, Food, Vegetarian, Caterers, Shopping, Health & Medical, Nutritionists, Cooking Schools, Specialty Schools, Event Planning & Services, Personal Chefs"
"60",165653,"Pita Jungle","Scottsdale","AZ","85260",33.583909,-111.922234,"1","Vegetarian, American (New), Middle Eastern, Mediterranean, Restaurants, Vegan, Greek"
"61",111862,"PastaTivo","Beachwood","OH","44122",41.498488,-81.4941423,"1","Pasta Shops, Desserts, Italian, Specialty Food, Vegan, Restaurants, Caterers, Event Planning & Services, Food, Food Trucks, Salad, Gluten-Free"
"62",102732,"Glas Wine Bar","Toronto","ON","M4M 1K9",43.6622335,-79.3353151,"0","Nightlife, Wine Bars, Vegan, Bars, Restaurants, Canadian (New), French, Vegetarian"
"63",134596,"La Cantine","Las Vegas","NV","89129",36.2198750347,-115.2506966928,"1","Bakeries, Sandwiches, Vegan, Cafes, Fast Food, Restaurants, Mexican, Food"
"64",69224,"The Red Herring Vegetarian Restaurant","Urbana","IL","61801",40.1067731,-88.2251981,"1","Cafes, Vegan, Restaurants, Vegetarian"
"65",14135,"House of Liquor","Las Vegas","NV","89131",36.3081073,-115.2791214,"0","Mediterranean, Restaurants, Pizza, Vegan, Food, Delis, Beer, Wine & Spirits"
"66",149842,"Pizzaiolo","Toronto","ON","M4Y 1Y8",43.6643947,-79.3846015,"1","Pizza, Italian, Vegan, Gluten-Free, Restaurants"
"67",106447,"Fern","Charlotte","NC","28203",35.2009674,-80.8427523,"1","Restaurants, Vegetarian, Vegan, Breakfast & Brunch, American (Traditional)"
"68",73521,"Fresh on Spadina","Toronto","ON","M5V 2L7",43.6481372,-79.3956847,"1","Health Markets, Restaurants, Juice Bars & Smoothies, Food, Vegetarian, Specialty Food, Mexican, Vegan"
"69",75154,"Vegan Invasion Delivery & Catering","Phoenix","AZ","85018",33.5098979,-112.0130232,"1","Food, Vegetarian, Restaurants, Mexican, Live/Raw Food, Food Delivery Services, Caterers, Food Trucks, Vegan, Event Planning & Services"
"70",99846,"Randita's Organic Vegan Cafe","Pittsburgh","PA","15215",40.490451,-79.9048406,"0","Vegan, Food, Restaurants"
"71",54901,"Kupfert & Kim","Toronto","ON","M5V 2L4",43.6477264,-79.3962471,"1","Vegan, Vegetarian, Gluten-Free, Restaurants"
"72",45721,"Green Café","Montréal","QC","H3Z 1P2",45.4875938,-73.5862168,"1","Sandwiches, Cafes, Salad, Vegan, Breakfast & Brunch, Restaurants"
"73",75014,"The Breadfruit & Rum Bar","Phoenix","AZ","85004",33.4557075,-112.0720114,"1","Cocktail Bars, Restaurants, Caribbean, Nightlife, Bars, Vegan, Lounges, Active Life, Seafood"
"74",60332,"Loving Hut","Toronto","ON","M6C 2C4",43.7002654,-79.4288735,"0","Vegan, Restaurants, Vegetarian"
"75",7497,"Baguette Cafe","Las Vegas","NV","89113",36.066865,-115.273241,"1","Delis, Coffee & Tea, Vegan, Breakfast & Brunch, Food, Cafes, Restaurants, Sandwiches, French"
"76",106993,"Lion's Pub","Cleveland","OH","44111",41.459233145,-81.7767655638,"0","Sports Bars, Beer, Wine & Spirits, Bars, Food Trucks, American (New), Food, Restaurants, Nightlife, Vegan"
"77",130384,"La Panthère Verte","Montréal","QC","H3G 2J2",45.497444,-73.579924,"1","Vegetarian, Middle Eastern, Restaurants, Vegan"
"78",155715,"The Cookie Bar Queen","Phoenix","AZ","85001",33.4499672,-112.0702225,"1","Specialty Food, Shopping, Gluten-Free, Farmers Market, Restaurants, Food Stands, Vegan, Desserts, Active Life, Bakeries, Food, Health Markets, Vitamins & Supplements"
"79",181108,"Jacksons Burger","Toronto","ON","M5G 2K5",43.6574483915,-79.3836816002,"1","Vegan, Gluten-Free, Food, Burgers, Halal, Poutineries, Restaurants"
"80",190713,"POTs","Las Vegas","NV","89146",36.1520101,-115.2437045,"1","Vegan, Egyptian, Restaurants, Vegetarian, Middle Eastern"
"81",79369,"Gluten Free Goat Bakery","Pittsburgh","PA","15224",40.4654288113,-79.9450539513,"1","Food, Restaurants, Bakeries, Gluten-Free, Vegan"
"82",144930,"Dandelion Food Cart","Madison","WI","53706",43.0753917,-89.3989853,"0","Food Stands, Vegetarian, Vegan, Restaurants"
"83",43890,"Refuel Juicery","Toronto","ON","M4G 3B7",43.7068118785,-79.3754224107,"1","Gluten-Free, Restaurants, Food, Live/Raw Food, Juice Bars & Smoothies, Vegan"
"84",103508,"La Taqueria","Montréal","QC","H1W 1R9",45.5456713696,-73.5440193031,"1","Restaurants, Vegan, Tex-Mex, Latin American, Mexican"
"85",97924,"Hearts Choices","Calgary","AB","T2J 0P6",50.9682661475,-114.0727442024,"1","Vegetarian, Thai, Food, Vegan, Grocery, Restaurants"
"86",64028,"YC's Mongolian Grill","Tempe","AZ","85282",33.394965,-111.909476,"1","Chinese, Mongolian, Asian Fusion, Restaurants, Vegan, Gluten-Free, Buffets"
"87",168803,"Nothing But Noodles","Charlotte","NC","28277",35.059113,-80.8138,"1","Event Planning & Services, American (Traditional), Restaurants, Italian, Thai, American (New), Vegan, Asian Fusion, Caterers, Noodles, Gluten-Free, Chinese"
"88",53020,"Tzikii Pita Grill","Tempe","AZ","85283",33.3496363575,-111.9635375915,"1","Restaurants, Greek, Mediterranean, Vegan"
"89",161265,"Ethiopia vegan  Restaurant","Toronto","ON","M4J 1M3",43.6812109,-79.3346294,"0","Vegan, Restaurants, Ethiopian"
"90",173333,"Even Stevens Sandwiches","Scottsdale","AZ","85251",33.4977607727,-111.9254760742,"0","Salad, Vegan, Breakfast & Brunch, Sandwiches, Restaurants, Vegetarian"
"91",116893,"Nami","Phoenix","AZ","85006",33.469968,-112.065431,"1","Restaurants, Coffee & Tea, Bakeries, Vegan, Food"
"92",67596,"Apiecalypse Now!","Toronto","ON","M6G 1L5",43.6633496,-79.4185625,"1","Hot Dogs, Pizza, Sandwiches, Food, Restaurants, Specialty Food, Ice Cream & Frozen Yogurt, Vegan"
"93",92955,"La Panthère Verte","Montréal","QC","H2T 2K9",45.524946,-73.599561,"0","Restaurants, Vegetarian, Vegan, Middle Eastern"
"94",137230,"Copper Branch","Brooklin","ON","L1M 1A3",43.9579968,-78.960699,"1","Restaurants, Breakfast & Brunch, Gluten-Free, Vegan, Vegetarian"
"95",57987,"The Art Of Soup","Phoenix","AZ","85073",33.474237,-112.0650971,"0","Food, Gluten-Free, Restaurants, American (Traditional), Vegan, Vegetarian"
"96",96628,"Velish","Montréal","QC","H2H 1B1",45.5155249,-73.577343,"1","Vegan, Food, Restaurants, Vegetarian, Juice Bars & Smoothies"
"97",102558,"The Street Eatery","Calgary","AB","T2P 0K4",51.0501231,-114.0807025,"1","Nightlife, Burgers, Comfort Food, Mexican, Food, Canadian (New), Vegan, Indian, Vietnamese, Korean, Sandwiches, Street Vendors, Cocktail Bars, Bars, Beer Bar, Restaurants, Barbeque, Thai"
"98",5422,"Resto Végo McGill","Montréal","QC","H3B 4J8",45.5014114,-73.5705109,"0","Restaurants, Buffets, Vegetarian, Vegan"
"99",84384,"Grey Tiger","Toronto","ON","M6H 1N2",43.6594557,-79.4378984,"1","Restaurants, Cafes, Vegan, Nightlife, Cocktail Bars, Bars"
"100",23221,"Choolaah Indian BBQ","Pittsburgh","PA","15206",40.460266,-79.923461,"1","Restaurants, Indian, Gluten-Free, Vegan, Vegetarian"
"101",180629,"Le Kitchen","Montréal","QC","H3J 1R5",45.4873300855,-73.5667441983,"1","Event Planning & Services, Gluten-Free, Caterers, Food, Breakfast & Brunch, Restaurants, Food Delivery Services, Vegan, Vegetarian, Cafes"
"102",66828,"Khalsa Pizza","Brampton","ON","L6S 5Z5",43.7480137573,-79.7146242857,"1","Indian, Restaurants, Pizza, Vegan, Vegetarian"
"103",19081,"Picazzo's Healthy Italian Kitchen","Glendale","AZ","85308",33.6530892,-112.2357715,"1","Vegan, Pizza, Restaurants, Gluten-Free, Italian"
"104",141585,"Aside of Heart","Phoenix","AZ","85004",33.4577555527,-112.0672310172,"0","Juice Bars & Smoothies, Vegan, Cafes, Restaurants, Sandwiches, Food, Coffee & Tea"
"105",163762,"Pizzaiolo","Toronto","ON","M5C 3B2",43.649044767,-79.3775595471,"1","Pizza, Restaurants, Food, Vegan, Gluten-Free"
"106",122617,"Genuine Fresche","Tempe","AZ","85282",33.394104,-111.91078,"1","Juice Bars & Smoothies, Food, Vegan, Acai Bowls, Restaurants, Live/Raw Food"
"107",10444,"Café Tuyo","Montréal","QC","H2W 1B3",45.522593,-73.5806926,"1","Coffee & Tea, Food, Sandwiches, Breakfast & Brunch, Specialty Food, Internet Cafes, Cafes, Vegan, Restaurants, Vegetarian"
"108",170652,"White Rose Vegetarian Kitchen","Calgary","AB","T3B 0E9",51.086929,-114.18206,"0","Vegan, Vegetarian, Restaurants, Gluten-Free"
"109",102799,"La Santisima","Glendale","AZ","85301",33.5387799,-112.1880526,"1","Seafood, Nightlife, Mexican, Vegetarian, Restaurants, Breakfast & Brunch, Food, Vegan, Bars"
"110",166415,"Raw Eatery & Market","Calgary","AB","T2N 1X7",51.0521704044,-114.0884846449,"1","Restaurants, Vegan"
"111",181918,"Mouton Vert","Montréal","QC","H4A 1X9",45.4686228,-73.619655,"1","Restaurants, Vegan, Grocery, Food, Vegetarian, Coffee & Tea"
"112",136191,"Noodlebox","Calgary","AB","T2H 3A7",50.9879069351,-114.0456453387,"1","Vegan, Chinese, Restaurants, Gluten-Free, Asian Fusion, Noodles, Thai, Food"
"113",94924,"Mint Thai Cafe","Gilbert","AZ","85234",33.3703007,-111.7894598,"1","Restaurants, Vegan, Vegetarian, Thai, Filipino"
"114",152562,"Pizzaiolo","Toronto","ON","M5C 2Y6",43.650019,-79.378472,"1","Vegan, Restaurants, Gluten-Free, Italian, Pizza"
"115",11212,"Eva B","Montréal","QC","H2X 2T3",45.511558,-73.5670925,"1","Restaurants, Local Flavor, Vegan, Shopping, Cafes, Coffee & Tea, Fashion, Food, Used, Vintage & Consignment"
"116",183431,"Fruits and Roots","Las Vegas","NV","89113",36.069708,-115.262609,"1","Food, Organic Stores, Specialty Food, Restaurants, Gluten-Free, Juice Bars & Smoothies, Vegan"
"117",94951,"The Protein Source","Las Vegas","NV","89113",36.0600377576,-115.2782348011,"1","Restaurants, American (New), Breakfast & Brunch, Vegan"
"118",29843,"Onion Maiden","Pittsburgh","PA","15210",40.4218809,-79.9959611,"1","Asian Fusion, Vegan, Restaurants, Street Vendors, Food, Vegetarian"
"119",131134,"Thai Foon","Pittsburgh","PA","15205",40.4386179605,-80.1461325319,"1","Thai, Vegan, Restaurants, Asian Fusion"
"120",48156,"Bombay Cuisine","Charlotte","NC","28262",35.303872,-80.749548,"0","Pakistani, Vegan, Restaurants, Breakfast & Brunch, Vegetarian, Indian, Buffets"
"121",8994,"Casa De Falafel","Peoria","AZ","85381",33.5968214,-112.2031572,"1","Restaurants, Middle Eastern, Vegetarian, Mediterranean, Mexican, Falafel, Food, Vegan"
"122",146271,"Beviamo Cafe","Cleveland","OH","44113",41.4812217,-81.6860068,"1","Food, Juice Bars & Smoothies, Vegan, Restaurants, Coffee & Tea, Middle Eastern, Lebanese"
"123",89807,"Porter House","Toronto","ON","M6J 1X8",43.6492824906,-79.426371857,"0","Pubs, Restaurants, Nightlife, Bars, Vegan"
"124",160452,"Urban Turban","Las Vegas","NV","89169",36.1189093605,-115.1543320479,"0","Bars, Halal, Vegetarian, Cocktail Bars, Indian, Restaurants, Nightlife, Tapas Bars, Buffets, Vegan, Food, Desserts"
"125",125320,"Coconut Hut","Gilbert","AZ","85233",33.336122732,-111.8224963788,"0","Cafes, Juice Bars & Smoothies, Food, Coffee & Tea, Restaurants, Vegan"
"126",55422,"Pizzaiolo","Toronto","ON","M4P 1A1",43.708523,-79.396848,"1","Pizza, Vegan, Restaurants, Gluten-Free"
"127",75732,"Golden Restaurant and Bakery","Tempe","AZ","85281",33.4503,-111.9251164,"1","Restaurants, Falafel, Mediterranean, Bakeries, Halal, Food, Vegan"
"128",115607,"Greens Vegetarian Restaurant","Toronto","ON","M5T 1H8",43.652093,-79.402622,"1","Chinese, Restaurants, Vegan, Vegetarian"
"129",162051,"Bae Bae's Kitchen","Pittsburgh","PA","15222",40.4435133921,-79.9961381391,"1","Asian Fusion, Korean, Restaurants, Salad, Pan Asian, Vegan, Cafes, Vegetarian"
"130",163012,"Nacho Daddy","Las Vegas","NV","89117",36.1447628,-115.3027475,"1","Restaurants, Burgers, Vegan, Pubs, Tex-Mex, Breakfast & Brunch, Nightlife, American (New), Sports Bars, Mexican, Bars"
"131",163705,"Robin des Bois","Montréal","QC","H2T 1R2",45.5213865,-73.5887311,"1","Vegan, Canadian (New), Vegetarian, French, Restaurants"
"132",152441,"Fuegos - Steak Tapas Vegan","Madison","WI","53703",43.0797595,-89.369608,"1","Steakhouses, Tapas Bars, Spanish, Vegan, Tapas/Small Plates, Restaurants, Vegetarian"
"133",144933,"Lola's Kitchen","Toronto","ON","M4Y 2G3",43.6697687,-79.382838,"0","Breakfast & Brunch, Canadian (New), Restaurants, Tapas Bars, Gluten-Free, Comfort Food, Vegan"
"134",131822,"Poison Berry Bakery","Cleveland","OH","44120",41.487673,-81.597094,"1","Cupcakes, Vegan, Breakfast & Brunch, Bakeries, Food, Desserts, Restaurants"
"135",102225,"Teddywedgers","Madison","WI","53703",43.0746378454,-89.3867960403,"1","Vegan, British, Food, Bakeries, Fast Food, Restaurants, Breakfast & Brunch, Vegetarian, Cafes"
"136",102825,"Grand Avenue Pizza Company","Phoenix","AZ","85007",33.4550303,-112.0871422,"1","Gluten-Free, Pizza, Vegan, Restaurants"
"137",168104,"Planta","Toronto","ON","M5R 3P5",43.6702150962,-79.3894335574,"1","Salad, Restaurants, Bars, Vegan, Nightlife, Tapas/Small Plates, Pizza, Vegetarian, Cocktail Bars"
"138",151144,"Veggy Street","Las Vegas","NV","89148",36.0949946,-115.2982015,"1","Gluten-Free, Sandwiches, Vegetarian, Fast Food, Vegan, Restaurants"
"139",42853,"Rika Arepa Express","Las Vegas","NV","89121",36.115773504,-115.0957367136,"1","Venezuelan, Food Trucks, Vegan, Gluten-Free, Latin American, Food, Restaurants, Street Vendors"
"140",79921,"La Panthère Verte","Montréal","QC","H2T 1N9",45.5216016336,-73.5852687828,"1","Restaurants, Vegan, Sandwiches, Juice Bars & Smoothies, Food"
"141",158854,"Ruse Vegan Kitchen","Las Vegas","NV","89128",36.185845,-115.287352,"1","Restaurants, Food Stands, Vegan, Farmers Market, Food, Vegetarian"
"142",72720,"Fresh on Eglinton","Toronto","ON","M4P 2Y3",43.7074975862,-79.3955600336,"1","Vegetarian, Health Markets, Restaurants, Vegan, Specialty Food, Food"
"143",86377,"Falafel Avenue","Montréal","QC","H3A 2A5",45.5039621,-73.5722865,"1","Vegetarian, Falafel, Restaurants, Mediterranean, Vegan"
"144",11004,"7 Dim Sum","Toronto","ON","M5T 1L1",43.6558222,-79.3937269,"0","Dim Sum, Restaurants, Vegan, Chinese, Asian Fusion"
"145",70903,"La Panthère Verte","Montréal","QC","H3W 1Y3",45.4841806,-73.6289987,"1","Restaurants, Vegetarian, Vegan"
"146",183146,"Manhattan Bagel","Charlotte","NC","28277",35.0970774975,-80.7790989891,"1","Breakfast & Brunch, Delis, Vegetarian, Kosher, Vegan, Bagels, Food, Restaurants"
"147",30450,"My Thai","Chesterland","OH","44026",41.5250721996,-81.3386015396,"1","Restaurants, Vegan, Gluten-Free, Vegetarian, Thai"
"148",96520,"Loving Hut - Glendale","Glendale","AZ","85308",33.6533726,-112.1348879,"1","Vegetarian, Food, Juice Bars & Smoothies, Vegan, Restaurants"
"149",72652,"Virgin V Cheese","Las Vegas","NV","89145",36.1682897,-115.1391277,"1","Food, Restaurants, Organic Stores, Specialty Food, Vegan, Cheese Shops, Farmers Market"
"150",29833,"Hoi Polloi: Coffeehouse and Vegetarian Cafe","Pittsburgh","PA","15233",40.4535048,-80.0168923,"0","Food, Coffee & Tea, Vegan, Vegetarian, Restaurants"
"151",73484,"Abyssinia Ethiopian Restaurant","Toronto","ON","M4J 1L7",43.6800528131,-79.3398362026,"1","Ethiopian, Restaurants, Vegan"
"152",70192,"Oats & Ivy","Toronto","ON","M6K 3P6",43.63837,-79.4184338,"0","Organic Stores, Vegetarian, Restaurants, Food, Vegan, Juice Bars & Smoothies"
"153",68348,"Buraka Restaurant","Madison","WI","53703",43.083644,-89.3642676,"1","Restaurants, Vegetarian, African, Vegan, Ethiopian, Latin American"
"154",72176,"Bunner's Bakeshop","Toronto","ON","M5T 2L7",43.6555422,-79.4026007,"1","Vegan, Food, Restaurants, Bakeries, Gluten-Free"
"155",111366,"SOFE Café & Grill","Bedford","OH","44146",41.3921066,-81.5365374,"0","Vegan, Restaurants, Vegetarian, Sandwiches, Breakfast & Brunch"
"156",40996,"North Italia","Scottsdale","AZ","85254",33.6239936936,-111.9287472606,"1","Venues & Event Spaces, Restaurants, Event Planning & Services, Italian, Pizza, Gluten-Free, Vegan"
"157",80042,"Vegetarian Haven","Toronto","ON","M5T 1L1",43.6559955,-79.3928145,"1","Vegetarian, Restaurants, Vegan"
"158",184000,"Red","Madison","WI","53703",43.072396,-89.387893,"0","Nightlife, Japanese, Lounges, Italian, Bars, Restaurants, Sushi Bars, Vegan"
"159",96233,"Sabai Sabai Kitchen and Bar","Toronto","ON","M4W 1A9",43.6704534404,-79.3847215949,"1","Restaurants, Vegan, Tapas/Small Plates, Laotian, Thai"
"160",22469,"Sushi Momo","Montréal","QC","H2J 2L5",45.5250677,-73.5849511,"0","Sushi Bars, Vegan, Restaurants, Japanese"
"161",155186,"Parka Food Co","Toronto","ON","M5V 2A7",43.6484934,-79.3981133,"1","Burgers, Restaurants, Comfort Food, American (Traditional), Vegan"
"162",79241,"Au Bon Pain","Cleveland","OH","44195",41.5016272655,-81.6210167396,"1","Restaurants, Delis, Gluten-Free, Breakfast & Brunch, Vegan"
"163",166852,"Loving Hut Tempe","Tempe","AZ","85281",33.4214672,-111.945216,"1","Vegetarian, Soup, Vegan, Noodles, American (Traditional), Asian Fusion, Restaurants"
"164",123506,"Irie Veggie Takeout","York","ON","M6M 1T1",43.690253,-79.4739089,"1","Vegan, Restaurants, Seafood, Canadian (New)"
"165",158576,"Pero Restaurant & Lounge","Toronto","ON","M6G 1L9",43.6627952,-79.4227388,"1","Vegetarian, African, Vegan, Nightlife, Jazz & Blues, Restaurants, Arts & Entertainment, Ethiopian"
"166",54610,"Rawlicious","Markham","ON","L3P 1Y1",43.878174,-79.2611265,"1","Desserts, American (New), Vegetarian, Vegan, Restaurants, Juice Bars & Smoothies, Food, Live/Raw Food"
"167",111189,"Gluuteny Bakery","Pittsburgh","PA","15217",40.4351892,-79.9226113,"1","Vegan, Bakeries, Food, Gluten-Free, Restaurants, Desserts"
"168",120392,"Hearts Choices Cafe Market","Calgary","AB","T2E 6V5",51.0893617586,-114.0490886942,"1","Vegetarian, Vegan, Thai, Restaurants"
"169",97588,"Fresh Mint","Scottsdale","AZ","85254",33.6128590442,-111.926754459,"1","Kosher, Vegetarian, Thai, Vegan, Restaurants"
"170",33343,"Belém Café & Yoga - L'Espace Café","Montréal","QC","H2W 1Z8",45.5196301,-73.584917,"1","Active Life, Yoga, Brazilian, Restaurants, Breakfast & Brunch, Vegan, Food, Coffee & Tea, Sandwiches, Fitness & Instruction"
"171",116784,"Loving Hut","Phoenix","AZ","85018",33.494905,-112.0113546,"1","Vietnamese, Vegetarian, Restaurants, Chinese, Sandwiches, Vegan"
"172",2365,"Green Earth Vegetarian Cuisine","Toronto","ON","M4J 1L2",43.6660516,-79.3526962,"1","Vegan, Vegetarian, Restaurants"
"173",103759,"Powered Up Nutrition","Phoenix","AZ","85004",33.453050675,-112.0695378247,"1","Health & Medical, Restaurants, Vegetarian, Nutritionists, Fitness & Instruction, Juice Bars & Smoothies, Food, Vegan, Active Life, Specialty Food, Trainers, Health Markets"
"174",99898,"Nacho Daddy","Las Vegas","NV","89109",36.1080857621,-115.1711108926,"1","Restaurants, Mexican, Tex-Mex, Vegan, American (New), American (Traditional), Breakfast & Brunch, New Mexican Cuisine"
"175",99270,"Made Foods","Calgary","AB","T3P 0C5",51.1620436449,-114.125534976,"1","Vegetarian, Restaurants, Juice Bars & Smoothies, Food, Specialty Food, Breakfast & Brunch, Vegan, Health Markets, Gluten-Free"
"176",137865,"LOV McGill","Montréal","QC","H2Y 2H2",45.5005534,-73.5590512,"1","Vegan, Vegetarian, Restaurants, Breakfast & Brunch"
"177",85737,"Kupfert & Kim","Toronto","ON","M5J 2T3",43.6464176063,-79.3790951381,"1","Vegetarian, Restaurants, Vegan"
"178",62570,"Mixtape","Pittsburgh","PA","15224",40.4654464,-79.9448679,"1","Arts & Entertainment, Food, Restaurants, Vegan, Venues & Event Spaces, Music Venues, Cocktail Bars, Event Planning & Services, Lounges, Juice Bars & Smoothies, Cafes, Coffee & Tea, Dance Clubs, Nightlife, Bars"
"179",31970,"Carson Kitchen","Las Vegas","NV","89101",36.1678783157,-115.1406404749,"1","Bars, Restaurants, Nightlife, Cocktail Bars, American (New), Seafood, Gastropubs, Food, Comfort Food, Salad, Tapas/Small Plates, Burgers, Desserts, Vegan"
"180",148194,"Brillobox","Pittsburgh","PA","15224",40.4656218,-79.9547632,"1","Restaurants, Vegetarian, Nightlife, Bars, Arts & Entertainment, Dive Bars, Vegan, Music Venues"
"181",810,"DumplingHaus","Madison","WI","53705",43.071461,-89.452308,"1","Dim Sum, Chinese, Restaurants, Vegan, Vegetarian"
"182",34967,"Pizzaiolo","Toronto","ON","M4M 1G9",43.659037,-79.350201,"1","Vegan, Gluten-Free, Restaurants, Pizza"
"183",65158,"Chef Sara's Raw Vegan Academy & Cafe","Cave Creek","AZ","85331",33.833628,-111.938652,"0","Gluten-Free, Education, Specialty Food, Live/Raw Food, Vegan, Coffee & Tea, Restaurants, Cooking Schools, Specialty Schools, Food, Fruits & Veggies"
"184",190785,"Kupfert & Kim","Toronto","ON","M5H 1J9",43.6475179451,-79.3844664887,"1","Vegetarian, Gluten-Free, Restaurants, Vegan"
"185",139149,"Taste of Kerala","Beachwood","OH","44122",41.4632003,-81.4844269,"1","Indian, Restaurants, Vegan"
"186",148600,"Revitasize","Toronto","ON","M5R 1B9",43.6715929,-79.3908687,"1","Restaurants, Food, Vegan, Juice Bars & Smoothies, Vegetarian"
"187",6741,"Gourmet Vegetarian Restaurant","Richmond Hill","ON","L4B 3Z1",43.8439761,-79.3892441,"1","Vegan, Restaurants, Chinese, Vegetarian"
"188",30921,"Sweets From The Earth","Toronto","ON","M6N 3C3",43.669306,-79.4649022,"0","Bakeries, Food, Restaurants, Vegan"
"189",65378,"Pita Jungle","Mesa","AZ","85202",33.3935179,-111.8718101,"1","American (New), Vegetarian, Restaurants, Vegan, Mediterranean, Greek"
"190",176089,"Cuisine of India","Parma Heights","OH","44130",41.3778401,-81.7837226,"1","Indian, Vegan, Halal, Restaurants, Vegetarian"
"191",6530,"La Faim du Monde","Montréal","QC","H2W 2M5",45.5212004,-73.5768636,"0","Vegetarian, Vegan, Restaurants"
"192",162088,"Kabab-Je Rotisserie & Grille","Matthews","NC","28105",35.1281898,-80.7022409,"1","Mediterranean, Restaurants, Middle Eastern, Lebanese, Vegan"
"193",167090,"GRAZERS","Kent","OH","44240",41.1542671,-81.3580092,"1","Gluten-Free, Restaurants, Vegan, American (New)"
"194",65130,"Mac Shack","Las Vegas","NV","89117",36.1576600134,-115.290716961,"0","Restaurants, Italian, Vegan, Gluten-Free"
"195",156776,"Kupfert & Kim","Toronto","ON","M5X 1C7",43.6485583,-79.3817111,"1","Gluten-Free, Vegan, Restaurants, Vegetarian"
"196",18385,"Pita House","Las Vegas","NV","89183",36.0140871839,-115.135131108,"1","Mediterranean, Restaurants, Vegan"
"197",54062,"Eat Fit Go Scottsdale","Schottsdale","AZ","85251",33.50185,-111.92794,"0","Food, Vegetarian, Restaurants, Breakfast & Brunch, Food Stands, Specialty Food, Vegan, Health Markets, Do-It-Yourself Food"
"198",85995,"Custom Built Pizza","Las Vegas","NV","89147",36.114442,-115.308663,"0","Pizza, Restaurants, Local Flavor, Vegan, Gluten-Free"
"199",73886,"Bowl of Heaven","Las Vegas","NV","89119",36.104435,-115.1367851,"0","Juice Bars & Smoothies, Gluten-Free, Restaurants, Food, Vegan"
"200",122015,"Fresh BBQ Innovations","Scottsdale","AZ","85260",33.622208,-111.904186,"1","Nightlife, Vegan, American (New), Whiskey Bars, Breakfast & Brunch, Restaurants, Barbeque, Bars"
"201",153082,"Fifty One West","Tempe","AZ","85282",33.392511244,-111.9412457233,"0","Music Venues, Gluten-Free, Vegan, Food, Coffee & Tea, Restaurants, Nightlife, Arts & Entertainment, Vegetarian"
"202",67607,"Ike's Love & Sandwiches","Mesa","AZ","85210",33.3905280312,-111.855760173,"1","Sandwiches, Restaurants, Vegan, Gluten-Free, Vegetarian"
"203",139950,"Glow","Montréal","QC","H2V 1K5",45.5216695,-73.6140214,"0","Vegetarian, Salad, Restaurants, Food, Juice Bars & Smoothies, Vegan, Gluten-Free"
"204",104752,"Bragg's Factory Diner","Phoenix","AZ","85007",33.4572256,-112.0898341,"0","Diners, Vegetarian, Restaurants, Vegan"
"205",65432,"Buddha Chay","Toronto","ON","M9N 2T2",43.7061677,-79.5051206,"1","Vietnamese, Vegetarian, Restaurants, Vegan"
"206",117218,"Udupi","Tempe","AZ","85281",33.4480887488,-111.9268833664,"1","Restaurants, Vegetarian, Pakistani, Vegan, Indian"
"207",57035,"Ma Ma Wok","Charlotte","NC","28277",35.048281,-80.8162572,"1","Restaurants, Chinese, Vegetarian, Vegan"
"208",46506,"Kwench Juice Cafe Phoenix","Phoenix","AZ","85004",33.4529203,-112.0688873,"1","Restaurants, Vegetarian, Juice Bars & Smoothies, Food, Vegan"
"209",73868,"Vegan Danish Bakery","Vaughan","ON","L4J 1W2",43.8157182,-79.4246961,"1","Restaurants, Bakeries, Vegan, Food"
"210",45476,"Vital Life","Toronto","ON","M5T",43.6543636272,-79.3993415354,"0","Restaurants, Caribbean, Vegan, Vegetarian"
"211",79514,"Nirvana Indian Cuisine","Scottsdale","AZ","85260",33.6205227,-111.8962794,"1","Indian, Halal, Buffets, Vegan, Restaurants, Gluten-Free"
"212",42867,"Juice NV","Las Vegas","NV","89123",36.016341616,-115.1171674579,"0","Restaurants, Vegan, Food, Vegetarian, Juice Bars & Smoothies"
"213",123763,"Salad & Go","Mesa","AZ","85206",33.4106628536,-111.684506132,"1","Wraps, Food, Juice Bars & Smoothies, Restaurants, Salad, Vegan"
"214",29677,"Rosie's Eatery","Toronto","ON","M5M 3Y6",43.7284177,-79.4183041,"1","Vegan, Cafes, Gluten-Free, Salad, Restaurants, Soup"
"215",61407,"Bowlology","Las Vegas","NV","89117",36.127894,-115.314555,"1","Poke, Restaurants, Vegan, Acai Bowls, Juice Bars & Smoothies, Food, Gluten-Free"
"216",90873,"The Nile Coffee Shop","Mesa","AZ","85201",33.4148619,-111.8344763,"1","Food, Restaurants, Vegan, Coffee & Tea, Vegetarian, Breakfast & Brunch"
"217",177114,"Off the Hook","Las Vegas","NV","89147",36.113268,-115.2618656,"1","Seafood, Fish & Chips, Restaurants, Vegan, Sandwiches, American (Traditional)"
"218",185030,"Crudessence","Montréal","QC","H2T 2K8",45.524887,-73.5995936,"0","Vegetarian, Restaurants, Vegan"
"219",97494,"Kupfert & Kim - Metro Hall","Toronto","ON","M5V 3C7",43.6460092171,-79.3887656915,"1","Vegan, Restaurants"
"220",125432,"Little Sito","Toronto","ON","M6G 1M2",43.6624826,-79.4238902,"1","Middle Eastern, Lebanese, Restaurants, Vegan"
"221",26395,"Gandhi India's Cuisine","Las Vegas","NV","89169",36.1152085,-115.153111,"1","Vegetarian, Pakistani, Restaurants, Vegan, Indian"
"222",98873,"Meallionaire","Las Vegas","NV","89109",36.1635381,-115.1696012,"1","Food, Vegan, Event Planning & Services, Food Delivery Services, Vegetarian, Restaurants, Caterers, Home Services, Plumbing, Health & Medical, Specialty Food, Nutritionists"
"223",161516,"Namastay Kitchen and Hangout","Charlotte","NC","28211",35.176496,-80.802224,"0","Sushi Bars, Vegan, American (New), Juice Bars & Smoothies, Restaurants, Nightlife, Vegetarian, Bars, Wine Bars, Food"
"224",185151,"La Cantine","Montréal","QC","H2T 1P3",45.5222283,-73.5844913,"0","Local Flavor, Breakfast & Brunch, Restaurants, Vegan, Canadian (New), American (New)"
"225",161110,"MoBite Products","Euclid","OH","44117",41.5721298,-81.521241,"1","Food, Food Delivery Services, Specialty Schools, Education, Cooking Schools, Restaurants, Event Planning & Services, Live/Raw Food, Vegan, Caterers"
"226",98002,"Rawesome","Montréal","QC","H2R 1A8",45.5393235,-73.6276869,"1","Food, Bakeries, Gluten-Free, Restaurants, Vegan"
"227",51506,"YAYA Leslieville","Toronto","ON","M4M 1L4",43.6629883529,-79.3318011357,"1","Gluten-Free, Vegetarian, Vegan, Breakfast & Brunch, Restaurants"
"228",60705,"Humble Beginnings","Toronto","ON","M6P 1Z8",43.6653499,-79.47308,"0","Nightlife, Restaurants, Music Venues, Caterers, Gluten-Free, Event Planning & Services, Canadian (New), Arts & Entertainment, Vegan"
"229",52854,"La Vie la Vie","Saint-Hyacinthe","QC","J2S 5C2",45.624462,-72.94505,"1","Restaurants, Vegan"
"230",156932,"Pizzaiolo","Toronto","ON","M5V 3A7",43.6390825,-79.3865419,"1","Food, Gluten-Free, Vegan, Pizza, Canadian (New), Restaurants, Food Delivery Services"
"231",111084,"Vegan Chef Mayra","Las Vegas","NV","89145",36.1683449,-115.2659777,"1","Business Consulting, Professional Services, Local Flavor, Vegan, Vegetarian, Food, Education, Restaurants, Bakeries, Food Delivery Services, Event Planning & Services, Personal Chefs"
"232",62973,"DUGOUT","Montréal","QC","H2W 1G6",45.5173411,-73.5789395,"1","Patisserie/Cake Shop, Vegan, Restaurants, Coffee & Tea, Food, Bakeries, Cafes"
"233",98147,"Away Kitchen and Cafe","Toronto","ON","M5V 2B5",43.6475649618,-79.4026591641,"1","Vegan, Ice Cream & Frozen Yogurt, Food, Restaurants"
"234",156020,"Invitation V","Montréal","QC","H2V 1T5",45.524101,-73.604905,"0","Vegan, Restaurants"
"235",144772,"zpizza","Phoenix","AZ","85003",33.4500119,-112.0756189,"0","Vegan, Pizza, Restaurants, Gluten-Free"
"236",34340,"Bowl of Heaven","Las Vegas","NV","89117",36.1279249619,-115.3146286589,"0","Juice Bars & Smoothies, Gluten-Free, Food, Vegan, Restaurants"
"237",101865,"Copper Branch","Brossard","QC","J4Y 0N5",45.4397180579,-73.4426284817,"1","Vegan, Gluten-Free, Restaurants, Vegetarian"
"238",22421,"Thai Style Noodle House 2","Las Vegas","NV","89148",36.0949947,-115.2982015,"1","Noodles, Restaurants, Chinese, Thai, Vegan"
"239",142587,"Loving Hut","Toronto","ON","M5V 2L4",43.648187,-79.396566,"0","Restaurants, Asian Fusion, Vegan"
"240",189918,"Oliver's Sophisticated Bean","Phoenix","AZ","85004",33.4584453,-112.0694742,"0","Coffee & Tea, Organic Stores, Beer, Wine & Spirits, Cafes, Vegan, Food, Restaurants, Vegetarian"
"241",44013,"Java House","Pittsburgh","PA","15212",40.480713,-80.041572,"0","Vegan, Convenience Stores, Coffee & Tea, Sandwiches, Restaurants, Food"
"242",59697,"Antidote","Montréal","QC","H1W 1R4",45.5438876,-73.5458327,"1","Juice Bars & Smoothies, Restaurants, Vegan, Delicatessen, Vegetarian, Grocery, Food"
"243",46841,"Pizzaiolo","Richmond Hill","ON","L4B 3B4",43.8468632,-79.3779693,"1","Gluten-Free, Vegan, Restaurants, Pizza"
"244",41948,"The Healing Panda","Henderson","NV","89074",36.0180991,-115.1012254,"1","Coffee & Tea, Cafes, Bakeries, Desserts, Breakfast & Brunch, Juice Bars & Smoothies, Cannabis Clinics, Vegan, Restaurants, Gluten-Free, Food, Health & Medical, Local Flavor, Nutritionists, Cannabis Dispensaries, Shopping, Cannabis Collective"
"245",132068,"Veggie House","Las Vegas","NV","89146",36.125569,-115.210911,"1","Chinese, Restaurants, Vegetarian, Specialty Food, Food, Vegan"
"246",167252,"Siggy's Good Food","Charlotte","NC","28205",35.2278929,-80.8209316,"1","Restaurants, Mediterranean, Vegan, Comfort Food, Food, Juice Bars & Smoothies, Gluten-Free, Sandwiches"
"247",146533,"Petit Marché Végé","Montréal","QC","H2S 2S5",45.5380651001,-73.6136631316,"1","Vietnamese, Restaurants, Vegan, Vegetarian"
"248",188622,"Tenon Vegetarian Cuisine","Markham","ON","L3R",43.8600193,-79.3035075,"1","Vegetarian, Restaurants, Sushi Bars, Japanese, Vegan"
"249",1074,"Pizzaiolo","Toronto","ON","M6R 2M8",43.6503327,-79.4504536,"1","Gluten-Free, Vegan, Pizza, Restaurants"
"250",100009,"Mellow Mushroom","Phoenix","AZ","85085",33.7134545,-112.1138931,"1","Nightlife, Bars, Sandwiches, Pizza, Restaurants, Vegan, Vegetarian"
"251",85683,"Kalpataru Dosa Hub","Brampton","ON","L6Y 0L8",43.6443642,-79.7564164,"1","Vegetarian, Vegan, Indian, Restaurants"
"252",131272,"Sapa","Montréal","QC","H2W 1Y8",45.5172047,-73.580187,"1","Bubble Tea, Ice Cream & Frozen Yogurt, Vegan, Food, Restaurants, Coffee & Tea, Vietnamese"
"253",135396,"Ashley's","Montréal","QC","H4A 1X7",45.4685744,-73.6191328,"1","Vegan, Restaurants, Vegetarian"
"254",104191,"Le Taj","Montréal","QC","H3A 1R7",45.501105,-73.5766574,"1","Vegan, Pakistani, Restaurants, Indian, Middle Eastern, Vegetarian"
"255",177006,"Veganos Kitchen","Las Vegas","NV","89130",36.2161409,-115.213356,"1","Vegan, Vegetarian, Restaurants, Mexican, New Mexican Cuisine"
"256",106221,"Pita Jungle","Chandler","AZ","85224",33.3194631349,-111.8742864129,"1","Restaurants, Mediterranean, Nightlife, Greek, Vegetarian, Bars, Middle Eastern, American (New), Vegan"
"257",173286,"Cafe Koi","Calgary","AB","T2R 1J2",51.0428379116,-114.0658939332,"1","Canadian (New), Music Venues, Vegan, Arts & Entertainment, American (New), Restaurants, Nightlife, Vegetarian, Asian Fusion"
"258",147399,"YC's Mongolian Grill","Tempe","AZ","85284",33.3496395266,-111.9491835778,"1","Vegan, Buffets, Asian Fusion, Chinese, Gluten-Free, Restaurants, Mongolian"
"259",175840,"D-Beatstro","Toronto","ON","M6H 1N9",43.6586005,-79.4421299,"0","Vegan, Vegetarian, Restaurants, Cafes"
"260",185759,"24 Carrots Juice Bar & Cafe","Chandler","AZ","85226",33.3059385,-111.9471779,"0","Vegetarian, Live/Raw Food, Restaurants, Food, Juice Bars & Smoothies, Vegan"
"261",115455,"Panacea","Las Vegas","NV","89145",36.1643423,-115.2897778,"0","Juice Bars & Smoothies, Restaurants, Fruits & Veggies, Vegetarian, Vegan, Specialty Food, Coffee & Tea, Food"
"262",88615,"Copper Branch","Laval","QC","H7T 1C8",45.5708221624,-73.7539422703,"1","Gluten-Free, Vegan, Breakfast & Brunch, Restaurants, Vegetarian"
"263",63406,"Aladdin's Eatery","Canonsburg","PA","15317",40.2658781,-80.1294919,"1","American (New), Mediterranean, Restaurants, Pizza, Vegetarian, Middle Eastern, Vegan, Desserts, Food"
"264",72407,"Peas & Carrots","Las Vegas","NV","89119",36.0765176,-115.1533426,"0","Food, Food Delivery Services, Restaurants, Vegan"
"265",188587,"Royal Biryani","Charlotte","NC","28270",35.140798,-80.740587,"1","Restaurants, Himalayan/Nepalese, Indian, Vegan, Kebab, Vegetarian, Pakistani, Halal"
"266",47607,"Grasslands","Toronto","ON","M5V 2B4",43.6479391,-79.4003492,"0","Bars, Lounges, Restaurants, Nightlife, Vegan, Modern European"
"267",89834,"GetMoMuffins","Carnegie","PA","",40.4086802,-80.0833885,"1","Cafes, Gluten-Free, Food Delivery Services, Breakfast & Brunch, Bakeries, Restaurants, Vegan, Coffee & Tea, Food, Desserts, Event Planning & Services, Caterers"
"268",115046,"Pizzaiolo","Etobiicoke","ON","M8V 1L7",43.5981043517,-79.5185276174,"1","Pizza, Gluten-Free, Restaurants, Vegan"
"269",155765,"Eddie's Pizza And Lounge","Tempe","AZ","85281",33.4150348,-111.9184724,"0","Bars, Nightlife, Vegan, Pizza, Hookah Bars, Restaurants"
"270",122979,"COBS Bread","Vaughan","ON","L6A 4N9",43.8488651,-79.4607097,"1","Food, Specialty Food, Bakeries, Restaurants, Desserts, Vegan"
"271",160603,"Komol Restaurant","Las Vegas","NV","89104",36.1424875212,-115.1425948144,"1","Thai, Vegetarian, Restaurants, Vegan"
"272",129277,"Fresh Sandwich Shop","Aurora","ON","L4G 1N2",43.9894554124,-79.4657356163,"0","Bakeries, Food, Vegetarian, Salad, Sandwiches, Vegan, Restaurants"
"273",6638,"Vege-Way","Las Vegas","NV","89139",36.0477312436,-115.2249039347,"1","Fast Food, Burgers, Sandwiches, Vegetarian, Restaurants, Vegan"
"274",111208,"M & B Yummy","Toronto","ON","M6K 1L5",43.6417069,-79.4312362,"0","Restaurants, Vegan, Food, Ethiopian, Vegetarian"
"275",161478,"FreshFin Poké","Madison","WI","53703",43.0733207,-89.3941575,"1","Restaurants, Food, Hawaiian, Sushi Bars, Gluten-Free, Poke, Vegan"
"276",75713,"Health Binge","Las Vegas","NV","89118",36.063224,-115.2237981,"0","Food, Juice Bars & Smoothies, Restaurants, Tacos, Vegan, Active Life, Vegetarian, Gluten-Free, Wraps, Mexican, American (New)"
"277",47591,"Pizzaiolo","Toronto","ON","M4K 1N1",43.6764406514,-79.3582926082,"1","Restaurants, Pizza, Vegan, Gluten-Free"
"278",80011,"Vegandale Brewery","Toronto","ON","M6K 1L4",43.6417075708,-79.432192035,"1","Bars, Beer Bar, Nightlife, Breweries, Food, Restaurants, Vegan"
"279",86406,"Green Lotus","Gilbert","AZ","85234",33.3655334,-111.7881503,"1","Restaurants, Thai, Vietnamese, Vegan"
"280",190301,"Nourish","Tempe","AZ","85282",33.407984,-111.89442,"0","Vegan, Gluten-Free, Restaurants, Health Markets, Food, Specialty Food"
"281",166246,"The Goods","Toronto","ON","M6R 2M3",43.6465869014,-79.4490116419,"1","Juice Bars & Smoothies, Fruits & Veggies, Salad, Organic Stores, Food, Vegan, Health Markets, Specialty Food, Restaurants, Vegetarian, Soup, Live/Raw Food"
"282",138405,"Foodchain","Montréal","QC","H3B 4J8",45.5015898,-73.5708549,"1","Vegan, Restaurants, Vegetarian, Fast Food"
"283",113138,"Abay Ethiopian Cuisine","Pittsburgh","PA","15206",40.460212,-79.925355,"0","Ethiopian, Vegetarian, Restaurants, Vegan"
"284",118433,"Mi Vegana Madre Restaurant","Glendale","AZ","85301",33.5409362,-112.1843176,"1","Restaurants, Mexican, Vegan"
"285",170748,"Lotsa Stone Fired Pizza","Madison","WI","53703",43.0751207,-89.3935434,"0","Pizza, Juice Bars & Smoothies, Fast Food, Food, Restaurants, Salad, Vegan, Gluten-Free"
"286",103456,"Bowl of Heaven 2 Go","Las Vegas","NV","89119",36.104435,-115.1367851,"0","Food, Juice Bars & Smoothies, Restaurants, Vegan"
"287",1079,"Bronze Cafe at The Market","Las Vegas","NV","89101",36.1682897,-115.1391277,"1","Coffee & Tea, Restaurants, Vegan, Salad, Bagels, Grocery, Juice Bars & Smoothies, Breakfast & Brunch, Food, Caterers, Event Planning & Services, Cafes, Sandwiches"
"288",40583,"Revitasize","Vaughan","ON","L4J 3N1",43.8065643271,-79.4726373848,"1","Health Markets, Juice Bars & Smoothies, Restaurants, Food, Vegan, Vegetarian, Specialty Food, Organic Stores, Acai Bowls"
"289",183172,"Thai By The Park","Toronto","ON","M6P 1A6",43.655252,-79.456726,"1","Vegan, Thai, Restaurants, Vegetarian"
"290",63881,"Bar Boulevard","Las Vegas","NV","89120",36.0857525,-115.1037743,"1","Cocktail Bars, Nightlife, Sports Bars, Vegan, Restaurants, Bars"
"291",158410,"Pita Jungle","Phoenix","AZ","85003",33.459014,-112.077468,"1","Vegan, American (New), Restaurants, Mediterranean, Greek, Vegetarian"
"292",85350,"Ping Pong Thai Restaurant","Las Vegas","NV","89120",36.0711402559,-115.1106205908,"1","Vegan, Restaurants, Vegetarian, Thai"
"293",80396,"All Wrapped Up","Phoenix","AZ","85013",33.4803159,-112.0805886,"0","Sandwiches, Vegan, Restaurants, Gluten-Free"
"294",135354,"Spirite Lounge","Montréal","QC","H2L 1R5",45.5212201,-73.5623253,"0","Nightlife, Vegan, Restaurants"
"295",185261,"WaBa Grill","Avondale","AZ","85392",33.4642345,-112.273027,"1","American (New), Asian Fusion, Japanese, Restaurants, Fast Food, Vegan"
"296",9336,"Rosalinda","Toronto","ON","M5H 3A9",43.650076966,-79.3848312646,"1","Restaurants, Mexican, Vegan"
"297",68670,"Go Raw Cafe","Las Vegas","NV","89117",36.1385383,-115.2844243,"0","Bookstores, Vegan, Shopping, Restaurants, Vegetarian, Specialty Food, Books, Mags, Music & Video, Juice Bars & Smoothies, Health Markets, Food"
"298",13500,"Curry Leaf Flavors of India","Las Vegas","NV","89148",36.0979515,-115.2977879,"1","Desserts, Food, Beer, Wine & Spirits, Vegetarian, Indian, Vegan, Bars, Restaurants, Nightlife"
"299",35913,"Tabule Restaurant","Toronto","ON","M4S 1Z8",43.700983,-79.396863,"1","Vegan, Vegetarian, Middle Eastern, Restaurants"
"300",93407,"Safaryan","Whitby","ON","L1N 4J8",43.8791298,-78.9421062,"1","Afghan, Middle Eastern, Mediterranean, Vegan, Restaurants"
"301",179346,"Rancho Relaxo To Go","Toronto","ON","M5T 1R9",43.657976,-79.401749,"0","Food Trucks, Restaurants, Food, Mexican, Vegetarian, Vegan"
"302",182695,"How Do You Roll","Charlotte","NC","28202",35.225394,-80.84395,"0","Sushi Bars, Vegan, Food, Restaurants"
"303",65735,"Pizzaiolo","Toronto","ON","M4Y 2B6",43.669366,-79.386214,"1","Food, Pizza, Gluten-Free, Vegan, Restaurants"
"304",41968,"Hot Beans","Toronto","ON","M5T 3K7",43.6552887,-79.3998718,"0","Mexican, Vegan, Restaurants"
"305",112202,"Invitation V","Montréal","QC","H2Y 1M6",45.504067,-73.558527,"1","Restaurants, Breakfast & Brunch, Vegan"
"306",102708,"Kitchen18","Scottsdale","AZ","85253",33.5786545,-111.9251893,"1","Event Planning & Services, Restaurants, Mediterranean, Middle Eastern, Kosher, Vegan, Caterers"
"307",36718,"Grass Roots Juice Bar","Las Vegas","NV","89101",36.167937,-115.140467,"0","Food, Vegan, Education, Ice Cream & Frozen Yogurt, Juice Bars & Smoothies, Restaurants, Vegetarian"
"308",123195,"Luxe Kitchen & Lounge","Cleveland","OH","44102",41.4836507,-81.7309664,"1","Vegetarian, Italian, American (New), Restaurants, Tapas Bars, Bars, Lounges, Mediterranean, Vegan, Nightlife"
"309",162091,"Veggie Paradise","Mississauga","ON","L4W 1S4",43.6577115,-79.6394732,"1","Vegan, Restaurants, Vegetarian"
"310",1501,"Fresh On Bloor","Toronto","ON","M5S 1W5",43.6669209,-79.403466,"1","Vegan, Vegetarian, Restaurants"
"311",191519,"Cosmic Treats","Toronto","ON","M5T 2L4",43.6540622,-79.4014786,"1","Restaurants, American (Traditional), Vegan, Food, Ice Cream & Frozen Yogurt, Bakeries, Breakfast & Brunch, Desserts"
"312",142693,"New India Gate","Chandler","AZ","85226",33.31923,-111.925813,"1","Restaurants, Buffets, Bars, Vegan, Halal, Nightlife, Beer Bar, Indian"
"313",41792,"Genghis Grill","Tempe","AZ","85281",33.4324571,-111.9023035,"1","Vegetarian, Restaurants, Buffets, Mongolian, Asian Fusion, Korean, Food, Thai, Chinese, Vegan"
"314",183393,"GlutenZero","Las Vegas","NV","89123",36.0164931,-115.1170689,"1","Vegan, Restaurants, Gluten-Free, Food, Bakeries"
"315",94918,"wiener shop","Madison","WI","53703",43.0736723016,-89.3948453665,"0","Vegan, Restaurants, Hot Dogs, American (New)"
"316",186065,"Ike's Love & Sandwiches","Phoenix","AZ","85004",33.4579187,-112.069341,"1","Restaurants, Sandwiches, Gluten-Free, Vegetarian, Vegan"
"317",75312,"Pizzaiolo","Toronto","ON","M6J 1E4",43.6470079,-79.4055594,"1","Vegan, Pizza, Gluten-Free, Restaurants"
"318",18984,"Sunrise Coffee","Las Vegas","NV","89120",36.0719274658,-115.1070339563,"1","Coffee Roasteries, Vegan, Restaurants, Tea Rooms, Vegetarian, Bakeries, Food, Coffee & Tea"
"319",8341,"Mad Radish","Toronto","ON","M4P 2C6",43.7075928,-79.3982562,"1","Food, Salad, Vegan, Juice Bars & Smoothies, Vegetarian, Restaurants"
"320",48428,"Sprouts Restaurant","Mississauga","ON","L5N 8J4",43.6105627,-79.7487108,"1","Soup, Sandwiches, Vegan, Food, Restaurants, Salad, Gluten-Free, Canadian (New)"
"321",93343,"Copper Branch","Dollard-Des-Ormeaux","QC","H9B 1Z8",45.4849993,-73.7963564,"1","Restaurants, Vegan, Juice Bars & Smoothies, Vegetarian, Food, Breakfast & Brunch, Gluten-Free"
"322",28823,"Da Venezia Gourmet Pizza","Toronto","ON","M5M 3X6",43.7238951,-79.4164441,"1","Pizza, Restaurants, Vegan, Gluten-Free"
"323",167567,"Living Kitchen","Charlotte","NC","28211",35.1505395,-80.8286961,"0","Vegetarian, Food, Restaurants, Juice Bars & Smoothies, Organic Stores, Breakfast & Brunch, Vegan"
"324",28334,"Café Veritas","Montréal","QC","H2Y 3Y7",45.5055629,-73.555343,"0","Vegan, Sandwiches, Food, Cafes, Vegetarian, Restaurants, Coffee & Tea"
"325",107871,"Pho Vistro","Toronto","ON","M5V 1Z4",43.6501281,-79.389043,"1","Restaurants, Soup, Breakfast & Brunch, Vietnamese, Vegetarian, Asian Fusion, Noodles, Vegan, Juice Bars & Smoothies, Food"
"326",128757,"Scramble","Scottsdale","AZ","85253",33.5335199018,-111.926205579,"1","American (Traditional), Restaurants, Vegan, Breakfast & Brunch, Gluten-Free"
"327",182205,"Olly Fresco's","Montréal","QC","H3B 1B7",45.5035416,-73.5694342,"1","Food, Grocery, Vegan, Seafood Markets, Restaurants, Specialty Food, Vegetarian"
"328",179011,"Pomegranate Cafe","Phoenix","AZ","85014",33.5184615021,-112.0635579899,"0","Restaurants, Cafes, Vegan"
"329",142020,"Indian Curry House","Las Vegas","NV","89146",36.1256933,-115.2112778,"0","Indian, Pakistani, Halal, Himalayan/Nepalese, Vegetarian, Vegan, Restaurants"
"330",5934,"Spirit Organic Cafe","Gilbert","AZ","85233",33.3372062,-111.8084353,"1","Specialty Food, Fitness & Instruction, Vegetarian, Food, Coffee & Tea, Health & Medical, Nutritionists, Breakfast & Brunch, Juice Bars & Smoothies, Health Markets, Vegan, Live/Raw Food, Trainers, Organic Stores, Active Life, Restaurants"
"331",89384,"Arepera","Montréal","QC","H2X 1B4",45.5147831155,-73.5720007059,"1","Vegetarian, Gluten-Free, Restaurants, Venezuelan, Latin American, Vegan"
"332",33282,"The Heavenly Vegan","Las Vegas","NV","89101",36.1697096,-115.1236952,"1","Health Markets, Restaurants, Specialty Food, Food Delivery Services, Personal Chefs, Vegan, Food, Event Planning & Services, Caterers"
"333",166452,"Get Real Cafe","Toronto","ON","M6J 2Z6",43.6471904,-79.4199315,"0","Vegetarian, Vegan, Restaurants, Breakfast & Brunch"
"334",157877,"Pour Coffeehouse","Las Vegas","NV","89119",36.0661492,-115.1190162,"1","Caribbean, Sandwiches, Vegan, Juice Bars & Smoothies, Coffee & Tea, American (Traditional), Cafes, Restaurants, Food, Desserts"
"335",63083,"Leafy Sea Dragon","Phoenix","AZ","",33.4483771,-112.0740373,"1","Food Trucks, Vegan, Restaurants, Food"
"336",60154,"The Uprooted Kitchen","Gilbert","AZ","85296",33.3216632,-111.7262523,"1","Specialty Food, Organic Stores, Food, Local Flavor, Food Trucks, Fruits & Veggies, Vegan, Restaurants, Street Vendors, Vegetarian"
"337",43244,"Thai Thai","Lakewood","OH","44107",41.4769144417,-81.7890876699,"1","Food, Bubble Tea, Thai, Desserts, Restaurants, Vegan"
"338",86317,"Humble Wine Bar","Lakewood","OH","44107",41.4850751,-81.803588,"1","Desserts, Restaurants, Food, Vegan, Bars, Pizza, Nightlife, Lounges, Tapas/Small Plates, Wine Bars"
"339",22769,"Aladdin's Eatery","Pittsburgh","PA","15217",40.4378199,-79.9199427,"1","Vegan, Juice Bars & Smoothies, Food, Mediterranean, Nightlife, Bars, Soup, Restaurants, Vegetarian, Middle Eastern"
"340",143894,"A La Mode","Las Vegas","NV","89149",36.2684007,-115.2956118,"0","Restaurants, Gluten-Free, Food, Bakeries, Vegan"
"341",171076,"L'Gros Luxe Plateau","Montréal","QC","H2L 1A5",45.5215356836,-73.5754337451,"1","Restaurants, Cocktail Bars, Vegan, Canadian (New), Diners, Bars, Vegetarian, Nightlife, Breakfast & Brunch, Burgers, Sandwiches"
"342",190951,"Why Not Pizza","Charlotte","NC","28215",35.223467,-80.727712,"1","Vegan, Sandwiches, Chicken Wings, Restaurants, Specialty Food, American (Traditional), Cheesesteaks, Food, Desserts, Pizza"
"343",16202,"Juice Press","Las Vegas","NV","89109",36.1117900373,-115.1765809571,"1","Vegan, Food, Organic Stores, Juice Bars & Smoothies, Restaurants"
"344",129397,"Calii Love","Toronto","ON","M5X 1A9",43.648648,-79.381747,"1","Specialty Food, Food, Vegan, Restaurants, Acai Bowls, Juice Bars & Smoothies"
"345",116280,"Tinh Tam Trai","Vaughan","ON","L4K 5Y5",43.827523194,-79.5401382209,"1","Vegetarian, Vietnamese, Vegan, Restaurants"
"346",140688,"Tastybox","Phoenix","AZ","85006",33.4554106,-112.0648466,"1","Vegan, Food, Restaurants, American (New), Vegetarian"
"347",25238,"Urban Herbivore","Toronto","ON","M6H 1A6",43.6532415,-79.4271428,"0","Bakeries, Food, Restaurants, Vegan"
"348",63671,"Raw Aura","Mississauga","ON","L5G 1E3",43.5534272,-79.5841138,"1","Event Planning & Services, Restaurants, Vegan, Vegetarian, Caterers"
"349",179856,"Pizzaiolo","Toronto","ON","M4L 1S4",43.6690124,-79.3118849,"1","Gluten-Free, Vegan, Pizza, Restaurants"
"350",79830,"Copper Branch","Pointe-Claire","QC","H9R 4Y2",45.4683817,-73.8289929,"1","Vegan, Vegetarian, Restaurants, Fast Food, Gluten-Free"
"351",4958,"Fit and Sweet Bakery","Toronto","ON","M6H 1N9",43.6586166,-79.4422898,"0","Sandwiches, Bakeries, Desserts, Vegan, Restaurants, Food"
"352",187346,"Flaming Ice Cube","Cleveland","OH","44114",41.499241,-81.692709,"0","Vegan, Vegetarian, Restaurants"
"353",117243,"Munch","Solon","OH","44139",41.4235764,-81.4774021,"1","Restaurants, Vegetarian, Vegan, Sandwiches, Mediterranean"
"354",138102,"Spak Brothers Pizza and More","Pittsburgh","PA","15224",40.4650793,-79.9424916,"1","Vegan, Sandwiches, Vegetarian, Restaurants, Pizza, Salad"
"355",12279,"Simply Pure by Chef Stacey Dougan","Las Vegas","NV","89101",36.1679035,-115.138142,"1","Vegan, Restaurants, Vegetarian"
"356",54135,"Ital Vital","Scarborough","ON","M1L 3J4",43.7172743,-79.2936906,"1","Juice Bars & Smoothies, Caribbean, Restaurants, Food, Vegan"
"357",121525,"Plant Powered Prep","Chandler","AZ","85224",33.3519000409,-111.8579984283,"1","Vegan, Specialty Food, Health Markets, Juice Bars & Smoothies, Live/Raw Food, Restaurants, Food"
"358",42083,"Tin Front Cafe","Homestead","PA","15120",40.4072651,-79.9101652,"0","Bars, Coffee & Tea, Restaurants, Nightlife, Vegan, Vegetarian, American (New), Food"
"359",182131,"Isabela's","Las Vegas","NV","89128",36.2074847,-115.2682033,"0","Restaurants, Vegan, Seafood, Tapas/Small Plates"
"360",88863,"Bunner's","Toronto","ON","M6P 1Z7",43.6656916,-79.4714453,"1","Vegan, Bakeries, Gluten-Free, Food, Restaurants"
"361",105344,"Kupfert & Kim","Toronto","ON","M5J 2N8",43.6414118932,-79.3777328454,"1","Gluten-Free, Vegan, Restaurants, Vegetarian"
"362",169860,"Camros Organic Eatery","Toronto","ON","M4Y 2P2",43.6695258,-79.3855113,"0","Shopping, Gluten-Free, Specialty Food, Food, Vegetarian, Buffets, Health Markets, Persian/Iranian, Restaurants, Vegan"
"363",152100,"Tacotarian","Las Vegas","NV","89148",36.0763561,-115.2979731,"1","Vegan, Mexican, Restaurants, Tacos"
"364",63757,"Loving Hut","Pittsburgh","PA","15277",40.4459734242,-80.1582661486,"0","Vietnamese, Vegan, Restaurants, Vegetarian"
"365",25879,"Fubar","Toronto","ON","M6G 1LM",43.6633580757,-79.4185703357,"1","Vegetarian, Vegan, Nightlife, Beer Bar, Restaurants, Bars"
"366",151749,"Mandy's","Montréal","QC","H2T 2N9",45.5209621379,-73.5949444771,"1","Vegan, Restaurants, Salad, Live/Raw Food, Cafes, Soup, American (New), Canadian (New)"
"367",70343,"La Panthère Verte","Montréal","QC","H2X 3K4",45.515739,-73.5644282,"1","Restaurants, Beer, Wine & Spirits, Vegan, Food"
"368",109501,"Joe Maxx Coffee","Las Vegas","NV","89123",36.0430342509,-115.1513231735,"1","Bagels, Breakfast & Brunch, Patisserie/Cake Shop, Ice Cream & Frozen Yogurt, Vegan, Sandwiches, Coffee & Tea, Cafes, Food, Restaurants"
"369",191221,"Pita Jungle","Tempe","AZ","85281",33.4152240101,-111.9178978785,"0","Mediterranean, Vegetarian, American (New), Restaurants, Greek, Vegan"
"370",21815,"Pizzaiolo","Halton Hills","ON","L7G 1T9",43.6503023,-79.9122301,"1","Vegan, Pizza, Gluten-Free, Restaurants"
"371",58422,"Copper Branch","Toronto","ON","M5L 1E2",43.6481326,-79.3795089,"1","Breakfast & Brunch, Vegan, Restaurants, Gluten-Free, Vegetarian"
"372",147874,"AH-SAH-EE Cafe","Las Vegas","NV","89123",36.014137,-115.15498,"1","Vegan, Restaurants"
"373",16630,"Cupsie Daisy","Kent","OH","44240",41.1536674,-81.3578859,"1","Restaurants, Desserts, Cupcakes, Vegan, Food"
"374",34411,"Pizzaiolo","Mississauga","ON","L5G 1E1",43.5524836,-79.5849524,"1","Pizza, Restaurants, Vegan, Gluten-Free"
"375",42387,"That's a Wrap","Phoenix","AZ","85014",33.5095,-112.063826,"0","Vegetarian, Vegan, Beer, Wine & Spirits, Restaurants, Sandwiches, Food"
"376",50931,"Rawlicious","Toronto","ON","M6S 1M8",43.6522588,-79.4722672,"0","Food, Restaurants, Live/Raw Food, Vegan, Desserts, Vegetarian"
"377",150784,"Garden Grill","Las Vegas","NV","89145",36.1667834,-115.2861968,"1","Restaurants, Farmers Market, Street Vendors, Mexican, Vegan, Food, Tacos, Vegetarian"
"378",136220,"Urban Acorn Catering","Toronto","ON","M6S 3Y8",43.6553388,-79.4867923,"1","Event Planning & Services, Specialty Food, Personal Chefs, Caterers, Vegan, Food, Restaurants"
"379",115408,"Cafe 8","Mesa","AZ","85206",33.3920951,-111.7181478,"1","Desserts, Gluten-Free, Breakfast & Brunch, Restaurants, Food, Sandwiches, Vegetarian, Mediterranean, Vegan"
"380",108939,"The Green Owl Cafe","Madison","WI","53704",43.0922759,-89.355528,"1","Cafes, Restaurants, Diners, Vegan, Vegetarian"
"381",68947,"Harvest Noon","Toronto","ON","M5S 1C1",43.6607028,-79.4001796,"0","Restaurants, Vegan"
"382",94700,"Pizzaiolo","Toronto","ON","M5H 1X6",43.6479858,-79.3901015,"1","Vegan, Gluten-Free, Pizza, Restaurants"
"383",186324,"Pizza Fusion","Mesa","AZ","85215",33.4518585,-111.707131,"0","Food, Beer, Wine & Spirits, Gluten-Free, Vegan, Pizza, Restaurants"
"384",172260,"The Social Gardener","Toronto","ON","M4L 1Z1",43.6716439,-79.3253848,"1","Food, Restaurants, Coffee & Tea, Vegetarian, Vegan, Cafes, Farmers Market"
"385",53750,"Flour & Grounds","Henderson","NV","89014",36.0570059818,-115.0566596326,"0","Bakeries, Coffee & Tea, Vegan, Cafes, Food, Restaurants"
"386",30390,"Dolce Wraps","Fairview Park","OH","44126",41.4602726,-81.8522288,"1","Sandwiches, Vegan, Middle Eastern, Restaurants, Mediterranean"
"387",189665,"Panevino Italian Grille","Las Vegas","NV","89119",36.0708262285,-115.1628910428,"1","Italian, Nightlife, Beer, Wine & Spirits, Food, Vegan, Restaurants, Bars, Cocktail Bars"
"388",137219,"Earth Bistro Cafe","Cleveland","OH","44102",41.4863845,-81.7626989,"1","Food, Vegetarian, Breakfast & Brunch, Restaurants, Cuban, Vegan, Juice Bars & Smoothies"
"389",44925,"El Burro","Pittsburgh","PA","15218",40.4325712791,-79.8936523497,"1","American (Traditional), Mexican, Restaurants, Tacos, Vegan"
"390",169737,"Vegetarian Food Festival","Toronto","ON","M5J 2G8",43.6390687,-79.382896,"1","Arts & Entertainment, Restaurants, Festivals, Vegetarian, Vegan"
"391",112912,"Ruchi Vegetarian South Indian Cuisine","Chandler","AZ","85224",33.334688,-111.877793,"1","Restaurants, Vegetarian, Indian, Vegan"
"392",18517,"Karine's","Toronto","ON","M5T 3K5",43.654152,-79.391194,"1","Vegan, Vegetarian, Restaurants, Breakfast & Brunch"
"393",109273,"Merchant Street","Cleveland","OH","44113",41.479394,-81.6890041,"0","Food, Italian, Salad, Wine Bars, French, Fruits & Veggies, Specialty Food, Nightlife, Sandwiches, Gluten-Free, Vegan, Restaurants, Mediterranean, Bars"
"394",73834,"V's Caribbean Restaurant","Toronto","ON","M6M 4P7",43.6882775,-79.4924573,"1","Caribbean, Vegan, Restaurants"
"395",191491,"Tediberto's","Phoenix","AZ","85004",33.4587814,-112.0722749,"0","Vegan, Mexican, Restaurants"
"396",30419,"Cinnaholic","Westlake","OH","44145",41.4621363,-81.9561202,"1","Bakeries, Restaurants, Vegan, Desserts, Food"
"397",185325,"HUMMUS","Henderson","NV","89052",35.9936882,-115.1016894,"1","Mediterranean, Juice Bars & Smoothies, Food, Caterers, Vegan, Restaurants, Event Planning & Services, Wraps, Fast Food, Gluten-Free, Middle Eastern"
"398",127256,"Bean Sprouts Cafe","Phoenix","AZ","85004",33.4486919437,-112.0665119395,"1","Food, Sandwiches, Cafes, Gluten-Free, Juice Bars & Smoothies, Vegan, Restaurants"
"399",28825,"Fired Pie","Gilbert","AZ","85295",33.30792,-111.742816,"1","Restaurants, Vegan, Italian, Pizza, Salad"
"400",87138,"Pizzaiolo","Toronto","ON","M5S 2J2",43.6666378801,-79.4044644985,"1","Gluten-Free, Vegetarian, Restaurants, Vegan, Pizza"
"401",130303,"Mother Fool's Coffeehouse","Madison","WI","53703",43.0818991,-89.3657578,"1","Coffee & Tea, Food, Vegan, Restaurants"
"402",143753,"Zen-E-Lunchbox","Calgary","AB","T2G",51.0502225,-114.0627436,"0","Restaurants, Vegan"
"403",78486,"YC's Mongolian Grill","Chandler","AZ","85286",33.2788302,-111.7904534,"1","Restaurants, Asian Fusion, Vegan, Chinese, Specialty Food, Mongolian, Food, Buffets, Ethnic Food, Vegetarian"
"404",143977,"No Regrets Bar","Las Vegas","NV","89113",36.0668534,-115.2727308,"1","Sports Bars, Breakfast & Brunch, Cocktail Bars, Restaurants, Vegan, Bars, Nightlife"
"405",167979,"Mother Falafel","Las Vegas","NV","89118",36.0724991,-115.2436114,"1","Mediterranean, Falafel, Vegan, Restaurants, Middle Eastern"
"406",189773,"Hummus Factory Canada","Thornhill","ON","L4J 3W1",43.7989882,-79.4463191,"0","Restaurants, Kosher, Vegetarian, Vegan, Mediterranean"
"407",184224,"Sage Kitchen","Phoenix","AZ","85016",33.5065137,-112.0388443,"0","Restaurants, Spiritual Shop, Coffee & Tea, Gluten-Free, Vegetarian, Vegan, Health Markets, Food, Shopping, Specialty Food, Delicatessen, Health & Medical"
"408",120914,"E L Ruddy Co Cafe","Toronto","ON","M6J 1Y3",43.649445,-79.427766,"1","Coffee & Tea, Gluten-Free, Nightlife, Bars, Vegan, Vegetarian, Food, Restaurants"
"409",91779,"Fresh","Toronto","ON","M5E 1B3",43.6477534,-79.3742742,"1","Restaurants, Vegan, Vegetarian"
"410",69242,"El Cactus Veggie Vegan","Henderson","NV","89015",36.0335025,-114.9856516,"0","Vegetarian, Restaurants, Tex-Mex, Vegan, Mexican"
"411",161264,"Nēche Restaurant & Ultra Lounge","Las Vegas","NV","89119",36.0679611785,-115.1780364019,"0","Lounges, Bars, Restaurants, Vegetarian, Nightlife, Fast Food, Vegan, American (Traditional)"
"412",88150,"Forequarter","Madison","WI","53703",43.0822764,-89.3796112,"1","Beer Bar, Bars, Nightlife, Caterers, Restaurants, Event Planning & Services, American (New), Breakfast & Brunch, Vegetarian, Vegan"
"413",122283,"Kiffin","Montréal","QC","H2X 3L1",45.5174507,-73.5681999,"0","Restaurants, Arts & Crafts, Vegan, Cafes, Local Flavor, Comfort Food, Food Delivery Services, Bistros, Shopping, Gluten-Free, Gastropubs, Nightlife, Specialty Food, Cooking Classes, Tapas/Small Plates, Caterers, Food, Breakfast & Brunch, Event Planning & Services, Ice Cream & Frozen Yogurt"
"414",84012,"Copper Branch","Montreal","QC","H3Z 1X5",45.489145,-73.585604,"1","Restaurants, Gluten-Free, Breakfast & Brunch, Organic Stores, Vegan, Food, Fast Food, Vegetarian"
"415",164509,"Silk Thai","Chandler","AZ","85248",33.2334016,-111.857963,"1","Thai, Bars, Vegan, Cocktail Bars, Gluten-Free, Nightlife, Restaurants, Asian Fusion"
"416",159585,"Food de Toi","Montréal","QC","H4A 1H1",45.471529,-73.626887,"1","Specialty Food, Vegan, Gluten-Free, Restaurants, Food, Juice Bars & Smoothies, Health Markets, Vegetarian"
"417",20873,"Freshii","Charlotte","NC","28210",35.1520582191,-80.8396173906,"1","Food, Breakfast & Brunch, Salad, Restaurants, Juice Bars & Smoothies, Gluten-Free, Vegan"
"418",167684,"L'Gros Luxe","Montréal","QC","H2L 3V9",45.5218599,-73.5702641,"0","Vegan, Vegetarian, Restaurants"
"419",99353,"Buddha's Vegetarian Foods","Toronto","ON","M5T 1H9",43.6519184,-79.4033756,"1","Vegetarian, Vegan, Restaurants, Chinese"
"420",12729,"Vientiane Palace Restaurant","Madison","WI","53703",43.0755119,-89.3903706,"1","Restaurants, Thai, Vegan, Vietnamese, Vegetarian, Asian Fusion"
"421",5521,"Buddha Bowls","Mississauga","ON","L5G 1E9",43.5562233,-79.5810743,"0","Middle Eastern, Vegan, Halal, Gluten-Free, Restaurants"
"422",108775,"Alternative Junkie","Las Vegas","NV","89123",36.0166766781,-115.1182260431,"0","Food Stands, Vegan, Vegetarian, Organic Stores, Street Vendors, Food, Restaurants"
"423",85751,"Hopscotch","Toronto","ON","M5H 3Y2",43.648842,-79.379996,"1","Food, Restaurants, Salad, Vegetarian, Vegan, Juice Bars & Smoothies, Coffee & Tea"
"424",18449,"Chill","Tempe","AZ","85282",33.3947699,-111.9088938,"0","Restaurants, Ice Cream & Frozen Yogurt, Desserts, Food, Vegan"
"425",56256,"Bowlology","Las Vegas","NV","89119",36.1043905,-115.1367126,"1","Restaurants, Food, Poke, Acai Bowls, Gluten-Free, Juice Bars & Smoothies, Vegan"
"426",128241,"VegeNation","Henderson","NV","89052",36.0050994,-115.1127157,"1","Restaurants, Vegan"
"427",31122,"Grasshopper Restaurant","Toronto","ON","M6P 1Z8",43.6656129465,-79.4724570215,"1","Vegetarian, Vegan, Restaurants, Salad"
"428",78933,"24 Carrots Juice Bar & Cafe","Tempe","AZ","85283",33.363419,-111.9130587,"1","Cafes, Food, Breakfast & Brunch, Gluten-Free, Restaurants, Vegan, Vegetarian, Juice Bars & Smoothies"
"429",126717,"Fuel to Fit","Scottsdale","AZ","85251",33.4916072,-111.9187696,"1","Restaurants, Personal Chefs, Vegan, Food, Event Planning & Services, Food Delivery Services, Caterers, Health Markets, Specialty Food"
"430",111755,"Pizzaiolo","Toronto","ON","M5V 1K4",43.6446723,-79.398105,"1","Vegan, Gluten-Free, Restaurants, Pizza"
"431",177002,"Slice of Vegas","Las Vegas","NV","89119",36.094448,-115.176184,"1","Restaurants, Food, Pizza, Beer, Wine & Spirits, Vegan, Italian, Bars, Nightlife"
"432",55312,"Zoma Ethiopian Restaurant","Cleveland Heights","OH","44118",41.4984947,-81.5654675,"1","Gluten-Free, Vegetarian, African, Vegan, Seafood, Restaurants, Ethiopian"
"433",110077,"Nonya","Montréal","QC","H2T 2K3",45.5254798,-73.6040783,"1","Restaurants, Indonesian, Tapas/Small Plates, Vegetarian, Seafood, Vegan"
"434",87757,"YC's Mongolian Grill","Scottsdale","AZ","85256",33.5404748854,-111.8852450311,"1","Gluten-Free, Mongolian, Asian Fusion, Chinese, Vegan, Vegetarian, Restaurants"
"435",54032,"Veg-In YYC","Calgary","AB","T2G 0G4",51.047396,-114.059111,"1","Cafes, Restaurants, Vegan, Vegetarian"
"436",49505,"Conspire","Phoenix","AZ","85004",33.457788,-112.067113,"0","Vegan, Coffee & Tea, Food Delivery Services, Local Flavor, Arts & Crafts, Art Galleries, Food, Restaurants, Shopping, Arts & Entertainment"
"437",135653,"Cinnaholic","Indian Trail","NC","28079",35.051072,-80.6460016,"1","Food, Vegan, Bakeries, Restaurants, Desserts"
"438",134770,"The Dancing Dog Eatery & Juicery","Urbana","IL","61801",40.1127199,-88.2085029,"1","Vegetarian, Restaurants, Juice Bars & Smoothies, Sandwiches, Mexican, Tacos, Food, Kosher, Vegan, Desserts"
"439",54453,"Cinnaholic","Las Vegas","NV","89139",36.0341190079,-115.2074834704,"1","Food, Desserts, Restaurants, Bakeries, Breakfast & Brunch, Vegan"
"440",107248,"YC's Mongolian Grill","Gilbert","AZ","85296",33.3221715,-111.6875461,"1","Mongolian, Vegan, Buffets, Chinese, Asian Fusion, Restaurants"
"441",134940,"DP Dough","Tempe","AZ","85281",33.4211371127,-111.9250794125,"1","Nightlife, Vegan, Restaurants, Italian, Pizza"
"442",36483,"How Do You Roll? Phoenix","Phoenix","AZ","85003",33.465772,-112.082382,"0","Restaurants, Sushi Bars, Vegan, Japanese"
"443",20607,"B52 Cafe","Pittsburgh","PA","15201",40.4804345,-79.9541429,"1","Vegan, Middle Eastern, Bakeries, Coffee & Tea, Breakfast & Brunch, Food, Cafes, Restaurants"
"444",152774,"Go Vegan Cafe","Las Vegas","NV","89118",36.0820518,-115.2432648,"1","Vegan, Specialty Food, Fruits & Veggies, Food, Comfort Food, Organic Stores, Juice Bars & Smoothies, Gluten-Free, Restaurants"
"445",40656,"Mu Shu Asian Grill","Phoenix","AZ","85015",33.480771,-112.09158,"1","American (Traditional), Restaurants, Asian Fusion, Vegan, Chinese"
"446",25654,"Urban Picnic","Mesa","AZ","85201",33.4154308,-111.8374321,"0","Sandwiches, Vegan, Delis, American (New), Restaurants, Fast Food"
"447",85835,"La Panthère Verte","Montréal","QC","H3T 1M2",45.4974339,-73.623109,"1","Restaurants, Vegan"
"448",54904,"Pure & Supreme Cuisine","Cleveland Heights","OH","44115",41.50278,-81.556118,"1","Vegan, Gluten-Free, Soul Food, Restaurants"
"449",39109,"Market Eatery","Bedford Heights","OH","44146",41.419167,-81.526734,"1","Vegan, Food, Vegetarian, Restaurants, Juice Bars & Smoothies"
"450",17253,"La Santisima","Phoenix","AZ","85006",33.469201,-112.0473809,"1","Vegetarian, New Mexican Cuisine, Cafes, Restaurants, Mexican, Bars, Breakfast & Brunch, Tacos, Vegan, Seafood, Nightlife, Tex-Mex"
"451",5526,"Spinach Urban Bistro","Pittsburgh","PA","15232",40.451138,-79.934616,"0","Cafes, Restaurants, Vegan, Organic Stores, American (New), Vegetarian, Gluten-Free, Food"
"452",87790,"GUSTA","Montréal","QC","H2S 1A2",45.535984,-73.616161,"1","Vegan, Restaurants"
"453",138123,"Coco Rice Thai Cuisine","Toronto","ON","M5V 1M9",43.6437815874,-79.4029973833,"1","Vegan, Restaurants, Thai"
"454",112071,"LACUNA","Henderson","NV","89074",36.0170599,-115.1012842,"1","Wraps, Vegan, Restaurants, Gluten-Free, Salad"
"455",62217,"Café Lalibela","Tempe","AZ","85281",33.4213360711,-111.9516148853,"1","Food, Beer, Wine & Spirits, Gluten-Free, Vegan, Ethiopian, African, Restaurants, Vegetarian"
"456",59096,"Nekter Juice Bar","Las Vegas","NV","89135",36.1490366437,-115.3335092442,"1","Vegan, Acai Bowls, Food, Gluten-Free, Restaurants, Juice Bars & Smoothies"
"457",183650,"Rainbow's End Natural Foods","Las Vegas","NV","89104",36.144583,-115.139501,"1","Nutritionists, Health Markets, Food, Shopping, Restaurants, Health & Medical, Weight Loss Centers, Specialty Food, Vitamins & Supplements, Grocery, Vegan"
"458",64178,"Ronald's Donuts","Las Vegas","NV","89102",36.1265632,-115.2042227,"1","Restaurants, Vegan, Donuts, Food"
"459",816,"Thai Kitchen","Lakewood","OH","44107",41.4770696,-81.7743871,"1","Thai, Gluten-Free, Vegetarian, Vegan, Restaurants"
"460",15761,"VeggiEAT Xpress","Henderson","NV","89014",36.0551158,-115.0455333,"1","Restaurants, Vegetarian, Bubble Tea, Vegan, Food"
"461",7028,"Pop Up Pizza","Las Vegas","NV","89101",36.1721156,-115.1469038,"1","Restaurants, Vegan, Pizza"
"462",185424,"Aladdin's Eatery","Pittsburgh","PA","15228",40.3818982582,-80.0442885177,"1","Vegetarian, Mediterranean, Restaurants, Vegan, Specialty Food, Middle Eastern, Food, Ethnic Food"
"463",168307,"Freshii","Toronto","ON","M8X 2X4",43.6454271,-79.5224469,"1","Salad, Vegetarian, Restaurants, Vegan"
"464",144483,"Pita Jungle","Glendale","AZ","85308",33.6398836,-112.220984,"1","Mediterranean, American (New), Greek, Restaurants, Vegan, Vegetarian"
"465",47881,"Burger Royal","Montréal","QC","H2W 1X6",45.5156494125,-73.5766624597,"1","Restaurants, Comfort Food, Salad, Hot Dogs, Vegan, Food, Burgers, Poutineries"
"466",166680,"The Modern Vegan","Las Vegas","NV","89119",36.1059933,-115.1491273,"1","Vegan, Breakfast & Brunch, Restaurants, American (Traditional)"
"467",1127,"Lola Rosa William","Montréal","QC","H3C",45.4982068,-73.5580338,"1","Vegan, Restaurants"
"468",9289,"Pura Vida Bakery & Bystro","Las Vegas","NV","89102",36.1557391,-115.1595401,"0","Food Delivery Services, Vegan, Personal Chefs, Bakeries, Event Planning & Services, Restaurants, Food, Caribbean"
"469",24276,"North of Bombay","Toronto","ON","M6P 1Z3",43.6655769,-79.4693212,"1","Vegan, Indian, Vegetarian, Restaurants"
"470",187959,"Cool Beans Taco Truck","Pittsburgh","PA","15212",40.45657,-80.001484,"1","Vegetarian, Food Trucks, Mexican, Local Flavor, Sandwiches, Food, Vegan, Tacos, Restaurants"
"471",163841,"Zen Gardens","Mississauga","ON","L5W 1Z3",43.6430518,-79.7082653,"1","Vegan, Sushi Bars, Chinese, Dim Sum, Restaurants, Vegetarian"
"472",48308,"Iss' Magic Mixes","Mesa","AZ","85202",33.3629331508,-111.87532436,"0","Restaurants, Vegetarian, Farmers Market, Food, Breakfast & Brunch, Internet Cafes, Vegan, Health Markets, Specialty Food"
"473",44524,"Eat By Stacey Weber","Phoenix","AZ","85028",33.5831802,-111.9786115,"1","Specialty Food, Restaurants, Gluten-Free, Vegan, Food, Vegetarian, Health Markets, Caterers, Event Planning & Services, Organic Stores"
"474",153714,"LOV de la Montagne","Montréal","QC","H3G 1Z1",45.4973726,-73.5745699,"1","Bistros, Restaurants, Vegan, Breakfast & Brunch, Gluten-Free, Vegetarian"
"475",53681,"Green New American Vegetarian","Phoenix","AZ","85004",33.47014,-112.065474,"1","Restaurants, Vegetarian, Vegan"
"476",136422,"Mythology Diner","Toronto","ON","M6K 1L4",43.6415973621,-79.431304404,"1","Breakfast & Brunch, Restaurants, Diners, Vegan"
"477",54256,"SaVeg","Calgary","AB","T2R 0E1",51.0424132,-114.0762541,"1","Korean, Vegan, Vegetarian, Restaurants"
"478",70967,"Hoche Glacé","Montréal","QC","H1V 2T4",45.5560866,-73.5413071,"1","Food, Restaurants, Vegan, Ice Cream & Frozen Yogurt"
"479",126808,"King's Vegetarian Food","Toronto","ON","M1S 1T8",43.7867543,-79.270045,"1","Vegetarian, Restaurants, Vegan, Food"
"480",41567,"Happy Veggie House","Calgary","AB","T2G 2B9",51.0502225,-114.0627436,"1","Taiwanese, Vegetarian, Restaurants, Chinese, Fast Food, Vegan"
"481",2258,"Chef Kennys Asian Vegan Restaurant","Las Vegas","NV","89146",36.1269461,-115.2410542,"1","Restaurants, Vegetarian, Sushi Bars, Vegan, Chinese"
"482",179504,"Délicieux","Montréal","QC","H2V 4H1",45.523171,-73.605007,"1","Restaurants, Vegan, Breakfast & Brunch, Vegetarian"
"483",125254,"La Lumiere du Mile End","Montréal","QC","H2T 2K4",45.524638,-73.604421,"1","Vegan, Vegetarian, Restaurants"
"484",22198,"A La Saj","Calgary","AB","T2P 1B4",51.0456261,-114.0638478,"0","Hookah Bars, Mediterranean, Vegan, Nightlife, Falafel, Bars, Middle Eastern, Restaurants"
"485",34594,"Noodlebox","Airdrie","AB","T4B 3S6",51.2637385,-114.0060405,"1","Food, Noodles, Restaurants, Vegan, Chinese, Gluten-Free, Asian Fusion"
"486",119130,"My Healthy Meal","Las Vegas","NV","89135",36.160552,-115.318872,"0","Restaurants, American (New), Vegan, Food, Vegetarian"
"487",165918,"Bhai's Indian Canteen","Richmond Hill","ON","L4B 3B4",43.8470893822,-79.3782470196,"1","Restaurants, Vegan, Indian, Vegetarian"
"488",51577,"Sushi Momo","Montréal","QC","H2W 1G6",45.5171696,-73.5790995,"0","Vegan, Asian Fusion, Restaurants, Sushi Bars, Japanese"
"489",10561,"Pancho's Vegan Tacos","Las Vegas","NV","89121",36.1007774746,-115.1018145027,"1","Vegan, Tacos, Mexican, Restaurants"
"490",191365,"D E Thai Kitchen","Las Vegas","NV","89104",36.1584415,-115.1512002,"1","Food, Restaurants, Thai, Soup, Vegan, Seafood, Noodles"
"491",41470,"Chez José","Montréal","QC","H2W 1H4",45.5187285,-73.5778979,"1","Desserts, Breakfast & Brunch, Sandwiches, Cafes, Portuguese, Food, Bakeries, Soul Food, Restaurants, Vegetarian, Vegan"
"492",17179,"Vegan Rapide","Montréal","QC","H4B 1M2",45.4664209,-73.623343,"1","Food Delivery Services, Restaurants, Vegan, Food"
"493",24226,"Thai Fusion","Clover","SC","29710",35.1156317005,-81.0764505342,"1","Restaurants, Thai, Soup, Noodles, Vegan"
"494",148720,"Treehouse Bakery","Phoenix","AZ","85007",33.4462721,-112.0893682,"0","Specialty Food, Desserts, Vegan, Food, Restaurants, Bakeries"
"495",23537,"Café Juicy Lotus","Montréal","QC","H4A 1C9",45.475799,-73.62225,"1","Vegetarian, Food, Salad, Restaurants, Organic Stores, Vegan"
"496",99793,"Water Garden Cafe","Cleveland","OH","44102",41.4725574,-81.7370225,"1","American (Traditional), Vegetarian, Vegan, Restaurants, Cafes"
"497",153582,"Veganbites","Las Vegas","NV","89117",36.1435828564,-115.2511349542,"1","Vegan, Food, Restaurants, Bakeries, Breakfast & Brunch"
"498",82473,"Veggie Planet","Mississauga","ON","L5T1Y7",43.6731807,-79.6757568,"1","Vegetarian, Pizza, Indian, Restaurants, Vegan, Burgers"
"499",12346,"Madras Cafe","Charlotte","NC","28269",35.3424757,-80.7706758,"1","Restaurants, Indian, Vegetarian, Vegan, Buffets"
"500",100501,"Grabbagreen","Scottsdale","AZ","85260",33.584306,-111.922392,"0","Food, Vegetarian, Juice Bars & Smoothies, Asian Fusion, Breakfast & Brunch, Restaurants, Vegan"
"501",127982,"D'Lite Healthy On The Go","Scottsdale","AZ","85260",33.5816954645,-111.9232237654,"1","Sandwiches, American (New), Breakfast & Brunch, Vegan, Coffee & Tea, Restaurants, American (Traditional), Food"
"502",131549,"Nekter Juice Bar","Las Vegas","NV","89134",36.19185,-115.3053811,"1","Food, Juice Bars & Smoothies, Vegan, Restaurants, Acai Bowls, Gluten-Free"
"503",186195,"Hive Café","Montréal","QC","H3G 1M8",45.4970605,-73.5788022,"1","Restaurants, Sandwiches, Salad, Vegan"
"504",40154,"Sinatra","Las Vegas","NV","89109",36.129913,-115.165432,"1","Italian, Vegan, Restaurants"
"505",92192,"Thai Time Kitchen","Mesa","AZ","85204",33.3835901,-111.8027347,"1","Vegan, Restaurants, Thai, Gluten-Free"
"506",88033,"Ginger","Toronto","ON","M5S 1Y4",43.6655484,-79.409125,"0","Vegan, Restaurants, Vietnamese"
"507",93001,"Simon's Vegan Hot Dogs","Phoenix","AZ","85006",33.4704453,-112.0657354,"1","Vegan, Restaurants, Food Stands"
"508",144828,"PizzaRev","Henderson","NV","89014",36.0631269,-115.0453743,"1","Vegan, Pizza, Fast Food, Restaurants"
"509",30580,"Cinnaholic","Scarborough","ON","M1V 5P7",43.8355856,-79.253969,"1","Vegan, Restaurants, Bakeries, Food, Desserts"
"510",24488,"O'Bol","Montréal","QC","H5A 1K6",45.4999204,-73.5654861,"0","Vegetarian, Vegan, Food Stands, Restaurants, Fast Food"
"511",3793,"Long Life Vege Restaurant","Las Vegas","NV","89121",36.1143211,-115.0918871,"0","Vegan, Restaurants, Chinese, Vegetarian"
"512",113853,"The Fresh Fix of Heights","Cleveland","OH","44118",41.49859,-81.5655266,"1","Breakfast & Brunch, Vegan, Juice Bars & Smoothies, Restaurants, American (Traditional), Food"
"513",24370,"One Life Raw Juice Bar","Charlotte","NC","28209",35.1731814,-80.8400346,"0","Live/Raw Food, Food, Vegan, Restaurants, Juice Bars & Smoothies, Organic Stores"
"514",8687,"Alternative Junkie","Las Vegas","NV","89145",36.1683449,-115.2659777,"0","Food Stands, Vegetarian, Vegan, Street Vendors, Restaurants, Personal Chefs, Food Delivery Services, Organic Stores, Food, Event Planning & Services"
"515",166231,"Vegan Honey Company","Las Vegas","NV","89102",36.1503727871,-115.2051210246,"1","Specialty Food, Restaurants, Vegan, Honey, Farmers Market, Food"
"516",26423,"Studio.89","Mississauga","ON","L4W 0B8",43.6273691,-79.6270076,"1","Vegan, Cafes, Restaurants, Breakfast & Brunch, Community Service/Non-Profit, Local Services"
"517",149587,"Vivalia Bistro Express","Montréal","QC","H2Y 1T7",45.502488,-73.558276,"1","Sandwiches, Vegan, Gluten-Free, Organic Stores, Restaurants, Food, Vegetarian, Juice Bars & Smoothies, International"
"518",25364,"Pizzaiolo","Toronto","ON","M6S 4W4",43.6491819,-79.4834832,"1","Vegan, Pizza, Gluten-Free, Restaurants"
"519",13407,"Ta Lew Thai Bistro","Gilbert","AZ","85296",33.3231303,-111.7205811,"1","Vegan, Gluten-Free, Thai, Restaurants"
"520",168531,"Pane E Vino","Mississauga","ON","L4Z 3E8",43.6284956,-79.6734524,"1","Health Markets, Specialty Food, Soup, Food, Italian, Sandwiches, Coffee & Tea, Vegan, Salad, Restaurants"
"521",122137,"Banzo","Madison","WI","53704",43.1016722349,-89.3645954132,"1","Street Vendors, Restaurants, Food Trucks, Vegan, Mediterranean, Comfort Food, Gluten-Free, Food Stands, Food"
"522",19878,"Jerusalem Shawarma","Calgary","AB","T3E 6S9",51.0167158587,-114.1609223932,"1","Middle Eastern, Restaurants, Mediterranean, Vegan"
"523",143170,"Assembly Chef's Hall","Toronto","ON","M5H 2G4",43.6503522,-79.3837951,"1","Japanese, Barbeque, Ramen, Public Markets, Pizza, Food Court, Restaurants, Food, Cafes, Vegan, Sushi Bars, Shopping, Diners, Bars, Breakfast & Brunch, Coffee & Tea, Nightlife"
"524",84489,"Cinnaholic","Las Vegas","NV","89149",36.2716417492,-115.2676487752,"1","Food, Vegan, Bakeries, Desserts, Breakfast & Brunch, Restaurants"
"525",140375,"Flat Top Grill","Champaign","IL","61820",40.1114257,-88.2304288,"0","Restaurants, Vegetarian, Vegan, Gluten-Free, Do-It-Yourself Food, Asian Fusion, Food"
"526",79591,"The Brilliant Bagel","Scottsdale","AZ","85258",33.570389,-111.886452,"1","Bagels, Bakeries, Restaurants, Vegan, Food, Coffee & Tea, Vegetarian"
"527",15772,"iPho","Charlotte","NC","28209",35.1611334,-80.8492823,"0","Vegan, Soup, Sandwiches, Vegetarian, Chicken Wings, Restaurants, Vietnamese, Noodles"
"528",140903,"süüp health bar","Toronto","ON","M5B 1S8",43.6592409,-79.38286,"1","Restaurants, Salad, Vegetarian, Soup, Vegan, Bars, Nightlife"
"529",94363,"Cafe No Fur","Las Vegas","NV","89103",36.1260181,-115.2122806,"1","Vegan, American (New), Restaurants, Cafes, Bubble Tea, Specialty Food, Food, Ice Cream & Frozen Yogurt, Comfort Food, Health Markets, Juice Bars & Smoothies, American (Traditional), Breakfast & Brunch"
"530",44439,"Garden Gangsters","Toronto","ON","M6K 3E7",43.6381221,-79.4181561,"1","Juice Bars & Smoothies, Food, Restaurants, Vegan, Breakfast & Brunch"
"531",33513,"Copper Branch","Montreal","QC","H3H 1M9",45.4903748678,-73.583609933,"1","Gluten-Free, Vegan, Restaurants, Fast Food, Breakfast & Brunch, Burgers, Vegetarian"
"532",151731,"Pizzaiolo","Toronto","ON","M5T 1G1",43.6541957,-79.3910112,"1","Restaurants, Pizza, Gluten-Free, Vegan"
"533",93724,"Rancho Relaxo To Go","Toronto","ON","M6P 3S9",43.6646666838,-79.4556048791,"1","Mexican, Fast Food, Vegan, Restaurants"
"534",41241,"Mediterranean Majik Food Truck","Phoenix","AZ","85040",33.4040693,-112.029752,"1","Food Trucks, Greek, Restaurants, Moroccan, Middle Eastern, Food, Lebanese, Vegan, Mediterranean"
"535",80184,"Wilder Foods","Toronto","ON","M6P 2K8",43.6657238,-79.4648144,"1","Breakfast & Brunch, Food, Cafes, Vegan, Restaurants, Coffee & Tea"
"536",119123,"Wild Spork Food Truck","Mentor","OH","44060",41.6782705,-81.2982892,"1","Event Planning & Services, Comfort Food, Vegan, Caterers, Food, Food Trucks, Restaurants"
"537",98931,"CLE Urban Winery","Cleveland Heights","OH","44118",41.5002558,-81.5656893,"1","Wineries, Restaurants, Wine Tasting Room, Food, Arts & Entertainment, Vegan"
"538",91876,"Freedom Beat","Las Vegas","NV","89101",36.1719130639,-115.1412761852,"1","Bars, Restaurants, Vegan, American (Traditional), Sandwiches, Nightlife, American (New)"
"539",114585,"D'Lish Cafe","Phoenix","AZ","85013",33.4803014,-112.0805864,"0","Restaurants, Vegan, Food, Sandwiches, Salad, Wraps, American (New)"
"540",70178,"Star Ginger","Chandler","AZ","85048",33.2816398,-111.9729284,"1","Vietnamese, Asian Fusion, Vegan, Restaurants, Salad"
"541",68128,"Mint Indian Bistro","Las Vegas","NV","89147",36.1127048,-115.2781558,"1","Vegan, Restaurants, Nightlife, Bars, Event Planning & Services, Sports Bars, Halal, Indian, Caterers"
"542",123378,"Chef Lin Restaurant","Markham","ON","L3P 2R2",43.8748998,-79.2591737,"0","Vegan, Halal, Thai, Taiwanese, Chinese, Restaurants, Malaysian"
"543",76135,"Scramble, a breakfast & lunch joint","Phoenix","AZ","85016",33.508755,-112.030866,"1","Coffee & Tea, Breakfast & Brunch, Vegan, Restaurants, Food"
"544",99703,"Famoso Neapolitan Pizzeria","Calgary","AB","T2S 2S7",51.0321985,-114.0719307,"1","Restaurants, Cocktail Bars, Pizza, Bars, Nightlife, Italian, Vegan"
"545",161439,"La Folie du Koshary","Montréal","QC","H3H 2H9",45.4942876,-73.580311,"0","Vegetarian, Restaurants, Vegan, Halal, Middle Eastern, Egyptian"
"546",181531,"Pulp Kitchen","Toronto","ON","M4K 1P9",43.678381,-79.346957,"0","Vegan, Juice Bars & Smoothies, Restaurants, Food"
"547",90234,"Bloomer's","Toronto","ON","M6G 1M4",43.6621055,-79.4249966,"1","Bakeries, Vegan, Coffee & Tea, Food, Cafes, Restaurants"
"548",137335,"Hogtown Vegan","Toronto","ON","M5T 1S7",43.6570194014,-79.4053025544,"1","Restaurants, Vegan"
"549",43290,"Violette's Vegan Organic Cafe & Juice Bar","Las Vegas","NV","89117",36.1300414,-115.2777854,"1","Food, Vegan, Juice Bars & Smoothies, Restaurants, Vegetarian"
"550",3088,"The Annex HodgePodge","Toronto","ON","M5R",43.675098,-79.4065198,"0","Restaurants, Vegan, Sandwiches, Food, Delis, Juice Bars & Smoothies"
"551",104840,"LOV Centropolis","Laval","QC","H7T 2Z6",45.562116,-73.744859,"1","Vegan, Breakfast & Brunch, Gluten-Free, Vegetarian, Restaurants"
"552",167887,"Thai Style Noodle House","Las Vegas","NV","89139",36.0555646163,-115.2258749184,"1","Chinese, Food, Restaurants, Noodles, Thai, Vegan"
"553",61969,"Organic Shores","Phoenix","AZ","85032",33.6417709361,-111.9942912177,"0","Vegan, Live/Raw Food, Restaurants, Vegetarian"
"554",51815,"Pizzaiolo","Toronto","ON","M6C 2C4",43.7001121,-79.4288908,"1","Restaurants, Gluten-Free, Pizza, Vegan"
"555",156010,"Market Grille Cafe","Las Vegas","NV","89128",36.195285,-115.24816,"1","Mediterranean, Greek, Restaurants, Gluten-Free, Vegan, Vegetarian, Italian, Breakfast & Brunch"
"556",15462,"Raw Organic Juice Bar","Chandler","AZ","85224",33.2980166,-111.8772302,"1","Health Markets, Food, Restaurants, Vegan, Specialty Food, Juice Bars & Smoothies"
"557",190979,"True Food Kitchen","Scottsdale","AZ","85254",33.6242403752,-111.9243322313,"1","Vegetarian, Pizza, Vegan, Food, Restaurants, Salad, American (New)"
"558",241,"Bronze Cafe at The Center","Las Vegas","NV","89101",36.1619276,-115.1346287,"0","Cafes, Vegan, Gluten-Free, Restaurants, Coffee & Tea, Salad, Food, Sandwiches, Vegetarian"
"559",126622,"Café Venosa","Montréal","QC","H2J 2L2",45.5236727,-73.5818623,"0","Coffee & Tea, Food, Vegan, Restaurants"
"560",158759,"Brixx Wood Fired Pizza","Champaign","IL","61820",40.0900638618,-88.2464063362,"0","Nightlife, Bars, Pizza, Gluten-Free, Vegan, Restaurants, Sandwiches"
"561",171209,"Zoyo Frozen Yogurt - Downtown Phoenix","Phoenix","AZ","85007",33.4657540946,-112.0823049545,"1","Desserts, Do-It-Yourself Food, Food, Gelato, Vegan, Restaurants, Ice Cream & Frozen Yogurt"
"562",153493,"Hibiscus","Toronto","ON","M5H 3K6",43.6503522,-79.3837951,"1","Salad, Restaurants, Vegan, Gluten-Free"
"563",168034,"Bite Vegan Bakery","Las Vegas","NV","89145",36.1672546478,-115.2858479863,"0","Waffles, Restaurants, Desserts, Vegan, Food, Bakeries"
"564",63756,"Sprinly","Cleveland","OH","44106",41.5091257,-81.6089873,"1","Vegetarian, Event Planning & Services, Specialty Food, Vegan, Personal Chefs, Restaurants, Health Markets, Food, Food Delivery Services, Health & Medical, Nutritionists"
"565",108719,"India Garden","Lakewood","OH","44107",41.482634,-81.825452,"1","Vegan, Vegetarian, Pakistani, Restaurants, Indian"
"566",26349,"El 77","Montréal","QC","H2T 2J9",45.5266004,-73.6030502,"0","Vegetarian, Restaurants, Peruvian, Vegan"
"567",3699,"Dirty Dogs","Montréal","QC","H2X 1A1",45.5147539242,-73.574196964,"1","Restaurants, Canadian (New), Hot Dogs, Vegan, Burgers, Poutineries"
"568",86346,"Laroush","Kent","OH","44240",41.1505306,-81.3600448,"0","Restaurants, Vegetarian, Mediterranean, Vegan"
"569",113965,"Juicy Beets","Las Vegas","NV","89169",36.1188165,-115.1542185,"1","Restaurants, Food, Juice Bars & Smoothies, Vegan, Organic Stores, Bars, Nightlife"
"570",92123,"The Real Jerk","Toronto","ON","M4M 1Y7",43.667787,-79.3432553,"1","Vegan, Restaurants, Karaoke, Nightlife, Bars, Seafood, Caribbean, Lounges"
"571",92052,"Esquina","Montréal","QC","H2H 1V3",45.5330984,-73.5752325,"1","Food, Vegan, Restaurants, Coffee & Tea, Cafes"
"572",145092,"Brixx Wood Fired Pizza","Fort Mill","SC","29715",35.02608,-80.962041,"1","Pizza, Sandwiches, Restaurants, Salad, Vegan, Gluten-Free"
"573",75436,"Tertio Wine Bar","Phoenix","AZ","85012",33.488807,-112.065237,"1","Bars, Wine Bars, Vegetarian, Vegan, Food, Nightlife, Restaurants, Local Flavor, Beer, Wine & Spirits, Tapas/Small Plates"
"574",42742,"Cinnaholic","Henderson","NV","89074",36.029763,-115.085558,"1","Food, Vegan, Restaurants, Breakfast & Brunch, Bakeries, Desserts"
"575",133187,"Sata Sushi","Montréal","QC","H1W 1P8",45.5427729,-73.546401,"1","Vegan, Restaurants, Sushi Bars, Japanese, Vegetarian"
"576",37098,"The Cutting Board Cafe","Mesa","AZ","85209",33.374985,-111.687163,"1","Pizza, Coffee & Tea, Cafes, Food, Restaurants, Beer, Wine & Spirits, Vegetarian, Bakeries, Vegan, Gluten-Free"
"577",82884,"Blinders Burgers and Brunch","Las Vegas","NV","89149",36.2779342559,-115.2874583583,"1","Burgers, Restaurants, Vegetarian, Vegan, Breakfast & Brunch"
"578",142110,"Juice Up 412","Pittsburgh","PA","15206",40.4604323,-79.9252567,"0","Vegan, Juice Bars & Smoothies, Restaurants, Tapas Bars, Food"
"579",51329,"Grasshopper Restaurant","Toronto","ON","M5T 1S2",43.6577575,-79.4022423,"1","Vegan, Restaurants, Salad, Vegetarian"
"580",106839,"Lola Rosa","Montréal","QC","H2X 1W5",45.5073247805,-73.5757481897,"1","Vegetarian, Vegan, Caterers, Restaurants, Event Planning & Services"
"581",65677,"Nourish","Scottsdale","AZ","85251",33.5061904386,-111.9264364243,"0","Restaurants, Vegan, Gluten-Free, American (New)"
"582",16608,"Purple Potato","Henderson","NV","89052",36.0061287813,-115.1120727767,"1","Restaurants, Vegan, Sandwiches, Salad, Live/Raw Food, Juice Bars & Smoothies, Breakfast & Brunch, Vegetarian, Food Delivery Services, Food, Asian Fusion, American (New), Wraps, Seafood, Desserts"
"583",154580,"Planet Sub","Cuyahoga Falls","OH","44223",41.1481669,-81.5074443,"1","Restaurants, Salad, Delis, Gluten-Free, Sandwiches, Vegan"
"584",19614,"Doomie's Toronto","Toronto","ON","M6K 1L4",43.6415966738,-79.432222134,"1","Restaurants, Southern, Vegetarian, Vegan"
"585",49323,"Helio Terra Vegan Cafe","Cleveland","OH","44115",41.4986579,-81.6885632,"0","Food, Vegan, Restaurants, Vegetarian, Juice Bars & Smoothies"
"586",140764,"Reed & Co","Pittsburgh","PA","15201",40.4699783325,-79.9612197876,"1","Restaurants, Food, Juice Bars & Smoothies, Cafes, Vegan"
"587",127222,"POP","Toronto","ON","M5V 1C2",43.6424655,-79.3992542,"1","Salad, Food, Restaurants, Acai Bowls, Juice Bars & Smoothies, Vegan"
"588",65417,"Honey Bee Bakery","Medina","OH","44256",41.1385626577,-81.8642995324,"1","Coffee & Tea, Cafes, Vegan, Restaurants, Bakeries, Food"
"589",85162,"Crema Cafe","Madison","WI","53716",43.0785876,-89.3240091,"1","Breakfast & Brunch, Sandwiches, Vegan, Restaurants, Food, Coffee & Tea, Cafes"
"590",175535,"Original ChopShop","Chandler","AZ","85225",33.3020248413,-111.8420257568,"1","Restaurants, Breakfast & Brunch, American (New), Vegan, American (Traditional), Food, Salad, Juice Bars & Smoothies"
"591",164715,"Through Being Cool","Toronto","ON","M6H 1N7",43.6582976906,-79.4422688709,"1","Bakeries, Food, Vegan, Vegetarian, Restaurants"
"592",24094,"Pancho's Kitchen","Las Vegas","NV","89146",36.1588302,-115.2111651,"1","Vegan, Breakfast & Brunch, Restaurants, Mexican"
"593",4530,"Bubbles - Vegan Champagne Bar","Scottsdale","AZ","85254",33.5828975719,-111.930701,"0","Tapas Bars, Beer Bar, Nightlife, Food Delivery Services, American (New), Bars, Tapas/Small Plates, Champagne Bars, Food, Wine Bars, French, Desserts, Modern European, Speakeasies, Vegan, Restaurants"
"594",25824,"Vegan House","Phoenix","AZ","85003",33.449498,-112.0744168,"1","Vegetarian, Vegan, Restaurants, Thai"
"595",36793,"Dotty Dumpling's Dowry","Madison","WI","53703",43.0728191,-89.395561,"1","Vegetarian, Burgers, Breakfast & Brunch, Vegan, Nightlife, Restaurants, Bars, Pubs"
"596",73308,"Bow Tie Pizza","Calgary","AB","T2E 2Z6",51.0953781,-114.0628104,"1","Pizza, Restaurants, Gluten-Free, Vegan, Salad, Italian"
"597",128720,"Fresh on Crawford","Toronto","ON","M6J 1G3",43.6451384,-79.4149767,"1","Specialty Food, Vegetarian, Restaurants, Health Markets, Food, Vegan"
"598",177974,"Humble Root Organic","Newmarket","ON","L3Y 4Z1",44.056104,-79.4855044,"1","Live/Raw Food, Patisserie/Cake Shop, Gluten-Free, Vegan, Food, Desserts, Restaurants"
"599",110928,"Signs Restaurant","Toronto","ON","M4Y 1Z1",43.6646126,-79.3848159,"0","Food, Canadian (New), Restaurants, Beer, Wine & Spirits, Vegan, Gluten-Free"
"600",163996,"Livin' Lite Arizona","Phoenix","AZ","85305",33.5266690929,-112.2620048147,"0","Food Trucks, Food, Gluten-Free, Vegan, Restaurants"
"601",115310,"Indigo Crow Restaurant & Bar","Cave Creek","AZ","85331",33.8296784,-111.9289621,"1","Bars, Food, Nightlife, Vegan, Diners, Beer, Wine & Spirits, Restaurants, American (New), Steakhouses, Cafes"
"602",110137,"Sweet Home Baked Company","Las Vegas","NV","89145",36.1667834,-115.2861968,"0","Vegan, Bakeries, Farmers Market, Vegetarian, Food, Restaurants"
"603",159903,"Counter Cuisine","Las Vegas","NV","89117",36.159221,-115.236737,"0","Sandwiches, Food, Restaurants, American (New), Vegan, Salad, Food Court"
"604",139983,"GFY Burgers and Fries","Las Vegas","NV","89120",36.0833352,-115.0999753,"1","Fast Food, Restaurants, Food, Vegetarian, Food Stands, Food Trucks, Burgers, Pop-Up Restaurants, Vegan"
"605",70729,"YamChops","Toronto","ON","M6G 1C2",43.6550692606,-79.4182143631,"1","Food, Butcher, Vegan, Vegetarian, Restaurants, Juice Bars & Smoothies"
"606",13190,"Desert Roots Kitchen","Tempe","AZ","85281",33.4259738171,-111.940346,"1","Vegetarian, Gluten-Free, Restaurants, Vegan"
"607",144863,"Maha's","Toronto","ON","M4L 2R2",43.6716801,-79.3285772,"1","Breakfast & Brunch, Egyptian, Middle Eastern, Restaurants, Vegan, Sandwiches"
"608",95336,"Pulp Kitchen","Toronto","ON","M4M 1L1",43.6621626,-79.3347124,"0","Vegan, Sandwiches, Food, Juice Bars & Smoothies, Restaurants, Vegetarian"
"609",32905,"B.good","Toronto","ON","M4P 3A4",43.7069579,-79.3955634,"1","Event Planning & Services, Burgers, Gluten-Free, Caterers, Juice Bars & Smoothies, Restaurants, Vegan, Salad, Food"
"610",145786,"zpizza","Phoenix","AZ","85013",33.479992,-112.076718,"1","Food Delivery Services, Pizza, Restaurants, Food, Gluten-Free, Vegan"
"611",145165,"Greenhouse Juice","Toronto","ON","M5R 1W7",43.678934,-79.3907966,"1","Gluten-Free, Food, Restaurants, Nutritionists, Vegan, Juice Bars & Smoothies, Health & Medical"
"612",112332,"Genuine Fresche","Gilbert","AZ","85234",33.381267,-111.723478,"1","Restaurants, Live/Raw Food, Vegan, Juice Bars & Smoothies, Food, Acai Bowls"
"613",2432,"Mi & Stu","Lasalle","QC","H8N 2W9",45.4426192,-73.6292455,"1","Restaurants, Bakeries, Food, Vegan, Gluten-Free"
"614",55164,"Madras Masala","Toronto","ON","M6G 1L7",43.6631596,-79.4219229,"1","Restaurants, Southern, Gluten-Free, Vegan, Pakistani, Indian"
"615",48233,"Genghis Grill","Glendale","AZ","85032",33.6386479,-112.2172122,"1","Mongolian, Thai, American (Traditional), Asian Fusion, Korean, Chinese, Restaurants, Vegetarian, Vegan"
"616",14667,"Baan Thai Restaurant","Las Vegas","NV","89146",36.12558,-115.211031,"1","Restaurants, Thai, Vegetarian, Chinese, Vegan, Asian Fusion"
"617",45877,"Copper Branch","Montreal","QC","H2J 1Y4",45.5294766,-73.577983,"1","Gluten-Free, Restaurants, Burgers, Vegan, Vegetarian, Sandwiches, Breakfast & Brunch"
"618",96102,"Roman Candle Pizzeria","Madison","WI","53711",43.0571808,-89.428167,"1","Gluten-Free, Restaurants, Pizza, Vegetarian, Vegan, American (Traditional)"
"619",24997,"Bombay On the Lake","Etobicoke","ON","M8V 1K2",43.5999294,-79.507932,"1","Restaurants, Vegan, Halal, Indian"
"620",147082,"Copper Branch","Montreal","QC","H3G 2E2",45.4962735,-73.5752514,"1","Restaurants, Gluten-Free, Food, Organic Stores, Vegetarian, Vegan, Breakfast & Brunch"
"621",62423,"Community Cuisine","Phoenix","AZ","85034",33.4479847,-112.0325931,"1","Restaurants, Food, Vegetarian, Vegan"
"622",67425,"Nocochi","Montréal","QC","H3G 2J1",45.4975546,-73.5806444,"0","Vegan, Coffee & Tea, Food, Mediterranean, Sandwiches, Tea Rooms, Bakeries, Restaurants, Vegetarian"
"623",95151,"Fresco Mexican Grill & Salsa Bar","Kent","OH","44240",41.1525482318,-81.3579681368,"1","Food, Restaurants, Tex-Mex, Desserts, Vegan, Mexican, Gluten-Free, Caterers, Dance Clubs, Nightlife, Event Planning & Services, Bars"
"624",134018,"True Food Kitchen","Phoenix","AZ","85016",33.510369927,-112.027740589,"1","Vegan, Vegetarian, Salad, Restaurants, American (New)"
"625",133552,"Real Food Charlotte","Charlotte","NC","28203",35.208548,-80.86153,"0","Restaurants, Fruits & Veggies, Specialty Food, Food, Vegetarian, Live/Raw Food, Vegan"
"626",4711,"Pochiche","Montréal-West","QC","H4X 1Z2",45.453015,-73.646031,"1","Sandwiches, Lebanese, Middle Eastern, Vegetarian, Vegan, Mediterranean, Falafel, Restaurants"
"627",178728,"Chapati Indian Grill","Cleveland","OH","44106",41.5095423,-81.6040633,"1","Indian, Halal, Restaurants, Vegan"
"628",92599,"Sweet Hart Kitchen","Toronto","ON","M5T 1J3",43.6530311,-79.4041249,"1","Vegan, Food, Bakeries, Restaurants, Gluten-Free, Coffee & Tea"
"629",122898,"The Veggie Thali","Toronto","ON","M4A 2L8",43.7194176,-79.3010177,"1","Vegetarian, Himalayan/Nepalese, Indian, Restaurants, Vegan"
"630",60125,"Caribbean Grill Restaurant","Champaign","IL","61820",40.087699,-88.247455,"1","Vegan, Caribbean, Desserts, Food, Comfort Food, Vegetarian, Restaurants, Barbeque"
"631",26471,"Mama's Tofu","Toronto","ON","M6L 3C9",43.7045581,-79.4921887,"1","Vegetarian, Vietnamese, Vegan, Restaurants"
"632",6291,"honeygrow","Pittsburgh","PA","15206",40.4611774109,-79.9246995536,"1","Noodles, Vegetarian, Restaurants, Salad, American (Traditional), Vegan"
"633",47210,"Red Velvet Café","Las Vegas","NV","89109",36.1274875339,-115.171931875,"0","Vegan, American (New), Coffee & Tea, Food, Restaurants"
"634",113130,"Thai Cuisine Experts","Mississauga","ON","L5N 8C8",43.5757712,-79.7837247,"1","Halal, Restaurants, Thai, Vegan"
"635",42934,"Bear And The Honey Specialty Bakery","Phoenix","AZ","85013",33.5080943,-112.0863874,"1","Vegan, Food, Gluten-Free, Bakeries, Restaurants, Desserts"
"636",3628,"La Panthère Verte","Montréal","QC","H2T 1A8",45.5270543,-73.596918,"1","Food, Vegan, Restaurants, Vegetarian, Coffee & Tea"
"637",38802,"Pita Jungle","Phoenix","AZ","85050",33.6749041549,-111.9800812813,"1","Restaurants, Vegetarian, Vegan, Mediterranean, American (New)"
"638",185567,"Go Raw Cafe","Las Vegas","NV","89123",36.041104,-115.1208125,"0","Juice Bars & Smoothies, Vegetarian, Restaurants, Food, Live/Raw Food, Vegan"
"639",104599,"Rawlicious","Toronto","ON","M4W 1J5",43.6710319,-79.388209,"0","Live/Raw Food, Vegan, Restaurants, Vegetarian"
"640",49670,"Liliput Coffee and Cafe","Pittsburgh","PA","15213",40.4559244,-79.953763,"0","Restaurants, Coffee & Tea, Vegan, Food"
"641",162229,"Thailicious Authentic Thai & Vegan","Henderson","NV","89012",36.028178,-115.048607,"1","Restaurants, Thai, Vegetarian, Vegan"
"642",151349,"Amber's Smoked Vegan","Las Vegas","NV","89146",36.1586808,-115.2367199,"1","Restaurants, Southern, Soul Food, Vegan, Food, Breakfast & Brunch, Coffee & Tea, Barbeque"
"643",164553,"Table Thai Bar & Bistro","Las Vegas","NV","89120",36.0719295,-115.1069118,"1","Beer, Wine & Spirits, Vegan, Food, Thai, Restaurants"
"644",186106,"Zizis Vegan Take-Out","Charlotte","NC","28262",35.2970997,-80.7554037,"0","Restaurants, Vegetarian, Vegan"
"645",541,"The Vegan Duchess","Toronto","ON","M4P 2E6",43.7086263,-79.3989537,"0","Live/Raw Food, Food, Organic Stores, Restaurants, Vegan"
"646",31755,"Vegan Sweet Tooth","Woodmere","OH","44122",41.4631452,-81.4738784,"0","Bakeries, Food, Vegan, Restaurants"
"647",140661,"IGo VeGo","Madison","WI","53726",43.0764511,-89.3837848,"0","Health Markets, Restaurants, Fruits & Veggies, Vegetarian, Specialty Food, Vegan, Food"
"648",29295,"Copper Branch","Westmount","QC","H3Z 1H5",45.4772643,-73.6057336,"1","Vegan, Gluten-Free, Restaurants, Vegetarian"
"649",123561,"Zydeco Po-Boys","Las Vegas","NV","89101",36.1676174882,-115.1401374689,"0","Restaurants, Cajun/Creole, Vegan, Soul Food, Sandwiches, Southern"
"650",96980,"Red Velvet Cafe","Las Vegas","NV","89117",36.1432041,-115.262866,"0","Cafes, Vegetarian, American (New), Vegan, Restaurants"
"651",66562,"Ali Baba Restaurant","Cleveland","OH","44111",41.4606693,-81.7720292,"0","Middle Eastern, Vegan, Lebanese, Vegetarian, Restaurants"
"652",169333,"Good 'N Raw","Lakewood","OH","44107",41.4886311,-81.7718303,"0","Health Markets, Live/Raw Food, Restaurants, Juice Bars & Smoothies, Food, Vegan, Specialty Food"
"653",87744,"Live Organic Food Bar","Toronto","ON","M5R 1V7",43.675106,-79.4067793,"1","Vegan, Organic Stores, Gluten-Free, Live/Raw Food, Restaurants, Vegetarian, Juice Bars & Smoothies, Food"
"654",13173,"Calico Cafe","Toronto","ON","M6H 1M8",43.6591021,-79.439196,"0","Caterers, Restaurants, Event Planning & Services, Vegan, Vegetarian"
"655",139033,"Mandy's","Montréal","QC","H4A 1S9",45.4769153,-73.606333,"1","Restaurants, Canadian (New), Live/Raw Food, Salad, American (New), Cafes, Vegan, Soup"
"656",63839,"Fressen Restaurant","Toronto","ON","M5V 2B2",43.6479391,-79.4003492,"0","American (New), Vegetarian, Vegan, Restaurants"
"657",97508,"Boon Burger Café","Oakville","ON","L6M 4M2",43.4664073,-79.7452013,"1","Restaurants, Vegetarian, Burgers, Vegan"
"658",73212,"Cinnaholic","Las Vegas","NV","89147",36.113987085,-115.3086563945,"1","Food, Bakeries, Desserts, Breakfast & Brunch, Vegan, Restaurants"
"659",110317,"Greens and Proteins","Las Vegas","NV","89123",36.026212,-115.1193405,"1","Sandwiches, Cafes, Pizza, Vegetarian, Gluten-Free, American (Traditional), Restaurants, Breakfast & Brunch, Burgers, Vegan, Food, Juice Bars & Smoothies, American (New)"
