"","business_id","name","city","state","postal_code","latitude","longitude","is_open","categories"
"1",59949,"Pita Pit","Las Vegas","NV","89183",36.012764,-115.136056,"0","Middle Eastern, Restaurants, Vegetarian, Juice Bars & Smoothies, Ethnic Food, Salad, Food, Sandwiches, Specialty Food"
"2",13760,"Aladdin's Eatery","Mentor","OH","44060",41.6738589,-81.3228213,"1","Ethnic Food, Specialty Food, Food, Restaurants, Vegetarian, Mediterranean, Middle Eastern"
"3",106451,"Tandoori Xpress","Laval","QC","H7G 2E1",45.576182,-73.683505,"1","Restaurants, Vegetarian, Pakistani, Middle Eastern, Indian"
"4",60252,"Cantina Laredo","Westlake","OH","44145",41.4615685424,-81.9513030882,"1","Mexican, Bars, Restaurants, Vegetarian, Nightlife"
"5",159217,"Bombay Bhel","Mississauga","ON","L4Z 3X7",43.6085327517,-79.6535760451,"1","Indian, Halal, Vegetarian, Restaurants"
"6",9957,"Madras Cafe","Calgary","AB","T2A 5H8",51.0526207189,-113.95613131,"1","Indian, Vegetarian, Restaurants"
"7",74660,"Kiva Han","Pittsburgh","PA","15289",40.4445979,-79.9488195,"0","Vegetarian, Restaurants, Food, Coffee & Tea"
"8",75324,"Pastoli's Pizza, Pasta & Paisans","Pittsburgh","PA","15217",40.4358226,-79.9230998,"1","Gluten-Free, Italian, Chicken Wings, Restaurants, Vegan, Pizza, Vegetarian"
"9",11569,"Pita Kitchen - Arrowhead","Glendale","AZ","85308",33.6702064,-112.2004519,"1","Mediterranean, Greek, Restaurants, Vegetarian"
"10",69117,"Chino Locos Original","Toronto","ON","M4L 2P4",43.6644821,-79.3255005,"1","Asian Fusion, Vegetarian, Vegan, Mexican, Restaurants"
"11",68725,"Olives Mediterranean Grill","Phoenix","AZ","85032",33.5993478,-111.9835952,"1","Restaurants, Vegetarian, Mediterranean, Middle Eastern"
"12",46289,"Crux Comptoir","Brossard","QC","J4Y 0L1",45.44659,-73.437164,"1","Juice Bars & Smoothies, Restaurants, Organic Stores, Vegetarian, Salad, Food, Coffee & Tea"
"13",18021,"Cuisine Malaya","Charlotte","NC","28204",35.2154777,-80.8285213,"0","Asian Fusion, Restaurants, Vegetarian, Malaysian, Sushi Bars"
"14",15679,"Monty's Blue Plate Diner","Madison","WI","53704",43.09242,-89.3518969,"1","Restaurants, Vegetarian, Diners, American (Traditional)"
"15",40836,"Tacos N' Ritas","Las Vegas","NV","89109",36.1221998492,-115.1699433706,"1","Vegetarian, Mexican, Food, Restaurants"
"16",171229,"Living Kitchen","Charlotte","NC","28203",35.2090265771,-80.8611555105,"1","Restaurants, Vegan, Live/Raw Food, Vegetarian"
"17",123149,"Mango Thai","Mesa","AZ","85210",33.3880679,-111.841425,"0","Thai, Restaurants, Vegetarian"
"18",180035,"Nanashake","Toronto","ON","M2N 0J6",43.760058175,-79.412188931,"1","Food, Restaurants, Vegetarian, Ice Cream & Frozen Yogurt, Vegan"
"19",35283,"Jimmy John's","Phoenix","AZ","85032",33.5985771873,-111.9784468156,"1","Food Delivery Services, Sandwiches, Delis, Restaurants, Fast Food, Vegetarian, Food"
"20",157273,"Seed Shack","Gilbert","AZ","85234",33.3785337,-111.7490249,"1","Food, Vegan, Restaurants, Juice Bars & Smoothies, Vegetarian"
"21",190125,"Leena's Food","Pittsburgh","PA","15289",40.4418197,-79.9571314,"0","Halal, Vegan, Sandwiches, Vegetarian, Ethnic Food, Greek, Middle Eastern, Restaurants, Specialty Food, Mediterranean, Food"
"22",148378,"Bareburger","Toronto","ON","M5G",43.6556244,-79.3841428,"0","Vegetarian, Burgers, Salad, Breakfast & Brunch, Restaurants, American (Traditional)"
"23",109692,"Biryani and Bites","Glendale","AZ","85306",33.6238198,-112.1860294,"1","Vegetarian, Halal, Indian, Restaurants"
"24",37321,"Urban Beans Cafe & Bar","Phoenix","AZ","85014",33.4885590269,-112.0653334273,"1","Bars, Vegetarian, Coffee & Tea, Nightlife, Bakeries, Cafes, Breakfast & Brunch, Sandwiches, Restaurants, Food"
"25",49907,"420 Baking Companies","Las Vegas","NV","89103",36.1121651,-115.1828947,"1","Shopping, Health Markets, Gluten-Free, Local Flavor, Bakeries, Restaurants, Food, Macarons, Vegetarian, Specialty Food, Cannabis Dispensaries"
"26",9561,"Aladdin's Eatery","Pittsburgh","PA","15240",40.487933,-79.8873629,"1","Vegetarian, Middle Eastern, Food, Restaurants, Mediterranean"
"27",117886,"Angel's Diner","Goodyear","AZ","85338",33.4509667975,-112.3502201391,"1","Mexican, Restaurants, American (New), American (Traditional), Vegetarian, Juice Bars & Smoothies, Food"
"28",24929,"Monticello Red Wheel Restaurant","Monticello","IL","61856",40.049686,-88.567102,"1","Sports Bars, Restaurants, American (New), Nightlife, Burgers, Vegetarian, Seafood, Bars, Mexican"
"29",122207,"That Guy's Pizza","Fountain Hills","AZ","85268",33.5739018113,-111.7141366797,"1","Pizza, Vegetarian, Italian, Salad, Restaurants"
"30",176519,"Kale","Toronto","ON","M4P 2E6",43.7087974,-79.3987963,"0","Restaurants, Vegan, Vegetarian"
"31",192544,"The Coronado PHX","Phoenix","AZ","85006",33.4713,-112.064761,"1","Nightlife, American (New), Restaurants, Vegan, Coffee & Tea, Cafes, Cocktail Bars, Vegetarian, Bars, Bakeries, Food"
"32",56836,"Lahori Tarka","Toronto","ON","M1H 2Y2",43.7675222,-79.2289379,"1","Vegetarian, Restaurants, Pakistani, Halal"
"33",112893,"Rawlicious","Toronto","ON","M5S 0B7",43.6646402,-79.41087,"0","Food, Vegan, Juice Bars & Smoothies, Salad, Gluten-Free, Vegetarian, Desserts, Restaurants"
"34",54465,"BLACKOUT Dining in the Dark","Las Vegas","NV","89103",36.119787,-115.190605,"1","Diners, Venues & Event Spaces, Event Planning & Services, Arts & Entertainment, Vegetarian, American (New), Mediterranean, Nightlife, Restaurants"
"35",160708,"Pho Lien","Montréal","QC","H3S 1V7",45.4990185,-73.6275758,"1","Restaurants, Food, Ethnic Food, Vietnamese, Specialty Food, Vegetarian"
"36",52272,"Curry Bowl","Chandler","AZ","85248",33.2324025,-111.8569985,"1","Vegetarian, Indian, Buffets, Pan Asian, Restaurants, Food, Desserts"
"37",88871,"Kyklos Greek Cafe","Henderson","NV","89014",36.0677813671,-115.0415401663,"1","Restaurants, Mediterranean, Greek, Vegetarian"
"38",158122,"Fat Bastard Burrito","Richmond Hill","ON","L4B 3B4",43.8462106279,-79.3776979451,"1","Vegan, Gluten-Free, Fast Food, Mexican, Vegetarian, Food Stands, Asian Fusion, Restaurants"
"39",63883,"Greenbridge Teahouse and Cafe","Twinsburg","OH","44087",41.3116048,-81.4421747,"1","Food, Vegetarian, Cafes, Coffee & Tea, Vegan, Restaurants, Diners"
"40",179217,"Copper Branch","Montréal","QC","H2Z 1Z6",45.5042681,-73.5650312,"1","Vegan, Restaurants, Organic Stores, Food, Gluten-Free, Breakfast & Brunch, Vegetarian, Fast Food"
"41",141007,"Ocean Palate","Markham","ON","L3T 0C7",43.8035434,-79.4195738,"1","Ethnic Food, Indian, Breakfast & Brunch, Food, Specialty Food, Halal, Hot Dogs, Restaurants, Vegetarian, Seafood"
"42",172261,"Loca Popa","Scottsdale","AZ","85251",33.4986286,-111.9224398,"0","Vegetarian, Food Trucks, Falafel, Mediterranean, Restaurants, Food"
"43",178850,"Soma Cafe","Phoenix","AZ","85034",33.5839581,-111.9788671,"0","Sandwiches, Burgers, Restaurants, Breakfast & Brunch, Vegetarian"
"44",13813,"Ô Deux Sœurs","Montréal","QC","H2S 1Z4",45.5331991,-73.5964983,"1","Food Trucks, Vegetarian, Restaurants, Food, Health Markets, Specialty Food"
"45",76356,"Ladonia Cafe","Madison","WI","53703",43.0762856935,-89.3839881197,"0","Cafes, Food Stands, Vegetarian, Food Trucks, Restaurants, Vegan, Food"
"46",12966,"Berry Beet Juice Bar","Phoenix","AZ","85048",33.3056186,-111.9922922,"1","Acai Bowls, Vegan, Food, Restaurants, Specialty Food, Juice Bars & Smoothies, Organic Stores, Fruits & Veggies, Vegetarian"
"47",131883,"South India Cuisine","Mayfield Heights","OH","44124",41.519728,-81.459214,"1","Food, Indian, Vegetarian, Restaurants"
"48",148808,"Fú Asian Kitchen","Las Vegas","NV","89169",36.109157,-115.154976,"1","Asian Fusion, Food, Vegetarian, Cantonese, Chinese, Restaurants"
"49",113490,"Rawlicious","Whitby","ON","L1N 4J9",43.879194332,-78.9419087023,"0","Specialty Food, Gluten-Free, Vegetarian, Restaurants, Vegan, Food, Live/Raw Food"
"50",51567,"Woodlands","Charlotte","NC","28227",35.2034511,-80.7216123,"0","Vegetarian, Restaurants, Indian"
"51",73560,"Propulsion : Cantine Végétalienne","Montréal","QC","H2L 2H4",45.5193311,-73.5554149,"0","Vegan, Arts & Entertainment, Food, Music Venues, Restaurants, Vegetarian, Health Markets, Sandwiches, Specialty Food, Nightlife"
"52",16294,"The Zenith","Pittsburgh","PA","15203",40.426803,-79.968973,"1","Antiques, Coffee & Tea, Restaurants, Salad, Food, Breakfast & Brunch, Vegetarian, Vegan, Shopping"
"53",120296,"Elixir Organic Cafe & Lounge","Las Vegas","NV","89123",36.0153561,-115.1185146,"0","Gluten-Free, Juice Bars & Smoothies, Vegetarian, Breakfast & Brunch, American (New), Restaurants, Health Markets, Specialty Food, Delis, Sandwiches, Food"
"54",114955,"Sweet Tomatoes","Phoenix","AZ","85012",33.5096666571,-112.0717401263,"0","Buffets, Salad, Soup, Vegetarian, Restaurants"
"55",107782,"Curry Pot","Las Vegas","NV","89109",36.1226902,-115.1701939,"1","Restaurants, Indian, Vegetarian, Fast Food"
"56",121922,"Salad and Go","Tolleson","AZ","85353",33.4205758,-112.2707451,"1","Juice Bars & Smoothies, Food, Restaurants, Salad, Vegetarian"
"57",167407,"Everly","Madison","WI","53711",43.0565808,-89.4291096,"1","Breakfast & Brunch, Restaurants, Sandwiches, American (New), Bars, Vegetarian, Nightlife"
"58",28311,"Freshii","Pittsburgh","PA","15219",40.4397355,-79.9971547,"1","Restaurants, Vegetarian, Gluten-Free, Fast Food"
"59",52456,"ChuChai","Montréal","QC","H2W 2M5",45.52089,-73.576718,"1","Thai, Restaurants, Vegan, Vegetarian"
"60",190145,"Sweet Tomatoes Field Kitchen","Peoria","AZ","85382",33.637715,-112.2223053,"0","Vegetarian, Soup, Restaurants, Buffets, Salad"
"61",105108,"Anokhi Inspired Indian Dining","Brampton","ON","L6W 4L2",43.6590881,-79.721787,"1","Halal, Food, Patisserie/Cake Shop, Caterers, Event Planning & Services, Indian, Restaurants, Vegetarian"
"62",69984,"The Mediterranean Grill","Scottsdale","AZ","85260",33.6216468811,-111.8983459473,"0","Vegetarian, Restaurants, Middle Eastern, Mediterranean"
"63",82879,"Pita Jungle","Phoenix","AZ","85018",33.4957331182,-111.9884419374,"1","Mediterranean, Restaurants, American (New), Vegan, Vegetarian, Greek"
"64",185395,"Provision","Calgary","AB","T2R 1N8",51.0408406,-114.0707798,"1","Modern European, Vegetarian, Breakfast & Brunch, American (Traditional), Wine Bars, Nightlife, Restaurants, French, Food, Sandwiches, Coffee & Tea, Bars"
"65",14110,"Choolaah Indian BBQ","Orange Village","OH","44122",41.4615664,-81.4870631,"1","Fast Food, Vegetarian, Restaurants, Vegan, Indian"
"66",53541,"The Root Cafe","Lakewood","OH","44107",41.4851374,-81.8020788,"1","Restaurants, Coffee & Tea, Bakeries, Food, Vegetarian"
"67",130433,"Empress Taytu Ethiopian Restaurant","Cleveland","OH","44103",41.5240959,-81.648597,"1","Specialty Food, Restaurants, Gluten-Free, Vegetarian, Ethnic Food, Food, Vegan, Ethiopian"
"68",21780,"Royyim Thai Cuisine","Mesa","AZ","85206",33.3819298,-111.7384288,"1","Gluten-Free, Vegan, Pan Asian, Restaurants, Thai, Vegetarian, Asian Fusion"
"69",166965,"Lola Rosa","Montréal","QC","H1M 2E1",45.5174777624,-73.5908810411,"1","Vegan, Restaurants, Vegetarian, Gluten-Free"
"70",98234,"Glass Nickel Pizza","Madison","WI","53705",43.0754635216,-89.4666998853,"1","Pizza, Food Delivery Services, Food, Event Planning & Services, Restaurants, Italian, Sandwiches, Caterers, Vegetarian, Salad, Chicken Wings"
"71",64927,"Thai Express","Henderson","NV","89014",36.0630678461,-115.0452768803,"0","Restaurants, Salad, Asian Fusion, Thai, Vegetarian"
"72",62195,"Fit For Life","Toronto","ON","M5J",43.6481326,-79.3795089,"1","Restaurants, Breakfast & Brunch, Sandwiches, Vegetarian"
"73",142393,"Cleveland Vegan","Lakewood","OH","44107",41.4855267595,-81.8161940564,"1","Caterers, Vegan, Restaurants, Personal Chefs, Food, Vegetarian, Event Planning & Services"
"74",36216,"Royal Indian Bistro","Las Vegas","NV","89103",36.1168022203,-115.1856471948,"1","Ethnic Food, Indian, Food, Vegan, Bars, Vegetarian, Specialty Food, Nightlife, Restaurants, Soup"
"75",37367,"East of York Gourmet Food","Toronto","ON","M4C 1J4",43.6850116,-79.3165863,"1","Restaurants, Food, Indian, Cafes, Vegetarian, Sandwiches, Specialty Food"
"76",97364,"Doan's","Charlotte","NC","28217",35.1546894,-80.8750816,"1","Vegetarian, Restaurants, Vietnamese, Asian Fusion"
"77",122144,"Merkato Ethiopian Cafe","Las Vegas","NV","89169",36.1216467,-115.144848,"0","Ethiopian, Restaurants, Vegetarian, Cafes"
"78",83899,"Jewel of the Crown","Scottsdale","AZ","85251",33.4922108,-111.9231385,"1","Restaurants, Indian, Pakistani, Vegetarian"
"79",111741,"One Love Vegetarian","Toronto","ON","M5R 3G2",43.6667741,-79.4120657,"1","Vegetarian, Restaurants, Caribbean"
"80",49582,"Pushap Restaurant","Pierrefonds","QC","H8Y 3C6",45.5038683,-73.8166027,"1","Vegetarian, Indian, Restaurants"
"81",175621,"Kale Personal Chef Services","Scottsdale","AZ","85260",33.6167286,-111.8722293,"1","Gluten-Free, Vegan, Food Delivery Services, Arts & Crafts, Cooking Classes, Specialty Food, Party & Event Planning, Restaurants, Education, Food, Vegetarian, Caterers, Shopping, Health & Medical, Nutritionists, Cooking Schools, Specialty Schools, Event Planning & Services, Personal Chefs"
"82",13810,"Blossom Vegetarian","Richmond Hill","ON","L4B 3N7",43.8663797,-79.386063,"1","Buffets, Restaurants, Vegetarian"
"83",145260,"Taj Mahal","Scottsdale","AZ","85251",33.4970635,-111.9275168,"1","Restaurants, Indian, Vegetarian, Wine Bars, Bars, Nightlife"
"84",182482,"Fusion Flame","Brampton","ON","L6T 4G6",43.7050364,-79.7258316,"1","Hakka, Vegetarian, Chinese, Asian Fusion, Restaurants, Halal"
"85",165653,"Pita Jungle","Scottsdale","AZ","85260",33.583909,-111.922234,"1","Vegetarian, American (New), Middle Eastern, Mediterranean, Restaurants, Vegan, Greek"
"86",98702,"Lakefront Cafe on Langdon","Madison","WI","53706",43.0765783098,-89.3994861824,"0","Burgers, Food Stands, Restaurants, Sandwiches, Vegetarian, American (Traditional), Pizza"
"87",123973,"Roly Poly","Mayfield Heights","OH","44124",41.5182538,-81.4509208,"0","Sandwiches, Fast Food, Restaurants, Vegetarian"
"88",102732,"Glas Wine Bar","Toronto","ON","M4M 1K9",43.6622335,-79.3353151,"0","Nightlife, Wine Bars, Vegan, Bars, Restaurants, Canadian (New), French, Vegetarian"
"89",69224,"The Red Herring Vegetarian Restaurant","Urbana","IL","61801",40.1067731,-88.2251981,"1","Cafes, Vegan, Restaurants, Vegetarian"
"90",8623,"Freshii","Toronto","ON","M5G 2B3",43.6609874,-79.383889,"1","Food, Breakfast & Brunch, Ice Cream & Frozen Yogurt, Juice Bars & Smoothies, Vegetarian, Restaurants"
"91",106447,"Fern","Charlotte","NC","28203",35.2009674,-80.8427523,"1","Restaurants, Vegetarian, Vegan, Breakfast & Brunch, American (Traditional)"
"92",73521,"Fresh on Spadina","Toronto","ON","M5V 2L7",43.6481372,-79.3956847,"1","Health Markets, Restaurants, Juice Bars & Smoothies, Food, Vegetarian, Specialty Food, Mexican, Vegan"
"93",136633,"Applewood Smoke Burger","Pittsburgh","PA","15206",40.4762289,-79.9208742,"1","Burgers, Restaurants, Vegetarian, Sandwiches"
"94",75154,"Vegan Invasion Delivery & Catering","Phoenix","AZ","85018",33.5098979,-112.0130232,"1","Food, Vegetarian, Restaurants, Mexican, Live/Raw Food, Food Delivery Services, Caterers, Food Trucks, Vegan, Event Planning & Services"
"95",153754,"Café Chat l'Heureux","Montréal","QC","H2W 1H3",45.51859441,-73.5777685435,"1","Sandwiches, Canadian (New), Coffee & Tea, Vegetarian, Food, Restaurants"
"96",121146,"Nook Kitchen","Phoenix","AZ","85004",33.4500922,-112.0735794,"1","Restaurants, Italian, Vegetarian, American (New), Pizza"
"97",64184,"Jade Palace","Scottsdale","AZ","85255",33.70091,-111.888996,"1","Chinese, Seafood, Restaurants, Vegetarian"
"98",61023,"Taco Y Taco","Henderson","NV","89123",36.0175605896,-115.1178946994,"1","Restaurants, Vegetarian, Mexican"
"99",69311,"Copa By Sea","Toronto","ON","M5H 3H1",43.648443,-79.3882263,"0","Vegetarian, Brazilian, Seafood, Restaurants, Barbeque"
"100",136446,"Casa Amigos","Coraopolis","PA","15108",40.5017951536,-80.2113790625,"1","Mexican, Nightlife, Cocktail Bars, Tacos, Restaurants, Vegetarian, Bars, Seafood, New Mexican Cuisine"
"101",4421,"Little India Restaurant","Toronto","ON","M5V 1Z4",43.6502008,-79.3888945,"1","Pakistani, Vegetarian, Caterers, Indian, Event Planning & Services, Buffets, Food Delivery Services, Middle Eastern, Food, Restaurants"
"102",36782,"Potluck Restaurant","Mississauga","ON","L5A 1V9",43.58125,-79.616055,"1","Restaurants, Caribbean, Diners, Vegetarian"
"103",54901,"Kupfert & Kim","Toronto","ON","M5V 2L4",43.6477264,-79.3962471,"1","Vegan, Vegetarian, Gluten-Free, Restaurants"
"104",24665,"Swaddee Thai Cuisine","Chandler","AZ","85226",33.3193026,-111.9288807,"1","Vegetarian, Restaurants, Seafood, Thai, Soup"
"105",21214,"Tony's Vietnamese Noodle Restaurant","Airdrie","AB","T4A 0E1",51.2621353,-113.9938213,"1","Vegetarian, Restaurants, Soup, Vietnamese"
"106",168851,"The Lunch Box","Las Vegas","NV","89119",36.1051599,-115.136178,"0","Vegetarian, Hot Dogs, Restaurants, Fast Food"
"107",162484,"Hero Certified Burgers - Bayview & York Mills","Toronto","ON","M2L 1A9",43.747513,-79.384683,"1","Restaurants, Burgers, Fast Food, Vegetarian"
"108",46087,"Create","Las Vegas","NV","89128",36.1962809,-115.2509056,"0","Vegetarian, Burgers, Food, Restaurants, Ice Cream & Frozen Yogurt"
"109",60332,"Loving Hut","Toronto","ON","M6C 2C4",43.7002654,-79.4288735,"0","Vegan, Restaurants, Vegetarian"
"110",21133,"Daddy's Delights","Las Vegas","NV","89102",36.1479553,-115.1645721,"1","Food Delivery Services, Food, Wraps, Juice Bars & Smoothies, Italian, Pizza, Specialty Food, Vegetarian, Restaurants"
"111",89113,"Sittoo's Pita & Salad","North Olmsted","OH","44070",41.4253082,-81.8979079,"1","Sandwiches, Restaurants, Mediterranean, Vegetarian, Salad, Lebanese, Middle Eastern"
"112",130384,"La Panthère Verte","Montréal","QC","H3G 2J2",45.497444,-73.579924,"1","Vegetarian, Middle Eastern, Restaurants, Vegan"
"113",110628,"Pita Jungle","Mesa","AZ","85204",33.3850803981,-111.7563747232,"1","Mediterranean, Restaurants, American (New), Vegetarian"
"114",184937,"Cerezo Cafe & Bar","Calgary","AB","T2E 3K2",51.0607765,-114.054875,"0","Coffee & Tea, Food, Tapas Bars, Vegetarian, Japanese, Restaurants, Breakfast & Brunch"
"115",23844,"Arepas Grill","Charlotte","NC","28217",35.1763731,-80.8800294,"1","Restaurants, Latin American, Basque, Bakeries, Food, Spanish, Venezuelan, Vegetarian"
"116",190713,"POTs","Las Vegas","NV","89146",36.1520101,-115.2437045,"1","Vegan, Egyptian, Restaurants, Vegetarian, Middle Eastern"
"117",176651,"iQ Food","Toronto","ON","M5J 2Z2",43.6431619,-79.3823245,"1","Gluten-Free, Canadian (New), Restaurants, Food, Salad, Health Markets, Coffee & Tea, Juice Bars & Smoothies, Vegetarian, Specialty Food"
"118",144930,"Dandelion Food Cart","Madison","WI","53706",43.0753917,-89.3989853,"0","Food Stands, Vegetarian, Vegan, Restaurants"
"119",94419,"Chantilly's Tea Room & Restaurant","Gastonia","NC","28054",35.2505339,-81.1761064,"1","Sandwiches, Vegetarian, Food, Tea Rooms, Restaurants"
"120",130994,"Taza - A Lebanese Grill","Woodmere","OH","44122",41.463026,-81.477387,"1","Food, Mediterranean, Desserts, Salad, Lebanese, Middle Eastern, Vegetarian, Restaurants"
"121",97924,"Hearts Choices","Calgary","AB","T2J 0P6",50.9682661475,-114.0727442024,"1","Vegetarian, Thai, Food, Vegan, Grocery, Restaurants"
"122",115617,"Freshbox Grayhawk","Scottsdale","AZ","85255",33.6763979403,-111.9231349463,"0","Food, Restaurants, Fruits & Veggies, Juice Bars & Smoothies, Salad, Vegetarian, Specialty Food, Sandwiches, Wraps"
"123",24056,"Mika's Greek","Phoenix","AZ","85013",33.4800452046,-112.0807988113,"1","Greek, Mediterranean, Falafel, Restaurants, Vegetarian"
"124",138227,"Cap'n Taco Restaurants","Brookpark","OH","44142",41.4182515,-81.8107219,"1","Tex-Mex, Vegetarian, Restaurants, Mexican"
"125",141155,"Souper Market","Cleveland","OH","44111",41.4504923693,-81.8152962638,"1","Salad, Restaurants, Vegetarian, Soup"
"126",83470,"Biryani Corner","Mississauga","ON","L5B 1H4",43.5787099325,-79.616502876,"1","Vegetarian, Caterers, Halal, Event Planning & Services, Restaurants, Pakistani"
"127",108058,"Salad Creations Madison","Madison","WI","53717",43.0732387,-89.5267317,"0","Sandwiches, Vegetarian, Salad, Restaurants, Fast Food, Food"
"128",173333,"Even Stevens Sandwiches","Scottsdale","AZ","85251",33.4977607727,-111.9254760742,"0","Salad, Vegan, Breakfast & Brunch, Sandwiches, Restaurants, Vegetarian"
"129",135524,"Charm Thai Cuisine","Chandler","AZ","85225",33.3019787879,-111.84163243,"1","Restaurants, Gluten-Free, Thai, Vegetarian"
"130",181680,"BanhMi Sub","Calgary","AB","T2A 6K4",51.056734,-113.987922,"1","Sandwiches, Asian Fusion, Vegetarian, Vietnamese, Noodles, Restaurants"
"131",53372,"MAD Greens - Tempe","Tempe","AZ","85281",33.433481,-111.901629,"1","Juice Bars & Smoothies, Food, Salad, Restaurants, Vegetarian, Wraps, Live/Raw Food, Sandwiches"
"132",33499,"Café Phipps","Pittsburgh","PA","15213",40.4388866336,-79.9478385831,"1","Museums, Arts & Entertainment, Restaurants, Sandwiches, Botanical Gardens, Vegetarian"
"133",20419,"Khaana Khazana","Chandler","AZ","85226",33.304861,-111.927065,"1","Event Planning & Services, Vegetarian, Caterers, Party & Event Planning, Restaurants, Indian"
"134",92955,"La Panthère Verte","Montréal","QC","H2T 2K9",45.524946,-73.599561,"0","Restaurants, Vegetarian, Vegan, Middle Eastern"
"135",24033,"Kaibur Coffee","Pittsburgh","PA","15219",40.4575888305,-79.9658611146,"1","Restaurants, Coffee & Tea, Vegetarian, Food, Cafes"
"136",137230,"Copper Branch","Brooklin","ON","L1M 1A3",43.9579968,-78.960699,"1","Restaurants, Breakfast & Brunch, Gluten-Free, Vegan, Vegetarian"
"137",57987,"The Art Of Soup","Phoenix","AZ","85073",33.474237,-112.0650971,"0","Food, Gluten-Free, Restaurants, American (Traditional), Vegan, Vegetarian"
"138",96628,"Velish","Montréal","QC","H2H 1B1",45.5155249,-73.577343,"1","Vegan, Food, Restaurants, Vegetarian, Juice Bars & Smoothies"
"139",36913,"Aux Lilas","Montréal","QC","H2V 4H1",45.5222102,-73.6028603,"1","Event Planning & Services, Middle Eastern, Restaurants, Mediterranean, Vegetarian, Lebanese, Caterers"
"140",115925,"Sankalp - Etobicoke","Toronto","ON","M9V 3Z6",43.7349051,-79.6021716,"0","Vegetarian, Restaurants"
"141",14839,"Yaya's Mexican Bar Grill","Surprise","AZ","85379",33.6074715,-112.3559409,"1","Nightlife, Tacos, Vegetarian, Food Trucks, Gluten-Free, Restaurants, Bars, Food, Mexican"
"142",181165,"Siamese Bistro","Las Vegas","NV","89139",36.0450190157,-115.244142913,"0","Restaurants, Vegetarian, Thai, Chinese, Salad"
"143",85548,"Indian Taste Restaurant","Twinsburg","OH","44087",41.3120077,-81.4382935,"0","Ethnic Food, Imported Food, Indian, Vegetarian, Food, Restaurants, Buffets, Specialty Food, Desserts"
"144",42573,"MAD Greens - Hilton Village","Scottsdale","AZ","85250",33.5260219,-111.9245688,"1","Food, Sandwiches, Salad, Restaurants, Vegetarian, Juice Bars & Smoothies, Wraps"
"145",119028,"Sitara","Urbana","IL","61801",40.111959,-88.208652,"0","Pakistani, Indian, Vegetarian, Restaurants"
"146",5422,"Resto Végo McGill","Montréal","QC","H3B 4J8",45.5014114,-73.5705109,"0","Restaurants, Buffets, Vegetarian, Vegan"
"147",23221,"Choolaah Indian BBQ","Pittsburgh","PA","15206",40.460266,-79.923461,"1","Restaurants, Indian, Gluten-Free, Vegan, Vegetarian"
"148",180629,"Le Kitchen","Montréal","QC","H3J 1R5",45.4873300855,-73.5667441983,"1","Event Planning & Services, Gluten-Free, Caterers, Food, Breakfast & Brunch, Restaurants, Food Delivery Services, Vegan, Vegetarian, Cafes"
"149",138203,"Chopt Creative Salad Co.","Charlotte","NC","28277",35.0980668,-80.7802264,"1","Sandwiches, Restaurants, Do-It-Yourself Food, Salad, Food, Vegetarian"
"150",147063,"Fawaky Burst","Cleveland Heights","OH","44106",41.5012967548,-81.5939076617,"1","Food, Restaurants, Vegetarian, Juice Bars & Smoothies"
"151",66828,"Khalsa Pizza","Brampton","ON","L6S 5Z5",43.7480137573,-79.7146242857,"1","Indian, Restaurants, Pizza, Vegan, Vegetarian"
"152",32275,"Subiksha Foods","Toronto","ON","M1K 2S2",43.7353973,-79.2516124,"1","Vegetarian, Indian, Restaurants"
"153",144690,"GreenMix","Phoenix","AZ","85042",33.3792825249,-112.0328928026,"1","Restaurants, Vegetarian, Sandwiches, American (New), Salad"
"154",58352,"Le Réservoir","Montréal","QC","H2W 1G7",45.517237,-73.57932,"1","Restaurants, Breakfast & Brunch, Tapas/Small Plates, Nightlife, Bars, Pubs, Vegetarian, Brasseries"
"155",69463,"Utopia Café & Grill","Toronto","ON","M6G 1B3",43.6554293,-79.4135056,"1","Vegetarian, Tex-Mex, Restaurants, Burgers"
"156",145855,"Perfect Pear Bistro","Phoenix","AZ","85048",33.3050931742,-112.0566525463,"1","Comfort Food, Food, Bars, Sandwiches, Salad, Wine Bars, Vegetarian, Nightlife, American (New), Soup, Restaurants, Beer, Wine & Spirits, Italian"
"157",113331,"Yesterday's Bar & Grill","Pittsburgh","PA","15207",40.4256555,-79.9423951,"1","American (Traditional), Nightlife, Restaurants, Bars, Dive Bars, Vegetarian"
"158",73084,"Gourmet China II","Las Vegas","NV","89109",36.1388449,-115.1379276,"1","Szechuan, Restaurants, Chinese, Seafood, Vegetarian"
"159",10444,"Café Tuyo","Montréal","QC","H2W 1B3",45.522593,-73.5806926,"1","Coffee & Tea, Food, Sandwiches, Breakfast & Brunch, Specialty Food, Internet Cafes, Cafes, Vegan, Restaurants, Vegetarian"
"160",170652,"White Rose Vegetarian Kitchen","Calgary","AB","T3B 0E9",51.086929,-114.18206,"0","Vegan, Vegetarian, Restaurants, Gluten-Free"
"161",102799,"La Santisima","Glendale","AZ","85301",33.5387799,-112.1880526,"1","Seafood, Nightlife, Mexican, Vegetarian, Restaurants, Breakfast & Brunch, Food, Vegan, Bars"
"162",8583,"Basmati Indian Cuisine","Champaign","IL","61820",40.114132,-88.238369,"0","Vegetarian, Indian, Pakistani, Restaurants"
"163",181918,"Mouton Vert","Montréal","QC","H4A 1X9",45.4686228,-73.619655,"1","Restaurants, Vegan, Grocery, Food, Vegetarian, Coffee & Tea"
"164",188923,"Franktuary","Pittsburgh","PA","15222",40.4411888,-79.9988332,"0","Hot Dogs, Vegetarian, Restaurants"
"165",94924,"Mint Thai Cafe","Gilbert","AZ","85234",33.3703007,-111.7894598,"1","Restaurants, Vegan, Vegetarian, Thai, Filipino"
"166",61122,"Indian Spice Kitchen","Toronto","ON","M1H",43.764895,-79.2272949,"0","Indian, Restaurants, Vegetarian"
"167",82374,"Salad and Go","Gilbert","AZ","85295",33.3067485692,-111.7207381502,"1","Salad, Breakfast & Brunch, Restaurants, Vegetarian, Fast Food"
"168",60172,"Pasture and Plenty","Madison","WI","53726",43.0718643,-89.4283808,"1","Vegetarian, Arts & Crafts, Restaurants, Shopping, Cooking Classes, Delis, American (Traditional), Local Flavor"
"169",29843,"Onion Maiden","Pittsburgh","PA","15210",40.4218809,-79.9959611,"1","Asian Fusion, Vegan, Restaurants, Street Vendors, Food, Vegetarian"
"170",99713,"Crunch Bistro","Charlotte","NC","28211",35.1523851,-80.8321252,"0","Restaurants, Vegetarian, Sandwiches, American (New), Food, Salad"
"171",48156,"Bombay Cuisine","Charlotte","NC","28262",35.303872,-80.749548,"0","Pakistani, Vegan, Restaurants, Breakfast & Brunch, Vegetarian, Indian, Buffets"
"172",8994,"Casa De Falafel","Peoria","AZ","85381",33.5968214,-112.2031572,"1","Restaurants, Middle Eastern, Vegetarian, Mediterranean, Mexican, Falafel, Food, Vegan"
"173",99032,"Capriotti's Sandwich Shop","Las Vegas","NV","89117",36.1445189,-115.2757054,"1","Restaurants, Vegetarian, Salad, Sandwiches"
"174",160452,"Urban Turban","Las Vegas","NV","89169",36.1189093605,-115.1543320479,"0","Bars, Halal, Vegetarian, Cocktail Bars, Indian, Restaurants, Nightlife, Tapas Bars, Buffets, Vegan, Food, Desserts"
"175",174410,"Franktuary","Pittsburgh","PA","15222",40.4410869,-80.0033104,"0","Restaurants, Vegetarian, Poutineries, Salad, Hot Dogs"
"176",106514,"Sakura Sushi House","Strongsville","OH","44136",41.3060359,-81.8360236,"1","Chinese, Restaurants, Vegetarian, Sushi Bars, Japanese"
"177",115607,"Greens Vegetarian Restaurant","Toronto","ON","M5T 1H8",43.652093,-79.402622,"1","Chinese, Restaurants, Vegan, Vegetarian"
"178",162051,"Bae Bae's Kitchen","Pittsburgh","PA","15222",40.4435133921,-79.9961381391,"1","Asian Fusion, Korean, Restaurants, Salad, Pan Asian, Vegan, Cafes, Vegetarian"
"179",189432,"Levi Catering","Phoenix","AZ","85028",33.5820448,-112.0082774,"1","Event Planning & Services, Restaurants, Bakeries, Vegetarian, Food Delivery Services, Party & Event Planning, Caterers, Kosher, Food, Cafes"
"180",80044,"South Sea Village Chinese Restaurant","Toronto","ON","M1S 2B7",43.786027,-79.2760491,"0","Restaurants, Vegetarian, Chinese, Seafood"
"181",163705,"Robin des Bois","Montréal","QC","H2T 1R2",45.5213865,-73.5887311,"1","Vegan, Canadian (New), Vegetarian, French, Restaurants"
"182",96813,"Flower Child","Las Vegas","NV","89145",36.1606177,-115.2923743,"1","Vegetarian, Salad, American (New), Restaurants"
"183",136351,"Le Sain Bol","Montréal","QC","H2J 3W3",45.534672,-73.582368,"0","Specialty Food, Restaurants, Food, Health Markets, Breakfast & Brunch, Vegetarian"
"184",152441,"Fuegos - Steak Tapas Vegan","Madison","WI","53703",43.0797595,-89.369608,"1","Steakhouses, Tapas Bars, Spanish, Vegan, Tapas/Small Plates, Restaurants, Vegetarian"
"185",40931,"Doaba Sweets & Restaurant","Brampton","ON","L6Y 2R2",43.6599240748,-79.7504425049,"1","Indian, Restaurants, Caterers, Vegetarian, Event Planning & Services"
"186",83457,"Freshii","Toronto","ON","M5C",43.6500732,-79.3748906,"1","Vegetarian, Restaurants"
"187",91344,"Paymons Mediterranean Cafe & Hookah Lounge","Las Vegas","NV","89117",36.1448066,-115.2739885,"1","Bars, Middle Eastern, Grocery, Vegetarian, Greek, Nightlife, Mediterranean, Restaurants, Food, Hookah Bars"
"188",102225,"Teddywedgers","Madison","WI","53703",43.0746378454,-89.3867960403,"1","Vegan, British, Food, Bakeries, Fast Food, Restaurants, Breakfast & Brunch, Vegetarian, Cafes"
"189",181116,"The Kitchen Counter at Whole Foods","University Heights","OH","44118",41.5008897,-81.5368155,"1","Restaurants, Breakfast & Brunch, Vegetarian, American (New)"
"190",32942,"George","Toronto","ON","M5C 1S2",43.6533063,-79.3741304,"1","Bars, Cocktail Bars, Restaurants, Canadian (New), American (New), Nightlife, Vegetarian"
"191",168104,"Planta","Toronto","ON","M5R 3P5",43.6702150962,-79.3894335574,"1","Salad, Restaurants, Bars, Vegan, Nightlife, Tapas/Small Plates, Pizza, Vegetarian, Cocktail Bars"
"192",182282,"Fit For Life","Toronto","ON","M5B 1B5",43.6569881718,-79.380868,"1","Fast Food, Restaurants, Canadian (New), Sandwiches, Vegetarian, Breakfast & Brunch"
"193",151144,"Veggy Street","Las Vegas","NV","89148",36.0949946,-115.2982015,"1","Gluten-Free, Sandwiches, Vegetarian, Fast Food, Vegan, Restaurants"
"194",81770,"Vermont Sandwich Co","Scottsdale","AZ","85260",33.6396513,-111.8913939,"0","Sandwiches, Vegetarian, Restaurants, Breakfast & Brunch, Food, Soup, Salad, Bagels"
"195",134993,"Mint Indian Cuisine","Scottsdale","AZ","85260",33.583,-111.892905,"1","Restaurants, Vegetarian, Halal, Buffets, Indian"
"196",131236,"HD Asian Bistro","Fountain Hills","AZ","85268",33.6090186,-111.7190231,"1","Seafood, Vegetarian, Chinese, Restaurants"
"197",76120,"Tropical Smoothie Cafe","Gilbert","AZ","85233",33.3785538958,-111.81176126,"1","Food, Vegetarian, Juice Bars & Smoothies, Restaurants, Cafes, Sandwiches"
"198",73589,"Moghel Tandoori","Saint-Lambert","QC","J4P",45.501282,-73.5104808,"1","Indian, Vegetarian, Restaurants"
"199",184433,"Authentic Ethio African","Phoenix","AZ","85006",33.4659491565,-112.0438096799,"1","Restaurants, Gluten-Free, Ethnic Food, Vegetarian, Bakeries, Ethiopian, African, Food, Specialty Food"
"200",158854,"Ruse Vegan Kitchen","Las Vegas","NV","89128",36.185845,-115.287352,"1","Restaurants, Food Stands, Vegan, Farmers Market, Food, Vegetarian"
"201",49357,"Grabbagreen Food & Juice","Las Vegas","NV","89117",36.1454693,-115.30089,"1","Gluten-Free, Restaurants, Food, Juice Bars & Smoothies, Breakfast & Brunch, Vegetarian, Fast Food"
"202",141102,"Jean's Vegetarian Kitchen","Toronto","ON","M4J 1M6",43.6819991,-79.3307375,"0","Salad, Malaysian, Vegetarian, Noodles, Thai, Restaurants"
"203",159041,"Al Madina Halal Family Restaurant","Las Vegas","NV","89102",36.1313155,-115.2071536,"1","Restaurants, Halal, Indian, Vegetarian"
"204",72720,"Fresh on Eglinton","Toronto","ON","M4P 2Y3",43.7074975862,-79.3955600336,"1","Vegetarian, Health Markets, Restaurants, Vegan, Specialty Food, Food"
"205",168498,"Pita Pit","Gilbert","AZ","85234",33.3256928231,-111.6872987151,"0","Vegetarian, Pita, Mediterranean, Restaurants, Sandwiches, American (New), Fast Food, Food"
"206",86377,"Falafel Avenue","Montréal","QC","H3A 2A5",45.5039621,-73.5722865,"1","Vegetarian, Falafel, Restaurants, Mediterranean, Vegan"
"207",70903,"La Panthère Verte","Montréal","QC","H3W 1Y3",45.4841806,-73.6289987,"1","Restaurants, Vegetarian, Vegan"
"208",46670,"Jacques Cafe","Las Vegas","NV","89134",36.1933265261,-115.3040632821,"0","Vegetarian, Sandwiches, Restaurants, American (New), French, Gluten-Free, Breakfast & Brunch"
"209",100732,"Aladdin's Eatery","Lakewood","OH","44107",41.4854578511,-81.7968916693,"1","Gluten-Free, Restaurants, Middle Eastern, Mediterranean, Vegetarian"
"210",62723,"The Coup","Calgary","AB","T2T 0A2",51.038019,-114.0832001,"1","Bars, Cocktail Bars, Vegetarian, Restaurants, Nightlife, Breakfast & Brunch"
"211",154854,"Sabuddy Israeli","Scottsdale","AZ","85254",33.581569,-111.931282,"0","Vegetarian, Middle Eastern, Restaurants, Mediterranean, Greek"
"212",169666,"College Falafel","Toronto","ON","M6G 3T2",43.6546463,-79.4229379,"1","Middle Eastern, Restaurants, Mediterranean, Sandwiches, Vegetarian"
"213",127556,"Sweet Tomatoes","Peoria","AZ","85382",33.6375975506,-112.2223644995,"1","Restaurants, Soup, Salad, Buffets, Vegetarian"
"214",51167,"Hungary Thai Bar & Eatery Restaurant","Toronto","ON","M5T 2L6",43.6543212,-79.4020843,"1","Thai, Restaurants, Hungarian, Vegetarian"
"215",168139,"White Oak Restaurant","Calgary","AB","T2G 0B6",51.0502105,-114.0607032,"0","Chinese, Vietnamese, Restaurants, Vegetarian"
"216",143332,"Morning Glory Coffeehouse","Pittsburgh","PA","15206",40.4855169,-79.9255017,"0","Vegetarian, Food, Coffee & Tea, Breakfast & Brunch, Restaurants"
"217",123074,"Tokyo One Express","Charlotte","NC","28277",35.0524519,-80.8173292,"1","Vegetarian, Seafood, Japanese, Restaurants"
"218",183146,"Manhattan Bagel","Charlotte","NC","28277",35.0970774975,-80.7790989891,"1","Breakfast & Brunch, Delis, Vegetarian, Kosher, Vegan, Bagels, Food, Restaurants"
"219",30450,"My Thai","Chesterland","OH","44026",41.5250721996,-81.3386015396,"1","Restaurants, Vegan, Gluten-Free, Vegetarian, Thai"
"220",96520,"Loving Hut - Glendale","Glendale","AZ","85308",33.6533726,-112.1348879,"1","Vegetarian, Food, Juice Bars & Smoothies, Vegan, Restaurants"
"221",107979,"General Thai Chinese Cuisine & Vegetarian","Aurora","ON","L4G 1P3",44.0067614,-79.4687848,"1","Restaurants, Chinese, Vegetarian, Thai"
"222",83020,"King's Café","Toronto","ON","M5T 2L6",43.6542071,-79.4020543,"1","Chinese, Vegetarian, Caterers, Restaurants, Event Planning & Services"
"223",29833,"Hoi Polloi: Coffeehouse and Vegetarian Cafe","Pittsburgh","PA","15233",40.4535048,-80.0168923,"0","Food, Coffee & Tea, Vegan, Vegetarian, Restaurants"
"224",70192,"Oats & Ivy","Toronto","ON","M6K 3P6",43.63837,-79.4184338,"0","Organic Stores, Vegetarian, Restaurants, Food, Vegan, Juice Bars & Smoothies"
"225",46514,"Wolfman Pizza - Charlotte","Charlotte","NC","28210",35.1171964546,-80.857392698,"1","Nightlife, Bars, Restaurants, Pizza, Vegetarian, Sports Bars"
"226",31904,"Ori'Zaba's Scratch Mexican Grill","Las Vegas","NV","89135",36.1482461131,-115.3335925564,"1","Gluten-Free, Mexican, Restaurants, Vegetarian"
"227",68348,"Buraka Restaurant","Madison","WI","53703",43.083644,-89.3642676,"1","Restaurants, Vegetarian, African, Vegan, Ethiopian, Latin American"
"228",121243,"Yours Truly","Toronto","ON","M6J 2Z9",43.6491361,-79.4206948,"0","Canadian (New), Restaurants, Gastropubs, Vegetarian, American (New)"
"229",111366,"SOFE Café & Grill","Bedford","OH","44146",41.3921066,-81.5365374,"0","Vegan, Restaurants, Vegetarian, Sandwiches, Breakfast & Brunch"
"230",132334,"Seasons 52","Phoenix","AZ","85016",33.5104706939,-112.0266086496,"1","American (New), Wine Bars, Gluten-Free, Nightlife, Bars, Restaurants, Seafood, Vegetarian, American (Traditional)"
"231",166718,"The Siddhartha","Toronto","ON","M4L 1Z7",43.6725531,-79.3213648,"0","Indian, Restaurants, Pakistani, Vegetarian"
"232",84490,"Beverly's Gourmet Foods","Charlotte","NC","28204",35.2055938,-80.8378005,"1","Restaurants, Vegetarian, Specialty Food, Farmers Market, Gluten-Free, Fruits & Veggies, Food"
"233",80042,"Vegetarian Haven","Toronto","ON","M5T 1L1",43.6559955,-79.3928145,"1","Vegetarian, Restaurants, Vegan"
"234",18818,"Restaurante Guadalajara","Las Vegas","NV","89115",36.190844065,-115.0624061587,"0","Restaurants, Vegetarian, Seafood, Mexican"
"235",36186,"Nirvana the Flavours of India","Mississauga","ON","L4Z 3E8",43.6261329523,-79.6770085984,"1","Indian, Chinese, Restaurants, Pakistani, Halal, Hakka, Vegetarian, Middle Eastern"
"236",166852,"Loving Hut Tempe","Tempe","AZ","85281",33.4214672,-111.945216,"1","Vegetarian, Soup, Vegan, Noodles, American (Traditional), Asian Fusion, Restaurants"
"237",45863,"Song Lynn","Phoenix","AZ","85037",33.4780159,-112.254559,"1","Vegetarian, Vietnamese, Restaurants"
"238",158576,"Pero Restaurant & Lounge","Toronto","ON","M6G 1L9",43.6627952,-79.4227388,"1","Vegetarian, African, Vegan, Nightlife, Jazz & Blues, Restaurants, Arts & Entertainment, Ethiopian"
"239",173488,"Estiatorio VOLOS","Toronto","ON","M5H 2L3",43.6500769,-79.3848314,"1","Vegetarian, Mediterranean, Greek, Restaurants, Seafood"
"240",18097,"Taco Shack","Tempe","AZ","85281",33.4213391,-111.9257698,"1","Restaurants, Vegetarian, Tacos, Mexican"
"241",11941,"Mozart Cafe & Bakery","Scottsdale","AZ","85254",33.585636,-111.927548,"0","Bakeries, Kosher, Restaurants, Mediterranean, Food, Vegetarian"
"242",54610,"Rawlicious","Markham","ON","L3P 1Y1",43.878174,-79.2611265,"1","Desserts, American (New), Vegetarian, Vegan, Restaurants, Juice Bars & Smoothies, Food, Live/Raw Food"
"243",48624,"Masala Express","Las Vegas","NV","89109",36.1056074136,-115.172388219,"1","Indian, Fast Food, Vegetarian, Restaurants"
"244",120392,"Hearts Choices Cafe Market","Calgary","AB","T2E 6V5",51.0893617586,-114.0490886942,"1","Vegetarian, Vegan, Thai, Restaurants"
"245",41159,"Taj Indian Restaurant","Madison","WI","53715",43.053124,-89.39625,"1","Indian, Vegetarian, Pakistani, Restaurants"
"246",15838,"Cholan","Mississauga","ON","L5V 0A7",43.61172,-79.695943,"0","Restaurants, Vegetarian, Indian"
"247",97588,"Fresh Mint","Scottsdale","AZ","85254",33.6128590442,-111.926754459,"1","Kosher, Vegetarian, Thai, Vegan, Restaurants"
"248",181810,"Shagun Sweets and Restaurant","Brampton","ON","L6R 1W4",43.7590139,-79.7293181,"1","Restaurants, Vegetarian, Indian"
"249",116784,"Loving Hut","Phoenix","AZ","85018",33.494905,-112.0113546,"1","Vietnamese, Vegetarian, Restaurants, Chinese, Sandwiches, Vegan"
"250",103080,"Nazareth Bar","Toronto","ON","M6H 1L7",43.6611938,-79.4287374,"0","African, Nightlife, Restaurants, Vegetarian, Ethiopian, Bars"
"251",2365,"Green Earth Vegetarian Cuisine","Toronto","ON","M4J 1L2",43.6660516,-79.3526962,"1","Vegan, Vegetarian, Restaurants"
"252",103759,"Powered Up Nutrition","Phoenix","AZ","85004",33.453050675,-112.0695378247,"1","Health & Medical, Restaurants, Vegetarian, Nutritionists, Fitness & Instruction, Juice Bars & Smoothies, Food, Vegan, Active Life, Specialty Food, Trainers, Health Markets"
"253",99270,"Made Foods","Calgary","AB","T3P 0C5",51.1620436449,-114.125534976,"1","Vegetarian, Restaurants, Juice Bars & Smoothies, Food, Specialty Food, Breakfast & Brunch, Vegan, Health Markets, Gluten-Free"
"254",137865,"LOV McGill","Montréal","QC","H2Y 2H2",45.5005534,-73.5590512,"1","Vegan, Vegetarian, Restaurants, Breakfast & Brunch"
"255",100673,"Cheba Hut Toasted Subs","Tempe","AZ","85281",33.422728,-111.951494,"1","Salad, Sandwiches, Vegetarian, Restaurants, American (Traditional)"
"256",85737,"Kupfert & Kim","Toronto","ON","M5J 2T3",43.6464176063,-79.3790951381,"1","Vegetarian, Restaurants, Vegan"
"257",148194,"Brillobox","Pittsburgh","PA","15224",40.4656218,-79.9547632,"1","Restaurants, Vegetarian, Nightlife, Bars, Arts & Entertainment, Dive Bars, Vegan, Music Venues"
"258",810,"DumplingHaus","Madison","WI","53705",43.071461,-89.452308,"1","Dim Sum, Chinese, Restaurants, Vegan, Vegetarian"
"259",190785,"Kupfert & Kim","Toronto","ON","M5H 1J9",43.6475179451,-79.3844664887,"1","Vegetarian, Gluten-Free, Restaurants, Vegan"
"260",62448,"Burtons Grill & Bar of Charlotte","Charlotte","NC","28209",35.172673,-80.849048,"1","Seafood, American (New), Vegetarian, Restaurants, Gluten-Free"
"261",148600,"Revitasize","Toronto","ON","M5R 1B9",43.6715929,-79.3908687,"1","Restaurants, Food, Vegan, Juice Bars & Smoothies, Vegetarian"
"262",6741,"Gourmet Vegetarian Restaurant","Richmond Hill","ON","L4B 3Z1",43.8439761,-79.3892441,"1","Vegan, Restaurants, Chinese, Vegetarian"
"263",38078,"Honmachi","Las Vegas","NV","89183",36.012764,-115.136056,"0","Steakhouses, Vegetarian, Restaurants, Japanese, Barbeque, Tapas Bars, Live/Raw Food"
"264",119689,"Lulu's Deli and Restaurant","Madison","WI","53774",43.072576,-89.42972,"0","Restaurants, Mediterranean, Moroccan, Greek, Vegetarian, Middle Eastern"
"265",65378,"Pita Jungle","Mesa","AZ","85202",33.3935179,-111.8718101,"1","American (New), Vegetarian, Restaurants, Vegan, Mediterranean, Greek"
"266",35755,"Sunrise Kitchen","Stow","OH","44224",41.165096283,-81.4758834839,"1","Seafood, Vegetarian, Restaurants, Chinese"
"267",183150,"Feast of India","Calgary","AB","T2C 4X6",50.9895114,-113.9599143,"1","Vegetarian, Buffets, Indian, Restaurants"
"268",174308,"Rey Azteca","Pittsburgh","PA","15235",40.4659807,-79.8266764,"0","Restaurants, Mexican, Vegetarian"
"269",176089,"Cuisine of India","Parma Heights","OH","44130",41.3778401,-81.7837226,"1","Indian, Vegan, Halal, Restaurants, Vegetarian"
"270",174188,"Elevation Burger","Las Vegas","NV","89148",36.0958487754,-115.2968895435,"0","Vegetarian, Restaurants, Burgers"
"271",6530,"La Faim du Monde","Montréal","QC","H2W 2M5",45.5212004,-73.5768636,"0","Vegetarian, Vegan, Restaurants"
"272",99403,"Pita Jungle","Phoenix","AZ","85085",33.7152904084,-112.1133465939,"1","Restaurants, Mediterranean, Vegetarian, American (New)"
"273",181961,"Bombay Bites","Toronto","ON","M1H 2Y2",43.7675222,-79.2289379,"1","Restaurants, Vegetarian, Indian, Fast Food"
"274",139047,"b.good","Oakville","ON","L6M 4M2",43.4665119292,-79.7438201308,"0","Salad, Food, Gluten-Free, Burgers, Vegetarian, Restaurants, Juice Bars & Smoothies"
"275",156776,"Kupfert & Kim","Toronto","ON","M5X 1C7",43.6485583,-79.3817111,"1","Gluten-Free, Vegan, Restaurants, Vegetarian"
"276",54062,"Eat Fit Go Scottsdale","Schottsdale","AZ","85251",33.50185,-111.92794,"0","Food, Vegetarian, Restaurants, Breakfast & Brunch, Food Stands, Specialty Food, Vegan, Health Markets, Do-It-Yourself Food"
"277",98388,"La Casa de Juana","Mesa","AZ","85202",33.3934557,-111.8726946,"1","Vegetarian, Mexican, Restaurants, Seafood"
"278",72838,"Saravanaa Bhavan","Scarborough","ON","M1V 1V2",43.8092547,-79.2696046,"1","Restaurants, Indian, Vegetarian"
"279",153082,"Fifty One West","Tempe","AZ","85282",33.392511244,-111.9412457233,"0","Music Venues, Gluten-Free, Vegan, Food, Coffee & Tea, Restaurants, Nightlife, Arts & Entertainment, Vegetarian"
"280",109601,"Sweet Tomatoes","Scottsdale","AZ","85250",33.538186,-111.887991,"1","Restaurants, Vegetarian, Soup, Buffets, Salad"
"281",67607,"Ike's Love & Sandwiches","Mesa","AZ","85210",33.3905280312,-111.855760173,"1","Sandwiches, Restaurants, Vegan, Gluten-Free, Vegetarian"
"282",121184,"Crave Healthy Habits","Toronto","ON","M5K 1A1",43.6471768,-79.3815764,"1","Salad, Restaurants, Gluten-Free, Vegetarian"
"283",139950,"Glow","Montréal","QC","H2V 1K5",45.5216695,-73.6140214,"0","Vegetarian, Salad, Restaurants, Food, Juice Bars & Smoothies, Vegan, Gluten-Free"
"284",104752,"Bragg's Factory Diner","Phoenix","AZ","85007",33.4572256,-112.0898341,"0","Diners, Vegetarian, Restaurants, Vegan"
"285",65432,"Buddha Chay","Toronto","ON","M9N 2T2",43.7061677,-79.5051206,"1","Vietnamese, Vegetarian, Restaurants, Vegan"
"286",117218,"Udupi","Tempe","AZ","85281",33.4480887488,-111.9268833664,"1","Restaurants, Vegetarian, Pakistani, Vegan, Indian"
"287",57035,"Ma Ma Wok","Charlotte","NC","28277",35.048281,-80.8162572,"1","Restaurants, Chinese, Vegetarian, Vegan"
"288",131335,"Mixed Greens","Cleveland","OH","44113",41.4971659,-81.6940644,"1","Fast Food, Delis, Sandwiches, Salad, Specialty Food, Vegetarian, Restaurants, Fruits & Veggies, Food"
"289",46506,"Kwench Juice Cafe Phoenix","Phoenix","AZ","85004",33.4529203,-112.0688873,"1","Restaurants, Vegetarian, Juice Bars & Smoothies, Food, Vegan"
"290",11120,"D'Lite Healthy On The Go","Tempe","AZ","85281",33.4144553,-111.9207409,"0","Food, Vegetarian, Coffee & Tea, Restaurants, Fast Food, Juice Bars & Smoothies, Breakfast & Brunch, American (New)"
"291",13102,"Gagan Sweets","Vaughan","ON","L4K 5Y6",43.828134,-79.538466,"1","Food, Restaurants, Indian, Desserts, Vegetarian"
"292",186153,"Kensington Natural Bakery","Toronto","ON","M5S 1X8",43.66565,-79.4092064,"1","Bakeries, Desserts, Vegetarian, Food, Restaurants, Health Markets, Shopping, Specialty Food"
"293",25096,"Pita Pit","Mesa","AZ","85206",33.3828956,-111.7391875,"0","Fast Food, Mediterranean, Vegetarian, Greek, Restaurants, Sandwiches"
"294",138098,"Sadie's Diner & Juice Bar","Toronto","ON","M5V 1T5",43.6457876,-79.4007876,"0","Restaurants, Food, Diners, Vegetarian, Juice Bars & Smoothies, Breakfast & Brunch"
"295",45476,"Vital Life","Toronto","ON","M5T",43.6543636272,-79.3993415354,"0","Restaurants, Caribbean, Vegan, Vegetarian"
"296",113794,"White Gold Sweets","Mississauga","ON","L5L 5S6",43.5209208542,-79.6951675415,"1","Food, Vegetarian, Indian, Farmers Market, Grocery, Restaurants, Desserts"
"297",71082,"Free Times Cafe","Toronto","ON","M5T 1S3",43.657698,-79.4030342,"1","Restaurants, Kosher, Middle Eastern, Breakfast & Brunch, Vegetarian, Bars, Arts & Entertainment, Pubs, Event Planning & Services, Nightlife, Cafes"
"298",42867,"Juice NV","Las Vegas","NV","89123",36.016341616,-115.1171674579,"0","Restaurants, Vegan, Food, Vegetarian, Juice Bars & Smoothies"
"299",163744,"Leela's Roti & Doubles","Mississauga","ON","L5C 4L3",43.5777434993,-79.6619912502,"1","Halal, Vegetarian, Caribbean, Indian, Restaurants, Food"
"300",81116,"Tan Lac Vien","Pittsburgh","PA","15217",40.4331995,-79.9232519,"1","Vegetarian, Vietnamese, Restaurants, Food"
"301",137685,"Brar's -Bovaird","Brampton","ON","L6S 0C6",43.7606619018,-79.7245049246,"1","Fast Food, Restaurants, Vegetarian, Event Planning & Services, Indian, Caterers"
"302",90873,"The Nile Coffee Shop","Mesa","AZ","85201",33.4148619,-111.8344763,"1","Food, Restaurants, Vegan, Coffee & Tea, Vegetarian, Breakfast & Brunch"
"303",29627,"MVPita Mediterranean Grill","Mesa","AZ","85205",33.4357051523,-111.6849132255,"1","Falafel, Fast Food, Middle Eastern, Vegetarian, American (New), Nightlife, Restaurants, Lebanese, Mediterranean, Sandwiches, Beer Bar, Wine Bars, Bars"
"304",188787,"Sweet Tomatoes","Tempe","AZ","85282",33.393496,-111.914905,"1","American (New), Salad, Soup, Restaurants, Vegetarian, Buffets"
"305",185030,"Crudessence","Montréal","QC","H2T 2K8",45.524887,-73.5995936,"0","Vegetarian, Restaurants, Vegan"
"306",132770,"Metropolis","Scottsdale","AZ","85251",33.5074361578,-111.9285819395,"1","American (New), Cocktail Bars, Beer Bar, Vegetarian, American (Traditional), Nightlife, Bars, Restaurants"
"307",142604,"Punjabi By Nature","Brampton","ON","L6P 0B7",43.7705896805,-79.6600848621,"1","Indian, Restaurants, Buffets, Vegetarian"
"308",116844,"Carpe Diem Restaurant & Caterers","Charlotte","NC","28204",35.2140739,-80.826589,"1","American (New), Nightlife, Vegetarian, Bars, American (Traditional), Lounges, Event Planning & Services, Venues & Event Spaces, Caterers, Restaurants"
"309",78614,"The Protein Source","Las Vegas","NV","89147",36.1131106,-115.3060468,"1","Vegetarian, Juice Bars & Smoothies, Fast Food, Restaurants, American (New), Food"
"310",192320,"Potato Valley Cafe","Las Vegas","NV","89101",36.160555,-115.145874,"0","Delis, Vegetarian, Restaurants"
"311",32671,"Naturally Yours Health Food and Vegetarian Gourmet","Toronto","ON","M5X 1E2",43.6486362,-79.3817439,"1","Restaurants, Vegetarian, Specialty Food, Food"
"312",106737,"The Bodhi","Tempe","AZ","85281",33.4249386,-111.9346209,"1","Juice Bars & Smoothies, Food, Salad, American (New), Restaurants, Breakfast & Brunch, Vegetarian"
"313",95465,"Plaza Azteca","Pittsburgh","PA","15205",40.45648,-80.168472,"1","Restaurants, Vegetarian, Mexican, Seafood"
"314",26395,"Gandhi India's Cuisine","Las Vegas","NV","89169",36.1152085,-115.153111,"1","Vegetarian, Pakistani, Restaurants, Vegan, Indian"
"315",87021,"Paymon's Mediterranean Cafe & Lounge","Las Vegas","NV","89119",36.1137051,-115.1382774,"1","Vegetarian, Restaurants, Food, Grocery, Greek, Mediterranean"
"316",98873,"Meallionaire","Las Vegas","NV","89109",36.1635381,-115.1696012,"1","Food, Vegan, Event Planning & Services, Food Delivery Services, Vegetarian, Restaurants, Caterers, Home Services, Plumbing, Health & Medical, Specialty Food, Nutritionists"
"317",117236,"AAamazing Salad","Toronto","ON","M5T 3K7",43.6550092448,-79.3997564537,"1","Soup, Salad, Restaurants, Fast Food, Vegetarian, Sandwiches, Noodles"
"318",93982,"B.B.Ques","Toronto","ON","M5S 2H7",43.6632022,-79.4022766,"0","Barbeque, Caterers, Juice Bars & Smoothies, Restaurants, Food, Vegetarian, Event Planning & Services"
"319",161516,"Namastay Kitchen and Hangout","Charlotte","NC","28211",35.176496,-80.802224,"0","Sushi Bars, Vegan, American (New), Juice Bars & Smoothies, Restaurants, Nightlife, Vegetarian, Bars, Wine Bars, Food"
"320",44861,"Crux Comptoir","Montréal","QC","H2Y 2P4",45.502252,-73.5558862,"1","Restaurants, Juice Bars & Smoothies, Food, Vegetarian, Salad"
"321",102874,"Lunch Box","Toronto","ON","M6P 1B2",43.6546147834,-79.4594764709,"1","Breakfast & Brunch, Restaurants, Sandwiches, Vegetarian, Salad"
"322",44459,"Freshii","Toronto","ON","M5H 2M5",43.6515826514,-79.3828758179,"1","Restaurants, Vegetarian, Juice Bars & Smoothies, Food, Sandwiches"
"323",133440,"Bismillah Sweets","Mississauga","ON","L5V 2W1",43.6094809334,-79.6963443607,"1","Restaurants, Vegetarian, Pakistani, Indian"
"324",57561,"Atlas Bistro","Scottsdale","AZ","85257",33.475411,-111.925542,"1","Diners, Vegetarian, American (New), Restaurants, Tapas/Small Plates, Seafood"
"325",51506,"YAYA Leslieville","Toronto","ON","M4M 1L4",43.6629883529,-79.3318011357,"1","Gluten-Free, Vegetarian, Vegan, Breakfast & Brunch, Restaurants"
"326",70828,"Tree Huggers Cafe","Berea","OH","44017",41.3738834,-81.8918779,"0","Restaurants, American (New), Greek, Local Flavor, American (Traditional), Vegetarian, Mexican"
"327",55840,"The Garage Sandwich","Toronto","ON","M4Y 2C6",43.6655043,-79.3808235,"0","Sandwiches, Vegetarian, Restaurants"
"328",37192,"Moko Ramen Bar","Las Vegas","NV","89146",36.1595762338,-115.2330892995,"1","Food, Beer, Wine & Spirits, Asian Fusion, Tapas/Small Plates, Japanese, Ramen, Vegetarian, Tapas Bars, Restaurants, Korean"
"329",38894,"Tikka Boulevard","Ajax","ON","L1T 0J9",43.8979921997,-79.0284620264,"0","Indian, Halal, Vegetarian, Restaurants"
"330",111084,"Vegan Chef Mayra","Las Vegas","NV","89145",36.1683449,-115.2659777,"1","Business Consulting, Professional Services, Local Flavor, Vegan, Vegetarian, Food, Education, Restaurants, Bakeries, Food Delivery Services, Event Planning & Services, Personal Chefs"
"331",135674,"Smoke's Poutinerie","Toronto","ON","M5S 1X8",43.6655504,-79.4097604,"1","Specialty Food, Food, Vegetarian, American (Traditional), Restaurants"
"332",47047,"Wow Wow Lemonade Scottsdale","Scottsdale","AZ","85254",33.6251688107,-111.9418963055,"1","Acai Bowls, Food, Live/Raw Food, Juice Bars & Smoothies, Coffee & Tea, Vegetarian, Kombucha, Restaurants, Breakfast & Brunch"
"333",160617,"Go!ku","Las Vegas","NV","89102",36.126900851,-115.1978033442,"0","Specialty Food, Noodles, Asian Fusion, Ramen, Shaved Ice, Sushi Bars, Food, Restaurants, Health & Medical, Japanese, Vegetarian"
"334",132257,"Maizal","Toronto","ON","M6K 3E4",43.6388977,-79.4218429,"1","Vegetarian, Restaurants, Mexican, Latin American"
"335",76069,"Origine Bistro","Montréal","QC","H2L 2E2",45.509606,-73.550767,"0","Sandwiches, Restaurants, Nightlife, Vegetarian, Bars"
"336",167802,"Grace","Toronto","ON","M6G 1A5",43.6558082,-79.4099046,"0","Canadian (New), American (New), Restaurants, Vegetarian"
"337",101865,"Copper Branch","Brossard","QC","J4Y 0N5",45.4397180579,-73.4426284817,"1","Vegan, Gluten-Free, Restaurants, Vegetarian"
"338",39900,"Essentiellement Sol","Montréal","QC","H1V 1X3",45.54969,-73.5345589,"1","Imported Food, Ethnic Food, Restaurants, Organic Stores, Sandwiches, Vegetarian, Food, Specialty Food"
"339",165682,"Earth Inspired Salads","Pittsburgh","PA","15219",40.4414818,-79.9965325,"1","Gluten-Free, Restaurants, Salad, Sandwiches, Vegetarian, Soup"
"340",188367,"Masala Bhavan","Calgary","AB","T3E 3C9",51.0130118841,-114.1401257646,"1","Vegetarian, Restaurants, Chinese, Hakka, Bars, Nightlife, Pakistani, Indian, Sri Lankan"
"341",189918,"Oliver's Sophisticated Bean","Phoenix","AZ","85004",33.4584453,-112.0694742,"0","Coffee & Tea, Organic Stores, Beer, Wine & Spirits, Cafes, Vegan, Food, Restaurants, Vegetarian"
"342",59697,"Antidote","Montréal","QC","H1W 1R4",45.5438876,-73.5458327,"1","Juice Bars & Smoothies, Restaurants, Vegan, Delicatessen, Vegetarian, Grocery, Food"
"343",113763,"Origin","Toronto","ON","M5C 1G6",43.6500317,-79.3738002,"0","Vegetarian, Restaurants, Tapas/Small Plates, Asian Fusion"
"344",161357,"Le Barbare","Montréal","QC","H2J 2L3",45.52485,-73.585356,"0","Bars, Pubs, Nightlife, Vegetarian, Restaurants, Burgers"
"345",162333,"Graceful Vegetarian Restaurant","Toronto","ON","M1V 4S5",43.824392,-79.302543,"1","Specialty Food, Food, Dim Sum, Cantonese, Gluten-Free, Vegetarian, Ethnic Food, Restaurants, Chinese, Imported Food"
"346",132068,"Veggie House","Las Vegas","NV","89146",36.125569,-115.210911,"1","Chinese, Restaurants, Vegetarian, Specialty Food, Food, Vegan"
"347",10212,"Pastries N Chaat","Phoenix","AZ","85085",33.7122821,-112.1019899,"0","Food, Restaurants, Indian, Halal, Bakeries, Vegetarian"
"348",146533,"Petit Marché Végé","Montréal","QC","H2S 2S5",45.5380651001,-73.6136631316,"1","Vietnamese, Restaurants, Vegan, Vegetarian"
"349",188622,"Tenon Vegetarian Cuisine","Markham","ON","L3R",43.8600193,-79.3035075,"1","Vegetarian, Restaurants, Sushi Bars, Japanese, Vegan"
"350",55838,"La Tasse Gamine","Montréal","QC","H2V",45.5228744,-73.6040245,"0","Food, Event Planning & Services, Vegetarian, Restaurants, Venues & Event Spaces, Coffee & Tea"
"351",8407,"Lipstick & Dynamite","Toronto","ON","M6J 1H1",43.6444125,-79.4183518,"1","Restaurants, Bars, Nightlife, Dive Bars, Cocktail Bars, Vegetarian"
"352",100009,"Mellow Mushroom","Phoenix","AZ","85085",33.7134545,-112.1138931,"1","Nightlife, Bars, Sandwiches, Pizza, Restaurants, Vegan, Vegetarian"
"353",151347,"Finestre Modern Gastronomy","Phoenix","AZ","85018",33.4946342,-112.0036064,"1","Vegetarian, Restaurants, American (New), Modern European"
"354",142925,"24 Hour Tattoo","Chandler","AZ","85225",33.3201926744,-111.8420337558,"1","Restaurants, Food, Tattoo, Beauty & Spas, Barbers, Shopping, Arts & Entertainment, Pawn Shops, Art Galleries, Vegetarian, Piercing, Street Vendors"
"355",186436,"Cous Cous Mediterranean Cafe","Las Vegas","NV","89101",36.169639,-115.141065,"1","Mediterranean, Cafes, Coffee & Tea, Restaurants, Food, Vegetarian, Sandwiches, Burgers, Gluten-Free, Halal"
"356",153702,"Ironworks Cafe","Madison","WI","53704",43.097086,-89.3436886,"0","Sandwiches, American (New), Coffee & Tea, Vegetarian, Food, Breakfast & Brunch, Cafes, Restaurants"
"357",85683,"Kalpataru Dosa Hub","Brampton","ON","L6Y 0L8",43.6443642,-79.7564164,"1","Vegetarian, Vegan, Indian, Restaurants"
"358",25987,"Las Vegas Mela - Indian Food and Cultural Festival","Las Vegas","NV","89155",36.165905,-115.1534146,"1","Restaurants, Indian, Food Stands, Arts & Entertainment, Cultural Center, Festivals, Vegetarian"
"359",55354,"P F  Chang's","Toronto","ON","M3C 0H1",43.733719,-79.344753,"0","Chinese, Asian Fusion, Restaurants, Food, Vegetarian"
"360",33892,"Taco Box","Montréal","QC","H3C",45.4989847835,-73.552311487,"1","Vegetarian, Restaurants, Street Vendors, Food"
"361",124000,"Bacho Pita","Montréal","QC","H2Y 1C7",45.5097496,-73.5526844,"1","Restaurants, Lebanese, Mediterranean, Middle Eastern, Sandwiches, Salad, Vegetarian"
"362",135396,"Ashley's","Montréal","QC","H4A 1X7",45.4685744,-73.6191328,"1","Vegan, Restaurants, Vegetarian"
"363",104191,"Le Taj","Montréal","QC","H3A 1R7",45.501105,-73.5766574,"1","Vegan, Pakistani, Restaurants, Indian, Middle Eastern, Vegetarian"
"364",177006,"Veganos Kitchen","Las Vegas","NV","89130",36.2161409,-115.213356,"1","Vegan, Vegetarian, Restaurants, Mexican, New Mexican Cuisine"
"365",106221,"Pita Jungle","Chandler","AZ","85224",33.3194631349,-111.8742864129,"1","Restaurants, Mediterranean, Nightlife, Greek, Vegetarian, Bars, Middle Eastern, American (New), Vegan"
"366",173286,"Cafe Koi","Calgary","AB","T2R 1J2",51.0428379116,-114.0658939332,"1","Canadian (New), Music Venues, Vegan, Arts & Entertainment, American (New), Restaurants, Nightlife, Vegetarian, Asian Fusion"
"367",37343,"Capriotti's Sandwich Shop","North Las Vegas","NV","89030",36.2410201396,-115.0967420426,"1","Salad, Sandwiches, Restaurants, Vegetarian"
"368",175840,"D-Beatstro","Toronto","ON","M6H 1N9",43.6586005,-79.4421299,"0","Vegan, Vegetarian, Restaurants, Cafes"
"369",185759,"24 Carrots Juice Bar & Cafe","Chandler","AZ","85226",33.3059385,-111.9471779,"0","Vegetarian, Live/Raw Food, Restaurants, Food, Juice Bars & Smoothies, Vegan"
"370",68914,"Meet","Calgary","AB","T2T 0A2",51.0379907,-114.083239,"0","Restaurants, Vegetarian"
"371",2035,"Mick & Shirley's Catering and Cafe","Akron","OH","44320",41.0543369,-81.581282,"1","Comfort Food, Vegetarian, Soul Food, American (New), Restaurants, Barbeque, Event Planning & Services, Caterers, Sandwiches"
"372",115455,"Panacea","Las Vegas","NV","89145",36.1643423,-115.2897778,"0","Juice Bars & Smoothies, Restaurants, Fruits & Veggies, Vegetarian, Vegan, Specialty Food, Coffee & Tea, Food"
"373",88615,"Copper Branch","Laval","QC","H7T 1C8",45.5708221624,-73.7539422703,"1","Gluten-Free, Vegan, Breakfast & Brunch, Restaurants, Vegetarian"
"374",115116,"Rajdhani Sweets","Brampton","ON","L6R 3J5",43.75144,-79.7386292,"1","Restaurants, Indian, Vegetarian"
"375",63406,"Aladdin's Eatery","Canonsburg","PA","15317",40.2658781,-80.1294919,"1","American (New), Mediterranean, Restaurants, Pizza, Vegetarian, Middle Eastern, Vegan, Desserts, Food"
"376",108267,"Pita Jungle","Phoenix","AZ","85044",33.3172434,-111.9765164,"1","Vegetarian, American (New), Restaurants, Mediterranean"
"377",173367,"San Francisco Stir Fry","Mentor","OH","44060",41.673026,-81.339399,"1","Asian Fusion, Restaurants, Vegetarian, Gluten-Free"
"378",183367,"Simple Ingredients","Pittsburgh","PA","15222",40.4426104418,-79.9994991189,"0","Salad, Vegetarian, Soup, Restaurants, Food, Juice Bars & Smoothies"
"379",179988,"Ufficio","Toronto","ON","M6J 3B1",43.6494871,-79.4230537,"1","Vegetarian, Restaurants, Cocktail Bars, Nightlife, Bars, Seafood"
"380",118574,"Roly Poly","Charlotte","NC","28203",35.202646,-80.844436,"0","Vegetarian, Restaurants, Delis, Sandwiches"
"381",45466,"P F Chang's","Montréal","QC","H4P 2T7",45.492872,-73.656347,"1","Restaurants, Chinese, Asian Fusion, Gluten-Free, Vegetarian"
"382",104349,"Fire & Ice","Markham","ON","L3R 9S1",43.8491073,-79.3612909,"0","Buffets, Asian Fusion, Restaurants, Vegetarian"
"383",188587,"Royal Biryani","Charlotte","NC","28270",35.140798,-80.740587,"1","Restaurants, Himalayan/Nepalese, Indian, Vegan, Kebab, Vegetarian, Pakistani, Halal"
"384",120836,"Sweet Tomatoes Express","Henderson","NV","89052",36.0004729,-115.1055811,"0","Soup, Vegetarian, Buffets, Food, Restaurants, Salad"
"385",93198,"Sweet Tomatoes","Phoenix","AZ","85021",33.5779313,-112.1161484,"1","Vegetarian, Salad, Soup, Restaurants, Buffets"
"386",147148,"Chipotle Mexican Grill","Las Vegas","NV","89106",36.1638289,-115.1568419,"1","Fast Food, Restaurants, Mexican, Salad, Vegetarian"
"387",160603,"Komol Restaurant","Las Vegas","NV","89104",36.1424875212,-115.1425948144,"1","Thai, Vegetarian, Restaurants, Vegan"
"388",129277,"Fresh Sandwich Shop","Aurora","ON","L4G 1N2",43.9894554124,-79.4657356163,"0","Bakeries, Food, Vegetarian, Salad, Sandwiches, Vegan, Restaurants"
"389",16027,"Aachi South Indian Kitchen","Tempe","AZ","85284",33.349118,-111.944979,"0","Indian, Buffets, Restaurants, Vegetarian, Seafood, Soup"
"390",35977,"Aladdin's Eatery","Chagrin Falls","OH","44023",41.4133681,-81.3372501,"1","Restaurants, Mediterranean, Middle Eastern, Vegetarian"
"391",6638,"Vege-Way","Las Vegas","NV","89139",36.0477312436,-115.2249039347,"1","Fast Food, Burgers, Sandwiches, Vegetarian, Restaurants, Vegan"
"392",111208,"M & B Yummy","Toronto","ON","M6K 1L5",43.6417069,-79.4312362,"0","Restaurants, Vegan, Food, Ethiopian, Vegetarian"
"393",138919,"Sweet Tomatoes Field Kitchen","Tempe","AZ","85282",33.3931044,-111.9149789,"0","Buffets, Restaurants, Vegetarian, Salad, Soup"
"394",75713,"Health Binge","Las Vegas","NV","89118",36.063224,-115.2237981,"0","Food, Juice Bars & Smoothies, Restaurants, Tacos, Vegan, Active Life, Vegetarian, Gluten-Free, Wraps, Mexican, American (New)"
"395",64830,"Senwell Vegetarian Cuisine","Markham","ON","L3T 7P6",43.8420875,-79.3859893,"0","Thai, Vegetarian, Restaurants, Malaysian"
"396",107577,"Krazy Fish","Charlotte","NC","28205",35.219612,-80.8,"1","Asian Fusion, Seafood, Breakfast & Brunch, Restaurants, Vegetarian"
"397",19615,"Chopt Creative Salad Co.","Charlotte","NC","28277",35.0351417159,-80.8077110079,"1","Salad, Restaurants, Vegetarian"
"398",188127,"J's Pizza Market","Mentor","OH","44060",41.6688304,-81.3404472,"1","Restaurants, Gluten-Free, Pizza, Vegetarian"
"399",187464,"Freshii","Calgary","AB","T2T 2Y9",51.0376353,-114.0814921,"1","Food, Ice Cream & Frozen Yogurt, Restaurants, Breakfast & Brunch, Vegetarian, Juice Bars & Smoothies, Salad, Gluten-Free"
"400",166246,"The Goods","Toronto","ON","M6R 2M3",43.6465869014,-79.4490116419,"1","Juice Bars & Smoothies, Fruits & Veggies, Salad, Organic Stores, Food, Vegan, Health Markets, Specialty Food, Restaurants, Vegetarian, Soup, Live/Raw Food"
"401",189584,"Fabarnak Community Cafe and Catering","Toronto","ON","M4Y 2C9",43.6665099,-79.3810045,"1","Restaurants, American (New), Cafes, Soup, Vegetarian, Canadian (New), Sandwiches, Caterers, Event Planning & Services"
"402",138405,"Foodchain","Montréal","QC","H3B 4J8",45.5015898,-73.5708549,"1","Vegan, Restaurants, Vegetarian, Fast Food"
"403",26077,"Dev's Urban Cabana","Calgary","AB","T2R 0J3",51.0413065,-114.0813729,"0","Restaurants, Asian Fusion, Vegetarian, Indian, Specialty Food, Food, Ethnic Food"
"404",134860,"East End Food Co-Op","Pittsburgh","PA","15208",40.4481991,-79.8954753,"1","Restaurants, Food, Specialty Food, Vegetarian, Health Markets"
"405",168124,"Monsoon","Charlotte","NC","28209",35.199336,-80.8668329,"0","Vegetarian, Thai, Restaurants"
"406",65012,"Hartwood Restaurant & Whispers Pub","Glenshaw","PA","15116",40.5545417,-79.9185952,"1","Gluten-Free, Venues & Event Spaces, Event Planning & Services, Restaurants, Nightlife, Vegetarian, American (New), Pubs, Bars"
"407",113138,"Abay Ethiopian Cuisine","Pittsburgh","PA","15206",40.460212,-79.925355,"0","Ethiopian, Vegetarian, Restaurants, Vegan"
"408",66395,"Sweet Tomatoes","Las Vegas","NV","89108",36.1972325,-115.2404624,"1","Soup, American (Traditional), Buffets, Vegetarian, Restaurants, Salad"
"409",153194,"Capriotti's Sandwich Shop","Las Vegas","NV","89107",36.1596340292,-115.2327210716,"1","Restaurants, Vegetarian, Salad, Sandwiches"
"410",40583,"Revitasize","Vaughan","ON","L4J 3N1",43.8065643271,-79.4726373848,"1","Health Markets, Juice Bars & Smoothies, Restaurants, Food, Vegan, Vegetarian, Specialty Food, Organic Stores, Acai Bowls"
"411",183172,"Thai By The Park","Toronto","ON","M6P 1A6",43.655252,-79.456726,"1","Vegan, Thai, Restaurants, Vegetarian"
"412",158410,"Pita Jungle","Phoenix","AZ","85003",33.459014,-112.077468,"1","Vegan, American (New), Restaurants, Mediterranean, Greek, Vegetarian"
"413",85350,"Ping Pong Thai Restaurant","Las Vegas","NV","89120",36.0711402559,-115.1106205908,"1","Vegan, Restaurants, Vegetarian, Thai"
"414",9714,"Farm & Craft","Phoenix","AZ","85014",33.5177994,-112.0654413,"1","American (New), Restaurants, Bars, Juice Bars & Smoothies, Food, Salad, Nightlife, Breakfast & Brunch, Vegetarian, Cocktail Bars"
"415",45681,"Buddha's Veggie Restaurant","Calgary","AB","T2H 0J8",51.0023884,-114.0713189,"1","Restaurants, Specialty Food, Chinese, Food, Vegetarian, Ethnic Food"
"416",31922,"In Season Deli","Tempe","AZ","85281",33.4259647,-111.9402513,"0","Restaurants, Vegetarian, Delis"
"417",68670,"Go Raw Cafe","Las Vegas","NV","89117",36.1385383,-115.2844243,"0","Bookstores, Vegan, Shopping, Restaurants, Vegetarian, Specialty Food, Books, Mags, Music & Video, Juice Bars & Smoothies, Health Markets, Food"
"418",32867,"The Mount Everest","Ajax","ON","L1S 6L9",43.8543716,-79.0559305,"1","Indian, Event Planning & Services, Restaurants, Pakistani, Vegetarian, Caterers, Middle Eastern, Seafood"
"419",13500,"Curry Leaf Flavors of India","Las Vegas","NV","89148",36.0979515,-115.2977879,"1","Desserts, Food, Beer, Wine & Spirits, Vegetarian, Indian, Vegan, Bars, Restaurants, Nightlife"
"420",35913,"Tabule Restaurant","Toronto","ON","M4S 1Z8",43.700983,-79.396863,"1","Vegan, Vegetarian, Middle Eastern, Restaurants"
"421",179346,"Rancho Relaxo To Go","Toronto","ON","M5T 1R9",43.657976,-79.401749,"0","Food Trucks, Restaurants, Food, Mexican, Vegetarian, Vegan"
"422",9342,"M4 Burritos","Montréal","QC","H2X 3K4",45.5158478,-73.5650554,"1","Fast Food, Mexican, Restaurants, Vegetarian"
"423",15537,"CoreLife Eatery","Strongsville","OH","44136",41.3123884653,-81.8256465003,"1","Vegetarian, Food, American (New), Specialty Food, Restaurants, Salad"
"424",99832,"Niko's Sandwich Board","Akron","OH","44313",41.1142998,-81.5779365,"1","Food, Sandwiches, Internet Cafes, Restaurants, Vegetarian, Delis, Greek"
"425",36718,"Grass Roots Juice Bar","Las Vegas","NV","89101",36.167937,-115.140467,"0","Food, Vegan, Education, Ice Cream & Frozen Yogurt, Juice Bars & Smoothies, Restaurants, Vegetarian"
"426",32213,"D'vine Diner","Calgary","AB","T2V 1K2",50.9848325,-114.0831414,"0","Comfort Food, Diners, Steakhouses, Vegetarian, Restaurants, American (Traditional), Breakfast & Brunch"
"427",156465,"Janani","Montréal","QC","H3W 2S9",45.4953579,-73.6402061,"1","Restaurants, Halal, Vegetarian, Indian"
"428",101974,"Soma Express","Phoenix","AZ","85018",33.5097283,-111.9952353,"0","Restaurants, Sandwiches, Juice Bars & Smoothies, Vegetarian, Food"
"429",123195,"Luxe Kitchen & Lounge","Cleveland","OH","44102",41.4836507,-81.7309664,"1","Vegetarian, Italian, American (New), Restaurants, Tapas Bars, Bars, Lounges, Mediterranean, Vegan, Nightlife"
"430",39246,"Y2 Cafe","Charlotte","NC","28211",35.176399,-80.802262,"0","Sushi Bars, Restaurants, Vegetarian"
"431",43372,"Bandung Indonesian Restaurant","Madison","WI","53703",43.076604,-89.3745656,"1","Seafood, Indonesian, Asian Fusion, Thai, Restaurants, Vegetarian"
"432",162091,"Veggie Paradise","Mississauga","ON","L4W 1S4",43.6577115,-79.6394732,"1","Vegan, Restaurants, Vegetarian"
"433",1501,"Fresh On Bloor","Toronto","ON","M5S 1W5",43.6669209,-79.403466,"1","Vegan, Vegetarian, Restaurants"
"434",117292,"Terrene","Pittsburgh","PA","15219",40.4339083,-80.0043233,"1","Gluten-Free, Fast Food, Vegetarian, Restaurants"
"435",107408,"Ori'Zaba's Scratch Mexican Grill","Las Vegas","NV","89147",36.1147404,-115.3062183,"1","Restaurants, Gluten-Free, Mexican, Vegetarian"
"436",37577,"Turtle Jack's Muskoka Grill","Mississauga","ON","L5N 4B7",43.5805424,-79.7597793,"0","Sports Bars, Bars, Vegetarian, Canadian (New), Restaurants, American (Traditional), Nightlife"
"437",23157,"Truly India","Toronto","ON","M4B 2T1",43.708466,-79.310248,"1","Vegetarian, Restaurants, Indian"
"438",87028,"A 1 Sweets Restaurant","Scarborough","ON","M1V 5J6",43.8206785,-79.2618972,"1","Desserts, Restaurants, Indian, Food, Vegetarian"
"439",41792,"Genghis Grill","Tempe","AZ","85281",33.4324571,-111.9023035,"1","Vegetarian, Restaurants, Buffets, Mongolian, Asian Fusion, Korean, Food, Thai, Chinese, Vegan"
"440",141974,"Rumbi Island Grill","Scottsdale","AZ","85260",33.6369667,-111.9222616,"0","Restaurants, Hawaiian, Vegetarian"
"441",31941,"Thai Basil - Ahwatukee","Phoenix","AZ","85048",33.3049017,-111.9924447,"1","Asian Fusion, Restaurants, Thai, Vegetarian"
"442",88359,"D-lite's","Thornhill","ON","L4J 5K2",43.80458,-79.437904,"1","Kosher, Asian Fusion, Sushi Bars, Restaurants, Vegetarian"
"443",128435,"The Melting Pot - Fairview Park","Fairview Park","OH","44126",41.4613978,-81.8498051,"0","Salad, Cocktail Bars, Gluten-Free, Bars, Vegetarian, Fondue, Nightlife, Wine Bars, Restaurants"
"444",172020,"Wild Child's Kitchen","Toronto","ON","M6K 3C3",43.6330505,-79.4225675,"1","Restaurants, Food, Vegetarian, Juice Bars & Smoothies"
"445",186065,"Ike's Love & Sandwiches","Phoenix","AZ","85004",33.4579187,-112.069341,"1","Restaurants, Sandwiches, Gluten-Free, Vegetarian, Vegan"
"446",18984,"Sunrise Coffee","Las Vegas","NV","89120",36.0719274658,-115.1070339563,"1","Coffee Roasteries, Vegan, Restaurants, Tea Rooms, Vegetarian, Bakeries, Food, Coffee & Tea"
"447",166008,"Bistro 9101","Pittsburgh","PA","15237",40.5719693,-80.0369749,"1","American (New), Breakfast & Brunch, Vegetarian, Seafood, Event Planning & Services, Venues & Event Spaces, Restaurants"
"448",8341,"Mad Radish","Toronto","ON","M4P 2C6",43.7075928,-79.3982562,"1","Food, Salad, Vegan, Juice Bars & Smoothies, Vegetarian, Restaurants"
"449",49342,"Burritoville","Montréal","QC","H3G 2E8",45.4977003,-73.5785383,"0","Restaurants, Vegetarian, Mexican"
"450",109013,"Royal Kabab Hut","Charlotte","NC","28227",35.2001351,-80.7256529,"0","Vegetarian, Restaurants, Indian, Pakistani"
"451",125897,"Olay's Thai Express","Las Vegas","NV","89120",36.0794322,-115.1016447,"0","Laotian, Vegetarian, Restaurants, Thai"
"452",171556,"OTB At the Boathouse","Allison Park","PA","15101",40.6046132195,-80.007391423,"1","American (Traditional), Restaurants, Sandwiches, Vegetarian, American (New)"
"453",46417,"Urban Eatery at the Eaton Centre","Toronto","ON","M5B 2L7",43.6557636173,-79.3811774254,"1","Vegetarian, Restaurants, Burgers, Food, Fast Food"
"454",93343,"Copper Branch","Dollard-Des-Ormeaux","QC","H9B 1Z8",45.4849993,-73.7963564,"1","Restaurants, Vegan, Juice Bars & Smoothies, Vegetarian, Food, Breakfast & Brunch, Gluten-Free"
"455",21940,"Tina's Ethiopian Cafe","Chandler","AZ","85225",33.3364903,-111.8387863,"1","Restaurants, African, Ethiopian, Vegetarian"
"456",167567,"Living Kitchen","Charlotte","NC","28211",35.1505395,-80.8286961,"0","Vegetarian, Food, Restaurants, Juice Bars & Smoothies, Organic Stores, Breakfast & Brunch, Vegan"
"457",28334,"Café Veritas","Montréal","QC","H2Y 3Y7",45.5055629,-73.555343,"0","Vegan, Sandwiches, Food, Cafes, Vegetarian, Restaurants, Coffee & Tea"
"458",118214,"Yard House","Phoenix","AZ","85050",33.6762340435,-111.9711772712,"1","American (Traditional), Asian Fusion, Bars, Steakhouses, Restaurants, Vegetarian, Beer Bar, Seafood, American (New), Cocktail Bars, Wine Bars, Nightlife"
"459",107871,"Pho Vistro","Toronto","ON","M5V 1Z4",43.6501281,-79.389043,"1","Restaurants, Soup, Breakfast & Brunch, Vietnamese, Vegetarian, Asian Fusion, Noodles, Vegan, Juice Bars & Smoothies, Food"
"460",101859,"Flipp'n Burgers","Calgary","AB","T2N 1V8",51.0551759376,-114.0857511386,"1","Vegetarian, Restaurants, Comfort Food, Burgers, Halal"
"461",99520,"Crave Healthy Habits","Toronto","ON","M5H",43.6499286,-79.3832479,"1","Vegetarian, Restaurants, Food, Health Markets, Specialty Food, Salad, Gluten-Free"
"462",182205,"Olly Fresco's","Montréal","QC","H3B 1B7",45.5035416,-73.5694342,"1","Food, Grocery, Vegan, Seafood Markets, Restaurants, Specialty Food, Vegetarian"
"463",28772,"Freshii","Toronto","ON","M3B 1Y2",43.7542187,-79.3514066,"1","Vegetarian, Restaurants"
"464",42406,"Ro House","Toronto","ON","M6P 1Z7",43.6656119764,-79.4717070088,"1","Gluten-Free, Do-It-Yourself Food, Restaurants, Food, Vietnamese, Vegetarian"
"465",67632,"Island Pot","Mississauga","ON","L5A 4E4",43.5819682,-79.6185932,"0","Caribbean, Restaurants, Barbeque, Vegetarian"
"466",142020,"Indian Curry House","Las Vegas","NV","89146",36.1256933,-115.2112778,"0","Indian, Pakistani, Halal, Himalayan/Nepalese, Vegetarian, Vegan, Restaurants"
"467",5934,"Spirit Organic Cafe","Gilbert","AZ","85233",33.3372062,-111.8084353,"1","Specialty Food, Fitness & Instruction, Vegetarian, Food, Coffee & Tea, Health & Medical, Nutritionists, Breakfast & Brunch, Juice Bars & Smoothies, Health Markets, Vegan, Live/Raw Food, Trainers, Organic Stores, Active Life, Restaurants"
"468",12282,"Showtime Bistro","Toronto","ON","M1X 0A4",43.8213424,-79.2463043,"1","Fast Food, Halal, American (Traditional), Burgers, Poutineries, Restaurants, Sandwiches, Vegetarian, Steakhouses"
"469",89384,"Arepera","Montréal","QC","H2X 1B4",45.5147831155,-73.5720007059,"1","Vegetarian, Gluten-Free, Restaurants, Venezuelan, Latin American, Vegan"
"470",37717,"Mildred's Temple Kitchen","Toronto","ON","M6K 3S3",43.6399108749,-79.4204235077,"1","Venues & Event Spaces, Event Planning & Services, Comfort Food, Breakfast & Brunch, American (New), Restaurants, Vegetarian, Canadian (New)"
"471",20469,"Blu Burger Grille","Scottsdale","AZ","85266",33.780022,-111.925077,"1","Fish & Chips, Restaurants, Fast Food, Sandwiches, American (Traditional), Cocktail Bars, Bars, Vegetarian, Burgers, Nightlife, Hot Dogs"
"472",55667,"MAD Greens - Arrowhead","Peoria","AZ","85382",33.6377457698,-112.2198969126,"1","Restaurants, Vegetarian, Sandwiches, Juice Bars & Smoothies, Food, Salad, Wraps"
"473",166452,"Get Real Cafe","Toronto","ON","M6J 2Z6",43.6471904,-79.4199315,"0","Vegetarian, Vegan, Restaurants, Breakfast & Brunch"
"474",84260,"Mika's Greek","Scottsdale","AZ","85257",33.4633886,-111.9270953,"1","Greek, Vegetarian, Restaurants, Salad, Mediterranean"
"475",117107,"Chuch","Montréal","QC","H2W 2M5",45.5209434,-73.5767114,"1","Thai, Restaurants, Vegetarian"
"476",60154,"The Uprooted Kitchen","Gilbert","AZ","85296",33.3216632,-111.7262523,"1","Specialty Food, Organic Stores, Food, Local Flavor, Food Trucks, Fruits & Veggies, Vegan, Restaurants, Street Vendors, Vegetarian"
"477",117933,"Pizza Five85","Scottsdale","AZ","85257",33.4792293,-111.9257952,"0","Vegetarian, Italian, Restaurants, Pizza"
"478",22769,"Aladdin's Eatery","Pittsburgh","PA","15217",40.4378199,-79.9199427,"1","Vegan, Juice Bars & Smoothies, Food, Mediterranean, Nightlife, Bars, Soup, Restaurants, Vegetarian, Middle Eastern"
"479",120627,"Yard House","Las Vegas","NV","89135",36.1567959455,-115.3343868256,"1","Food, American (Traditional), Vegetarian, Nightlife, Beer Bar, American (New), Wine Bars, Restaurants, Cocktail Bars, Asian Fusion, Beer, Wine & Spirits, Seafood, Bars, Steakhouses"
"480",171076,"L'Gros Luxe Plateau","Montréal","QC","H2L 1A5",45.5215356836,-73.5754337451,"1","Restaurants, Cocktail Bars, Vegan, Canadian (New), Diners, Bars, Vegetarian, Nightlife, Breakfast & Brunch, Burgers, Sandwiches"
"481",64776,"L'Escalier","Montréal","QC","H2L 2E1",45.5150322,-73.5590538,"1","Music Venues, Cabaret, Restaurants, Vegetarian, Arts & Entertainment, Nightlife"
"482",29231,"MAD Greens - North Scottsdale","Scottsdale","AZ","85254",33.6175304,-111.9262592,"1","Salad, Cafes, Wraps, Juice Bars & Smoothies, Sandwiches, Food, Vegetarian, Restaurants"
"483",137433,"Pho Da Son","Montréal","QC","H1Z 2E5",45.56511,-73.609516,"1","Vietnamese, Restaurants, Vegetarian"
"484",23582,"b.good","Toronto","ON","M5A 1E1",43.649817,-79.3711727,"1","Gluten-Free, Fast Food, Juice Bars & Smoothies, Vegetarian, Restaurants, Burgers, Salad, Food"
"485",50362,"A1 Sweets & Restaurant","Oakville","ON","L6H 6N9",43.483749,-79.713028,"1","Desserts, Caterers, Event Planning & Services, Food, Restaurants, Indian, Vegetarian"
"486",142254,"Village of India","Brampton","ON","L6W 3E7",43.6870865,-79.7367014,"1","Vegetarian, Restaurants, Indian"
"487",180347,"Rachel's Kitchen","Las Vegas","NV","89136",36.080972,-115.135804,"1","Juice Bars & Smoothies, American (Traditional), Comfort Food, Food, Cafes, Vegetarian, Restaurants, American (New)"
"488",116280,"Tinh Tam Trai","Vaughan","ON","L4K 5Y5",43.827523194,-79.5401382209,"1","Vegetarian, Vietnamese, Vegan, Restaurants"
"489",140688,"Tastybox","Phoenix","AZ","85006",33.4554106,-112.0648466,"1","Vegan, Food, Restaurants, American (New), Vegetarian"
"490",63671,"Raw Aura","Mississauga","ON","L5G 1E3",43.5534272,-79.5841138,"1","Event Planning & Services, Restaurants, Vegan, Vegetarian, Caterers"
"491",158887,"Surge Delivery Cafe","Madison","WI","53704",43.0922657,-89.3539868,"0","Breakfast & Brunch, Sandwiches, Vegetarian, Diners, Cafes, Restaurants"
"492",76130,"Ghazale Restaurant","Toronto","ON","M5S 1Y3",43.6651843899,-79.4107031822,"1","Salad, Food Delivery Services, Vegetarian, Juice Bars & Smoothies, Sandwiches, Specialty Food, Food, Restaurants, Middle Eastern"
"493",79830,"Copper Branch","Pointe-Claire","QC","H9R 4Y2",45.4683817,-73.8289929,"1","Vegan, Vegetarian, Restaurants, Fast Food, Gluten-Free"
"494",187346,"Flaming Ice Cube","Cleveland","OH","44114",41.499241,-81.692709,"0","Vegan, Vegetarian, Restaurants"
"495",117243,"Munch","Solon","OH","44139",41.4235764,-81.4774021,"1","Restaurants, Vegetarian, Vegan, Sandwiches, Mediterranean"
"496",138102,"Spak Brothers Pizza and More","Pittsburgh","PA","15224",40.4650793,-79.9424916,"1","Vegan, Sandwiches, Vegetarian, Restaurants, Pizza, Salad"
"497",179873,"The Grow Op","Toronto","ON","M6J 2Z9",43.6492472841,-79.4207748771,"1","Salad, Vegetarian, Restaurants, Juice Bars & Smoothies, Food"
"498",12279,"Simply Pure by Chef Stacey Dougan","Las Vegas","NV","89101",36.1679035,-115.138142,"1","Vegan, Restaurants, Vegetarian"
"499",3724,"Lowdown Cafe","Phoenix","AZ","85016",33.4874299,-112.0297828,"0","Restaurants, Sandwiches, Vegetarian"
"500",42083,"Tin Front Cafe","Homestead","PA","15120",40.4072651,-79.9101652,"0","Bars, Coffee & Tea, Restaurants, Nightlife, Vegan, Vegetarian, American (New), Food"
"501",105344,"Kupfert & Kim","Toronto","ON","M5J 2N8",43.6414118932,-79.3777328454,"1","Gluten-Free, Vegan, Restaurants, Vegetarian"
"502",169860,"Camros Organic Eatery","Toronto","ON","M4Y 2P2",43.6695258,-79.3855113,"0","Shopping, Gluten-Free, Specialty Food, Food, Vegetarian, Buffets, Health Markets, Persian/Iranian, Restaurants, Vegan"
"503",63757,"Loving Hut","Pittsburgh","PA","15277",40.4459734242,-80.1582661486,"0","Vietnamese, Vegan, Restaurants, Vegetarian"
"504",57227,"Hafez Persian Cousine","Las Vegas","NV","89145",36.171313,-115.245475,"1","Middle Eastern, Mediterranean, Restaurants, Persian/Iranian, Vegetarian"
"505",25879,"Fubar","Toronto","ON","M6G 1LM",43.6633580757,-79.4185703357,"1","Vegetarian, Vegan, Nightlife, Beer Bar, Restaurants, Bars"
"506",165425,"MAD Greens - Phoenix","Phoenix","AZ","85007",33.4653221791,-112.0823469879,"1","Wraps, Restaurants, Salad, Sandwiches, Vegetarian, Juice Bars & Smoothies, Food"
"507",191221,"Pita Jungle","Tempe","AZ","85281",33.4152240101,-111.9178978785,"0","Mediterranean, Vegetarian, American (New), Restaurants, Greek, Vegan"
"508",58422,"Copper Branch","Toronto","ON","M5L 1E2",43.6481326,-79.3795089,"1","Breakfast & Brunch, Vegan, Restaurants, Gluten-Free, Vegetarian"
"509",42387,"That's a Wrap","Phoenix","AZ","85014",33.5095,-112.063826,"0","Vegetarian, Vegan, Beer, Wine & Spirits, Restaurants, Sandwiches, Food"
"510",50931,"Rawlicious","Toronto","ON","M6S 1M8",43.6522588,-79.4722672,"0","Food, Restaurants, Live/Raw Food, Vegan, Desserts, Vegetarian"
"511",150784,"Garden Grill","Las Vegas","NV","89145",36.1667834,-115.2861968,"1","Restaurants, Farmers Market, Street Vendors, Mexican, Vegan, Food, Tacos, Vegetarian"
"512",115408,"Cafe 8","Mesa","AZ","85206",33.3920951,-111.7181478,"1","Desserts, Gluten-Free, Breakfast & Brunch, Restaurants, Food, Sandwiches, Vegetarian, Mediterranean, Vegan"
"513",108939,"The Green Owl Cafe","Madison","WI","53704",43.0922759,-89.355528,"1","Cafes, Restaurants, Diners, Vegan, Vegetarian"
"514",172260,"The Social Gardener","Toronto","ON","M4L 1Z1",43.6716439,-79.3253848,"1","Food, Restaurants, Coffee & Tea, Vegetarian, Vegan, Cafes, Farmers Market"
"515",167917,"Quidleys Delight","Charlotte","NC","28262",35.3146025,-80.7024203,"1","Restaurants, Seafood, Caribbean, Comfort Food, Vegetarian, Soup, Breakfast & Brunch"
"516",36888,"Kitchen 28","Plum","PA","15239",40.4625581,-79.7066262,"0","Vegetarian, Soul Food, Restaurants, Indian"
"517",61921,"Casablanca Kabab House","Champaign","IL","61820",40.1102799,-88.2298014,"0","Restaurants, Vegetarian, Middle Eastern, Food, Ethnic Food, Indian, Moroccan, Specialty Food"
"518",10675,"Le Billot","Montréal","QC","H2L 1A5",45.5213551,-73.5753911,"1","Middle Eastern, Asian Fusion, Vegetarian, Restaurants"
"519",137219,"Earth Bistro Cafe","Cleveland","OH","44102",41.4863845,-81.7626989,"1","Food, Vegetarian, Breakfast & Brunch, Restaurants, Cuban, Vegan, Juice Bars & Smoothies"
"520",184912,"The Tasty Touch","Phoenix","AZ","85032",33.6382915146,-111.9811101912,"1","Vegetarian, Restaurants, Gluten-Free, Indian"
"521",127994,"Capriotti's Sandwich Shop","Las Vegas","NV","89102",36.1441292,-115.1614606,"1","Restaurants, Sandwiches, Vegetarian"
"522",169737,"Vegetarian Food Festival","Toronto","ON","M5J 2G8",43.6390687,-79.382896,"1","Arts & Entertainment, Restaurants, Festivals, Vegetarian, Vegan"
"523",112912,"Ruchi Vegetarian South Indian Cuisine","Chandler","AZ","85224",33.334688,-111.877793,"1","Restaurants, Vegetarian, Indian, Vegan"
"524",106225,"Aahara Foods","Markham","ON","L3S 0B6",43.8493570793,-79.2528812397,"0","Vegetarian, Indian, Halal, Mediterranean, Restaurants"
"525",18517,"Karine's","Toronto","ON","M5T 3K5",43.654152,-79.391194,"1","Vegan, Vegetarian, Restaurants, Breakfast & Brunch"
"526",189736,"b.good","Toronto","ON","M5C 1C4",43.649505,-79.3774609,"1","Fast Food, Food, Burgers, Juice Bars & Smoothies, Vegetarian, Restaurants"
"527",173237,"Africana Bbq Curries Drinks","Calgary","AB","T2E 6T1",51.0882152,-114.0523647,"1","Indian, Restaurants, African, Vegetarian, Pakistani"
"528",188925,"Shalimar Restaurant","Las Vegas","NV","89103",36.117707,-115.209897,"1","Restaurants, Indian, Pakistani, Food, Vegetarian"
"529",37862,"Kung Fu Thai & Chinese Restaurant","Las Vegas","NV","89103",36.126175,-115.19047,"1","Restaurants, Chinese, Thai, Vegetarian"
"530",99008,"Saffron Patch in the Valley","Akron","OH","44313",41.1360863,-81.5533299,"1","Vegetarian, Halal, Indian, Restaurants"
"531",124278,"Modern  Grove","Phoenix","AZ","85032",33.6274599302,-111.9784555706,"0","American (New), Burgers, Beer, Wine & Spirits, Vegetarian, Breakfast & Brunch, Restaurants, Comfort Food, Food"
"532",13295,"Smooth Eats","Las Vegas","NV","89101",36.167893793,-115.1402384607,"1","Food, Specialty Food, Health Markets, Juice Bars & Smoothies, Vegetarian, Comfort Food, Restaurants, Sandwiches"
"533",87138,"Pizzaiolo","Toronto","ON","M5S 2J2",43.6666378801,-79.4044644985,"1","Gluten-Free, Vegetarian, Restaurants, Vegan, Pizza"
"534",63234,"Souper Market","Lakewood","OH","44107",41.4849316,-81.800013,"1","American (Traditional), Restaurants, Soup, Vegetarian"
"535",128879,"Munch Vegetarian Kitchen","Cleveland","OH","44106",41.5102982,-81.6087214,"0","Restaurants, Vegetarian"
"536",137,"Pushap","Montréal","QC","H4P 1P4",45.4975343,-73.6538838,"1","Indian, Restaurants, Vegetarian"
"537",88688,"Cafe Krishna","Chandler","AZ","85226",33.304861,-111.927065,"0","Vegetarian, Restaurants, Indian, Desserts, Food"
"538",20656,"PF Chang's","Laval","QC","H7T 1C7",45.5721514292,-73.7542209393,"1","Chinese, Vegetarian, Asian Fusion, Restaurants, Gluten-Free"
"539",78486,"YC's Mongolian Grill","Chandler","AZ","85286",33.2788302,-111.7904534,"1","Restaurants, Asian Fusion, Vegan, Chinese, Specialty Food, Mongolian, Food, Buffets, Ethnic Food, Vegetarian"
"540",189773,"Hummus Factory Canada","Thornhill","ON","L4J 3W1",43.7989882,-79.4463191,"0","Restaurants, Kosher, Vegetarian, Vegan, Mediterranean"
"541",184224,"Sage Kitchen","Phoenix","AZ","85016",33.5065137,-112.0388443,"0","Restaurants, Spiritual Shop, Coffee & Tea, Gluten-Free, Vegetarian, Vegan, Health Markets, Food, Shopping, Specialty Food, Delicatessen, Health & Medical"
"542",28624,"Pita Jungle","Scottsdale","AZ","85260",33.6211397477,-111.8757538409,"1","Vegetarian, Restaurants, Mediterranean, American (New)"
"543",120914,"E L Ruddy Co Cafe","Toronto","ON","M6J 1Y3",43.649445,-79.427766,"1","Coffee & Tea, Gluten-Free, Nightlife, Bars, Vegan, Vegetarian, Food, Restaurants"
"544",181073,"Mestizo","Davidson","NC","28036",35.4997324,-80.8485255,"1","Mexican, Restaurants, Vegetarian"
"545",22314,"Pho 72","Markham","ON","L3S 0A2",43.8547149,-79.2575368,"1","Restaurants, Thai, Vegetarian, Vietnamese"
"546",91779,"Fresh","Toronto","ON","M5E 1B3",43.6477534,-79.3742742,"1","Restaurants, Vegan, Vegetarian"
"547",69242,"El Cactus Veggie Vegan","Henderson","NV","89015",36.0335025,-114.9856516,"0","Vegetarian, Restaurants, Tex-Mex, Vegan, Mexican"
"548",166870,"Natural Blendz","Charlotte","NC","28270",35.1355636796,-80.7380024615,"0","Food, Soup, Vegetarian, Cafes, Restaurants, Juice Bars & Smoothies, Sandwiches"
"549",175041,"MAD Greens - Northeast Scottsdale","Scottsdale","AZ","85260",33.6200266,-111.876887,"1","Restaurants, Food, Wraps, Juice Bars & Smoothies, Soup, Vegetarian, Salad, Sandwiches"
"550",166099,"That's A Wrap","Phoenix","AZ","85006",33.4701393,-112.0654347,"0","Vegetarian, Restaurants, Sandwiches"
"551",161264,"Nēche Restaurant & Ultra Lounge","Las Vegas","NV","89119",36.0679611785,-115.1780364019,"0","Lounges, Bars, Restaurants, Vegetarian, Nightlife, Fast Food, Vegan, American (Traditional)"
"552",82838,"Joe Yee Vegetarian Cuisine","Richmond Hill","ON","L4B 4C4",43.8767732868,-79.3892043545,"0","Japanese, Restaurants, Vegetarian"
"553",137897,"The Shuka Shak","Phoenix","AZ","85014",33.5080653,-112.065452,"1","Kosher, Pizza, Restaurants, Vegetarian, Breakfast & Brunch"
"554",181911,"Pita Jungle","Tempe","AZ","85281",33.422192,-111.939615,"1","American (New), Restaurants, Mediterranean, Vegetarian"
"555",104123,"Basil Thai Cuisine","Charlotte","NC","28202",35.2288861,-80.8426659,"1","Seafood, Taiwanese, Vegetarian, Thai, Restaurants"
"556",88150,"Forequarter","Madison","WI","53703",43.0822764,-89.3796112,"1","Beer Bar, Bars, Nightlife, Caterers, Restaurants, Event Planning & Services, American (New), Breakfast & Brunch, Vegetarian, Vegan"
"557",84012,"Copper Branch","Montreal","QC","H3Z 1X5",45.489145,-73.585604,"1","Restaurants, Gluten-Free, Breakfast & Brunch, Organic Stores, Vegan, Food, Fast Food, Vegetarian"
"558",159585,"Food de Toi","Montréal","QC","H4A 1H1",45.471529,-73.626887,"1","Specialty Food, Vegan, Gluten-Free, Restaurants, Food, Juice Bars & Smoothies, Health Markets, Vegetarian"
"559",119505,"Dosa Rama","Scarborough","ON","M1X 0B7",43.8243767,-79.2474937,"1","Indian, Vegetarian, Pakistani, Restaurants"
"560",159621,"Sweet Tomatoes","Phoenix","AZ","85050",33.6769879109,-111.9762262207,"1","Vegetarian, Restaurants, Soup, Buffets, Salad"
"561",167684,"L'Gros Luxe","Montréal","QC","H2L 3V9",45.5218599,-73.5702641,"0","Vegan, Vegetarian, Restaurants"
"562",58759,"Zoup!","Westlake","OH","44145",41.460959,-81.953802,"1","Soup, Sandwiches, Restaurants, Salad, Vegetarian"
"563",99353,"Buddha's Vegetarian Foods","Toronto","ON","M5T 1H9",43.6519184,-79.4033756,"1","Vegetarian, Vegan, Restaurants, Chinese"
"564",181487,"Mozart","Montréal","QC","H3X 1T9",45.4831726,-73.6298132,"1","Kosher, Vegetarian, Mediterranean, Restaurants"
"565",12729,"Vientiane Palace Restaurant","Madison","WI","53703",43.0755119,-89.3903706,"1","Restaurants, Thai, Vegan, Vietnamese, Vegetarian, Asian Fusion"
"566",43838,"Thoroughbred Food & Drink","Toronto","ON","M5V 3M6",43.6490436,-79.3915268,"1","Nightlife, Canadian (New), Vegetarian, Bars, Restaurants"
"567",108775,"Alternative Junkie","Las Vegas","NV","89123",36.0166766781,-115.1182260431,"0","Food Stands, Vegan, Vegetarian, Organic Stores, Street Vendors, Food, Restaurants"
"568",182339,"Emperor's Palace","Cleveland","OH","44114",41.508385,-81.678449,"1","Chinese, Dim Sum, Cantonese, Restaurants, Vegetarian"
"569",85751,"Hopscotch","Toronto","ON","M5H 3Y2",43.648842,-79.379996,"1","Food, Restaurants, Salad, Vegetarian, Vegan, Juice Bars & Smoothies, Coffee & Tea"
"570",109448,"KB","Whitby","ON","L1N 4H2",43.8803171,-78.9424631,"1","Nightlife, Canadian (New), Wine Bars, Gluten-Free, Local Flavor, Bars, Restaurants, Diners, Gastropubs, Vegetarian"
"571",175364,"Paymon's Mediterranean Cafe & Lounge","Las Vegas","NV","89123",36.0265420632,-115.119278355,"1","Nightlife, Mediterranean, Bars, Restaurants, Vegetarian, Hookah Bars, Greek"
"572",41213,"Salads UP","Madison","WI","53703",43.0744997298,-89.3956347777,"1","Soup, Salad, Restaurants, Juice Bars & Smoothies, Food, Vegetarian"
"573",44148,"Chennai Express","Tempe","AZ","85281",33.4212886,-111.9246995,"1","Indian, Restaurants, Vegetarian"
"574",38807,"Istanbul Grill","Cleveland","OH","44113",41.477946,-81.682566,"0","Mediterranean, Turkish, Restaurants, Vegetarian, Halal"
"575",31122,"Grasshopper Restaurant","Toronto","ON","M6P 1Z8",43.6656129465,-79.4724570215,"1","Vegetarian, Vegan, Restaurants, Salad"
"576",143142,"Le Plezl","Montréal","QC","H3A 1W7",45.5025275,-73.5774881,"1","Kosher, Salad, Vegetarian, Pizza, Sandwiches, Mediterranean, Restaurants"
"577",17779,"Brar's-Trinity Common","Brampton","ON","L6R 2K7",43.7299559,-79.7653087,"1","Event Planning & Services, Restaurants, Fast Food, Buffets, Vegetarian, Caterers, Indian"
"578",78933,"24 Carrots Juice Bar & Cafe","Tempe","AZ","85283",33.363419,-111.9130587,"1","Cafes, Food, Breakfast & Brunch, Gluten-Free, Restaurants, Vegan, Vegetarian, Juice Bars & Smoothies"
"579",98191,"Le Commensal","Montréal","QC","H3B 4J8",45.5017129574,-73.5710178145,"0","Vegetarian, Restaurants"
"580",182632,"Callaloo Café and Bar","Cleveland","OH","44110",41.5712621726,-81.5717786059,"1","Bars, Nightlife, Vegetarian, Trinidadian, Caribbean, Restaurants"
"581",137810,"India Palace","Phoenix","AZ","85053",33.638853,-112.123114,"1","Restaurants, Indian, Pakistani, Buffets, Vegetarian"
"582",183021,"Juice Bar","Charlotte","NC","28209",35.1732693,-80.8477808,"1","Gluten-Free, Food, Vegetarian, Live/Raw Food, Salad, Juice Bars & Smoothies, Restaurants"
"583",55312,"Zoma Ethiopian Restaurant","Cleveland Heights","OH","44118",41.4984947,-81.5654675,"1","Gluten-Free, Vegetarian, African, Vegan, Seafood, Restaurants, Ethiopian"
"584",65979,"Grabbagreen Bell","Phoenix","AZ","85032",33.638604,-111.978331,"1","Food, Juice Bars & Smoothies, Breakfast & Brunch, Restaurants, Gluten-Free, Vegetarian"
"585",115749,"Freshii","Toronto","ON","M4Y 1H5",43.6656556,-79.3806099,"1","Restaurants, Sandwiches, Vegetarian"
"586",185252,"The Big Carrot","Toronto","ON","M4K 1N8",43.677573,-79.3527601,"1","Restaurants, Juice Bars & Smoothies, Food, Shopping, Specialty Food, Grocery, Vegetarian, Health Markets"
"587",6411,"Cafe Sababa","Champaign","IL","61820",40.1087243,-88.2315754,"1","Pizza, Restaurants, Kosher, Vegetarian"
"588",110077,"Nonya","Montréal","QC","H2T 2K3",45.5254798,-73.6040783,"1","Restaurants, Indonesian, Tapas/Small Plates, Vegetarian, Seafood, Vegan"
"589",131665,"Café O'marguerites","Sainte-Marguerite-du-Lac-Masson","QC","J0T 1L0",46.031176771,-74.0575075597,"1","Vegetarian, Cafes, Sandwiches, Soup, Restaurants, Food, Bakeries"
"590",87757,"YC's Mongolian Grill","Scottsdale","AZ","85256",33.5404748854,-111.8852450311,"1","Gluten-Free, Mongolian, Asian Fusion, Chinese, Vegan, Vegetarian, Restaurants"
"591",63314,"Woodlands Vegetarian South Indian Kitchen","Chandler","AZ","85226",33.3216596996,-111.9277120136,"1","Indian, Vegetarian, Pakistani, Restaurants"
"592",54032,"Veg-In YYC","Calgary","AB","T2G 0G4",51.047396,-114.059111,"1","Cafes, Restaurants, Vegan, Vegetarian"
"593",155614,"Cornish Pasty Co","Scottsdale","AZ","85251",33.492423,-111.930734,"1","Nightlife, Vegetarian, Restaurants, British, Bars, Pubs"
"594",163334,"Mojo's Coffee and More","Bay Village","OH","44140",41.4785882,-81.9213891,"1","Coffee & Tea, Vegetarian, Restaurants, Desserts, Food, Sandwiches, Breakfast & Brunch"
"595",187163,"Soda Bun Thai Food","Mesa","AZ","85210",33.3653600592,-111.8606037893,"1","Food Delivery Services, Food, Thai, Vegetarian, Restaurants, Salad, Soup"
"596",178552,"Green Lotus Vegetarian","Mesa","AZ","85201",33.413244,-111.8735797,"0","Restaurants, Thai, Vietnamese, Vegetarian"
"597",134770,"The Dancing Dog Eatery & Juicery","Urbana","IL","61801",40.1127199,-88.2085029,"1","Vegetarian, Restaurants, Juice Bars & Smoothies, Sandwiches, Mexican, Tacos, Food, Kosher, Vegan, Desserts"
"598",84927,"Sa-Bai Thong Thai Cuisine","Madison","WI","53719",43.0572311,-89.500154,"1","Vegetarian, Thai, Restaurants"
"599",102855,"Freshii","Madison","WI","53719",43.0595488731,-89.502216687,"0","Restaurants, Food, Vegetarian, Juice Bars & Smoothies, Salad"
"600",152981,"Falafel Manie","Laval","QC","H7P 4W6",45.5575186,-73.7666498,"1","Mediterranean, Falafel, Restaurants, Vegetarian"
"601",61466,"The Chopped Leaf","Calgary","AB","T2C 5E1",50.9631022984,-114.0093820484,"1","Sandwiches, Salad, Fast Food, Soup, Vegetarian, Restaurants"
"602",143232,"b.good","Toronto","ON","M5V 2B6",43.6475329,-79.4010388,"1","Burgers, Salad, Restaurants, Vegetarian, Gluten-Free"
"603",120503,"Grabbagreen Charlotte Ballantyne","Charlotte","NC","28277",35.0683915,-80.8419739,"1","Restaurants, Gluten-Free, Specialty Food, Juice Bars & Smoothies, Food, Fast Food, Vegetarian"
"604",106491,"Yalla Mediterranean Grill","Henderson","NV","89052",35.993777,-115.101582,"0","Food, Vegetarian, Mediterranean, Middle Eastern, Restaurants, Greek"
"605",150993,"Nush","Tempe","AZ","85281",33.4249966771,-111.9350826196,"0","American (New), Persian/Iranian, Restaurants, Vegetarian, Food, Mediterranean, Modern European, Middle Eastern, Beer, Wine & Spirits"
"606",158153,"Bombay Street Food","Toronto","ON","M5S 1Z7",43.661837693,-79.3862882182,"1","Vegetarian, Halal, Restaurants, Salad, Indian"
"607",1028,"Lili Cafe","Pittsburgh","PA","15219",40.4574418,-79.9658899,"0","Coffee & Tea, Cafes, Vegetarian, Breakfast & Brunch, Restaurants, Food"
"608",62397,"Spark Espresso and Fresh Bar","Toronto","ON","M6G 3T8",43.66228,-79.4255755,"1","Tapas Bars, Cocktail Bars, Vegetarian, Food, Nightlife, Coffee & Tea, Bars, Salad, Restaurants, Cafes, Tapas/Small Plates, Juice Bars & Smoothies"
"609",14545,"SS106 Aperitivo Bar","Calgary","AB","T2E 3J6",51.0592309,-114.0541527,"1","Cocktail Bars, Italian, Bars, Vegetarian, Nightlife, Restaurants, Wine Bars, Cafes"
"610",13139,"Local Jonny's","Cave Creek","AZ","85331",33.832767,-111.950032,"1","Breakfast & Brunch, Bars, Nightlife, Vegetarian, Cafes, Pubs, Coffee & Tea, Restaurants, American (New), Food, Beer Bar, Burgers"
"611",176950,"Villa Restaurant","Toronto","ON","M6S 1P1",43.6506363,-79.4786412,"0","Vegetarian, Gluten-Free, Italian, Restaurants, Shopping, Antiques"
"612",64640,"Kinnaree Thai and Vegetarian","Las Vegas","NV","89117",36.1430817,-115.2536257,"0","Restaurants, Food, Vegetarian, Thai"
"613",41958,"Pita Jungle","Phoenix","AZ","85014",33.5168445918,-112.0643675738,"1","Restaurants, Tapas/Small Plates, Mediterranean, Vegetarian"
"614",39109,"Market Eatery","Bedford Heights","OH","44146",41.419167,-81.526734,"1","Vegan, Food, Vegetarian, Restaurants, Juice Bars & Smoothies"
"615",36580,"Grabbagreen","Scottsdale","AZ","85260",33.6281331589,-111.8918254381,"1","Vegetarian, Mediterranean, Food, Juice Bars & Smoothies, Gluten-Free, Asian Fusion, Health Markets, Specialty Food, Breakfast & Brunch, Restaurants, Acai Bowls"
"616",17253,"La Santisima","Phoenix","AZ","85006",33.469201,-112.0473809,"1","Vegetarian, New Mexican Cuisine, Cafes, Restaurants, Mexican, Bars, Breakfast & Brunch, Tacos, Vegan, Seafood, Nightlife, Tex-Mex"
"617",5526,"Spinach Urban Bistro","Pittsburgh","PA","15232",40.451138,-79.934616,"0","Cafes, Restaurants, Vegan, Organic Stores, American (New), Vegetarian, Gluten-Free, Food"
"618",32166,"Sukhothai Restaurant","Madison","WI","53711",43.0676088,-89.4106872,"0","Restaurants, Thai, Vegetarian"
"619",83254,"Tres Potrillos","Beachwood","OH","44122",41.465043,-81.497114,"1","Salad, Vegetarian, Tacos, Restaurants, Mexican, Bars, Cocktail Bars, Nightlife"
"620",63790,"Greens and Proteins","North Las Vegas","NV","89084",36.2725443,-115.206099,"1","Sandwiches, Burgers, Juice Bars & Smoothies, Pizza, American (New), Restaurants, Food, Vegetarian"
"621",62217,"Café Lalibela","Tempe","AZ","85281",33.4213360711,-111.9516148853,"1","Food, Beer, Wine & Spirits, Gluten-Free, Vegan, Ethiopian, African, Restaurants, Vegetarian"
"622",816,"Thai Kitchen","Lakewood","OH","44107",41.4770696,-81.7743871,"1","Thai, Gluten-Free, Vegetarian, Vegan, Restaurants"
"623",15761,"VeggiEAT Xpress","Henderson","NV","89014",36.0551158,-115.0455333,"1","Restaurants, Vegetarian, Bubble Tea, Vegan, Food"
"624",185424,"Aladdin's Eatery","Pittsburgh","PA","15228",40.3818982582,-80.0442885177,"1","Vegetarian, Mediterranean, Restaurants, Vegan, Specialty Food, Middle Eastern, Food, Ethnic Food"
"625",43851,"Mustard Seed Market & Cafe","Akron","OH","44303",41.138337,-81.638676,"1","Health Markets, Organic Stores, Specialty Food, Restaurants, Food, Buffets, Cafes, Vegetarian"
"626",168307,"Freshii","Toronto","ON","M8X 2X4",43.6454271,-79.5224469,"1","Salad, Vegetarian, Restaurants, Vegan"
"627",144483,"Pita Jungle","Glendale","AZ","85308",33.6398836,-112.220984,"1","Mediterranean, American (New), Greek, Restaurants, Vegan, Vegetarian"
"628",169507,"The Buddhist Vegetarian Kitchen","Toronto","ON","M1V 4W8",43.8064407,-79.2894648,"1","Restaurants, Vegetarian"
"629",59192,"Udipi Indian Cuisine","Charlotte","NC","28263",35.22711,-80.84351,"0","Vegetarian, Restaurants, Indian, Pakistani"
"630",24276,"North of Bombay","Toronto","ON","M6P 1Z3",43.6655769,-79.4693212,"1","Vegan, Indian, Vegetarian, Restaurants"
"631",187959,"Cool Beans Taco Truck","Pittsburgh","PA","15212",40.45657,-80.001484,"1","Vegetarian, Food Trucks, Mexican, Local Flavor, Sandwiches, Food, Vegan, Tacos, Restaurants"
"632",163841,"Zen Gardens","Mississauga","ON","L5W 1Z3",43.6430518,-79.7082653,"1","Vegan, Sushi Bars, Chinese, Dim Sum, Restaurants, Vegetarian"
"633",94909,"Huntridge Pharmacy","Las Vegas","NV","89104",36.158183,-115.137781,"1","Pharmacy, Bars, Diners, Restaurants, Health & Medical, Shopping, Vegetarian, Food, Doctors, Drugstores, Nightlife"
"634",48308,"Iss' Magic Mixes","Mesa","AZ","85202",33.3629331508,-111.87532436,"0","Restaurants, Vegetarian, Farmers Market, Food, Breakfast & Brunch, Internet Cafes, Vegan, Health Markets, Specialty Food"
"635",152092,"Switchin' Kitchens","Charlotte","NC","28277",35.0394091,-80.79371,"1","Food, Vegetarian, Restaurants, American (Traditional), Desserts"
"636",89615,"King Tandoori","Brampton","ON","L6W 3K7",43.6861770903,-79.7378824247,"1","Vegetarian, Indian, Restaurants"
"637",74443,"Chima Steakhouse","Charlotte","NC","28202",35.226268,-80.843786,"1","Venues & Event Spaces, Vegetarian, Buffets, Restaurants, Event Planning & Services, Brazilian, Nightlife, Bars, Steakhouses, Cocktail Bars"
"638",134439,"Bombay Spice Grill","Phoenix","AZ","85028",33.5839404,-111.9787698,"0","Gluten-Free, Pakistani, Restaurants, Vegetarian, Indian"
"639",44524,"Eat By Stacey Weber","Phoenix","AZ","85028",33.5831802,-111.9786115,"1","Specialty Food, Restaurants, Gluten-Free, Vegan, Food, Vegetarian, Health Markets, Caterers, Event Planning & Services, Organic Stores"
"640",12386,"Queen Sheba Bar & Restaurant","Charlotte","NC","28205",35.211281,-80.7625338,"1","Restaurants, Vegetarian, Ethiopian, Caribbean, Hookah Bars, Nightlife, Bars"
"641",114735,"Eats Italian","Las Vegas","NV","89109",36.1221292471,-115.1696676295,"1","Food, Vegetarian, Italian, Restaurants"
"642",153714,"LOV de la Montagne","Montréal","QC","H3G 1Z1",45.4973726,-73.5745699,"1","Bistros, Restaurants, Vegan, Breakfast & Brunch, Gluten-Free, Vegetarian"
"643",53681,"Green New American Vegetarian","Phoenix","AZ","85004",33.47014,-112.065474,"1","Restaurants, Vegetarian, Vegan"
"644",10090,"Pure Pizza","Charlotte","NC","28205",35.2201453759,-80.8072895722,"1","Restaurants, Breakfast & Brunch, Pizza, Gluten-Free, Vegetarian, Salad"
"645",54256,"SaVeg","Calgary","AB","T2R 0E1",51.0424132,-114.0762541,"1","Korean, Vegan, Vegetarian, Restaurants"
"646",126808,"King's Vegetarian Food","Toronto","ON","M1S 1T8",43.7867543,-79.270045,"1","Vegetarian, Restaurants, Vegan, Food"
"647",41567,"Happy Veggie House","Calgary","AB","T2G 2B9",51.0502225,-114.0627436,"1","Taiwanese, Vegetarian, Restaurants, Chinese, Fast Food, Vegan"
"648",133904,"Zeta's Grill","Avondale","AZ","85392",33.4794135232,-112.3390910595,"1","Middle Eastern, Food, Mediterranean, Restaurants, Lebanese, Specialty Food, Ethnic Food, Vegetarian"
"649",114871,"Jason's Deli","Gilbert","AZ","85233",33.3785554248,-111.8088562759,"1","Sandwiches, Salad, Restaurants, Caterers, Event Planning & Services, Vegetarian, Delis"
"650",2258,"Chef Kennys Asian Vegan Restaurant","Las Vegas","NV","89146",36.1269461,-115.2410542,"1","Restaurants, Vegetarian, Sushi Bars, Vegan, Chinese"
"651",179504,"Délicieux","Montréal","QC","H2V 4H1",45.523171,-73.605007,"1","Restaurants, Vegan, Breakfast & Brunch, Vegetarian"
"652",125254,"La Lumiere du Mile End","Montréal","QC","H2T 2K4",45.524638,-73.604421,"1","Vegan, Vegetarian, Restaurants"
"653",20320,"Tasty Kabob","Tempe","AZ","85281",33.4155418,-111.9183888,"1","Vegetarian, Middle Eastern, Indian, Restaurants, Persian/Iranian"
"654",119130,"My Healthy Meal","Las Vegas","NV","89135",36.160552,-115.318872,"0","Restaurants, American (New), Vegan, Food, Vegetarian"
"655",165918,"Bhai's Indian Canteen","Richmond Hill","ON","L4B 3B4",43.8470893822,-79.3782470196,"1","Restaurants, Vegan, Indian, Vegetarian"
"656",159912,"Yard House","Westlake","OH","44145",41.4611317195,-81.9515731776,"1","Restaurants, Nightlife, Vegetarian, Bars, American (New)"
"657",110058,"The Memory Thai","Las Vegas","NV","89121",36.1292179,-115.0875123,"1","Restaurants, Soup, Noodles, Seafood, Thai, Food, Vegetarian, Food Delivery Services, Asian Fusion"
"658",41470,"Chez José","Montréal","QC","H2W 1H4",45.5187285,-73.5778979,"1","Desserts, Breakfast & Brunch, Sandwiches, Cafes, Portuguese, Food, Bakeries, Soul Food, Restaurants, Vegetarian, Vegan"
"659",136574,"Yupha's Thai Kitchen","Tempe","AZ","85284",33.3478604381,-111.9095867334,"1","Restaurants, Thai, Vegetarian"
"660",44591,"Joyride Taco House","Phoenix","AZ","85012",33.513075,-112.0739693,"1","Food, Restaurants, Vegetarian, Mexican, Tacos"
"661",23537,"Café Juicy Lotus","Montréal","QC","H4A 1C9",45.475799,-73.62225,"1","Vegetarian, Food, Salad, Restaurants, Organic Stores, Vegan"
"662",99793,"Water Garden Cafe","Cleveland","OH","44102",41.4725574,-81.7370225,"1","American (Traditional), Vegetarian, Vegan, Restaurants, Cafes"
"663",82473,"Veggie Planet","Mississauga","ON","L5T1Y7",43.6731807,-79.6757568,"1","Vegetarian, Pizza, Indian, Restaurants, Vegan, Burgers"
"664",60626,"Kabab Je Rotisserie and Grille","Charlotte","NC","28277",35.0611103,-80.817254,"1","Food, Salad, Vegetarian, Sandwiches, Mediterranean, Desserts, Restaurants, Middle Eastern"
"665",13795,"Freshii Rutherford Marketplace","Vaughan","ON","L6A 1S2",43.8496415,-79.4599289,"1","Juice Bars & Smoothies, Vegetarian, Restaurants, Food"
"666",12346,"Madras Cafe","Charlotte","NC","28269",35.3424757,-80.7706758,"1","Restaurants, Indian, Vegetarian, Vegan, Buffets"
"667",97595,"Mela Cafe","Toronto","ON","M4W 1L1",43.6717844,-79.3881704,"0","Vegetarian, Restaurants, Cafes, Italian"
"668",100501,"Grabbagreen","Scottsdale","AZ","85260",33.584306,-111.922392,"0","Food, Vegetarian, Juice Bars & Smoothies, Asian Fusion, Breakfast & Brunch, Restaurants, Vegan"
"669",2630,"Espace Pépin Maison","Montréal","QC","H2Y 2A6",45.5006058093,-73.5566988048,"1","Home Decor, Vegetarian, Shopping, Home & Garden, Restaurants"
"670",160781,"Chicago Gyros","Phoenix","AZ","85018",33.4948197,-111.9798208,"1","Middle Eastern, Greek, Vegetarian, Restaurants, Mediterranean"
"671",146558,"Harvest Kitchen","Toronto","ON","M5S 1G8",43.662723,-79.4043569,"1","Local Flavor, Restaurants, Salad, Coffee & Tea, Comfort Food, Italian, Gastropubs, Nightlife, Breakfast & Brunch, Food, Vegetarian, Diners, Burgers, Bars, Coffee Roasteries, Juice Bars & Smoothies, Canadian (New)"
"672",176488,"Mika's Greek","Tempe","AZ","85284",33.3495575156,-111.9497974589,"1","Restaurants, Greek, Mediterranean, Vegetarian"
"673",29928,"Saffron Patch","Beachwood","OH","44122",41.4638308,-81.5343715,"1","Indian, Vegetarian, Buffets, Restaurants"
"674",24488,"O'Bol","Montréal","QC","H5A 1K6",45.4999204,-73.5654861,"0","Vegetarian, Vegan, Food Stands, Restaurants, Fast Food"
"675",3793,"Long Life Vege Restaurant","Las Vegas","NV","89121",36.1143211,-115.0918871,"0","Vegan, Restaurants, Chinese, Vegetarian"
"676",102182,"Annapurna Indian Restaurant","Parma","OH","44129",41.3633557299,-81.7353438959,"1","Indian, Vegetarian, Restaurants"
"677",8687,"Alternative Junkie","Las Vegas","NV","89145",36.1683449,-115.2659777,"0","Food Stands, Vegetarian, Vegan, Street Vendors, Restaurants, Personal Chefs, Food Delivery Services, Organic Stores, Food, Event Planning & Services"
"678",149587,"Vivalia Bistro Express","Montréal","QC","H2Y 1T7",45.502488,-73.558276,"1","Sandwiches, Vegan, Gluten-Free, Organic Stores, Restaurants, Food, Vegetarian, Juice Bars & Smoothies, International"
"679",164506,"Ghazale","Toronto","ON","M4Y 1H2",43.6658919,-79.3801537,"1","Juice Bars & Smoothies, Middle Eastern, Food, Lebanese, Restaurants, Vegetarian"
"680",83285,"Bonnys Cuisine Végétarienne et Biologique","Montreal","QC","H3J 1M3",45.4884785,-73.5681942,"0","Restaurants, Vegetarian"
"681",15811,"Double Wide Grill","Pittsburgh","PA","15203",40.4286257397,-79.9712989479,"1","Bars, Barbeque, Restaurants, Nightlife, American (Traditional), Vegetarian"
"682",1217,"Aladdin's Eatery","Cuyahoga Falls","OH","44223",41.1485905,-81.5072723,"1","Middle Eastern, Vegetarian, Restaurants, Mediterranean"
"683",140375,"Flat Top Grill","Champaign","IL","61820",40.1114257,-88.2304288,"0","Restaurants, Vegetarian, Vegan, Gluten-Free, Do-It-Yourself Food, Asian Fusion, Food"
"684",126723,"Les Delices Bio","Montréal","QC","H2J 1Y6",45.5301033,-73.5774086,"1","Vegetarian, Event Planning & Services, Specialty Food, Restaurants, Food, Caterers, Shopping, Health Markets, Gluten-Free, Bridal"
"685",79591,"The Brilliant Bagel","Scottsdale","AZ","85258",33.570389,-111.886452,"1","Bagels, Bakeries, Restaurants, Vegan, Food, Coffee & Tea, Vegetarian"
"686",15772,"iPho","Charlotte","NC","28209",35.1611334,-80.8492823,"0","Vegan, Soup, Sandwiches, Vegetarian, Chicken Wings, Restaurants, Vietnamese, Noodles"
"687",65032,"Lola Rosa","Montréal","QC","H2X 2A1",45.5068537,-73.5661701,"1","Vegetarian, Restaurants"
"688",140903,"süüp health bar","Toronto","ON","M5B 1S8",43.6592409,-79.38286,"1","Restaurants, Salad, Vegetarian, Soup, Vegan, Bars, Nightlife"
"689",33513,"Copper Branch","Montreal","QC","H3H 1M9",45.4903748678,-73.583609933,"1","Gluten-Free, Vegan, Restaurants, Fast Food, Breakfast & Brunch, Burgers, Vegetarian"
"690",67664,"H2 Kitchen","Toronto","ON","M5V 1Z2",43.650538,-79.389065,"0","Food, Salad, Specialty Food, Restaurants, Vegetarian, Poke, Juice Bars & Smoothies, Health Markets, Noodles"
"691",65828,"Yard House","Glendale","AZ","85305",33.534123,-112.261268,"1","Bars, Cocktail Bars, American (Traditional), Vegetarian, Wine Bars, American (New), Nightlife, Seafood, Restaurants, Beer Bar, Asian Fusion, Steakhouses"
"692",122781,"La Fonda Mexican Restaurant & Cantina","Tempe","AZ","85283",33.3783035278,-111.9061355591,"1","Restaurants, Vegetarian, Mexican"
"693",3025,"Pho Ngoc Yen Restaurant","Mississauga","ON","L4W 2P3",43.6383305,-79.6429298,"1","Vietnamese, Vegetarian, Asian Fusion, Noodles, Restaurants"
"694",140633,"Panna Thai Restaurant","Las Vegas","NV","89148",36.0789362,-115.2985524,"1","Beer, Wine & Spirits, Thai, Food, Restaurants, Vegetarian, Asian Fusion"
"695",56683,"The Flying Biscuit Cafe - Charlotte","Charlotte","NC","28209",35.1742292692,-80.8481419086,"1","Southern, Restaurants, Soul Food, Breakfast & Brunch, American (New), Vegetarian"
"696",120194,"Sparrow","Toronto","ON","M6S",43.6513515582,-79.4751622754,"0","Cocktail Bars, Bars, Seafood, Vegetarian, Nightlife, Wine Bars, Restaurants, Canadian (New), Tapas/Small Plates, Event Planning & Services, French, Venues & Event Spaces"
"697",147190,"Le Cagibi","Montréal","QC","H2T 1S1",45.5287588,-73.605277,"1","Restaurants, Arts & Entertainment, Music Venues, Nightlife, Vegetarian"
"698",19401,"24 Karrot Kitchen","Brecksville","OH","44141",41.3228269,-81.6270979,"1","Restaurants, Gluten-Free, Food, Salad, Soup, Coffee & Tea, Vegetarian"
"699",161439,"La Folie du Koshary","Montréal","QC","H3H 2H9",45.4942876,-73.580311,"0","Vegetarian, Restaurants, Vegan, Halal, Middle Eastern, Egyptian"
"700",158627,"Restaurant Raja","Montréal","QC","H4L 3M8",45.515713,-73.6841334,"1","Restaurants, Indian, Halal, Vegetarian"
"701",64868,"Maharaja Vegetarian Street Food","Markham","ON","L3S 0A2",43.8553051,-79.2569666,"1","Restaurants, Indian, Vegetarian"
"702",85695,"La Frontera","Matthews","NC","28104",35.0702262,-80.6992856,"0","Restaurants, Gluten-Free, Vegetarian, Mexican"
"703",43290,"Violette's Vegan Organic Cafe & Juice Bar","Las Vegas","NV","89117",36.1300414,-115.2777854,"1","Food, Vegan, Juice Bars & Smoothies, Restaurants, Vegetarian"
"704",66281,"Casa del Popolo","Montréal","QC","H2T 1R6",45.5221857,-73.5904921,"1","Coffee & Tea, Restaurants, Food, Vegetarian"
"705",109701,"Fat Boys New York Pizza","Mesa","AZ","85205",33.423985,-111.7197169,"0","Pizza, Restaurants, American (New), Vegetarian"
"706",104840,"LOV Centropolis","Laval","QC","H7T 2Z6",45.562116,-73.744859,"1","Vegan, Breakfast & Brunch, Gluten-Free, Vegetarian, Restaurants"
"707",54023,"Caribbean Sunset Restaurant and Bar","Toronto","ON","M4M 1H3",43.6591784,-79.3480316,"1","Restaurants, Seafood, Vegetarian, Caribbean"
"708",156067,"Freshii","Calgary","AB","T2V 5A8",50.9734336,-114.0975048,"1","Vegetarian, Salad, Sandwiches, Restaurants"
"709",61969,"Organic Shores","Phoenix","AZ","85032",33.6417709361,-111.9942912177,"0","Vegan, Live/Raw Food, Restaurants, Vegetarian"
"710",113579,"Udupi Palace","Toronto","ON","M4L 2A3",43.672609,-79.3211209,"1","Vegetarian, Pakistani, Gluten-Free, Indian, Restaurants"
"711",93742,"Cafe Moi","Toronto","ON","M5R 2A5",43.6699878,-79.3898554,"1","Vegetarian, Gluten-Free, Cafes, Restaurants"
"712",156010,"Market Grille Cafe","Las Vegas","NV","89128",36.195285,-115.24816,"1","Mediterranean, Greek, Restaurants, Gluten-Free, Vegan, Vegetarian, Italian, Breakfast & Brunch"
"713",146261,"Delicacy","Toronto","ON","M6K 2S1",43.6409651209,-79.4351384416,"0","Vegetarian, Restaurants, Indian"
"714",190979,"True Food Kitchen","Scottsdale","AZ","85254",33.6242403752,-111.9243322313,"1","Vegetarian, Pizza, Vegan, Food, Restaurants, Salad, American (New)"
"715",241,"Bronze Cafe at The Center","Las Vegas","NV","89101",36.1619276,-115.1346287,"0","Cafes, Vegan, Gluten-Free, Restaurants, Coffee & Tea, Salad, Food, Sandwiches, Vegetarian"
"716",171040,"Cedars Restaurant","Las Vegas","NV","89119",36.1087848,-115.1370794,"0","Mediterranean, Restaurants, Middle Eastern, American (Traditional), Vegetarian"
"717",185118,"Mr. Sub","Vaughan","ON","L4J 8W1",43.848703259,-79.4596266747,"1","Salad, Vegetarian, Sandwiches, Restaurants"
"718",102720,"Taco Y Taco","Las Vegas","NV","89121",36.101088,-115.100583,"1","Restaurants, Mexican, Vegetarian"
"719",142377,"Memorial Union","Madison","WI","53703",43.0762598,-89.4000038,"1","Lakes, German, Colleges & Universities, Mexican, Food, Coffee & Tea, Pizza, Boating, Education, Bars, Local Flavor, Nightlife, Music Venues, Sandwiches, Vegetarian, Burgers, Active Life, Delis, Food Stands, Restaurants, Arts & Entertainment, Beer, Wine & Spirits"
"720",63756,"Sprinly","Cleveland","OH","44106",41.5091257,-81.6089873,"1","Vegetarian, Event Planning & Services, Specialty Food, Vegan, Personal Chefs, Restaurants, Health Markets, Food, Food Delivery Services, Health & Medical, Nutritionists"
"721",138281,"Tamarind - The Indian Kitchen","Toronto","ON","M5J 2S1",43.6464036,-79.3786608,"0","Fast Food, Vegetarian, Indian, Restaurants"
"722",107783,"Freshii","Toronto","ON","M4W",43.6784522,-79.3897427,"1","Vegetarian, Restaurants"
"723",108719,"India Garden","Lakewood","OH","44107",41.482634,-81.825452,"1","Vegan, Vegetarian, Pakistani, Restaurants, Indian"
"724",26349,"El 77","Montréal","QC","H2T 2J9",45.5266004,-73.6030502,"0","Vegetarian, Restaurants, Peruvian, Vegan"
"725",99272,"Abacus Inn Chinese Restaurant","Phoenix","AZ","85053",33.6092435,-112.1345905,"1","Cantonese, Hotels, Vegetarian, Hotels & Travel, Restaurants, Chinese, Event Planning & Services, Caterers, Chicken Wings, Soup, Noodles"
"726",86346,"Laroush","Kent","OH","44240",41.1505306,-81.3600448,"0","Restaurants, Vegetarian, Mediterranean, Vegan"
"727",80263,"Bowl Of Pho","Woodmere","OH","44122",41.4633454,-81.4854769,"1","Vietnamese, Restaurants, Specialty Food, Ethnic Food, Soup, Food, Vegetarian"
"728",75445,"Noble Eatery","Phoenix","AZ","85016",33.5028845,-112.0297634,"1","Restaurants, Cafes, Sandwiches, Salad, Vegetarian, Food, Tapas/Small Plates, Bakeries"
"729",65434,"Angara India Spice Grill","Las Vegas","NV","89147",36.1140628006,-115.3086518821,"1","Middle Eastern, Indian, Restaurants, Vegetarian"
"730",89327,"Mr Beijing","Las Vegas","NV","89119",36.1151541,-115.1480156,"0","Vegetarian, Restaurants, Barbeque, Chinese"
"731",75436,"Tertio Wine Bar","Phoenix","AZ","85012",33.488807,-112.065237,"1","Bars, Wine Bars, Vegetarian, Vegan, Food, Nightlife, Restaurants, Local Flavor, Beer, Wine & Spirits, Tapas/Small Plates"
"732",100816,"Yard House","Las Vegas","NV","89109",36.1175416594,-115.1686615124,"1","American (Traditional), Restaurants, American (New), Cocktail Bars, Steakhouses, Beer Bar, Seafood, Bars, Wine Bars, Nightlife, Vegetarian, Asian Fusion"
"733",133187,"Sata Sushi","Montréal","QC","H1W 1P8",45.5427729,-73.546401,"1","Vegan, Restaurants, Sushi Bars, Japanese, Vegetarian"
"734",37098,"The Cutting Board Cafe","Mesa","AZ","85209",33.374985,-111.687163,"1","Pizza, Coffee & Tea, Cafes, Food, Restaurants, Beer, Wine & Spirits, Vegetarian, Bakeries, Vegan, Gluten-Free"
"735",82884,"Blinders Burgers and Brunch","Las Vegas","NV","89149",36.2779342559,-115.2874583583,"1","Burgers, Restaurants, Vegetarian, Vegan, Breakfast & Brunch"
"736",4163,"Angkor Wat","Madison","WI","53715",43.060775,-89.40113,"0","Restaurants, Cambodian, Asian Fusion, Vegetarian, Thai"
"737",32660,"Me Gusta Tacos","Henderson","NV","89052",36.0212602901,-115.0864390448,"1","Tacos, Vegetarian, Gluten-Free, Breakfast & Brunch, Salad, Food, Restaurants, Beer, Wine & Spirits, Mexican, American (New)"
"738",58471,"Yogi Flames","Brampton","ON","L6X 3B9",43.6748948,-79.8059521,"0","Restaurants, Indian, Vegetarian"
"739",178692,"Lulu's Noodles","Pittsburgh","PA","15213",40.445131,-79.9490568,"1","Chinese, Vegetarian, Pan Asian, Restaurants, Japanese, Korean, Noodles"
"740",72758,"Lobo Iberico Restaurant","Newmarket","ON","L3Y 4W4",44.0721842348,-79.4334554814,"1","Tapas/Small Plates, Bars, Wine Bars, Restaurants, Nightlife, Spanish, Seafood, Vegetarian, Tapas Bars"
"741",51329,"Grasshopper Restaurant","Toronto","ON","M5T 1S2",43.6577575,-79.4022423,"1","Vegan, Restaurants, Salad, Vegetarian"
"742",42318,"Freshii","Toronto","ON","M5V 2Y6",43.644372793,-79.4030193239,"1","Sandwiches, Restaurants, Vegetarian, Food"
"743",106839,"Lola Rosa","Montréal","QC","H2X 1W5",45.5073247805,-73.5757481897,"1","Vegetarian, Vegan, Caterers, Restaurants, Event Planning & Services"
"744",78044,"Umbrella Cafe","Pittsburgh","PA","15222",40.443476602,-79.9961047049,"0","American (New), Juice Bars & Smoothies, Restaurants, Food, Bakeries, Vegetarian, Cafes"
"745",16608,"Purple Potato","Henderson","NV","89052",36.0061287813,-115.1120727767,"1","Restaurants, Vegan, Sandwiches, Salad, Live/Raw Food, Juice Bars & Smoothies, Breakfast & Brunch, Vegetarian, Food Delivery Services, Food, Asian Fusion, American (New), Wraps, Seafood, Desserts"
"746",161689,"Urban Turban Express","Las Vegas","NV","89109",36.1177189,-115.1679438,"0","Vegetarian, Indian, Halal, Restaurants"
"747",23013,"Issi's Place","south Euclid","OH","44121",41.5017231245,-81.5202619135,"1","Sushi Bars, Restaurants, Vegetarian, Pizza"
"748",164099,"Malee's Thai Bistro","Scottsdale","AZ","85251",33.4929306,-111.9277962,"1","Nightlife, Vegetarian, Restaurants, Thai, Gluten-Free, Asian Fusion, Bars"
"749",19614,"Doomie's Toronto","Toronto","ON","M6K 1L4",43.6415966738,-79.432222134,"1","Restaurants, Southern, Vegetarian, Vegan"
"750",49323,"Helio Terra Vegan Cafe","Cleveland","OH","44115",41.4986579,-81.6885632,"0","Food, Vegan, Restaurants, Vegetarian, Juice Bars & Smoothies"
"751",57766,"Johnny Mango World Cafe & Bar","Cleveland","OH","44113",41.4837408,-81.7099093,"1","Juice Bars & Smoothies, Mexican, Food, Caribbean, Vegetarian, Restaurants, American (New)"
"752",22103,"Pinky's Westside Grill","Charlotte","NC","28208",35.2291284,-80.8674638,"1","Salad, American (Traditional), Restaurants, Burgers, Diners, Vegetarian"
"753",121772,"Me Gusta Tacos","Las Vegas","NV","89113",36.0532899,-115.2795528,"1","Restaurants, Breakfast & Brunch, Tex-Mex, Vegetarian, Salad, Asian Fusion, Tacos, Mexican, Beer, Wine & Spirits, Food"
"754",147749,"Daawat Indian Cuisine","Phoenix","AZ","85027",33.6558818,-112.133956,"1","Desserts, Seafood, Restaurants, Pakistani, Indian, Food, Vegetarian, Halal"
"755",73852,"Madras Ananda Bhavan","Phoenix","AZ","85032",33.6391935,-112.0121148,"0","Indian, Restaurants, Vegetarian, Buffets"
"756",18736,"Kenzo Ramen","Mississauga","ON","L5C 3X3",43.5780657694,-79.6524653406,"1","Japanese, Soup, Vegetarian, Restaurants"
"757",189744,"Lotus Pond Vegetarian Restaurant","Scarborough","ON","M1V 5K5",43.8194673,-79.2948607,"1","Restaurants, Dim Sum, Chinese, Vegetarian"
"758",164715,"Through Being Cool","Toronto","ON","M6H 1N7",43.6582976906,-79.4422688709,"1","Bakeries, Food, Vegan, Vegetarian, Restaurants"
"759",22590,"Green Republic Food","Toronto","ON","M5G 2H6",43.654453,-79.387024,"0","Breakfast & Brunch, Health Markets, Fast Food, Soup, Seafood, Acai Bowls, Food, Vegetarian, Sandwiches, Coffee & Tea, Specialty Food, Restaurants, Canadian (New)"
"760",146979,"The Bristol and Bombay","Toronto","ON","M6J 1H3",43.6433600769,-79.4221586663,"0","Tapas Bars, Breakfast & Brunch, Bars, Indian, Gastropubs, Restaurants, Nightlife, Vegetarian, Pubs, British"
"761",54110,"Liliana's Restaurant","Fitchburg","WI","53711",43.015442,-89.430002,"1","Gluten-Free, Cajun/Creole, Vegetarian, Restaurants"
"762",69360,"Pho Ngoc Tuan","Montréal","QC","H1R 1X6",45.5770499,-73.5983084,"1","Restaurants, Vietnamese, Vegetarian, Soup, Asian Fusion"
"763",25824,"Vegan House","Phoenix","AZ","85003",33.449498,-112.0744168,"1","Vegetarian, Vegan, Restaurants, Thai"
"764",36793,"Dotty Dumpling's Dowry","Madison","WI","53703",43.0728191,-89.395561,"1","Vegetarian, Burgers, Breakfast & Brunch, Vegan, Nightlife, Restaurants, Bars, Pubs"
"765",128720,"Fresh on Crawford","Toronto","ON","M6J 1G3",43.6451384,-79.4149767,"1","Specialty Food, Vegetarian, Restaurants, Health Markets, Food, Vegan"
"766",49644,"McCormick Qwik Chinese Restaurant","Scottsdale","AZ","85258",33.5436148529,-111.9046917996,"1","Vegetarian, Chinese, Restaurants, Food Delivery Services, Asian Fusion, Food, Caterers, Soup, Event Planning & Services"
"767",85057,"Subway","Las Vegas","NV","89118",36.0869205561,-115.2255934063,"1","Sandwiches, Restaurants, Vegetarian, Fast Food"
"768",171682,"Pho Lotus","Gilbert","AZ","85234",33.3652572122,-111.7877729237,"1","Vietnamese, Vegetarian, Restaurants"
"769",24681,"Mika's Greek","Tempe","AZ","85282",33.394867,-111.9406085,"1","Restaurants, Vegetarian, Mediterranean, Greek"
"770",23495,"Annalakshmi","Brampton","ON","L6P 0A1",43.7073327722,-79.7897509783,"1","Restaurants, Indian, Vegetarian"
"771",94252,"Cheba Hut Toasted Subs","Glendale","AZ","85302",33.5669839,-112.1872115,"1","Sandwiches, Restaurants, American (Traditional), Fast Food, Vegetarian, Salad"
"772",165506,"Fork & Spoon Cafe at RP's Pasta Co.","Madison","WI","53703",43.0834989,-89.3655138,"0","Vegetarian, Restaurants, Sandwiches, Local Flavor, Italian"
"773",96108,"Saffron Flavors of India","Las Vegas","NV","89129",36.24172,-115.250134,"1","Vegetarian, Indian, Restaurants, Diners"
"774",126892,"Freshbox McDowell Mountain","Scottsdale","AZ","85260",33.639052,-111.8646256,"1","Salad, Sandwiches, Vegetarian, Food, Wraps, Juice Bars & Smoothies, Restaurants"
"775",81964,"Sithara","Charlotte","NC","28262",35.3171887,-80.7391541,"1","Event Planning & Services, Buffets, Caterers, Vegetarian, Indian, Restaurants"
"776",110137,"Sweet Home Baked Company","Las Vegas","NV","89145",36.1667834,-115.2861968,"0","Vegan, Bakeries, Farmers Market, Vegetarian, Food, Restaurants"
"777",81466,"Flying Fig","Cleveland","OH","44113",41.4841805071,-81.7043139059,"1","Vegetarian, Nightlife, Bars, Restaurants, Breakfast & Brunch, American (New)"
"778",164548,"Flower Child","Phoenix","AZ","85012",33.5096102531,-112.0719529688,"1","Vegetarian, American (New), Salad, Restaurants"
"779",92275,"Good Company Cafe","Las Vegas","NV","89183",36.0127369,-115.1360167,"0","Food, Delis, American (Traditional), American (New), Vegetarian, Sandwiches, Juice Bars & Smoothies, Restaurants"
"780",45843,"Yuan","Montréal","QC","H2X 3K8",45.516891,-73.5670449,"1","Sushi Bars, Vegetarian, Pan Asian, Restaurants, Thai, Chinese"
"781",139983,"GFY Burgers and Fries","Las Vegas","NV","89120",36.0833352,-115.0999753,"1","Fast Food, Restaurants, Food, Vegetarian, Food Stands, Food Trucks, Burgers, Pop-Up Restaurants, Vegan"
"782",145204,"Lao Laan-Xang Restaurant","Madison","WI","53703",43.0830979,-89.3649155,"1","Vegetarian, Restaurants, Thai, Laotian"
"783",49513,"The Dardanelles","Madison","WI","53711",43.064708,-89.416916,"0","Restaurants, Greek, Vegetarian, Mediterranean, Turkish"
"784",70729,"YamChops","Toronto","ON","M6G 1C2",43.6550692606,-79.4182143631,"1","Food, Butcher, Vegan, Vegetarian, Restaurants, Juice Bars & Smoothies"
"785",179872,"Sweet Tomatoes","Henderson","NV","89014",36.0556942302,-115.0469222101,"1","Food, American (Traditional), Restaurants, Buffets, Soup, Vegetarian, Do-It-Yourself Food, Salad"
"786",13190,"Desert Roots Kitchen","Tempe","AZ","85281",33.4259738171,-111.940346,"1","Vegetarian, Gluten-Free, Restaurants, Vegan"
"787",160924,"White Lotus","Toronto","ON","M6K 2W5",43.6506713,-79.4393277,"0","Restaurants, Vietnamese, Vegetarian"
"788",86214,"Dobra Tea","Pittsburgh","PA","15217",40.4349648,-79.9228082,"1","Tea Rooms, Restaurants, Food, Coffee & Tea, Vegetarian"
"789",95336,"Pulp Kitchen","Toronto","ON","M4M 1L1",43.6621626,-79.3347124,"0","Vegan, Sandwiches, Food, Juice Bars & Smoothies, Restaurants, Vegetarian"
"790",112146,"Peking House 98","Calgary","AB","T2K 1A3",51.0877765246,-114.0720272381,"1","Restaurants, Thai, Vegetarian, Chinese"
"791",37308,"Pho Mi Gia Phung","Toronto","ON","M4M 1Y3",43.665616,-79.3518608,"0","Vegetarian, Vietnamese, Restaurants"
"792",47739,"Flower Child","Phoenix","AZ","85050",33.6748827045,-111.9769078005,"1","American (New), Vegetarian, Salad, Restaurants"
"793",85513,"Avsar","Mississauga","ON","L4W 1B6",43.6376095,-79.6350343,"1","Restaurants, Vegetarian, Indian"
"794",138977,"Oasis Asian Kitchen","Las Vegas","NV","89147",36.1166813884,-115.2623144538,"1","Restaurants, Chinese, Asian Fusion, Vegetarian, Food, Thai"
"795",34729,"Saboten Grill","Tempe","AZ","85284",33.3350531,-111.9445728,"0","Gluten-Free, Restaurants, Vegetarian, Japanese"
"796",120574,"Gracias Corazon","Montréal","QC","H2T 2K9",45.5249956,-73.5999018,"0","Specialty Food, Colombian, Restaurants, Vegetarian, Ethnic Food, Spanish, Latin American, Gluten-Free, Italian, Cafes, Southern, Food"
"797",14953,"Caffè Della Pace","Outremont","QC","H2V 1J5",45.524849,-73.6108232,"1","Restaurants, Vegetarian, Cafes, Gluten-Free"
"798",144952,"Thai On Yonge","Toronto","ON","M5B 1S5",43.65855,-79.382072,"1","Food, Specialty Food, Ethnic Food, Restaurants, Food Delivery Services, Vegetarian, Thai"
"799",48233,"Genghis Grill","Glendale","AZ","85032",33.6386479,-112.2172122,"1","Mongolian, Thai, American (Traditional), Asian Fusion, Korean, Chinese, Restaurants, Vegetarian, Vegan"
"800",30988,"Kabob Cafe","Henderson","NV","89014",36.0705121,-115.0765779,"1","Restaurants, Middle Eastern, Lebanese, Greek, Vegetarian, Wraps, Food, Desserts, Mediterranean"
"801",116368,"Fresh Mama","Las Vegas","NV","89118",36.08235,-115.243453,"0","Food, Restaurants, Internet Cafes, Juice Bars & Smoothies, Vegetarian, Cafes"
"802",87323,"Casa de Papa Gourmet Tacos","Surprise","AZ","85374",33.6370669,-112.3562228,"1","Fast Food, Mexican, New Mexican Cuisine, Vegetarian, Restaurants"
"803",151864,"Yummi Yogis","Calgary","AB","T2B 1P1",51.0352804,-113.9909552,"1","Food Trucks, Restaurants, Food, Vegetarian"
"804",14667,"Baan Thai Restaurant","Las Vegas","NV","89146",36.12558,-115.211031,"1","Restaurants, Thai, Vegetarian, Chinese, Vegan, Asian Fusion"
"805",45877,"Copper Branch","Montreal","QC","H2J 1Y4",45.5294766,-73.577983,"1","Gluten-Free, Restaurants, Burgers, Vegan, Vegetarian, Sandwiches, Breakfast & Brunch"
"806",96102,"Roman Candle Pizzeria","Madison","WI","53711",43.0571808,-89.428167,"1","Gluten-Free, Restaurants, Pizza, Vegetarian, Vegan, American (Traditional)"
"807",94534,"Fired Up Grill","Chandler","AZ","85226",33.3174218671,-111.9637517619,"0","Vegetarian, American (Traditional), Restaurants, American (New)"
"808",147082,"Copper Branch","Montreal","QC","H3G 2E2",45.4962735,-73.5752514,"1","Restaurants, Gluten-Free, Food, Organic Stores, Vegetarian, Vegan, Breakfast & Brunch"
"809",62423,"Community Cuisine","Phoenix","AZ","85034",33.4479847,-112.0325931,"1","Restaurants, Food, Vegetarian, Vegan"
"810",89924,"Jardin des Délices","Montréal","QC","H1W 1A8",45.5495019,-73.5583911,"1","Vegetarian, Vietnamese, Cambodian, Asian Fusion, Restaurants, Thai"
"811",21363,"Lucy Ethiopian Kitchen","Toronto","ON","M4C",43.6841128,-79.3207142,"1","Vegetarian, African, Restaurants, Ethiopian"
"812",67425,"Nocochi","Montréal","QC","H3G 2J1",45.4975546,-73.5806444,"0","Vegan, Coffee & Tea, Food, Mediterranean, Sandwiches, Tea Rooms, Bakeries, Restaurants, Vegetarian"
"813",41257,"Holstein Kitchen","Oregon","WI","53575",42.9262305,-89.3847435,"0","Breakfast & Brunch, American (New), American (Traditional), Restaurants, Vegetarian"
"814",72968,"Woodlot Restaurant","Toronto","ON","M6J 2J3",43.6556815,-79.4097415,"1","Vegetarian, Restaurants, Comfort Food, Canadian (New), American (New)"
"815",36487,"Hindusthali","Montréal","QC","H2W 2M7",45.521695,-73.5773971,"1","Restaurants, Indian, Vegetarian"
"816",171190,"Sonio's Cafe","Las Vegas","NV","89102",36.159412,-115.192923,"1","Hot Dogs, Salad, American (Traditional), Cafes, Vegetarian, Mediterranean, Diners, Restaurants, Chicken Shop"
"817",29480,"Rhino Market & Deli","Charlotte","NC","28208",35.2297195889,-80.8659141785,"1","Salad, Breakfast & Brunch, Sandwiches, Restaurants, Food, Beer, Wine & Spirits, Vegetarian, Delis"
"818",134018,"True Food Kitchen","Phoenix","AZ","85016",33.510369927,-112.027740589,"1","Vegan, Vegetarian, Salad, Restaurants, American (New)"
"819",7293,"Burger Fresh","Brecksville","OH","44141",41.32112,-81.625362,"1","Restaurants, Vegetarian, Hot Dogs, Burgers"
"820",111609,"Thai Basil Chandler","Chandler","AZ","85226",33.3047369,-111.927051,"1","Vegetarian, Restaurants, Thai"
"821",28073,"Hogan's Restaurant","King City","ON","L7B 1H8",43.9282713,-79.5283339,"1","Modern European, French, Italian, Latin American, Caterers, Canadian (New), Event Planning & Services, Seafood, Restaurants, Vegetarian"
"822",156310,"Bean Sprouts Cafe","Middleton","WI","53562",43.106913,-89.498128,"0","Gluten-Free, Sandwiches, Food, Vegetarian, Restaurants"
"823",133552,"Real Food Charlotte","Charlotte","NC","28203",35.208548,-80.86153,"0","Restaurants, Fruits & Veggies, Specialty Food, Food, Vegetarian, Live/Raw Food, Vegan"
"824",16659,"Le Commensal Sainte-Catherine","Montréal","QC","H2X 1K4",45.5093393,-73.5641017,"0","Italian, Restaurants, Vegetarian"
"825",4711,"Pochiche","Montréal-West","QC","H4X 1Z2",45.453015,-73.646031,"1","Sandwiches, Lebanese, Middle Eastern, Vegetarian, Vegan, Mediterranean, Falafel, Restaurants"
"826",5094,"Doaba Sweets & Restaurant","Mississauga","ON","L5V 1Z4",43.5949363708,-79.6852035522,"1","Indian, Vegetarian, Restaurants"
"827",158529,"360 Restaurant","Toronto","ON","M5V 2T6",43.6427680935,-79.3870997429,"1","American (New), Restaurants, Canadian (New), Vegetarian"
"828",104670,"Pizza Nova","Toronto","ON","M4S 2N6",43.7075699,-79.3901685,"1","Gluten-Free, Restaurants, Vegetarian, Pizza"
"829",130427,"Pho Tién Phát","Toronto","ON","M3M 1A2",43.7197418,-79.5076981,"1","Food, Restaurants, Bubble Tea, Vegetarian, Vietnamese"
"830",122898,"The Veggie Thali","Toronto","ON","M4A 2L8",43.7194176,-79.3010177,"1","Vegetarian, Himalayan/Nepalese, Indian, Restaurants, Vegan"
"831",60125,"Caribbean Grill Restaurant","Champaign","IL","61820",40.087699,-88.247455,"1","Vegan, Caribbean, Desserts, Food, Comfort Food, Vegetarian, Restaurants, Barbeque"
"832",26471,"Mama's Tofu","Toronto","ON","M6L 3C9",43.7045581,-79.4921887,"1","Vegetarian, Vietnamese, Vegan, Restaurants"
"833",6291,"honeygrow","Pittsburgh","PA","15206",40.4611774109,-79.9246995536,"1","Noodles, Vegetarian, Restaurants, Salad, American (Traditional), Vegan"
"834",152290,"The Beet","Toronto","ON","M6P 1Y8",43.6656705,-79.4683162,"1","Organic Stores, Local Flavor, Food, Restaurants, Breakfast & Brunch, Vegetarian, Juice Bars & Smoothies"
"835",3628,"La Panthère Verte","Montréal","QC","H2T 1A8",45.5270543,-73.596918,"1","Food, Vegan, Restaurants, Vegetarian, Coffee & Tea"
"836",38802,"Pita Jungle","Phoenix","AZ","85050",33.6749041549,-111.9800812813,"1","Restaurants, Vegetarian, Vegan, Mediterranean, American (New)"
"837",185567,"Go Raw Cafe","Las Vegas","NV","89123",36.041104,-115.1208125,"0","Juice Bars & Smoothies, Vegetarian, Restaurants, Food, Live/Raw Food, Vegan"
"838",104599,"Rawlicious","Toronto","ON","M4W 1J5",43.6710319,-79.388209,"0","Live/Raw Food, Vegan, Restaurants, Vegetarian"
"839",162229,"Thailicious Authentic Thai & Vegan","Henderson","NV","89012",36.028178,-115.048607,"1","Restaurants, Thai, Vegetarian, Vegan"
"840",47056,"The Greene House","Scottsdale","AZ","85254",33.6241296095,-111.9291563122,"1","Vegetarian, American (New), Restaurants, Salad"
"841",145798,"Salad and Go","Phoenix","AZ","85027",33.6989463,-112.10192,"1","Vegetarian, Salad, Food, Juice Bars & Smoothies, Restaurants"
"842",44139,"Rubio's","Glendale","AZ","85308",33.6693460329,-112.1871613728,"1","Restaurants, Mexican, Vegetarian, Caterers, Salad, Event Planning & Services, Fast Food, Seafood"
"843",186106,"Zizis Vegan Take-Out","Charlotte","NC","28262",35.2970997,-80.7554037,"0","Restaurants, Vegetarian, Vegan"
"844",9273,"India Market & Cafe","Las Vegas","NV","89119",36.1003364,-115.1338405,"1","Food, Indian, Vegetarian, International Grocery, Restaurants"
"845",69791,"OM Indian Fusion Cuisine","Madison","WI","53704",43.1154886,-89.3249625,"1","Restaurants, Indian, Vegetarian, Asian Fusion"
"846",140661,"IGo VeGo","Madison","WI","53726",43.0764511,-89.3837848,"0","Health Markets, Restaurants, Fruits & Veggies, Vegetarian, Specialty Food, Vegan, Food"
"847",49094,"Moga Crepes","Phoenix","AZ","85032",33.6027450137,-111.9832242212,"0","Food, Desserts, Creperies, Vegetarian, Caterers, French, American (New), Restaurants, Event Planning & Services"
"848",29295,"Copper Branch","Westmount","QC","H3Z 1H5",45.4772643,-73.6057336,"1","Vegan, Gluten-Free, Restaurants, Vegetarian"
"849",157964,"LYFE Kitchen","Henderson","NV","89012",36.0224413067,-115.0835391258,"0","Restaurants, American (New), Gluten-Free, Vegetarian"
"850",98329,"Taste - Homestyle Indian Kitchen","Las Vegas","NV","89119",36.1086528051,-115.1371104679,"1","Vegetarian, Fast Food, Food, Asian Fusion, Specialty Food, Restaurants, Indian"
"851",156275,"Sweet Tomatoes","Phoenix","AZ","85044",33.3194479165,-111.9833421707,"1","Restaurants, Vegetarian, Soup, Salad, Buffets"
"852",96980,"Red Velvet Cafe","Las Vegas","NV","89117",36.1432041,-115.262866,"0","Cafes, Vegetarian, American (New), Vegan, Restaurants"
"853",179155,"Persian Garden Cafe","Phoenix","AZ","85013",33.4802156638,-112.0906842813,"1","Persian/Iranian, Vegetarian, Mediterranean, Restaurants"
"854",179506,"Café Zosha","Montréal","QC","H2V 4G9",45.5235669,-73.6052294,"0","Vegetarian, Desserts, Cafes, Restaurants, Food"
"855",122130,"iQ Food","Toronto","ON","M5K 1B1",43.6477523723,-79.383430481,"1","Restaurants, Soup, Salad, Vegetarian, Breakfast & Brunch, Gluten-Free, Fast Food"
"856",107474,"Sunny Cafe","Toronto","ON","M5S 1W5",43.6669673,-79.4033819,"1","Restaurants, Event Planning & Services, Caterers, Vegetarian"
"857",66562,"Ali Baba Restaurant","Cleveland","OH","44111",41.4606693,-81.7720292,"0","Middle Eastern, Vegan, Lebanese, Vegetarian, Restaurants"
"858",127535,"Shawarma King","Glendale","AZ","85304",33.597233721,-112.1519558791,"0","Vegetarian, Mediterranean, Middle Eastern, Falafel, Restaurants"
"859",87744,"Live Organic Food Bar","Toronto","ON","M5R 1V7",43.675106,-79.4067793,"1","Vegan, Organic Stores, Gluten-Free, Live/Raw Food, Restaurants, Vegetarian, Juice Bars & Smoothies, Food"
"860",146999,"Chronic Tacos","Phoenix","AZ","85029",33.5817948,-112.1271077,"1","Fast Food, Breakfast & Brunch, Event Planning & Services, American (Traditional), Mexican, Caterers, Restaurants, Vegetarian"
"861",133647,"Taste of India","Las Vegas","NV","89119",36.099142,-115.136192,"0","Restaurants, Indian, Vegetarian"
"862",121673,"Jollof King","Tempe","AZ","85284",33.3487001,-111.94489,"1","African, Restaurants, Vegetarian, Caribbean"
"863",191180,"Beehive Coffee","Pittsburgh","PA","15203",40.4289537,-79.9842819,"1","Beer, Wine & Spirits, Desserts, Food, Restaurants, Coffee & Tea, Breakfast & Brunch, Vegetarian"
"864",13173,"Calico Cafe","Toronto","ON","M6H 1M8",43.6591021,-79.439196,"0","Caterers, Restaurants, Event Planning & Services, Vegan, Vegetarian"
"865",63839,"Fressen Restaurant","Toronto","ON","M5V 2B2",43.6479391,-79.4003492,"0","American (New), Vegetarian, Vegan, Restaurants"
"866",185504,"Pita Kitchen - Avondale","Avondale","AZ","85392",33.4641425,-112.2730569,"1","Greek, Restaurants, Middle Eastern, Mediterranean, Vegetarian, Lebanese"
"867",97508,"Boon Burger Café","Oakville","ON","L6M 4M2",43.4664073,-79.7452013,"1","Restaurants, Vegetarian, Burgers, Vegan"
"868",110317,"Greens and Proteins","Las Vegas","NV","89123",36.026212,-115.1193405,"1","Sandwiches, Cafes, Pizza, Vegetarian, Gluten-Free, American (Traditional), Restaurants, Breakfast & Brunch, Burgers, Vegan, Food, Juice Bars & Smoothies, American (New)"
