"","business_id","name","city","state","postal_code","latitude","longitude","is_open","categories"
"1",55440,"Restaurant Nhu Y","Montréal","QC","H2R 2X1",45.5331108,-73.6195176,"0","Vietnamese, Restaurants, Soup"
"2",173654,"PHO KC","Glendale","AZ","85308",33.6524694411,-112.185678981,"1","Vietnamese, Restaurants"
"3",17760,"Noodles Ranch","Scottsdale","AZ","85257",33.4793671,-111.9247231,"1","Vietnamese, Restaurants"
"4",18531,"Phó Lyn","Calgary","AB","T3G 3N7",51.1270899,-114.1957809,"0","Vietnamese, Coffee & Tea, Restaurants, Food"
"5",123831,"Cool Star","Toronto","ON","M4L 1J1",43.6697599,-79.3001663,"0","Vietnamese, Restaurants, Ice Cream & Frozen Yogurt, Food"
"6",7162,"Bambou d'Or","Laval","QC","H7X 1C7",45.5296919757,-73.8197200171,"1","Vietnamese, Restaurants"
"7",83793,"Pho Pasteur Saigon Restaurant","Calgary","AB","T2G 2G3",51.0507472,-114.0605843,"1","Vietnamese, Restaurants"
"8",76839,"Hoai Huong","Etobicoke","ON","M8Y 1L3",43.6269,-79.501112,"1","Vietnamese, Restaurants"
"9",27945,"Kim's Noodle Vietnamese Cuisine","Monona","WI","53716",43.0698053,-89.3260826,"0","Vietnamese, Restaurants"
"10",35530,"Jenni Pho Grill","Las Vegas","NV","89102",36.1264280647,-115.2013077572,"0","Local Flavor, Food, Restaurants, Vietnamese"
"11",2796,"Lee Asian Bistro","Madison","WI","53716",43.0699604,-89.3259043,"0","Restaurants, Vietnamese, Chinese"
"12",12471,"Little Coxwell Vietnamese & Thai Cuisine","Toronto","ON","M4C 3G5",43.6961749185,-79.3290924315,"1","Restaurants, Vietnamese, Thai"
"13",103807,"Pho Thanh Huong","Las Vegas","NV","89119",36.1001831,-115.138668,"1","Vietnamese, American (New), Restaurants, Sandwiches"
"14",111929,"Pho Tai Bac","Richmond Hill","ON","L4C 9M5",43.8598981278,-79.4338684157,"1","Vietnamese, Soup, Restaurants"
"15",78276,"Tottie's Asian Kitchen","Scottsdale","AZ","85254",33.639741,-111.9443776,"1","Laotian, Vietnamese, Chinese, Restaurants, Thai"
"16",70777,"Number One Pho","Cleveland","OH","44114",41.5108298,-81.6691226,"1","Tex-Mex, Vietnamese, Restaurants"
"17",143717,"Delightful Cafe","Calgary","AB","T2G 0S9",51.041804,-114.0360541,"1","Food, Coffee & Tea, Vietnamese, Restaurants, Donuts, Breakfast & Brunch"
"18",173040,"Jen's Noodle House","Airdrie","AB","T4B 3M2",51.2866520073,-114.0142864287,"1","Ethnic Food, Food, Chinese, Vietnamese, Specialty Food, Restaurants"
"19",53780,"Pho Dai Nam","Toronto","ON","M1K",43.7069859,-79.2681482,"0","Vietnamese, Restaurants"
"20",88842,"Pho Bo Saigon","Brampton","ON","L6Z 2S1",43.7147399073,-79.7797751423,"1","Restaurants, Vietnamese"
"21",189597,"Pho All Seasons","Mesa","AZ","85202",33.3944997,-111.8748402,"0","Restaurants, Vietnamese"
"22",131512,"Fat Kee Noodle House","Calgary","AB","T1Y 6Z1",51.0798067,-113.9979131,"1","Vietnamese, Restaurants, Chinese, Noodles"
"23",188591,"Trung Nguyen V-N Sub","Calgary","AB","T2G 0B6",51.0503479,-114.060811,"1","Restaurants, Sandwiches, Vietnamese"
"24",48140,"Saigon Deli","Calgary","AB","T2A 0A7",51.0443627,-113.9692718,"1","Vietnamese, Sandwiches, Delis, Restaurants"
"25",185188,"Pho Phuong","Toronto","ON","M6K 1T9",43.6496743,-79.4351157,"1","Asian Fusion, Restaurants, Vietnamese"
"26",57743,"Asian Village Wok and Grill","Calgary","AB","T2P 1H3",51.0462196,-114.0783388,"1","Chinese, Asian Fusion, Vietnamese, Restaurants"
"27",170774,"Pho Bamboo","Mesa","AZ","85201",33.413244,-111.8735797,"0","Restaurants, Vietnamese, Soup, Noodles"
"28",90949,"China 8","Mississauga","ON","L5M 5S5",43.5589212189,-79.742916216,"1","Chinese, Vietnamese, Restaurants, Food, Thai"
"29",25349,"Green Basil","Calgary","AB","T2G 5E8",51.011904,-114.0646966,"1","Thai, Restaurants, Vietnamese"
"30",160708,"Pho Lien","Montréal","QC","H3S 1V7",45.4990185,-73.6275758,"1","Restaurants, Food, Ethnic Food, Vietnamese, Specialty Food, Vegetarian"
"31",80451,"Hà","Montréal","QC","H2T 2T2",45.5177116,-73.5887789,"1","Nightlife, Restaurants, Bars, Asian Fusion, Vietnamese, Laotian"
"32",135800,"Vietnam Sub &Grill","Calgary","AB","T3K 5P4",51.1430647,-114.0720875,"1","Restaurants, Vietnamese"
"33",57261,"Mekong Restaurant","Pittsburgh","PA","15216",40.395543,-80.034904,"1","Chinese, Soup, Vietnamese, Restaurants, Asian Fusion"
"34",124109,"Cafe Vite","Toronto","ON","M2N 6X4",43.7756161872,-79.4147684053,"1","Food, Sandwiches, Ice Cream & Frozen Yogurt, Vietnamese, Cafes, Restaurants"
"35",91557,"Coco Garden Vietnamese Restaurant","Calgary","AB","T2A 0R1",51.0364874,-113.9891695,"0","Restaurants, Vietnamese"
"36",160323,"Restaurant Pho Hao","Montréal","QC","H3S 2A1",45.5009569,-73.632742,"1","Food, Food Delivery Services, Restaurants, Vietnamese"
"37",19120,"Pho Jade","Toronto","ON","M6H 1N1",43.6593265,-79.4384773,"0","Vietnamese, Restaurants"
"38",61830,"Pho Kimboss Bistro","Toronto","ON","M6H 1B5",43.6523520518,-79.4330067501,"0","Restaurants, Thai, Vietnamese"
"39",188962,"Pho 99 Chabanel","Montréal","QC","H2N 1P6",45.544757,-73.6517022,"1","Restaurants, Fast Food, Vietnamese"
"40",131554,"Phó Express","Montréal","QC","H2P 2M9",45.5411235,-73.6378925,"1","Restaurants, Vietnamese"
"41",29219,"Pho Kim Restaurant","Calgary","AB","T2M 2R5",51.0658838,-114.0639701,"1","Restaurants, Vietnamese"
"42",90486,"Dragonfly Vietnamese Kitchen","Tempe","AZ","85281",33.425938,-111.940346,"0","Restaurants, Vietnamese"
"43",140089,"Pho Da Nang Vietnamese Kitchen","Las Vegas","NV","89103",36.117237,-115.189231,"1","Vietnamese, Restaurants"
"44",96586,"Pho King Kitchen","Scottsdale","AZ","85251",33.4806688,-111.9080474,"1","American (New), Restaurants, Asian Fusion, Vietnamese"
"45",188502,"Basil Box","Toronto","ON","M5B 1S1",43.6578986,-79.3812679,"1","Thai, Vietnamese, Restaurants, Gluten-Free"
"46",169112,"Huong Xua","Anjou","QC","H1J 1G3",45.6010549,-73.5766119,"1","Restaurants, Thai, Asian Fusion, Vietnamese"
"47",31811,"Saigon Kitchen","Surprise","AZ","85374",33.6382038313,-112.3634433746,"1","Vietnamese, Restaurants, Asian Fusion, Sandwiches"
"48",93261,"Tan Lac Vien Express","Pittsburgh","PA","15213",40.4512524,-79.9514683,"1","Noodles, Restaurants, Vietnamese, Vegan"
"49",52755,"Oxtail Pho & Banh Mi","Toronto","ON","M6J 1V3",43.6518894,-79.4089993,"1","Food, Thai, Vietnamese, Restaurants, Chinese"
"50",54372,"Shilla Korean BBQ","Las Vegas","NV","89102",36.1438599,-115.178936,"0","Barbeque, Japanese, Vietnamese, Restaurants, Korean"
"51",104819,"Pho Viet","Montréal","QC","H2L 3L4",45.5188911,-73.5599132,"1","Vietnamese, Restaurants"
"52",17007,"Viet Delight","Ajax","ON","L1S 3K3",43.8419677,-79.0265046,"0","Restaurants, Vietnamese"
"53",50068,"Pho Ha Noi","Las Vegas","NV","89102",36.1299924,-115.2074043,"0","Vietnamese, Restaurants"
"54",100769,"Nha Trang Vietnamese Cuisine","Calgary","AB","T3K 0H3",51.1666833919,-114.0888118744,"1","Vietnamese, Restaurants"
"55",174664,"Choices Oriental Noodle Eatery","Calgary","AB","T2P 3G6",51.0485035,-114.0676686,"0","Shopping, Shopping Centers, Vietnamese, Restaurants"
"56",121406,"Green Cilantro","Calgary","AB","T3E 2L1",51.0261002,-114.1285477,"1","Asian Fusion, Vietnamese, Restaurants"
"57",110592,"Pho MC","Brossard","QC","J4X 2S6",45.448805,-73.471791,"1","Vietnamese, Barbeque, Restaurants, Soup"
"58",115339,"Pho Côte-Vertu","Montréal","QC","H4L 3M9",45.5152265,-73.6847661,"1","Chinese, Restaurants, Vietnamese, Thai"
"59",175023,"Pho Viet Nam Restaurant","Brampton","ON","L6W 2C3",43.685643,-79.7593606,"1","Restaurants, Vietnamese"
"60",185698,"Crispy Banh Mi","Charlotte","NC","28205",35.236732,-80.776576,"1","Restaurants, Vietnamese, Juice Bars & Smoothies, Food, Sandwiches"
"61",60032,"Échalote","Montréal","QC","H2L 2E3",45.515967,-73.558236,"1","Vietnamese, Restaurants, Thai, Pan Asian"
"62",97355,"Golden Bell Saigon & Vietnamese Restaurant","Calgary","AB","T2H 0K1",50.999562,-114.0707021,"1","Vietnamese, Restaurants"
"63",35022,"Buckstop Bar & Grille","Chesterland","OH","44026",41.5218589,-81.3387103,"1","American (Traditional), Vietnamese, Restaurants, Bars, Burgers, Nightlife, Sports Bars"
"64",112681,"Pho 602","Phoenix","AZ","85017",33.5250194454,-112.1304554891,"1","Restaurants, Vietnamese"
"65",119051,"Colonial Vietnamese Cuisine","Calgary","AB","T2P 0W5",51.0467731,-114.0631363,"0","Vietnamese, Restaurants"
"66",18069,"Viet Bistro","Madison","WI","53715",43.0676216138,-89.3954412165,"0","Chinese, Restaurants, Dim Sum, Cantonese, Vietnamese"
"67",101755,"Yummi Banh Mi Truck","Charlotte","NC","28211",35.1660032,-80.7934798,"1","Restaurants, Vietnamese, Food, Food Trucks"
"68",97364,"Doan's","Charlotte","NC","28217",35.1546894,-80.8750816,"1","Vegetarian, Restaurants, Vietnamese, Asian Fusion"
"69",155288,"Caravelle","Montréal","QC","H3G 2B1",45.4963264,-73.5738047,"0","Restaurants, Vietnamese, Chinese"
"70",67160,"Lan Restaurant","Toronto","ON","M4M 1H3",43.6591967,-79.3479061,"1","Restaurants, Vietnamese"
"71",62192,"Nem Delight","Calgary","AB","T2J 6T5",50.9291091,-114.0305954,"0","Vietnamese, Restaurants"
"72",169546,"Saigon Gourmet Vietnamese Restaurant","Calgary","AB","T2C 2C5",50.9974558,-114.0203494,"1","Vietnamese, Restaurants, Noodles, Soup"
"73",131117,"The Submarine","Calgary","AB","T2E 2Z6",51.0951903,-114.0629513,"1","Restaurants, Vietnamese, Sandwiches, Soup"
"74",163272,"Pho five Star","Las Vegas","NV","89103",36.1233533833,-115.2073795348,"0","Vietnamese, Restaurants"
"75",89948,"Pho 90","Las Vegas","NV","89102",36.1260081178,-115.1984550092,"1","Restaurants, Vietnamese, Food, Sandwiches, Coffee & Tea, Breakfast & Brunch, Soup"
"76",178881,"Gold Star Thai","Mississauga","ON","L5J 2Y4",43.5084547,-79.6322049,"1","Thai, Restaurants, Vietnamese"
"77",7870,"Zenbu Sushi","Montréal","QC","H4J 1E2",45.5354515141,-73.7763089142,"1","Japanese, Restaurants, Vietnamese"
"78",54684,"Soleil de Saigon","Montréal","QC","H2G 1R9",45.5372271,-73.5926923,"0","Vietnamese, Restaurants"
"79",9823,"Que Ling Vietnamese Cuisine","Scarborough","ON","M1S 1V3",43.7877285451,-79.2672794312,"1","Cafes, Restaurants, Vietnamese, Chinese"
"80",71026,"Tottie's Asian Fusion","Scottsdale","AZ","85251",33.4794914574,-111.9107225319,"1","Vietnamese, Thai, Asian Fusion, Restaurants"
"81",117658,"A Taste of  Pho Vietnamese Cuisine","Markham","ON","L3R 9V4",43.8254466,-79.3050432,"0","Vietnamese, Restaurants"
"82",45550,"Pho Fusion","Newmarket","ON","L3X 1W1",44.0403492,-79.4528966,"1","Vietnamese, Restaurants"
"83",167476,"Noodle Menu","Toronto","ON","M6K 1L5",43.6416916,-79.431251,"0","Vietnamese, Restaurants"
"84",167825,"Me Vietnamese Kitchen","Gastonia","NC","28056",35.2613882214,-81.1321284994,"1","Restaurants, Comfort Food, Vietnamese, Bubble Tea, Sandwiches, Gluten-Free, Soup, Noodles, Food"
"85",79110,"Saigon House Restaurant","Brampton","ON","L6W 3R7",43.6895048,-79.7390478,"1","Vietnamese, Thai, Restaurants"
"86",156756,"Phnom Penh","Montréal","QC","H3R 2M2",45.5053098,-73.6416323,"1","Restaurants, Vietnamese, Canadian (New), Cambodian, Asian Fusion"
"87",144593,"Nam Sao","Glendale","AZ","85311",33.6392038,-112.1530065,"0","Restaurants, Vietnamese"
"88",87780,"Tom Yum Downtown","Phoenix","AZ","85004",33.449568,-112.0740163,"1","Ethnic Food, Vietnamese, Food, Restaurants, Specialty Food, Chinese, Imported Food, Thai"
"89",163672,"Nam Pho Restaurant","Chandler","AZ","85224",33.3362676,-111.8741442,"0","Restaurants, Vietnamese"
"90",72277,"Pho Van","Pittsburgh","PA","15222",40.4519604,-79.9824125,"1","Vietnamese, Restaurants"
"91",185967,"CO","Charlotte","NC","28277",35.0510737,-80.7663768,"1","Restaurants, Vietnamese, Asian Fusion, Pan Asian, Sushi Bars"
"92",121237,"Pho Saigon Pearl","Phoenix","AZ","85086",33.8000571,-112.1281334,"1","Restaurants, Vietnamese, Pan Asian"
"93",70074,"Mosaic Southeast Asian","Richmond Hill","ON","L4B 3K4",43.8643608,-79.3834238,"1","Asian Fusion, Vietnamese, Pan Asian, Malaysian, Restaurants"
"94",28361,"Pho Asia","Vaughan","ON","L4L 2S6",43.7851346,-79.5921545,"1","Vietnamese, Thai, Restaurants"
"95",21214,"Tony's Vietnamese Noodle Restaurant","Airdrie","AB","T4A 0E1",51.2621353,-113.9938213,"1","Vegetarian, Restaurants, Soup, Vietnamese"
"96",161976,"Pho Bac 97","Montréal","QC","H2Z 1J3",45.5079111,-73.5598177,"1","Vietnamese, Restaurants"
"97",36340,"Viet Delicious Delicacy","Markham","ON","L3R 0N8",43.826276,-79.3064412,"1","Restaurants, Vietnamese"
"98",181184,"Pho Metro","Markham","ON","L6C 0A2",43.8891301,-79.3148597,"1","Comfort Food, Restaurants, Vietnamese, Noodles, Asian Fusion"
"99",46539,"Regal d'Asie","Montréal","QC","H2S 1S9",45.5353923409,-73.6011700335,"1","Cambodian, Asian Fusion, Restaurants, Vietnamese, Thai"
"100",187298,"Urbanh Cafe","Chandler","AZ","85224",33.3361184,-111.8740989,"1","Bubble Tea, Vietnamese, Juice Bars & Smoothies, Food, Restaurants, Coffee & Tea, Ice Cream & Frozen Yogurt"
"101",56762,"Thai & Pho","Montréal","QC","H3H 1M2",45.493826,-73.5794767,"0","Vietnamese, Thai, Food, Restaurants"
"102",103915,"Pho Asia 39","Toronto","ON","M6M 2J1",43.6918236,-79.5013322,"1","Restaurants, Vietnamese"
"103",24212,"Kim Po Vietnamese Restaurant","Richmond Hill","ON","L4B 3Z4",43.8449826,-79.3837654,"0","Restaurants, Vietnamese"
"104",32232,"Pho Vaughan","Vaughan","ON","L4K",43.8286745,-79.537128,"1","Noodles, Vietnamese, Soup, Restaurants"
"105",140628,"Pho Bo To","North York","ON","M6L 3C9",43.7045581,-79.4921887,"1","Noodles, Soup, Vietnamese, Restaurants"
"106",134752,"Taste of Ginger","Calgary","AB","T2N 1V8",51.054815,-114.085526,"1","Event Planning & Services, Restaurants, Caterers, Vietnamese"
"107",43858,"Rice for King","Airdrie","AB","T4A 0K9",51.2687793,-113.9939037,"1","Restaurants, Vietnamese"
"108",19271,"Pho My Duyen","Toronto","ON","M4W 1A7",43.6592720818,-79.4387483597,"0","Restaurants, Vietnamese"
"109",66970,"Restaurant Chez Lien","Montréal","QC","H1N 1E1",45.5845644,-73.5417635,"1","Canadian (New), Vietnamese, Restaurants"
"110",137430,"Pho House Restaurant","Goodyear","AZ","85338",33.4521399,-112.3597538,"1","Vietnamese, Restaurants"
"111",113601,"Anh Dao","Toronto","ON","M5T 2G6",43.656345,-79.3989615,"1","Restaurants, Asian Fusion, Vietnamese"
"112",34432,"Pho 4 You","Toronto","ON","M1L 4C2",43.7259981416,-79.2867549509,"0","Thai, Restaurants, Vietnamese"
"113",103616,"Fickle","Toronto","ON","M4Y 1Y3",43.6658848249,-79.386177063,"0","Vietnamese, Restaurants, Asian Fusion, Chinese, Thai"
"114",191374,"Mekong River","Toronto","ON","M9B",43.6323967,-79.5444351,"1","Vietnamese, Restaurants, Chinese, Thai"
"115",101832,"Restaurant Chez Lien","Dollard-Des-Ormeaux","QC","H9G 1X2",45.4722154031,-73.8322891601,"1","French, Vietnamese, Chinese, Restaurants"
"116",21510,"Vietnam Fortune Vietnamese Restaurant","Calgary","AB","T2N 3R1",51.0520958,-114.0944019,"1","Restaurants, Vietnamese"
"117",178995,"Pho Ngon","Montréal","QC","H1Z 4M5",45.5622,-73.607714,"1","Food, Restaurants, Vietnamese, American (New), Canadian (New)"
"118",48992,"Restaurant Dong Que","Montréal","QC","H2S 2A5",45.5360012,-73.5938056,"1","Vietnamese, Restaurants"
"119",39348,"Akahana Asian Bistro","Charlotte","NC","28205",35.2208416857,-80.8102792551,"1","Asian Fusion, Restaurants, Vietnamese, Sushi Bars"
"120",40958,"Viet Gril Express","Montréal","QC","H1L 2M7",45.6018349,-73.5196029,"1","Restaurants, Vietnamese"
"121",47813,"Mint Leaf","Calgary","AB","T2P 0J6",51.0500223012,-114.0723950788,"1","Restaurants, Vietnamese, Noodles, Seafood"
"122",163174,"Bouddha Bouddha Restaurant","Montréal","QC","H2X 2V4",45.5146669,-73.5745163,"0","Thai, Vietnamese, Restaurants"
"123",80507,"Bun Saigon Vietnamese Restaurant","Toronto","ON","M5T 2C2",43.6516468,-79.3978711,"1","Specialty Food, Ethnic Food, Vietnamese, Food, Restaurants"
"124",116551,"Angelina's Pho & Grill Bar","Glendale","AZ","85308",33.6400392682,-112.1740730454,"1","Asian Fusion, Vietnamese, Seafood, Sushi Bars, Restaurants, Tapas/Small Plates"
"125",185988,"Sao Sao","Brossard","QC","J4Y 1T1",45.4611089,-73.464396,"1","Vietnamese, Restaurants"
"126",23203,"Le Ngoc","Montréal","QC","H2G 1M2",45.5447056,-73.5953826,"1","Restaurants, Vietnamese"
"127",63954,"Pho Thanh Long","Las Vegas","NV","89109",36.1413542,-115.135591,"1","Vietnamese, Restaurants"
"128",50489,"Pho Place","Charlotte","NC","28202",35.2307996,-80.8403082,"1","Specialty Food, Food, Vietnamese, Restaurants"
"129",143776,"Seoul Garden","Tempe","AZ","85281",33.4130961,-111.9262735,"0","Restaurants, Korean, Vietnamese"
"130",37432,"Pho Anh Huyen Noodle House","Calgary","AB","T2E 2R8",51.064562,-114.06281,"1","Vietnamese, Restaurants"
"131",169335,"Pho Kitchen","Las Vegas","NV","89146",36.1269027,-115.2411278,"0","Noodles, Vietnamese, Restaurants"
"132",28884,"Noodle King Vietnamese Restaurant","Calgary","AB","T2E 6Z3",51.080019476,-114.0056997313,"1","Restaurants, Vietnamese"
"133",25911,"Yummy Pho","Markham","ON","L6G 0A4",43.848061057,-79.348679781,"0","Vietnamese, Restaurants"
"134",131083,"Pho Rang Dong","Toronto","ON","M6H 3L9",43.6775994,-79.444054,"1","Restaurants, Vietnamese"
"135",181680,"BanhMi Sub","Calgary","AB","T2A 6K4",51.056734,-113.987922,"1","Sandwiches, Asian Fusion, Vegetarian, Vietnamese, Noodles, Restaurants"
"136",154799,"Viet Thai Restaurant","Mississauga","ON","L5M 5Y7",43.5647878954,-79.7008565068,"0","Restaurants, Vietnamese, Thai"
"137",110955,"Noodle House","Mississauga","ON","L5E 1E3",43.5750667,-79.5606917,"0","Thai, Restaurants, Chinese, Vietnamese"
"138",40881,"Viet House","Madison","WI","53704",43.1028868,-89.3447941,"0","American (New), Restaurants, Vietnamese"
"139",153815,"Pho Challenge","Toronto","ON","M4K 3W1",43.6886692443,-79.3484129012,"1","Vietnamese, Thai, Restaurants, Canadian (New)"
"140",40031,"PT Noodles","Goodyear","AZ","85395",33.4621489,-112.3554015,"1","Vietnamese, Food, Noodles, Juice Bars & Smoothies, Restaurants"
"141",60442,"Minh-Anh Vietnamese Restaurant","Cleveland","OH","44102",41.4856126,-81.7248886,"1","Vietnamese, Restaurants"
"142",127819,"TOA Vietnamese Cuisine","Calgary","AB","T2P 5E4",51.047573,-114.0767933,"1","Vietnamese, Restaurants"
"143",3423,"Saigon Maxim","Calgary","AB","T2C 4E4",50.977253,-114.015446,"1","Restaurants, Vietnamese"
"144",165234,"Dong Gia","Toronto","ON","M8W 3S2",43.598417624,-79.544101321,"1","Restaurants, Thai, Hot Pot, Vietnamese, Halal"
"145",93976,"Kim Anh Oriental Groceries & Gifts","Charlotte","NC","28273",35.152556,-80.951154,"1","Gift Shops, Vietnamese, Grocery, Shopping, Food, Flowers & Gifts, Imported Food, International Grocery, Ethnic Food, Restaurants, Ethnic Grocery, Specialty Food"
"146",66975,"Ha Long Bay","Madison","WI","53703",43.0855448,-89.3607155,"1","Thai, Restaurants, Vietnamese, Laotian"
"147",102558,"The Street Eatery","Calgary","AB","T2P 0K4",51.0501231,-114.0807025,"1","Nightlife, Burgers, Comfort Food, Mexican, Food, Canadian (New), Vegan, Indian, Vietnamese, Korean, Sandwiches, Street Vendors, Cocktail Bars, Bars, Beer Bar, Restaurants, Barbeque, Thai"
"148",138901,"Pho 26","Calgary","AB","T2A 0S8",51.0378332,-113.9758421,"1","Vietnamese, Restaurants"
"149",157330,"Sen Vang","Montréal","QC","H3W 2P8",45.492034,-73.6326880841,"1","Restaurants, Vietnamese"
"150",8490,"Pho 88","Toronto","ON","M3C 1V6",43.7268982,-79.3420715,"1","Thai, Restaurants, Vietnamese"
"151",88177,"Vietnamese Western Cuisine","Airdrie","AB","T4B 3J9",51.27179056,-114.0176109926,"1","Food, Restaurants, Vietnamese"
"152",8641,"Pho Bac No1","Verdun","QC","H4G 1X2",45.4577073,-73.5677415,"1","Vietnamese, Restaurants"
"153",118461,"Lee's Sandwiches","Henderson","NV","89123",36.0155847768,-115.1173076034,"1","Food, Sandwiches, Asian Fusion, Delis, Restaurants, Vietnamese"
"154",12951,"Pho Hoa","Las Vegas","NV","89169",36.1071917,-115.1521039,"1","Restaurants, Vietnamese, Soup"
"155",42408,"Pho Linh","Vaughan","ON","L4K 2Y7",43.7829713,-79.4898389,"1","Restaurants, Vietnamese, Fast Food"
"156",64551,"Pho Saigon Viet-Nam","Montréal","QC","H2Z 1J6",45.5084101,-73.5600052,"1","Soup, Vietnamese, Restaurants, Chinese"
"157",9027,"Pho Mai","Calgary","AB","T2N 1Z4",51.0516116,-114.0944369,"0","Vietnamese, Restaurants"
"158",132438,"Bubblelicious","Calgary","AB","T2A 7X6",51.060643,-113.984678,"0","Juice Bars & Smoothies, Desserts, Vietnamese, Restaurants, Coffee & Tea, Food"
"159",163575,"Thang Long Restaurant","Vaughan","ON","L4K 5Y6",43.8286745,-79.537128,"1","Restaurants, Vietnamese"
"160",81692,"Restaurant Chez Lien","Montréal","QC","H2H 1J4",45.5345389,-73.5732345,"0","Vietnamese, Restaurants"
"161",142149,"Mekong Sandwiches","Mesa","AZ","85202",33.4139012658,-111.8759814711,"1","Sandwiches, Restaurants, Vietnamese"
"162",78301,"Pho 88 Viet Thai Cuisine","Toronto","ON","M4B 1B3",43.8251957,-79.2761678,"1","Restaurants, Vietnamese"
"163",19090,"Sumo Ramen","Montréal","QC","H2Z 1J4",45.508002,-73.559363,"1","Vietnamese, Ramen, Japanese, Restaurants, Noodles"
"164",137187,"Tam's Kitchen","Airdrie","AB","T4B 0R6",51.293432,-114.0133111,"1","Soup, Asian Fusion, Chinese, Vietnamese, Restaurants, Burgers"
"165",174111,"Pho Mi 99","Vaughan","ON","L6A",43.8283350769,-79.5393504897,"1","Thai, Restaurants, Vietnamese"
"166",32648,"Xe Lua Vietnamese Restaurant","Toronto","ON","M2H 1T2",43.7907360299,-79.3670115071,"1","Vietnamese, Restaurants"
"167",85986,"Saigon VIP","Montréal","QC","H3H 1M1",45.493003,-73.5800167,"1","Restaurants, Vietnamese"
"168",2430,"Pho Vuho","Oakville","ON","L6H 6Z9",43.4872524,-79.7163561,"1","Thai, Restaurants, Vietnamese"
"169",41580,"Com Pho The Ky","Vaughan","ON","L4K 1A2",43.7747223032,-79.5258833648,"1","Restaurants, Vietnamese"
"170",64817,"Saigon Pho & Seafood","Chandler","AZ","85224",33.3272817338,-111.858255,"1","Korean, Vietnamese, Restaurants, Seafood, Soup"
"171",59493,"Le Gourmet Thai Viet Restaurant","Montréal","QC","H2X 2X7",45.5144579,-73.5725487,"0","Restaurants, Thai, Asian Fusion, Vietnamese"
"172",170878,"Q1 Le Pho","Richmond Hill","ON","L4S 0A1",43.880843,-79.394231,"1","Restaurants, Vietnamese"
"173",176198,"La Cay Subs","Calgary","AB","T2A 6L8",51.060698,-113.9809451,"1","Vietnamese, Restaurants, Sandwiches"
"174",125297,"Green Fusion","Toronto","ON","M5B 1S9",43.6594369,-79.382098,"0","Vietnamese, Restaurants"
"175",60452,"Nhu Lan","Las Vegas","NV","89102",36.1267513,-115.1977733,"0","Korean, Vietnamese, Restaurants"
"176",109279,"Que Huong Restaurant","Las Vegas","NV","89146",36.126539,-115.2258059,"0","Restaurants, Vietnamese"
"177",4413,"Green Thai Viet Fusion","Richmond Hill","ON","L4B 4V9",43.8442132,-79.4077687,"0","Restaurants, Thai, Vietnamese"
"178",121789,"Pho Huong Viet Noodle House","Calgary","AB","T3E 0C3",51.0373124,-114.1427941,"1","Vietnamese, Restaurants"
"179",23004,"Lee's Sandwiches","Chandler","AZ","85224",33.334598,-111.87475,"1","Sandwiches, Coffee & Tea, Restaurants, Ice Cream & Frozen Yogurt, Vietnamese, Bakeries, Asian Fusion, Food"
"180",130793,"Rice For King District","Calgary","AB","T3K",51.152975,-114.029935,"1","Vietnamese, Restaurants"
"181",77804,"Pho Hoang Duc","Phoenix","AZ","85017",33.5083788223,-112.134555392,"1","Vietnamese, Restaurants, Soup, Asian Fusion"
"182",88967,"Restaurant Anh-Tai","Dollard-des-Ormeaux","QC","H8Y 3C7",45.5031769,-73.8165891,"0","Canadian (New), Vietnamese, Restaurants"
"183",52076,"Phu Quoc Island Vietnamese Restaurant","Richmond Hill","ON","L4B 3Z4",43.8448702,-79.383705,"0","Thai, Tea Rooms, Singaporean, Restaurants, Soup, Vietnamese, Food"
"184",52855,"Pho Mai Mai Restaurant","North Las Vegas","NV","89030",36.2404462279,-115.1163002245,"1","Noodles, Restaurants, Vietnamese, Soup"
"185",63625,"Pepper Cafe","Gilbert","AZ","85233",33.3344692826,-111.8048200384,"0","Vietnamese, Restaurants, Cantonese, Chinese"
"186",135333,"Pho Saigon 8","Las Vegas","NV","89123",36.0253639,-115.1190162,"1","Seafood, Restaurants, Noodles, Vietnamese"
"187",135770,"Pho Basil","Stouffville","ON","L4A 1G8",43.9717057,-79.2462364,"1","Restaurants, Chinese, Vietnamese"
"188",170535,"Saigon Annam","Calgary","AB","T2Z 3J3",50.950953,-114.002526,"0","Restaurants, Vietnamese"
"189",48110,"Pho Minh","Pittsburgh","PA","15224",40.4653614,-79.9445218,"1","Restaurants, Vietnamese"
"190",23725,"Pho 88","Toronto","ON","M5T 2E5",43.6521744,-79.3980351,"0","Vietnamese, Restaurants"
"191",103457,"Chez Lien Restaurant","Lasalle","QC","H8N 1Y1",45.4339537,-73.6287443,"1","Restaurants, Vietnamese"
"192",148357,"PT Noodles","Phoenix","AZ","85013",33.509785,-112.0831272,"1","Vietnamese, Restaurants, Noodles"
"193",118110,"Pho Vy","Calgary","AB","T2J 6T5",50.928477,-114.030034,"1","Vietnamese, Restaurants"
"194",22845,"Bistro Merlot","Pierrefonds","QC","H9K 1M7",45.4520651,-73.887346,"0","Salad, Restaurants, Asian Fusion, Caterers, Pizza, Event Planning & Services, Vietnamese"
"195",52231,"Viet House","Toronto","ON","M6A 2T2",43.718375182,-79.4572345683,"1","Restaurants, Food, Specialty Food, Asian Fusion, Ethnic Food, American (New), Vietnamese, Canadian (New)"
"196",108156,"Asian Bowl","Toronto","ON","M5B 1N8",43.6554,-79.3802883,"1","Vietnamese, Restaurants, Thai, Chinese"
"197",79537,"Okane","Montréal","QC","H3C 0B1",45.4941255,-73.5641088,"1","Vietnamese, American (New), Sushi Bars, Canadian (New), Japanese, Restaurants"
"198",191065,"Noodle King","Airdrie","AB","T4B 3G2",51.2652115763,-114.0045341849,"1","Restaurants, Vietnamese"
"199",60106,"Top Saigon Restaurant","Richmond Hill","ON","L4B 3Z4",43.8443998,-79.3826009,"0","Vietnamese, Restaurants"
"200",38921,"Pho Kim","Mesa","AZ","85202",33.4081147091,-111.8739799948,"1","Vietnamese, Desserts, Food, Soup, Restaurants"
"201",134156,"Pho Xyclo","Toronto","ON","M4Y 2C5",43.6641927,-79.3801959,"0","Vietnamese, Nightlife, Lounges, Bars, Restaurants, Asian Fusion"
"202",33830,"Pho Indochine","Toronto","ON","M4X 1P8",43.6674228,-79.3694556,"0","Vietnamese, Restaurants"
"203",76633,"Chez Tâu Bay","Montréal","QC","H2R 2N1",45.540315,-73.613648,"1","Vietnamese, Restaurants"
"204",69931,"Hai Thai & Vietnamese Cuisine","Whitby","ON","L1N 2N3",43.8777353,-78.9495509,"1","Thai, Food, Restaurants, Bubble Tea, Vietnamese"
"205",123701,"Saigon Grill","Vaughan","ON","L4J 8M5",43.8234306283,-79.4732210736,"0","Vietnamese, Imported Food, Asian Fusion, Ethnic Food, Restaurants, Food, Specialty Food"
"206",138184,"Coreana","Madison","WI","53715",43.0731376,-89.4092065,"0","Vietnamese, Japanese, Korean, Restaurants"
"207",150821,"La Merveille du Vietnam","Montréal","QC","H2J 2L3",45.524057,-73.583601,"0","Japanese, Vietnamese, Sushi Bars, Restaurants"
"208",26591,"AZ Pho & Grill","Chandler","AZ","85286",33.2606712,-111.7903914,"1","Bubble Tea, Restaurants, Food, Vietnamese"
"209",30274,"Pho Mi 99","Brampton","ON","L6Y 0B8",43.6634633416,-79.7319459915,"1","Food, Restaurants, Vietnamese"
"210",91043,"Pho 123","Brampton","ON","L6S",43.7478139375,-79.6989136542,"1","Restaurants, Vietnamese"
"211",103313,"Thanh Son Tofu","Mississauga","ON","L4Y 4G6",43.5975508025,-79.5943191648,"1","Restaurants, Vietnamese"
"212",44353,"Pho Rua Vang Golden Turtle","Toronto","ON","M6J 2Z2",43.646823,-79.4196807,"1","Restaurants, Specialty Food, Vietnamese, Ethnic Food, Food"
"213",82047,"Sunny Vietnamese Restaurant","Calgary","AB","T2G 0B2",51.050889,-114.061939,"0","Vietnamese, Restaurants"
"214",131200,"Be's Noodles & Banh Mi","Charlotte","NC","28277",35.056411,-80.8354073,"1","Sandwiches, Vietnamese, Noodles, Restaurants"
"215",189794,"Phnom Penh Restaurant","Cleveland","OH","44111",41.4582548,-81.7809899,"0","Vietnamese, Thai, Restaurants, Cambodian"
"216",107562,"Vinh Hing","Saint-Laurent","QC","H4L 3M3",45.5135344,-73.6812365,"1","Restaurants, Vietnamese"
"217",176510,"Miss Pho","Vaughan","ON","L4L 4Y5",43.7691811,-79.5527093,"0","Restaurants, Vietnamese"
"218",111871,"3rd St Sushi & Bar","Phoenix","AZ","85007",33.4589941957,-112.0688335982,"0","Vietnamese, Bars, Restaurants, Nightlife, Sushi Bars"
"219",120074,"Pho Wes","Mesa","AZ","85202",33.3892012007,-111.8608208746,"0","Vietnamese, Restaurants, Cafeteria, Chinese"
"220",63523,"The Saigon Hustle","Toronto","ON","M5V 2A6",43.6486829,-79.3973288,"0","Restaurants, Vietnamese"
"221",110870,"Pho Mai Thy","Calgary","AB","T2K 3R4",51.107567,-114.063869,"1","Vietnamese, Restaurants"
"222",101757,"Banh Xeo Minh","Montréal","QC","H2S 1J1",45.5432267,-73.6062116,"1","Vietnamese, Restaurants"
"223",29224,"Pho Que Huong","Cleveland","OH","44102",41.4859684,-81.7223746,"0","Vietnamese, Restaurants"
"224",114854,"Hohomi Rice and Noodle House","Markham","ON","L6C 0A2",43.8889628,-79.3143887,"0","Vietnamese, Restaurants"
"225",160854,"Pho 88","Toronto","ON","M6G 1K4",43.6649399148,-79.4129699841,"1","Vietnamese, Restaurants"
"226",168139,"White Oak Restaurant","Calgary","AB","T2G 0B6",51.0502105,-114.0607032,"0","Chinese, Vietnamese, Restaurants, Vegetarian"
"227",178484,"#1 Pho","Middleburg Heights","OH","44130",41.3517269,-81.785527,"0","Restaurants, Vietnamese"
"228",186058,"IPho Vietnamese Cuisine","Toronto","ON","M4J 1L2",43.679804,-79.3413499,"0","Vietnamese, Restaurants"
"229",20640,"Saigon Vietnamese Cuisine","Savoy","IL","61874",40.0704268,-88.2515456,"0","Vietnamese, Restaurants"
"230",58890,"Sage Bar","Chandler","AZ","85226",33.3048103,-111.9270642,"0","Lounges, Beer, Wine & Spirits, Vietnamese, Bars, Food, American (New), Restaurants, Sports Bars, Nightlife"
"231",82928,"Dine and Chill","Mississauga","ON","L5B 3C3",43.5916403,-79.6363202,"0","Japanese, Vietnamese, Restaurants, Asian Fusion"
"232",123873,"Viet Sub Express","Calgary","AB","T3C 1S7",51.0388829,-114.141722,"1","Vietnamese, Restaurants"
"233",65478,"Bami Vietnamese Eatery","Calgary","AB","T3R 0N2",51.1526716,-114.2057082,"1","Restaurants, Vietnamese"
"234",136545,"PT Noodle","Surprise","AZ","85379",33.6088164,-112.3571291,"1","Restaurants, Food, Juice Bars & Smoothies, Noodles, Vietnamese, Soup"
"235",136935,"Viet Kitchen","Las Vegas","NV","89102",36.1262617,-115.2070894,"0","Vietnamese, Food, Restaurants"
"236",60249,"CO","Charlotte","NC","28209",35.174959,-80.8487112,"1","Vietnamese, Korean, Asian Fusion, Sushi Bars, Restaurants"
"237",165625,"Pho 87","Las Vegas","NV","89103",36.1233694,-115.2246242,"1","Restaurants, Vietnamese"
"238",187054,"Thai Tai","Airdrie","AB","T4B 3G2",51.26541743,-114.0042937736,"1","Bubble Tea, Restaurants, Food, Vietnamese, Soup, Noodles"
"239",115519,"Vietnamese Noodle House","Toronto","ON","M6N 1L2",43.6689833,-79.48356,"0","Restaurants, Vietnamese"
"240",124107,"Ginger Restaurant","Toronto","ON","M5V 1Z2",43.6503648,-79.3892282,"1","Restaurants, Vietnamese"
"241",65161,"Mint Garden","Newmarket","ON","L3Y",44.073795599,-79.4344339118,"1","Food, Vietnamese, Restaurants"
"242",57582,"Picko Lime","Vaughan","ON","L4K 5Y6",43.8280206984,-79.5369870234,"1","Restaurants, Vietnamese"
"243",67795,"La Perle Vietnamienne","Vimont","QC","H7M 2R4",45.6057056,-73.7319394,"1","Vietnamese, Restaurants"
"244",12427,"Maxim Restaurant","Phoenix","AZ","85015",33.4884076,-112.1003957,"0","Vietnamese, Restaurants, Chinese"
"245",50782,"Saigon Palace","Charlotte","NC","28217",35.1658383354,-80.8754028752,"1","Restaurants, Vietnamese"
"246",130109,"Pho Huong Saigon","Las Vegas","NV","89103",36.123621,-115.2074151,"0","Restaurants, Vietnamese"
"247",189564,"Pho 88 Vietnamese Restaurant","Scarborough","ON","M1W 3Y1",43.8144172,-79.323702,"1","Vietnamese, Restaurants"
"248",72576,"Ha Long Bay Restaurant","Calgary","AB","T2P 0W6",51.0467667,-114.06733,"1","Vietnamese, Restaurants"
"249",7541,"Pho Noodles","Phoenix","AZ","85013",33.4887595,-112.0824018416,"1","Vietnamese, Restaurants, Noodles"
"250",61510,"Ben Thanh Vietnamese Thai Cuisine","Mississauga","ON","L5K 1R9",43.5240253,-79.6813199,"0","Vietnamese, Asian Fusion, Restaurants, Thai"
"251",111829,"Pho 198","Montréal","QC","H3T 1Y1",45.4955724,-73.6205803,"0","Restaurants, Vietnamese"
"252",116091,"Green Bamboo Restaurant","Scarborough","ON","M1S 5H5",43.785457,-79.2780497,"0","Vietnamese, Restaurants"
"253",182678,"Pho Bosa","Las Vegas","NV","89102",36.1224049688,-115.1909583807,"1","Soup, Restaurants, Vietnamese"
"254",35315,"Ha Long Bay Bistro","Toronto","ON","M5N 1B1",43.7033552,-79.4139248,"0","Vietnamese, Restaurants"
"255",59962,"Pho Thanh Nga","Calgary","AB","T3M 0S9",50.8807721,-113.9781784,"1","Restaurants, Vietnamese"
"256",121543,"Restaurant Zone D'asie","Montréal","QC","H2E 1V3",45.5503432,-73.6047153,"1","Restaurants, Vietnamese"
"257",105428,"Subs 'n' Bubbles","Calgary","AB","T2H 1Z1",50.9891698913,-114.0632832278,"1","Farmers Market, Food, Restaurants, Food Trucks, Vietnamese, Coffee & Tea"
"258",45863,"Song Lynn","Phoenix","AZ","85037",33.4780159,-112.254559,"1","Vegetarian, Vietnamese, Restaurants"
"259",64462,"Pho King Vietnamese Kitchen","Las Vegas","NV","89123",36.0189545176,-115.1172992215,"1","Vietnamese, Soup, Restaurants"
"260",17506,"Restaurant Lune d'Asie","Montréal","QC","H2H 1K5",45.5367358,-73.5711354,"0","Japanese, Vietnamese, Restaurants, Thai, French"
"261",74,"Kim Hour","Montréal","QC","H2A 3A5",45.561651,-73.605223,"1","Chinese, Thai, Vietnamese, Cambodian, Restaurants, Asian Fusion"
"262",4361,"Pho Cali Thai","Charlotte","NC","28273",35.1338376387,-80.9391291968,"1","Restaurants, Seafood, Vietnamese, Thai"
"263",34955,"Essence of Saigon Garden","Calgary","AB","T2L 1V9",51.101708,-114.138665,"1","Vietnamese, Restaurants"
"264",94901,"Khai Hoàn Restaurant","Tempe","AZ","85281",33.4142116,-111.9126567,"1","Vietnamese, Korean, Restaurants"
"265",28658,"K & B Noodle House","Calgary","AB","T2E 7E2",51.05905,-114.06255,"1","Vietnamese, Chinese, Restaurants, Thai"
"266",82361,"Thai Tai","Calgary","AB","T2G",51.050269,-114.0627215,"1","Restaurants, Sandwiches, Vietnamese, Bubble Tea, Thai, Food"
"267",18397,"Pho Ba Ca Restaurant Corporation","Mississauga","ON","L5A 2G4",43.5795389,-79.614635,"0","Restaurants, Vietnamese"
"268",136540,"Bowness Vietnamese Restaurant","Calgary","AB","T3B",51.0861405,-114.1816709,"1","Restaurants, Vietnamese"
"269",122495,"Pho Hien","Mesa","AZ","85202",33.4058218,-111.8752398,"0","Vietnamese, Restaurants, Specialty Food, Food, Ethnic Food, Asian Fusion"
"270",135575,"Banh Mi & Ti","Pittsburgh","PA","15201",40.4721452731,-79.958936443,"1","Restaurants, Cafes, Vietnamese, Bubble Tea, Food"
"271",91807,"Pho Huong Trang","North York","ON","M3J 1L5",43.7459133,-79.4875285,"1","Restaurants, Vietnamese"
"272",113379,"Thien Phu","Charlotte","NC","28205",35.2177514,-80.7929533,"1","Restaurants, Vietnamese"
"273",78134,"Ginger","Toronto","ON","M5A 2L1",43.6644707,-79.3682022,"0","Restaurants, Vietnamese, Thai"
"274",103961,"Pho Ginger","Mississauga","ON","L5R 3V2",43.592762,-79.668494,"0","Restaurants, Vietnamese"
"275",7473,"Pho Mi Xuan Mai Vietnamese Cuisine","Mississauga","ON","L4Y 2C3",43.604167912,-79.5904118568,"0","Vietnamese, Restaurants"
"276",61923,"Table Top Grill And Sushi","Phoenix","AZ","85019",33.5239046,-112.1493903,"0","Restaurants, Vietnamese, Sushi Bars, Korean"
"277",118528,"Kanda House","Pittsburgh","PA","15213",40.451222,-79.9515915,"0","Japanese, Restaurants, Vietnamese, Chinese"
"278",116784,"Loving Hut","Phoenix","AZ","85018",33.494905,-112.0113546,"1","Vietnamese, Vegetarian, Restaurants, Chinese, Sandwiches, Vegan"
"279",171540,"Restaurant Chez Lien","Rosemere","QC","J7A 2H1",45.6212487982,-73.7978294368,"1","Vietnamese, Restaurants"
"280",63264,"My Pho","Mississauga","ON","L5R 3V2",43.5917189,-79.667083,"0","Restaurants, Vietnamese, Thai"
"281",5956,"88 Vietnamese Restaurant","Mississauga","ON","L4Y 4G6",43.5984857,-79.5951298,"0","Restaurants, Vietnamese"
"282",170478,"The Corktown Kitchen","Toronto","ON","M5A 1K9",43.6532485,-79.3623477,"0","Asian Fusion, Canadian (New), Vietnamese, Sandwiches, American (Traditional), Restaurants, Barbeque"
"283",169699,"Cafeden","Montréal","QC","H2S 3C6",45.5311629,-73.6107867,"1","Vietnamese, Restaurants, Cafes"
"284",105347,"Pho 88","Las Vegas","NV","89139",36.0447344,-115.2425,"1","Vietnamese, Soup, Restaurants, Noodles"
"285",142388,"Lac Vien Vietnamese Restaurant","Mississauga","ON","L4X 1L4",43.6135919212,-79.578694962,"1","Restaurants, Vietnamese"
"286",47568,"Phomono Vietnamese Cuisine","Ajax","ON","L1Z 1G1",43.8624231,-79.0228542,"1","Restaurants, Vietnamese"
"287",191758,"Pho Sate","Calgary","AB","T3R 0J4",51.172466,-114.158228,"1","Specialty Food, Food, Vietnamese, Restaurants, Ethnic Food"
"288",183658,"Pholicious","Peoria","AZ","85381",33.5967239,-112.2223346,"1","Restaurants, Vietnamese"
"289",6525,"Pho Viet Xpress","Woodbridge","ON","L4L 5X7",43.7851211865,-79.5653369778,"1","Vietnamese, Restaurants"
"290",149041,"Nam Do","Montréal","QC","H2R 2E2",45.538168,-73.613607,"1","Pan Asian, Restaurants, Vietnamese"
"291",176377,"Good Pho You","Ajax","ON","L1S 3K3",43.84128,-79.026708,"1","Sandwiches, Chinese, Restaurants, Thai, Vietnamese"
"292",111336,"Pho House","Phoenix","AZ","85008",33.4657151,-112.0106085,"0","Restaurants, Vietnamese"
"293",14140,"Saigon To Bangkok","Savoy","IL","61874",40.0704268,-88.251563,"0","Restaurants, Vietnamese, Shopping, Thai"
"294",17635,"Q1 Pho Famous","Toronto","ON","M5T 1H3",43.6529547,-79.3991357,"1","Vietnamese, Restaurants"
"295",191703,"Pho Thien Huong","Las Vegas","NV","89146",36.1271948,-115.2413396,"0","Restaurants, Vietnamese"
"296",182950,"Viet Noodle Bar","Las Vegas","NV","89146",36.1265668,-115.2132314,"1","Soup, Vietnamese, Barbeque, Restaurants"
"297",77000,"Da Lat","Las Vegas","NV","89103",36.1150660797,-115.2031197524,"1","Restaurants, Vietnamese"
"298",18951,"Saigon Thai Restaurant","Calgary","AB","T2V 0R6",50.9751421,-114.0726941,"1","Thai, Vietnamese, Restaurants"
"299",44854,"Pho Viet","Montréal","QC","H3H 2H9",45.4943422,-73.5806085,"1","Vietnamese, Restaurants"
"300",112710,"Le Petit Saigon","Greenfield Park","QC","J4V 2J1",45.4857048,-73.4655488,"1","Restaurants, Vietnamese"
"301",191322,"Tampopo","Montréal","QC","H2J 3B4",45.5268842,-73.5795218,"1","Restaurants, Vietnamese, Asian Fusion, Thai, Chinese"
"302",73012,"Pho Mi Binh Minh","Mississauga","ON","L5A 3K7",43.5956707153,-79.6039429307,"1","Restaurants, Thai, Vietnamese"
"303",116793,"Nori Sushi","Montréal","QC","H1W 1B2",45.5407710012,-73.560804402,"1","Japanese, Restaurants, Sushi Bars, Vietnamese"
"304",51295,"Super 7 Restaurant","Scarborough","ON","M1V 5P6",43.8318556,-79.267356,"0","Thai, Vietnamese, Restaurants"
"305",167487,"LJ Filipino Restaurant and Pub","Las Vegas","NV","89123",36.0287132805,-115.1357470534,"0","Asian Fusion, Filipino, Vietnamese, Restaurants"
"306",26314,"Pho Fuzion","Mississauga","ON","L5R",43.5986130981,-79.6795193816,"0","Food, Restaurants, Vietnamese, Canadian (New)"
"307",71238,"Golden Elephant","Toronto","ON","M1V 5N3",43.82526,-79.30032,"0","Vietnamese, Restaurants, Thai"
"308",186304,"Pho Cafe","Champaign","IL","61820",40.1100759,-88.229804,"1","Thai, Vietnamese, Restaurants"
"309",30900,"Pho MyMy","Montréal","QC","H2J 1N2",45.5256578,-73.5860241,"1","Restaurants, Soup, Vietnamese"
"310",21192,"Pho Feel'n","Gastonia","NC","28052",35.2635128,-81.1827164,"1","Restaurants, Vietnamese, Asian Fusion, Pan Asian"
"311",72089,"Pho Ling's","Markham","ON","L3R 3P3",43.84946,-79.347255,"1","Vietnamese, Ethnic Food, Food, Imported Food, Restaurants, Specialty Food"
"312",111449,"Pho Mi 66","Brampton","ON","L6W 0A6",43.6800278,-79.718472,"1","Restaurants, Thai, Vietnamese"
"313",111051,"Kimpo Vietnamese Restaurant","Scarborough","ON","M1V 4S3",43.8235361477,-79.3051958084,"1","Vietnamese, Restaurants"
"314",26986,"Nguyen Huong Food","Toronto","ON","M5T 2G2",43.6536857,-79.3986069,"1","Restaurants, Vietnamese, Bakeries, Food"
"315",28816,"Noodle ChaCha","Henderson","NV","89014",36.068756,-115.069468,"0","Food, Vietnamese, Chinese, Tea Rooms, Japanese, Restaurants"
"316",31388,"Banh Mi 24","Toronto","ON","M1V 0C8",43.8051951,-79.2896449,"0","Vietnamese, Sandwiches, Soup, Restaurants"
"317",58440,"Pho Nam Noodle House","Madison","WI","53717",43.0732552,-89.5266501,"1","Noodles, Restaurants, Vietnamese"
"318",6288,"Pho Number One","Mesa","AZ","85202",33.377582,-111.877018,"1","Thai, Vietnamese, Restaurants"
"319",188687,"Pho Hong Vietnamese Noodle Soup","Richmond Hill","ON","L4B 3Z4",43.8449826,-79.3837654,"0","Restaurants, Vietnamese, Korean"
"320",160650,"Sushi Kamikaze","Brossard","QC","J4W 1M9",45.4607291,-73.4675608,"1","Sushi Bars, Restaurants, Vietnamese, Event Planning & Services, Caterers"
"321",22277,"Pallets Food and Bar","Phoenix","AZ","85004",33.459054,-112.068953,"0","Japanese, Nightlife, Bars, Vietnamese, Cocktail Bars, Sushi Bars, Restaurants"
"322",161737,"Pho Pho Express","Newmarket","ON","L3Y 8E4",44.0594496,-79.4302897,"0","Restaurants, Chinese, Vietnamese"
"323",7378,"Pho Van Noodle House","Calgary","AB","T3K",51.1421775,-114.0697757,"1","Restaurants, Vietnamese"
"324",65432,"Buddha Chay","Toronto","ON","M9N 2T2",43.7061677,-79.5051206,"1","Vietnamese, Vegetarian, Restaurants, Vegan"
"325",26223,"A Touch of Ginger","Calgary","AB","T2G 0E2",51.0485729,-114.0618155,"0","Restaurants, Thai, Vietnamese"
"326",2828,"Pho So 1","Midnapore","AB","T2X 1N4",50.9135623,-114.0639924,"1","Restaurants, Vietnamese"
"327",115002,"A Taste of Saigon Restaurant","Calgary","AB","T3G 5T4",51.1522987627,-114.214341,"1","Vietnamese, Restaurants"
"328",141107,"Pinky's Ca Phe","Toronto","ON","M6G 2Y4",43.6557045378,-79.413819664,"1","Vietnamese, Restaurants"
"329",189436,"World Delicatessen","Calgary","AB","T2G 0P5",51.0441972,-114.0627976,"1","Vietnamese, Restaurants, Sandwiches, Delis"
"330",101038,"Van Son Vietnamese Cuisine","Calgary","AB","T2M 0H6",51.0670108,-114.0675281,"1","Restaurants, Vietnamese"
"331",37536,"Le La Vietnamese Restaurant","Calgary","AB","T2H 0C3",50.995187,-114.063366,"1","Restaurants, Vietnamese"
"332",96004,"Banh Mi Shop","Toronto","ON","M4X 1X6",43.6719796,-79.3767217,"0","Sandwiches, Vietnamese, Restaurants"
"333",20120,"Basil Box","North York","ON","M2M 3S9",43.7800082232,-79.415291436,"1","Gluten-Free, Thai, Salad, Vietnamese, Restaurants"
"334",29021,"Chokh Di Noodle House","Indian Trail","NC","28079",35.0792755963,-80.6551620363,"1","Restaurants, Thai, Noodles, Vietnamese, Japanese, Asian Fusion"
"335",59480,"Sidestreet Pho and Grill","Las Vegas","NV","89117",36.1300414,-115.2777854,"1","Restaurants, Vietnamese, American (Traditional)"
"336",182155,"Nouilles du Chef","Montréal","QC","H3H 1M1",45.4936720434,-73.5799884796,"1","Restaurants, Chinese, Vietnamese, Thai"
"337",41360,"Satay House Vietnamese Restaurant","Calgary","AB","T2A 0T4",51.037121,-113.988516,"1","Restaurants, Vietnamese"
"338",39681,"Lilly's Thai & Vietnamese Restaurant","Las Vegas","NV","89117",36.1430817,-115.2536257,"0","Thai, Chinese, Vietnamese, Restaurants"
"339",85353,"Sao Sao","Brossard","QC","J4Y",45.4610514308,-73.4643492083,"1","Restaurants, Vietnamese"
"340",81116,"Tan Lac Vien","Pittsburgh","PA","15217",40.4331995,-79.9232519,"1","Vegetarian, Vietnamese, Restaurants, Food"
"341",86570,"Bistro Merlot","Kirkland","QC","H9H 3C4",45.4564677,-73.8625322,"1","Pizza, Asian Fusion, Restaurants, Vietnamese, Salad"
"342",35494,"Mina's Vietnamese Noodle Soup","Calgary","AB","T2J 7G9",50.945316,-114.069105,"1","Vietnamese, Restaurants, Specialty Food, Food"
"343",13383,"Pho 99 Vietnamese Restaurant","Markham","ON","L3P 5E5",43.8683049,-79.2841369,"1","Vietnamese, Restaurants"
"344",93341,"Mylynn Cafe","Mesa","AZ","85202",33.4130573,-111.8759932,"1","Restaurants, Vietnamese"
"345",85810,"Lotus Bleu","Montréal","QC","H2W 1J2",45.5201975559,-73.5762317472,"0","Restaurants, Vietnamese"
"346",123734,"Pho Mi Tri Ky","Toronto","ON","M6P 2R1",43.665279,-79.4687625,"0","Vietnamese, Restaurants"
"347",77917,"Au 14 Prince Arthur Ouest","Montréal","QC","H2X 1S3",45.513525,-73.57262,"1","Asian Fusion, Vietnamese, Restaurants"
"348",185008,"Bach Yen","Toronto","ON","M4M 1Y3",43.6666894,-79.3475323,"1","Thai, Restaurants, Imported Food, Food, Specialty Food, Juice Bars & Smoothies, Vietnamese, Ethnic Food"
"349",179759,"Pho Rose","Las Vegas","NV","89128",36.1908365,-115.2588466,"1","Vietnamese, Restaurants"
"350",63733,"Saigon Grille","Cleveland","OH","44114",41.510746,-81.668848,"0","Restaurants, Vietnamese"
"351",47592,"Pho Avina","Glendale","AZ","85306",33.611367,-112.16568,"1","Vietnamese, Coffee & Tea, Restaurants, Food, Desserts"
"352",188443,"Pho Viet","Phoenix","AZ","85051",33.5670476,-112.1361432,"0","Vietnamese, Restaurants"
"353",124111,"Phothai","Laval","QC","H7V 3T4",45.538779,-73.7352675,"0","Vietnamese, Asian Fusion, Restaurants, Thai"
"354",111028,"Pho Anh Vu","Concord","ON","L4K 2M9",43.8191319286,-79.5312762268,"0","Restaurants, Vietnamese"
"355",158167,"La Maison Pham","Laval","QC","H7V 3X4",45.543309,-73.724228,"1","Vietnamese, French, Restaurants"
"356",81226,"Pho Thien Phu","Woodbridge","ON","L4L 4Y5",43.7695,-79.553944,"1","Restaurants, Food, Vietnamese, Asian Fusion"
"357",174975,"Pok Pok Wing","Las Vegas","NV","89109",36.1089407,-115.1723126,"1","Chicken Wings, Restaurants, Thai, Vietnamese"
"358",143452,"Truc Vietnamese Cuisine","Charlotte","NC","28213",35.256632,-80.79115,"1","Restaurants, Vietnamese"
"359",162898,"Basil Ultimate","Calgary","AB","T1Y 5S5",51.0815557,-113.9961001,"1","Vietnamese, Restaurants, Carpet Installation, Home Services"
"360",25912,"Bagolac Saigon","Calgary","AB","T2H 0G3",50.9983635,-114.0668951,"1","Soup, Thai, Restaurants, Salad, Vietnamese"
"361",134270,"Bac Ky Vietnamese Canteen","Toronto","ON","M5V 1M1",43.6443652,-79.3993273,"1","Restaurants, Food, Juice Bars & Smoothies, Vietnamese"
"362",65675,"Pho Kim Restaurant","Brossard","QC","J4X 1C2",45.4506017,-73.4693111,"1","Restaurants, Vietnamese"
"363",134583,"Chez Lien","Saint-Laurent","QC","H4K 2V5",45.5242069,-73.711576,"0","Vietnamese, Restaurants, American (New), Canadian (New)"
"364",174244,"Bac Asian American Bistro & Bar","Cleveland","OH","44113",41.4759144,-81.6909903,"0","Italian, Asian Fusion, Vietnamese, Thai, Restaurants"
"365",153899,"Kim PO Vietnamese","Toronto","ON","M3C 3S4",43.7141388845,-79.3347108364,"0","Restaurants, Vietnamese"
"366",81304,"Pho Vuon Lai Jasmine Garden","Scarborough","ON","M1V 3Z4",43.8251957,-79.2761678,"1","Restaurants, Vietnamese"
"367",125538,"Hanoi Bistro","Toronto","ON","M5T 1L1",43.6559749,-79.3929904,"1","Vietnamese, Restaurants"
"368",121309,"Pho Anh Restaurant","Vaughan","ON","L4K 5Y6",43.8281370291,-79.5373785496,"0","Vietnamese, Restaurants"
"369",73215,"Nguyen Huong","Vaughan","ON","L4K 5Y5",43.8280201,-79.5407873,"1","Bakeries, Food, Grocery, Vietnamese, Restaurants"
"370",76203,"Mi Pho Song Vu","North York","ON","M3M 1A2",43.7184236,-79.5079286,"1","Thai, Chinese, Vietnamese, Restaurants"
"371",138127,"Phoenix Pho Vietnamese Restaurant","Glendale","AZ","85302",33.570506,-112.1526622,"1","Vietnamese, Restaurants"
"372",111332,"Ha Tien","Calgary","AB","T2W",50.953546,-114.1301562,"1","Restaurants, Vietnamese"
"373",127860,"Madame Ly","Montréal","QC","H2S 1S7",45.5356901,-73.603333,"1","Vietnamese, Restaurants, Thai"
"374",176109,"Lac Vien Vietnamese Restaurant","Toronto","ON","M6A 1V2",43.7211623,-79.4683504,"1","Vietnamese, Restaurants, Food"
"375",50202,"Trong Khanh Restaurant","Calgary","AB","T2E 2R1",51.0621688,-114.0625636,"0","Vietnamese, Restaurants"
"376",68846,"Com Pho Asia","Newmarket","ON","L3X 1V6",44.033866,-79.4731603,"1","Restaurants, Vietnamese"
"377",55583,"DANG! Vietnamese Tapas Bar & Lounge","Mississauga","ON","L5T 1X4",43.6650443,-79.6584555,"1","Restaurants, Tapas/Small Plates, Vietnamese, Nightlife, Lounges, Bars"
"378",146533,"Petit Marché Végé","Montréal","QC","H2S 2S5",45.5380651001,-73.6136631316,"1","Vietnamese, Restaurants, Vegan, Vegetarian"
"379",1250,"Pho Ngon","Calgary","AB","T2T 0C3",51.0378077,-114.0946213,"0","Restaurants, Vietnamese"
"380",82852,"Saigon Express Pho","North York","ON","M2J 5A7",43.778294,-79.3485758,"1","Vietnamese, Thai, Restaurants"
"381",28804,"Pho Old Saigon Vietnamese Cuisine","Phoenix","AZ","85017",33.5812164,-112.0077189,"0","Restaurants, Vietnamese"
"382",149070,"Pho Vietnam Restaurant","Las Vegas","NV","89102",36.1253808,-115.1959803,"1","Korean, Restaurants, Vietnamese"
"383",115835,"Pho Real","Montréal","QC","H3A 1X8",45.501868,-73.575037,"1","Restaurants, Vietnamese, Pan Asian"
"384",150876,"Pho Do Thi","Montréal","QC","H2X 3J6",45.5131803,-73.5594863,"1","Vietnamese, Restaurants"
"385",131272,"Sapa","Montréal","QC","H2W 1Y8",45.5172047,-73.580187,"1","Bubble Tea, Ice Cream & Frozen Yogurt, Vegan, Food, Restaurants, Coffee & Tea, Vietnamese"
"386",27236,"Maison Minh","Laval","QC","H7G 2V1",45.569683085,-73.6917906627,"1","Vietnamese, Soup, Restaurants"
"387",134141,"Rice Paper Vietnamese Cuisine & Bar","Phoenix","AZ","85004",33.4505535,-112.0741097,"0","Vietnamese, French, Restaurants"
"388",10905,"Pho Hoang","Las Vegas","NV","89139",36.051627,-115.24387,"0","Restaurants, Chinese, Vietnamese"
"389",174749,"Green Papaya Vietnamese Restaurant","Calgary","AB","T3P 0A3",51.1614545,-114.1254633,"0","Restaurants, Vietnamese"
"390",49631,"Max Saigon","Chandler","AZ","85225",33.321073,-111.84266,"1","Vietnamese, Restaurants"
"391",980,"Vua","Montréal","QC","H3A 2A5",45.5039621,-73.5722865,"1","Vietnamese, Sandwiches, Restaurants, Sushi Bars"
"392",127246,"Pho Bowl","Montréal","QC","H4A 1V2",45.4740541,-73.6094837,"1","Vietnamese, Thai, Restaurants"
"393",99871,"Pho 35","Phoenix","AZ","85051",33.5530966,-112.1357952,"0","Food, Vietnamese, Restaurants"
"394",184633,"OP To Go","Calgary","AB","T2S 1W3",51.03486,-114.0715028,"0","Restaurants, Vietnamese, Asian Fusion, Soup"
"395",56108,"Pho Mi 99","Mississauga","ON","L5V 0B7",43.6089134216,-79.6968231201,"1","Vietnamese, Chinese, Restaurants"
"396",135027,"Vietnamese Subs & Bubs","Calgary","AB","T2H 2J8",51.0023884,-114.0713189,"0","Restaurants, Vietnamese"
"397",72199,"My Tien","Montréal","QC","H2R 2W6",45.53439,-73.6185518,"1","Vietnamese, Restaurants"
"398",98849,"Pho Viet","Calgary","AB","T2P 0N3",51.0489313,-114.0806618,"1","Vietnamese, Restaurants"
"399",18393,"Com Tam Thuan Kieu","Mesa","AZ","85202",33.4133505,-111.8759922,"1","Salad, Restaurants, Vietnamese, American (New), Seafood"
"400",161972,"Restaurant Y Lan","Montréal","QC","H2S 2R8",45.5339744,-73.6044933,"1","Vietnamese, Restaurants"
"401",24522,"Persuasian Restaurant","Charlotte","NC","28203",35.2,-80.852472,"1","Vietnamese, Persian/Iranian, Bars, Food, Asian Fusion, Chinese, Thai, Nightlife, Wine Bars, Restaurants, Beer, Wine & Spirits"
"402",43162,"KG BBQ","Las Vegas","NV","89102",36.1258775,-115.197855,"1","Barbeque, Vietnamese, Korean, Restaurants, Asian Fusion"
"403",22176,"Luo Restaurant","Montréal","QC","H2X 3P9",45.510319,-73.5750033,"1","Vietnamese, Food, Restaurants, Coffee & Tea"
"404",18336,"Pho Anh","Calgary","AB","T3G 5H6",51.1298924,-114.2009792,"1","Restaurants, Vietnamese"
"405",104876,"St Clair Banh Cuon Pho Ga","Toronto","ON","M6N 1J3",43.674073,-79.461314,"1","Restaurants, Vietnamese"
"406",60786,"Banh Mi Bar/Pho Bar","Toronto","ON","M5T 2L4",43.6535699,-79.4013798,"0","Restaurants, Vietnamese"
"407",154114,"Royal Thai Restaurant","Las Vegas","NV","89102",36.144013,-115.193147,"0","Vietnamese, Korean, Restaurants, Thai"
"408",77357,"Saigon Bistro","Charlotte","NC","28205",35.203695,-80.760588,"0","Vietnamese, Restaurants"
"409",113485,"Pho Little Saigon","Las Vegas","NV","89102",36.1256919851,-115.1899323966,"1","Restaurants, Vietnamese"
"410",19364,"I Love Pho","Mississauga","ON","L4Y 2C1",43.6056913417,-79.5856039971,"1","Restaurants, Asian Fusion, Vietnamese"
"411",105715,"Pho Huong","Toronto","ON","M6P 2R1",43.665279,-79.4687625,"1","Ethnic Food, Vietnamese, Specialty Food, Food, Restaurants"
"412",107689,"Banh Shop","Mississauga","ON","L5P",43.680481,-79.611729,"1","Vietnamese, Asian Fusion, Restaurants"
"413",89760,"Thi Thi Vietnamese Subs","Calgary","AB","T2G 2G3",51.0506829,-114.0604681,"1","Restaurants, Vietnamese, Sandwiches, Ethnic Food, Specialty Food, Food"
"414",167903,"Wa Da Pho","Las Vegas","NV","89118",36.1469046182,-115.2098025754,"0","Food, Asian Fusion, Restaurants, Food Trucks, Vietnamese"
"415",172548,"Pho Captain","Caledon","ON","L0P 1N0",43.8603612732,-79.7107446061,"1","Thai, Food, Restaurants, Asian Fusion, Bubble Tea, Pan Asian, Vietnamese, Chinese"
"416",163541,"Le Viet Asian Cuisine","Markham","ON","L6E 0H7",43.9048256,-79.2693404,"1","Restaurants, Asian Fusion, Vietnamese"
"417",179954,"Yum Yum Banh Mi","Toronto","ON","M8V 3B6",43.6018965,-79.5058795,"0","Fast Food, Vietnamese, Sandwiches, Restaurants"
"418",41886,"Zen Asian Fusion","Charlotte","NC","28203",35.2023652,-80.844601,"1","Noodles, Chinese, Japanese, Tapas Bars, Vietnamese, Asian Fusion, Restaurants, Thai"
"419",31681,"Pho Hung","Toronto","ON","M5T 2G4",43.6544502,-79.3990304,"1","Restaurants, Vietnamese"
"420",86406,"Green Lotus","Gilbert","AZ","85234",33.3655334,-111.7881503,"1","Restaurants, Thai, Vietnamese, Vegan"
"421",96015,"Devil's Kitchen","Chandler","AZ","85225",33.3343182,-111.8465664,"0","Vietnamese, Sandwiches, Cheesesteaks, American (New), Burgers, Restaurants, Pizza"
"422",55703,"Bamboo Garden","Brampton","ON","L6W 3E1",43.6945129,-79.7478308,"0","Restaurants, Specialty Food, Ethnic Food, Vietnamese, Food, Thai"
"423",143140,"PHO 43","Phoenix","AZ","85009",33.4794638,-112.1521331,"1","Vietnamese, Restaurants"
"424",155379,"Restaurant Lyla","Montréal","QC","H3N 1P9",45.5294307,-73.6229831,"1","Vietnamese, Restaurants"
"425",27851,"Pho Son","Toronto","ON","M6N 1L2",43.6695111,-79.4824124,"1","Vietnamese, Restaurants"
"426",165372,"Northview Vietnamese Village, Ltd","Calgary","AB","T2E 7L1",51.1121463,-114.0416676,"0","Vietnamese, Restaurants"
"427",102324,"Pho Ai My","Toronto","ON","M5T 2E2",43.6509517,-79.3971096,"0","Vietnamese, Restaurants"
"428",159462,"Ox Noodle","Vaughan","ON","L4K 5Y6",43.8279652353,-79.5373121571,"1","Restaurants, Vietnamese, Asian Fusion, Cafes, Barbeque, Juice Bars & Smoothies, Coffee & Tea, Food"
"429",37325,"Spring Roll Factory","Chandler","AZ","85226",33.3044272,-111.9479565,"0","Food, Vietnamese, Specialty Food, Restaurants, Ethnic Food"
"430",153905,"Pink Pepper Asian Fusion","Mesa","AZ","85202",33.3629395,-111.8752823,"0","Restaurants, Thai, Chinese, Vietnamese"
"431",147464,"Kien Giang Food 2 Go","Charlotte","NC","28205",35.2191059,-80.7970519,"0","Restaurants, Vietnamese"
"432",85166,"Com Tam Pho 168","Toronto","ON","M4M 1Z4",43.6687987,-79.3375194,"1","Vietnamese, Restaurants"
"433",119652,"Viet Hai Restaurant","Calgary","AB","T2G 5E8",51.0121498,-114.0660524,"0","Restaurants, Vietnamese"
"434",177295,"Thi Thi Vietnamese Submarine","Calgary","AB","T2Z 0C2",50.9320329,-113.9707779,"0","Restaurants, Vietnamese"
"435",73271,"Pho Rachel","Montréal","QC","H2W 1C5",45.5182271,-73.5812756,"1","Soup, Vietnamese, Restaurants"
"436",31023,"Com Tam Dao Vien Peach Garden","Markham","ON","L3R",43.8410346,-79.3042939,"0","Vietnamese, Restaurants"
"437",186940,"Restaurant Pho Nam","Montréal","QC","H2A 3N9",45.563051,-73.605479,"1","Restaurants, Vietnamese"
"438",168020,"WonderPho","Toronto","ON","M3B 1Y6",43.7541711,-79.3494929,"0","Vietnamese, Restaurants"
"439",59872,"City Of Pho","Markham","ON","M1V 5M1",43.8273410132,-79.2912479863,"0","Restaurants, Vietnamese"
"440",137318,"Pho Tai Vietnamese Noodle House","Calgary","AB","T1Y 7G6",51.076287,-113.990204,"0","Restaurants, Food, Vietnamese"
"441",86750,"Oriental Phoenix Restaurant","Calgary","AB","T2P 0J7",51.0493921,-114.0718947,"1","Vietnamese, Restaurants, Chinese"
"442",90944,"Café Tropique","Montréal","QC","H2W 1H7",45.5193807,-73.5772549,"0","Restaurants, Food, Sandwiches, Vietnamese, Coffee & Tea, American (Traditional)"
"443",143575,"UFO Restaurant","Toronto","ON","M6J 2L5",43.6439259,-79.4088666,"1","Restaurants, Vietnamese, Food, Burgers, Grocery, Sandwiches, Breakfast & Brunch, Diners"
"444",148727,"Pho A.V","Phoenix","AZ","85032",33.6275895,-112.0113666,"1","Vietnamese, Restaurants"
"445",190959,"La Petite Tonkinoise","Montréal","QC","H2T 2N7",45.5212782,-73.594221,"0","Vietnamese, Restaurants"
"446",45358,"Taste of Vietnam","Toronto","ON","M1T 2M5",43.789644,-79.3019724,"0","Restaurants, Vietnamese"
"447",20462,"Mii Sandwich Co","Toronto","ON","M5B 2G9",43.6567455,-79.380484,"1","Salad, Fast Food, Sandwiches, Vietnamese, Restaurants"
"448",144725,"Pho Xua","Montréal","QC","H2R 2N1",45.5408127,-73.6137114,"0","Middle Eastern, Restaurants, Vietnamese, Food, Lebanese"
"449",148226,"Anise Cafe","Peoria","AZ","85345",33.580238,-112.221038,"0","Asian Fusion, Thai, Vietnamese, Restaurants"
"450",10739,"Pho Tan Dinh Restaurant","Vaughan","ON","L4L 1A6",43.7922411,-79.5472603,"1","Vietnamese, Restaurants, Thai"
"451",7908,"Que Ling Restaurant","Toronto","ON","M4M 2K1",43.6658026,-79.3494489,"1","Specialty Food, Ethnic Food, Food, Restaurants, Vietnamese, Imported Food"
"452",34480,"Pholicious","Concord","NC","28027",35.3697207603,-80.7232173532,"0","Restaurants, Bubble Tea, Noodles, Soup, Food, Vietnamese"
"453",136147,"I Am Pho","Montréal","QC","H3H 2H9",45.4942875694,-73.5803110152,"1","Vietnamese, Restaurants"
"454",143241,"Colonial Fusion Cuisine inc","Calgary","AB","T2C 5E1",50.9624407565,-114.0108561516,"0","Vietnamese, Restaurants, Coffee & Tea, Thai, Food, Asian Fusion"
"455",115510,"Hoai Huong","Montréal","QC","H3W 2P9",45.4915982,-73.6309396,"1","Restaurants, Vietnamese"
"456",183361,"Le Viet Sandwich","Montréal","QC","H2H 1K8",45.5375128,-73.5699491,"1","Caterers, Event Planning & Services, Vietnamese, Sandwiches, Restaurants"
"457",60718,"Pho Huong Que","Charlotte","NC","28227",35.1638118,-80.7389582,"1","Restaurants, Vietnamese"
"458",123572,"Banh Mi Que Huong","Toronto","ON","M9M 2E7",43.7498162,-79.5493678,"1","Vietnamese, Restaurants, Sandwiches"
"459",91389,"Quynh Vietnamese Cuisine","Calgary","AB","T1Y 7J6",51.0736251375,-113.9911020103,"1","Restaurants, Asian Fusion, Vietnamese"
"460",192205,"La Boiled Crawfish","Charlotte","NC","28273",35.138139,-80.935394,"0","Seafood, Vietnamese, Restaurants, Cajun/Creole"
"461",190323,"Pho Khong Ten","Las Vegas","NV","89139",36.0554489827,-115.2413508753,"0","Restaurants, Vietnamese"
"462",72986,"Pho U","Toronto","ON","M5A 0A4",43.6616589,-79.3670756,"1","Vietnamese, Chinese, Restaurants"
"463",141343,"Pho Kim Vy","Northwest Calgary","AB","T2L 1L1",51.086132,-114.1289996,"1","Restaurants, Vietnamese"
"464",150104,"Tsunami Asian Grill & Sushi Bar","Las Vegas","NV","89109",36.1214517,-115.1696112,"0","Sushi Bars, Japanese, Vietnamese, Korean, Chinese, Restaurants, Thai"
"465",182569,"Taste Of Thai","Rantoul","IL","61866",40.3103985,-88.1576889,"1","Thai, Vietnamese, Restaurants, Asian Fusion"
"466",135040,"Vit Beo","Toronto","ON","M6G 1M2",43.6623822,-79.4243452,"1","Restaurants, Vietnamese"
"467",122694,"Saigon Y2K","Calgary","AB","T2G 2B8",51.0498401,-114.0625579,"1","Vietnamese, Restaurants"
"468",130169,"Happy Noodle","Toronto","ON","M2N 5S3",43.7770279,-79.4147621,"0","Chinese, Restaurants, Vietnamese"
"469",101386,"Banh Mi and Tea Company","Charlotte","NC","28273",35.1388719,-80.934533,"1","Taiwanese, Vietnamese, Restaurants, Bubble Tea, Food, Sandwiches"
"470",22750,"Pho King","Brampton","ON","L6W 3E1",43.697665,-79.748611,"1","Chinese, Asian Fusion, Restaurants, Thai, Food, Vietnamese"
"471",123000,"Banh Cuon Huong Que","Toronto","ON","M3L 1S4",43.7420332,-79.5143671,"1","Asian Fusion, Vietnamese, Restaurants"
"472",14699,"Bánh Mì 79","Montréal","QC","H2X 1K5",45.5108185,-73.5631496,"1","Vietnamese, Sandwiches, Restaurants"
"473",60784,"Pho Binh","Pierrefonds","QC","H9H 3E2",45.4667829,-73.8744848,"1","Vietnamese, Restaurants"
"474",57348,"Xelua Vietnamese Restaurant","Vaughan","ON","L4J 2L1",43.7979707,-79.4285117,"1","Vietnamese, Restaurants"
"475",51966,"Pho Nhi","Toronto","ON","M1S 4R5",43.7836563478,-79.287934117,"1","Vietnamese, Restaurants"
"476",160247,"Le Viet Asian Cuisine","Scarborough","ON","L6E 0H7",43.8048370198,-79.2881694809,"0","Asian Fusion, Restaurants, Vietnamese"
"477",178402,"Firstchoice Vietnamese Cuisine","Richmond Hill","ON","L4B 3B1",43.840905,-79.3996044,"0","Food, Restaurants, Vietnamese"
"478",39869,"Rainbow Pho Express","Las Vegas","NV","89139",36.0361556853,-115.2431380749,"0","Restaurants, Vietnamese"
"479",151822,"Pho Vietnam","Montréal","QC","H2Z 1J4",45.4474399,-73.8568222,"0","Restaurants, Vietnamese"
"480",141222,"ZZ Yum Fun","Kent","OH","44240",41.1565023,-81.303316,"0","Soup, Food, Restaurants, Chinese, Vietnamese, Hot Pot, Asian Fusion, Desserts"
"481",26529,"Mother's Korean Grill","Las Vegas","NV","89102",36.1253808,-115.1959803,"0","Barbeque, Korean, Ethnic Food, Specialty Food, Vietnamese, Restaurants, Food"
"482",32950,"Pepper ring","Toronto","ON","M6K",43.638265,-79.417441,"0","Vietnamese, Chinese, Thai, Dim Sum, Restaurants"
"483",185762,"Danang Vietnamese Restaurant","Toronto","ON","M3L 1S3",43.7408667522,-79.5129613951,"1","Vietnamese, Restaurants"
"484",15827,"Bosa Boba Cafe","Las Vegas","NV","89102",36.122364,-115.1908149,"1","Bubble Tea, Food, Coffee & Tea, Restaurants, Vietnamese, Sandwiches"
"485",71613,"Min Sok Chon","Las Vegas","NV","89119",36.1001961,-115.1269689,"0","Korean, Restaurants, Vietnamese"
"486",93620,"Restaurant Caravelle","Montréal","QC","H3B 3Y1",45.5017817,-73.567755,"0","Vietnamese, Restaurants"
"487",175591,"Ginger","Toronto","ON","M4Y 2E1",43.6653417586,-79.3809837338,"1","Restaurants, Vietnamese"
"488",172484,"Hung Long Restaurant","Toronto","ON","M3M 1G7",43.7266608,-79.4834781,"1","Restaurants, Malaysian, Vietnamese, Thai"
"489",134542,"Pho Vn Vietnamese Cuisine","Phoenix","AZ","85023",33.6114522,-112.1014797592,"1","Asian Fusion, Restaurants, Soup, Vietnamese, Noodles"
"490",147498,"Bun Viet 2","Montréal","QC","H2G 1M2",45.5447056,-73.5953826,"1","Restaurants, Vietnamese, Pan Asian"
"491",174255,"Denise","Montréal","QC","H3N 1T4",45.528627,-73.6182741,"1","Arts & Entertainment, Wineries, Vietnamese, Food, Coffee & Tea, Restaurants"
"492",157138,"Toa Vietnamese Cuisine","Calgary","AB","T2A 4X7",51.0383056717,-113.9090824127,"1","Restaurants, Vietnamese"
"493",126763,"Crispy Banh Mi","Charlotte","NC","28217",35.1680048,-80.8765329,"1","Sandwiches, Juice Bars & Smoothies, Food, Bubble Tea, Restaurants, Vietnamese"
"494",177115,"Thanh Long Noodle House","Calgary","AB","T2T 0B8",51.0381581,-114.0895681,"0","Vietnamese, Noodles, Restaurants, Korean"
"495",163773,"Pho Cao","Scottsdale","AZ","85257",33.4662158658,-111.9201882184,"1","Vietnamese, Arts & Entertainment, Karaoke, Restaurants, Nightlife, Music Venues"
"496",115377,"Restaurant Pho Zen","Brossard","QC","J4W 2S8",45.467799,-73.470487,"1","Vietnamese, Restaurants"
"497",75424,"Pho Thien Phat","North York","ON","M3C 1T2",43.7140387,-79.3342233,"0","Vietnamese, Restaurants"
"498",9768,"Bowl Fine Asian Cuisine","Toronto","ON","M4Y 1X9",43.6636891,-79.3841996,"0","Vietnamese, Thai, Chinese, Restaurants"
"499",148279,"Pearl of the Orient","Rocky River","OH","44116",41.4768217,-81.8497567,"1","Thai, Asian Fusion, Vietnamese, Chinese, Restaurants, Sushi Bars"
"500",137904,"Song Han","Calgary","AB","T2N 3P3",51.0527413,-114.08851,"1","Vietnamese, Restaurants"
"501",13684,"Ginger","Toronto","ON","M4L 1J1",43.6699938,-79.3001699,"0","Vietnamese, Restaurants"
"502",180325,"Hong An Vietnamese Cuisine","Calgary","AB","T2Z 0C2",50.9325525,-113.9697057,"1","Vietnamese, Restaurants"
"503",16888,"Co Do Vietnamese Restaurant","Calgary","AB","T2T 0C6",51.037805,-114.093825,"1","Restaurants, Vietnamese"
"504",46926,"Saigon Passion Vietnamese Restaurant","Calgary","AB","T3J 3K9",51.0969890641,-113.9606770399,"1","Restaurants, Vietnamese"
"505",29700,"Vietnam Palace Grill & Noodle House","Calgary","AB","T2M 0H6",51.0670108,-114.0675281,"0","Restaurants, Vietnamese"
"506",151268,"Com Tam 168","Markham","ON","L3R 0Y5",43.8249829,-79.3075408,"1","Vietnamese, Restaurants"
"507",58481,"Pho 99","Cleveland","OH","44114",41.512318,-81.6637391,"0","Restaurants, Vietnamese"
"508",56530,"Pho Hoa Noodle Soup","Charlotte","NC","28205",35.217429,-80.794365,"1","Restaurants, Vietnamese"
"509",124650,"Sunflower Vietnamese Restaurant","North Las Vegas","NV","89032",36.2398038,-115.1969002,"0","Vietnamese, Restaurants"
"510",121802,"Northview Vietnamese Village","Calgary","AB","T3J 5H3",51.108546,-113.9699569,"0","Vietnamese, Restaurants"
"511",107871,"Pho Vistro","Toronto","ON","M5V 1Z4",43.6501281,-79.389043,"1","Restaurants, Soup, Breakfast & Brunch, Vietnamese, Vegetarian, Asian Fusion, Noodles, Vegan, Juice Bars & Smoothies, Food"
"512",68625,"Oriental Phoenix Restaurant","Calgary","AB","T2P 3C5",51.0444388,-114.0698895,"1","Chinese, Vietnamese, Restaurants"
"513",74211,"Pho 68","Chandler","AZ","85224",33.3361505,-111.8743381,"0","Restaurants, Vietnamese"
"514",50166,"Express Vietnamese Subs and Deli","Calgary","AB","T2P 0N7",51.048969,-114.0820846,"1","Sandwiches, Delis, Restaurants, Vietnamese"
"515",54175,"Bong Lua Vietnamese Restaurant","Scarborough","ON","M1T 3H1",43.7895685,-79.3025887,"1","Vietnamese, Restaurants"
"516",137826,"Baguette & Co","Toronto","ON","M6P 1Y3",43.6654122,-79.4614958,"1","Vietnamese, Salad, Sandwiches, Restaurants"
"517",42406,"Ro House","Toronto","ON","M6P 1Z7",43.6656119764,-79.4717070088,"1","Gluten-Free, Do-It-Yourself Food, Restaurants, Food, Vietnamese, Vegetarian"
"518",49206,"Banh Mi Boys","Toronto","ON","M5V 2A9",43.648827,-79.3969701,"1","Sandwiches, Restaurants, Asian Fusion, Food, Delicatessen, Vietnamese"
"519",16882,"Pho Vietnamese Delight","North York","ON","M2N 5S1",43.7785383,-79.4149567,"1","Vietnamese, Restaurants"
"520",138310,"Général Tao","Brossard","QC","J4Z 1A6",45.474573,-73.4657372,"1","Food, Restaurants, Chinese, Ethnic Food, Thai, Vietnamese, Imported Food, Specialty Food"
"521",63915,"Van Son Vietnamese Cuisine","Chestermere","AB","T1X 1N2",51.0464346,-113.8293362,"1","Restaurants, Vietnamese"
"522",91554,"Xe Lua Restaurant","Richmond Hill","ON","L4C 2K9",43.8771512812,-79.4160240889,"1","Vietnamese, Soup, Restaurants"
"523",135420,"Pho Saigon","Toronto","ON","M4A 2V6",43.7421494,-79.3098221,"1","Food, Restaurants, Vietnamese"
"524",82027,"Marché Hung Phat","Montréal","QC","H2S 2S5",45.5381906,-73.6138778,"1","Fruits & Veggies, Caterers, Delis, Ethnic Food, Vietnamese, Asian Fusion, Event Planning & Services, Restaurants, Grocery, Specialty Food, Food"
"525",92696,"Sammy Pho Vietnamese Cuisine","Las Vegas","NV","89113",36.0532373539,-115.2796204761,"0","Restaurants, Vietnamese"
"526",48931,"Banh Mi Nhu Lan","Toronto","ON","M3N 2V3",43.756854,-79.5190374,"1","Restaurants, Vietnamese, Food, Sandwiches"
"527",74007,"Phô XO","Montréal","QC","H2Z 1J4",45.5076728,-73.5592686,"0","Vietnamese, Restaurants"
"528",139023,"Ineffable Ca Phe","Pittsburgh","PA","15224",40.464681,-79.959312,"1","Coffee & Tea, Vietnamese, Food, Restaurants, Breakfast & Brunch"
"529",72087,"Banh Mi Cao Thang","Montréal","QC","H2Z 1J5",45.5084195,-73.5606477,"0","Vietnamese, Sandwiches, Restaurants"
"530",159527,"Sencha","Montréal","QC","H2T 1S8",45.5260741,-73.5997829,"1","Vietnamese, Restaurants"
"531",84234,"Sushi Net","Montréal","QC","H2X 1L4",45.5121378,-73.5621761,"1","Restaurants, Sushi Bars, Vietnamese"
"532",45951,"Pho Tan Thanh","Peoria","AZ","85381",33.5954350654,-112.2204460949,"1","Food, Restaurants, Vietnamese, Ethnic Food, Imported Food, Specialty Food"
"533",169219,"Pho Lan","Chestermere","AB","T1X 1K5",51.0379229573,-113.8388217858,"1","Vietnamese, Restaurants"
"534",91443,"Pho House","Toronto","ON","M4M 1Y3",43.6656115,-79.3509198,"1","Vietnamese, Restaurants"
"535",86561,"Mi Mi Restaurant","Toronto","ON","M4M 1Y3",43.6663763388,-79.3487726589,"1","Restaurants, Vietnamese"
"536",122901,"Viet Hai","Calgary","AB","T3H 0N9",51.0346835,-114.1916842,"1","Restaurants, Vietnamese"
"537",172051,"Pho Ha Noi 54","Mississauga","ON","L5A 2G4",43.5795389,-79.614635,"1","Restaurants, Vietnamese"
"538",92746,"Pho Duy Thanh","Calgary","AB","T2K 1A2",51.0879083,-114.0721659,"0","Vietnamese, Restaurants"
"539",19565,"Asian Specialty","Scarborough","ON","M1S 5B8",43.7976123,-79.2718731,"0","Restaurants, Canadian (New), Vietnamese"
"540",181322,"Banh Mi Saigon Bakery","Mississauga","ON","L4Y 2C3",43.6039579,-79.5898549,"1","Vietnamese, Sandwiches, Restaurants, Food, Bakeries"
"541",137433,"Pho Da Son","Montréal","QC","H1Z 2E5",45.56511,-73.609516,"1","Vietnamese, Restaurants, Vegetarian"
"542",84528,"Rice Paper","Phoenix","AZ","85006",33.4719884,-112.0648068,"0","Vietnamese, Restaurants"
"543",116280,"Tinh Tam Trai","Vaughan","ON","L4K 5Y5",43.827523194,-79.5401382209,"1","Vegetarian, Vietnamese, Vegan, Restaurants"
"544",10095,"Pho Lam","Mississauga","ON","L5A 1W4",43.5811709,-79.6138008,"1","Chinese, Vietnamese, Restaurants, Thai"
"545",76419,"Pho Ha Nam","Cleveland","OH","44114",41.512318,-81.6637391,"0","Japanese, Restaurants, Vietnamese"
"546",89133,"Pho No.1","Toronto","ON","M1K 2C8",43.7324882142,-79.2683264986,"0","Vietnamese, Restaurants, Thai"
"547",17141,"My Ngoc Restaurant","Pittsburgh","PA","15222",40.4518424,-79.9824278,"1","Restaurants, Vietnamese"
"548",11111,"Pho Sing Sing","Las  Vegas","NV","89146",36.1431042,-115.2419443,"1","Restaurants, Vietnamese"
"549",41785,"Thai Tai Vietnamese Restaurant","Calgary","AB","T3H 0E9",51.0393689,-114.2077286,"0","Thai, Restaurants, Vietnamese, Food"
"550",130644,"Nam Wah Chinese Vietnamese","Berea","OH","44017",41.373633,-81.867219,"1","Vietnamese, Chinese, Restaurants"
"551",192577,"Pho Viet Restaurant","Markham","ON","L3R 5Y3",43.8203984,-79.3255037,"0","Vietnamese, Noodles, Restaurants"
"552",11389,"Pho Linh","Toronto","ON","M6H 1B6",43.652368,-79.4340771,"1","Vietnamese, Restaurants"
"553",182212,"Pho Hoan","Calgary","AB","T2A 0V6",51.0382297,-113.9617856,"1","Vietnamese, Canadian (New), Restaurants"
"554",73966,"Lemon Grass","Cleveland","OH","44118",41.500314,-81.565092,"0","Korean, Thai, Vietnamese, Restaurants"
"555",71112,"Mii Sandwich","Mississauga","ON","L5B 2C9",43.5928748783,-79.6430240571,"1","Sandwiches, Vietnamese, Restaurants, Food, Bubble Tea"
"556",104228,"NAM Vietnamese Kitchen","Calgary","AB","T2R 0B4",51.0434948,-114.0816122,"1","Vietnamese, Restaurants"
"557",63757,"Loving Hut","Pittsburgh","PA","15277",40.4459734242,-80.1582661486,"0","Vietnamese, Vegan, Restaurants, Vegetarian"
"558",57950,"Indochine Thai Vietnamese Restaurant","Toronto","ON","M4W 1L7",43.6721547,-79.387466,"0","Food, Thai, Restaurants, Specialty Food, Vietnamese, Ethnic Food"
"559",60470,"Rice Paper on 7th","Phoenix","AZ","85006",33.4726801,-112.0648643,"1","Restaurants, Vietnamese"
"560",147106,"Saigon's Baguette","Calgary","AB","T2S",51.037998,-114.077871,"0","Food, Vietnamese, Food Delivery Services, Restaurants"
"561",57696,"Vietwest Restaurant","Calgary","AB","T2K 1B2",51.1018916082,-114.0707445145,"1","Restaurants, Burgers, Vietnamese"
"562",55595,"Saigon","Montréal","QC","H3A 1X8",45.501868,-73.575037,"0","Restaurants, Vietnamese"
"563",163212,"Phomono Vietnamese Cuisine","Toronto","ON","M3J 3N2",43.7851825,-79.477727,"1","Restaurants, Vietnamese"
"564",138981,"Pho Mi 289","Mississauga","ON","L5N 4B7",43.5804501811,-79.7575984246,"1","Restaurants, Vietnamese"
"565",141984,"Dragonfly Vietnamese Kitchen","Mesa","AZ","85202",33.3948018,-111.8751042,"0","Vietnamese, Restaurants"
"566",12943,"Spring Roll Chalet","Calgary","AB","T2P 0S4",51.0479572,-114.074638,"1","Vietnamese, Chinese, Restaurants"
"567",137295,"Saigon House","Brampton","ON","L6T 5P1",43.7078150234,-79.7333192825,"1","Vietnamese, Restaurants"
"568",189801,"Hue Gourmet","Mesa","AZ","85202",33.413559,-111.876111,"1","Imported Food, Ethnic Food, Restaurants, Vietnamese, Specialty Food, Food"
"569",72220,"Hà","Montréal","QC","H2Y 2E5",45.499731,-73.556205,"1","Vietnamese, Restaurants"
"570",143135,"Orchid Room Fusion Cuisine","Calgary","AB","T2P 4K1",51.0455991,-114.0690246,"0","Thai, Vietnamese, Restaurants, Food, Shopping, Specialty Food, Shopping Centers, Ethnic Food, Asian Fusion"
"571",37674,"Saigon Noodles","Madison","WI","53719",43.0571457,-89.4995195,"1","Vietnamese, Restaurants, Korean, Noodles"
"572",140444,"Pho An An","Mesa","AZ","85213",33.4237052,-111.7728895,"1","Asian Fusion, Vietnamese, Restaurants"
"573",117668,"Que Huong Restaurant","Phoenix","AZ","85015",33.4884076,-112.10022,"1","Chinese, Restaurants, Vietnamese"
"574",134119,"Pho Vietnam Grille Express","Las Vegas","NV","89117",36.1271903,-115.2800102,"0","Restaurants, Vietnamese"
"575",15587,"Pho So 1","Calgary","AB","T2E 2S2",51.0664759,-114.0629461,"1","Restaurants, Vietnamese"
"576",118409,"The City Cafe","Peoria","AZ","85345",33.5763027,-112.2405657,"0","Restaurants, Vietnamese, Cafes"
"577",71310,"So Good Cafe","Las Vegas","NV","89146",36.1263504,-115.2182138,"0","Restaurants, Cafes, Bakeries, French, Vietnamese, Food"
"578",12799,"Le Basilic Vert","Laval","QC","H7X 3S5",45.522464,-73.785926,"1","Vietnamese, Thai, Food, Asian Fusion, Restaurants, Specialty Food, Ethnic Food"
"579",113269,"Pho Phoenix","Toronto","ON","M6H 1B5",43.6520905,-79.4343072,"1","Vietnamese, Restaurants"
"580",74395,"Bo 7 Mon","Toronto","ON","M9M 2E7",43.7499756365,-79.5497777701,"1","Vietnamese, Restaurants"
"581",141721,"Vua","Montréal","QC","H3H 1L8",45.494826,-73.57841,"1","Restaurants, Vietnamese, Salad, Sandwiches"
"582",163480,"Pho Xuan Restaurant","Calgary","AB","T2A 6L8",51.061414,-113.980825,"1","Restaurants, Vietnamese"
"583",110055,"Golden Vaughan","Vaughan","ON","L4H 2P8",43.8267007,-79.5569453,"0","Restaurants, Seafood, Vietnamese, Chinese"
"584",72099,"Restaurant Ben Thanh","Montréal","QC","H2S 1K7",45.5394973,-73.6000358,"1","Vietnamese, Restaurants"
"585",128186,"Pho Gia Dinh","Chandler","AZ","85225",33.35057,-111.84288,"1","Vietnamese, Restaurants, Food"
"586",61777,"Lemongrass Café","Las Vegas","NV","89123",36.0289933,-115.1171379,"1","Vietnamese, Restaurants"
"587",101115,"Le's Vietnamese Subs","Calgary","AB","T2H 1C3",50.9849579766,-114.0517107318,"1","Restaurants, Vietnamese"
"588",173785,"Pho D'licious","Las Vegas","NV","89102",36.125883,-115.203712,"0","Restaurants, Barbeque, Soup, Vietnamese"
"589",27225,"Nha Trang Restaurant","Las Vegas","NV","89102",36.1299924,-115.2074043,"0","Restaurants, Vietnamese"
"590",167055,"Pho Binh Minh","Phoenix","AZ","85017",33.4965202,-112.1333877,"1","Restaurants, Vietnamese"
"591",122890,"Chicken Noodle House","Mesa","AZ","85202",33.4133505,-111.8759922,"0","Noodles, Restaurants, Vietnamese"
"592",24251,"Watercress Express","Calgary","AB","T2T 0C3",51.038132,-114.0928746,"1","Restaurants, Vietnamese"
"593",73150,"Sama Fusion","Montréal","QC","H2C 1P5",45.5575701869,-73.6596510932,"1","Vietnamese, Sushi Bars, Restaurants, Asian Fusion, Thai"
"594",23806,"I Love Pho","Mississauga","ON","L5C 2S3",43.5751767136,-79.6557045243,"0","Restaurants, Vietnamese, Thai, Asian Fusion, Chinese"
"595",164105,"Pho Loc","Phoenix","AZ","85021",33.555296,-112.09925,"0","Vietnamese, Restaurants"
"596",35219,"Pho Mi 99","Mississauga","ON","L5B 4M6",43.5804471483,-79.6472492978,"1","Asian Fusion, Vietnamese, Restaurants"
"597",36535,"Holy Snack","Toronto","ON","M2N 5M6",43.7599881101,-79.4122253358,"1","Restaurants, Vietnamese, Juice Bars & Smoothies, Asian Fusion, Food, Desserts"
"598",61478,"Mr. Sandwich","Las Vegas","NV","89102",36.1261620061,-115.1914208691,"0","Sandwiches, Vietnamese, Restaurants"
"599",51809,"Star King Viet Thai Cuisine","Markham","ON","L3R",43.8212251203,-79.3255251825,"0","Thai, Restaurants, Vietnamese"
"600",3764,"Resto Cali","Montréal","QC","H2Z 1J4",45.5080248,-73.5594909,"1","Restaurants, Vietnamese"
"601",140568,"Pho Xinh Xinh","Calgary","AB","T2S 1A7",51.0159280655,-114.0638911352,"1","Vietnamese, Restaurants, Soup"
"602",73186,"Pho Winglee","Mesa","AZ","85202",33.4125028,-111.8737663,"1","Meat Shops, Specialty Food, Ethnic Food, Vietnamese, Restaurants, Food, Grocery"
"603",70331,"Pho Uncle Ten","Calgary","AB","T2A 7X6",51.0614764,-113.984632,"1","Restaurants, Vietnamese"
"604",80955,"More Than Subs","Calgary","AB","T2S 0B7",51.0382024829,-114.0778564391,"1","Vietnamese, Restaurants"
"605",14347,"Pho Xin Chào","Markham","ON","L3T 2A6",43.7996259818,-79.4201311469,"1","Desserts, Food, Restaurants, Noodles, Vietnamese"
"606",131336,"Pho 777","Las Vegas","NV","89113",36.0420917,-115.2787875,"0","Restaurants, Vietnamese"
"607",88364,"Bao Boys","Montréal","QC","H2W 2M7",45.5215774,-73.5772607,"0","Vietnamese, Asian Fusion, Restaurants"
"608",72510,"Pho An Vietnamese Cuisine","Calgary","AB","T2H 2V2",50.9777439,-114.071475,"0","Vietnamese, Restaurants"
"609",39175,"Pho So 1","Las Vegas","NV","89102",36.1249835,-115.2064306,"1","Restaurants, Soup, Vietnamese"
"610",6236,"Pho Lien","Toronto","ON","M3J 3K2",43.7647552,-79.489986,"1","Restaurants, Vietnamese"
"611",131239,"Restaurant Thanh-Long Pho Vietnamien","Montréal","QC","H2X 1K5",45.5111713,-73.5630125,"1","Vietnamese, Restaurants"
"612",108619,"Pho St Clair","Toronto","ON","M6C 1B7",43.6808633,-79.4292933,"0","Restaurants, Vietnamese"
"613",42028,"Pho 88 Noodle House","Calgary","AB","T2A 0S1",51.037558,-113.98093,"0","Vietnamese, Restaurants"
"614",9366,"Pho Q","Scarborough","ON","M1V 3Z9",43.8066936066,-79.2894835898,"1","Vietnamese, Restaurants"
"615",142450,"Lobster & Pho","Independence","OH","44131",41.395337,-81.641761,"1","Vietnamese, Seafood, Restaurants, Cajun/Creole"
"616",133656,"Thaison","Montréal","QC","H2S 2S5",45.538205,-73.613683,"1","Restaurants, Chinese, Vietnamese, Barbeque"
"617",165684,"Pho Mont-Royal","Montréal","QC","H2J 1Y2",45.529179,-73.578255,"1","Asian Fusion, Vietnamese, Restaurants"
"618",151978,"Poki Bar Central","Phoenix","AZ","85016",33.4954365,-112.0197856,"0","Sushi Bars, Restaurants, Poke, Food, Hawaiian, Japanese, Vietnamese, Soup"
"619",22314,"Pho 72","Markham","ON","L3S 0A2",43.8547149,-79.2575368,"1","Restaurants, Thai, Vegetarian, Vietnamese"
"620",153907,"Hodori Restaurant","Mesa","AZ","85202",33.3947485,-111.87542,"1","Restaurants, Vietnamese, Korean"
"621",156625,"Soleil de Saigon","Montréal","QC","H3B 2Y5",45.5018406,-73.5701894,"1","Restaurants, Sandwiches, Vietnamese"
"622",169073,"Pho Challenge","Vaughan","ON","L4H 2J3",43.8278767,-79.549614,"1","Restaurants, Vietnamese"
"623",140571,"Mister Baguette","Vaughan","ON","L4K 5Y5",43.829358,-79.538092,"0","Restaurants, Food, Bakeries, Vietnamese"
"624",5177,"Pho O Ten","Las Vegas","NV","89139",36.0553309,-115.2413886,"1","Restaurants, Vietnamese"
"625",135331,"Bosa 1","Las Vegas","NV","89146",36.127754,-115.224318,"0","Vietnamese, Restaurants"
"626",4710,"QQ Pho","Newmarket","ON","L3Y 8C9",44.067226,-79.4833369,"0","Vietnamese, Restaurants"
"627",4882,"Pho Quinn Vietnamese Restaurant","Markham","ON","L3P 1B9",43.868385,-79.283161,"1","Vietnamese, Restaurants"
"628",22592,"Pho Ngon","Charlotte","NC","28273",35.1381003814,-80.9353948385,"1","Restaurants, Bubble Tea, Vietnamese, Food"
"629",17271,"Vietnam Restaurant","Calgary","AB","T2G 1A2",51.0410458,-114.0592425,"0","Vietnamese, Restaurants"
"630",78072,"Pho 501","Calgary","AB","T2E 8P1",51.0955192,-114.0535514,"1","Restaurants, Vietnamese"
"631",181557,"Banh Mi Boys","Toronto","ON","M5B",43.6590974,-79.3820781,"1","Restaurants, Vietnamese, Asian Fusion"
"632",33571,"Le Tonkin","Montréal","QC","H2S 3C6",45.5308284,-73.6102934,"1","Vietnamese, Barbeque, Restaurants"
"633",105719,"Asian Taste Restaurant","Champaign","IL","61820",40.1092811348,-88.2313949615,"1","Chinese, Vietnamese, Restaurants"
"634",12469,"Vietnam Lovely Noodle","Toronto","ON","M5S 1X2",43.6662923,-79.4062449,"1","Restaurants, Vietnamese, Noodles"
"635",27184,"Pho Royal","Laval","QC","H7V 3Y4",45.5446715,-73.7406118,"1","Vietnamese, Restaurants"
"636",50443,"Surprise Pho Vietnamese Restaurant","Surprise","AZ","85374",33.6267644436,-112.393878899,"1","Vietnamese, Noodles, Soup, Restaurants"
"637",21000,"Pho Papa Viet","Montréal","QC","H2L 2H5",45.5194981,-73.554997,"1","Barbeque, Restaurants, Vietnamese"
"638",113383,"Pho Nam Vietnamese Cuisine","Calgary","AB","T2H 0Y9",50.9792381545,-114.0594939888,"1","Vietnamese, Restaurants"
"639",27616,"Saigon Red Sky","Calgary","AB","T3K 2M9",51.1270408604,-114.0557670593,"1","Food, Imported Food, Specialty Food, Restaurants, Ethnic Food, Vietnamese"
"640",125299,"Ho Guom","Montréal","QC","H2E 2M2",45.5502426,-73.6049539,"1","Restaurants, Sushi Bars, Vietnamese"
"641",12729,"Vientiane Palace Restaurant","Madison","WI","53703",43.0755119,-89.3903706,"1","Restaurants, Thai, Vegan, Vietnamese, Vegetarian, Asian Fusion"
"642",164926,"Mekong Restaurant","Calgary","AB","T2A 0P7",51.0374033,-113.9919201,"1","Vietnamese, Restaurants"
"643",173155,"Pho Pad Thai","Markham","ON","L3R 5Z1",43.857594,-79.357332,"1","Thai, Vietnamese, Restaurants"
"644",71052,"Red Thai","Phoenix","AZ","85020",33.5514088809,-112.0580245675,"1","Vietnamese, Salad, Restaurants, Thai, Asian Fusion"
"645",105909,"Thai Spice","Westlake","OH","44145",41.4559911,-81.8985725,"1","Specialty Food, Vietnamese, Food, Thai, Restaurants, Ethnic Food"
"646",94104,"Silk Road Asian Bistro","Las Vegas","NV","89109",36.136293,-115.1512526,"1","Vietnamese, Ramen, Asian Fusion, Barbeque, Restaurants, Chinese, Japanese, Noodles"
"647",98711,"Kim Po Vietnamese Restaurant","Markham","ON","L3R 6L3",43.8223543,-79.3510382,"0","Restaurants, Vietnamese"
"648",37758,"Pho Dam","Chandler","AZ","85224",33.3362676,-111.8741442,"1","Vietnamese, Restaurants"
"649",166296,"Noodle & Grill House","Calgary","AB","T2P 3P8",51.0472453,-114.0780948,"1","Vietnamese, Restaurants, Chinese, Noodles, Soup"
"650",54089,"Lucky Curry","Markham","ON","L3R 2Z5",43.8187487,-79.3304736,"0","Vietnamese, Fast Food, Thai, Restaurants"
"651",181058,"Pho On The Go","North York","ON","M3N 2K1",43.7569623,-79.5175302,"0","Bubble Tea, Vietnamese, Restaurants, Thai, Food"
"652",66627,"La Merveille du Vietnam","Montréal","QC","H2S 1V1",45.5397771942,-73.600031957,"1","Restaurants, Chinese, Pan Asian, Thai, Vietnamese"
"653",74206,"Raw Bar","Calgary","AB","T2R 0G8",51.041094038,-114.0645044865,"1","Pan Asian, Cocktail Bars, Bars, Event Planning & Services, Canadian (New), Shopping, Vietnamese, Asian Fusion, American (New), Restaurants, Nightlife, Hotels, Hotels & Travel"
"654",179554,"Pho King","Markham","ON","L3R 2Z5",43.8184046,-79.3298499,"1","Restaurants, Vietnamese"
"655",168292,"Pho Real","Vaughan","ON","L4L 0C1",43.798134,-79.5493127,"1","Vietnamese, Restaurants"
"656",85849,"Pho Com Vietnam","Toronto","ON","M3N 2V3",43.7569679,-79.5196872,"1","Restaurants, Vietnamese"
"657",102781,"Pho on 7","Markham","ON","L3R",43.8541233,-79.3372449,"0","Restaurants, Vietnamese"
"658",138389,"Pho Chandler","Chandler","AZ","85248",33.2464489,-111.8392055,"1","Chinese, Vietnamese, Restaurants, Noodles"
"659",170128,"Saigon Royal","Calgary","AB","T2Z 1K4",50.9436456,-114.0018283,"1","Vietnamese, Restaurants"
"660",78116,"Beijing Noodle Cafe","Las Vegas","NV","89121",36.1139613,-115.0909203,"0","Restaurants, Vietnamese"
"661",118926,"Café Saigon","Montréal","QC","H2L 3S9",45.5159418,-73.5576043,"1","Sandwiches, Asian Fusion, Vietnamese, Restaurants, Chinese"
"662",101898,"Pho Blooming Rose","Toronto","ON","M4W 2H2",43.6746046542,-79.3883717805,"1","Vietnamese, Restaurants"
"663",127349,"La Tonkinoise","Saint-Sauveur","QC","J0R 1R0",45.8921785,-74.1595386,"1","Thai, Restaurants, Vietnamese"
"664",141628,"Pho Lang Van","Toronto","ON","M6E 1A1",43.679575676,-79.4361752983,"1","Restaurants, Asian Fusion, Vietnamese"
"665",48911,"Ben Thanh Restaurant","Matthews","NC","28105",35.133926,-80.71005,"1","Vietnamese, Restaurants"
"666",69914,"Saigon Jade Restaurant","Mesa","AZ","85202",33.3902489,-111.8652993,"1","Restaurants, Soup, Sandwiches, Vietnamese"
"667",38902,"Just Pho-nomenal","Newmarket","ON","L3Y 2N1",44.0553408881,-79.4770181179,"1","Vietnamese, Restaurants"
"668",42390,"Basilic Hong Kong Cha ChaanTeng","Montréal","QC","H2Z 1B9",45.50711,-73.5609039,"0","Asian Fusion, Thai, Restaurants, Chinese, Vietnamese"
"669",91085,"Lac Vien Vietnamese Restaurant","Scarborough","ON","M1B 2W4",43.8114541,-79.2433088,"1","Vietnamese, Restaurants"
"670",47305,"Nam Vietnamese Restaurant","Richmond Hill","ON","L4B 2N8",43.8613219,-79.3875766,"1","Vietnamese, Restaurants, Sandwiches"
"671",178552,"Green Lotus Vegetarian","Mesa","AZ","85201",33.413244,-111.8735797,"0","Restaurants, Thai, Vietnamese, Vegetarian"
"672",103523,"Pink Pepper Thai Cusine","Mesa","AZ","85202",33.3629395,-111.8752823,"0","Thai, Restaurants, Chinese, Vietnamese, Buffets"
"673",187607,"Pho Saigon","Newmarket","ON","L3Y 5Y1",44.0404248,-79.4769324,"1","Cambodian, Restaurants, Vietnamese"
"674",99410,"Pho Hong","Charlotte","NC","28205",35.2105343048,-80.7806946613,"0","Chinese, Restaurants, Vietnamese"
"675",113348,"Jasmine Express","North Las Vegas","NV","89031",36.260471,-115.154097,"1","Chinese, Shaved Ice, Juice Bars & Smoothies, Restaurants, Asian Fusion, Vietnamese, Food, Bubble Tea"
"676",4764,"Restaurant Soupebol","Pointe-Claire","QC","H9R 5K3",45.4684496,-73.8299316,"0","French, Thai, Restaurants, Vietnamese, Chinese"
"677",89378,"Dong Khanh","Calgary","AB","T2E 8N5",51.0694242,-114.0121234,"1","Vietnamese, Restaurants"
"678",54042,"Pho So 1","Las Vegas","NV","89102",36.1249835,-115.2064306,"0","Restaurants, Vietnamese, Thai, Soup, Korean, Noodles"
"679",38535,"Basil Box","Mississauga","ON","L5B 2C9",43.5928749,-79.6430241,"1","Gluten-Free, Vietnamese, Restaurants, Thai"
"680",98034,"Jenni Pho","Las Vegas","NV","89139",36.0455411,-115.2435889,"1","Vietnamese, Restaurants"
"681",170372,"Nem Nuong Bistro","Las Vegas","NV","89102",36.125883,-115.203712,"0","Restaurants, Vietnamese"
"682",58912,"Pho Tai Loi","Mississauga","ON","L4W 5G6",43.6318785873,-79.6143556014,"1","Restaurants, Food, Vietnamese, Thai"
"683",177121,"Saigon Bistro","Calgary","AB","T2J 0P6",50.9661218,-114.0717547,"1","Restaurants, Vietnamese"
"684",2825,"Viet Kitchen","Phoenix","AZ","85003",33.4495069,-112.075324,"0","Vietnamese, Restaurants"
"685",14387,"Restaurant Pho 21","Montréal","QC","H2L 3L3",45.5177749,-73.5579865,"1","Vietnamese, Restaurants"
"686",187409,"Nguyen Huong Foods Company","Scarborough","ON","M1V 5P6",43.8316604,-79.265571,"1","Food, Vietnamese, Restaurants, Bakeries"
"687",117830,"Flamin Kitchen","Charlotte","NC","28262",35.3380358,-80.7574324,"1","Cajun/Creole, Vietnamese, Seafood, Restaurants"
"688",101157,"Pho 88 North York","Toronto","ON","M2N 5P8",43.7704722,-79.4129878,"1","Chinese, Thai, Restaurants, Vietnamese"
"689",188000,"Quang Nam","Glendale","AZ","85301",33.5267554367,-112.1520532943,"0","Restaurants, Sandwiches, Vietnamese, Food, Coffee & Tea"
"690",168969,"DaKao Quan","Las Vegas","NV","89146",36.1263504,-115.2182138,"0","Vietnamese, Restaurants"
"691",153021,"Makisu","Sainte-thérèse","QC","J7E 2Y2",45.6477448078,-73.8410919407,"1","Restaurants, Japanese, Vietnamese, Sushi Bars"
"692",67012,"Pho Thanh Nam Quan","Saint-Laurent","QC","H4L 5C8",45.520266,-73.674179,"1","Vietnamese, Restaurants"
"693",164447,"Bamboo Bistro","Las Vegas","NV","89139",36.051627,-115.24387,"0","Restaurants, Vietnamese"
"694",129998,"Sen Vietnamese Kitchen","Calgary","AB","T2Z 4Y4",50.9306909,-113.9695881,"1","Restaurants, Vietnamese"
"695",129941,"Apple Eatery","Calgary","AB","T2P 3R5",51.0456937,-114.0780689,"1","Delis, Vietnamese, Event Planning & Services, Caterers, Restaurants"
"696",87875,"Thuy Shop","Toronto","ON","M9M 2E7",43.7498162,-79.5493678,"1","Vietnamese, Restaurants, Fast Food"
"697",34567,"Nho Saigon","Calgary","AB","T2T",51.0238406,-114.110147,"1","Vietnamese, Restaurants"
"698",114664,"La Cochinchine","Calgary","AB","T3E 0B3",51.0380648,-114.1338384,"0","Restaurants, Vietnamese"
"699",107789,"Pho Surpryz Viet & Thai Cuisine","Whitby","ON","L1N 2K7",43.886509,-78.913802,"1","Thai, Restaurants, Vietnamese"
"700",83525,"Pho Nam Quan","Montréal","QC","H1Z 2G3",45.566567,-73.606808,"1","Vietnamese, Restaurants"
"701",42340,"Restaurant Nguyen","Montréal","QC","H2C 1S8",45.5641514,-73.6554324,"1","Restaurants, Vietnamese"
"702",100383,"Pho Kinh Do","Las Vegas","NV","89102",36.1265982988,-115.197783811,"1","Noodles, Restaurants, Vietnamese"
"703",31934,"Phuong Dong","Phoenix","AZ","85021",33.551961,-112.100102,"0","Restaurants, Vietnamese"
"704",97243,"Ninh Kieu Vietnamese Restaurant","Cleveland","OH","44114",41.512318,-81.6637391,"0","Restaurants, Vietnamese, Ethnic Food, Specialty Food, Food"
"705",157655,"Banh Mi cafe","Toronto","ON","M6M 1T6",43.6898916,-79.4755635,"1","Waffles, Desserts, Argentine, Food, Breakfast & Brunch, Vietnamese, Restaurants"
"706",111488,"Wing Phat","Saint-Léonard","QC","H1R 1W9",45.5728917,-73.6017222,"1","Grocery, Chinese, Food, Vietnamese, Restaurants, Thai"
"707",157455,"unPhogettable","Mesa","AZ","85202",33.412909,-111.875826,"1","Specialty Food, Food, Ethnic Food, Restaurants, Vietnamese"
"708",32883,"Chloe's Garden Restaurant","Markham","ON","L3R 0G6",43.8541102,-79.3371383,"1","Chinese, Restaurants, Vietnamese"
"709",63492,"Milani","Montréal","QC","H2T 2K5",45.5245769,-73.6048635,"1","Restaurants, Vietnamese"
"710",172910,"Chez Pho","Montréal","QC","H2S 3R1",45.5314469256,-73.5983072152,"1","Restaurants, Vietnamese"
"711",44287,"La Belle Thailandaise","Montréal","QC","H2J 2L3",45.5239589,-73.583466,"1","Thai, Vietnamese, Restaurants"
"712",50949,"Pho Canh Buom","Toronto","ON","M6H 1B6",43.6524029,-79.4338114,"0","Restaurants, Vietnamese"
"713",31966,"Anise Vietnamese Restaurant","Vaughan","ON","L4H 1A6",43.8378504319,-79.5593105985,"0","Restaurants, Vietnamese"
"714",158836,"Yoy","Montréal","QC","H2J 2L3",45.524057,-73.583601,"1","Sushi Bars, Japanese, Restaurants, Vietnamese"
"715",121248,"Mama Fu's Asian House","North Olmsted","OH","44070",41.416814,-81.906416,"0","Restaurants, Chinese, Vietnamese, Asian Fusion"
"716",154551,"Pho Thanh","Dollard-Des-Ormeaux","QC","H8Y 3C7",45.5031769,-73.8165891,"1","Restaurants, Vietnamese"
"717",98035,"Pho Bang New York","Montréal","QC","H2Z 1J4",45.5080204,-73.5592282,"1","Restaurants, Beauty & Spas, Vietnamese, Soup, Day Spas"
"718",151916,"Lee's Sandwiches","Peoria","AZ","85381",33.6090048,-112.2208106,"1","Coffee & Tea, Restaurants, Food, Desserts, Vietnamese, Juice Bars & Smoothies, Sandwiches, Breakfast & Brunch, Asian Fusion, Fast Food"
"719",181359,"Au Kinh DO","Brossard","QC","J4X 1C2",45.4517323,-73.4688893,"1","Shopping, Vietnamese, Home & Garden, Restaurants, Kitchen & Bath"
"720",61639,"188 Restaurant","Las Vegas","NV","89103",36.1129279,-115.224263,"0","Italian, Asian Fusion, Vietnamese, French, Restaurants"
"721",53749,"Noodle Queen","Calgary","AB","T1Y 7K7",51.0688546,-113.9954519,"1","Vietnamese, Restaurants, Sandwiches"
"722",107206,"Boathouse Asian Eatery Las Vegas","Las Vegas","NV","89102",36.1442051,-115.1741454,"1","Chinese, Vietnamese, Restaurants, Sushi Bars, Asian Fusion, Japanese"
"723",32485,"Banh Mi Ba Le","Toronto","ON","M5T 1H3",43.6528034,-79.3991397,"1","Vietnamese, Restaurants, Sandwiches"
"724",178811,"Saigon King Vietnamese Restaurant","Scarborough","ON","M1W 2S4",43.7993396,-79.3066474,"0","Vietnamese, Restaurants"
"725",66337,"Pho Huong","Toronto","ON","M6G 3A7",43.6552653,-79.4141317,"0","Vietnamese, Restaurants"
"726",154785,"Banh Mi Queen","Montréal","QC","H2X 2V7",45.5150968,-73.5748298,"0","Sandwiches, Vietnamese, Restaurants, Asian Fusion"
"727",163897,"Rose Cafe","Toronto","ON","M4M 2G9",43.6656188565,-79.3514843908,"0","Vietnamese, Restaurants"
"728",58415,"Saigon 27","Montréal","QC","H2P 2M9",45.5411566,-73.6384782,"0","Asian Fusion, Soup, Vietnamese, Restaurants, Thai"
"729",164339,"Simi's Cafe","Gilbert","AZ","85234",33.3788895537,-111.7797506829,"1","Thai, Vietnamese, Restaurants, Food, Chinese, Poke, Cantonese"
"730",38311,"Pho Viet Vietnamese Restaurant","Glendale","AZ","85308",33.6400698,-112.1498222,"1","Soup, Restaurants, Ethnic Food, Specialty Food, Vietnamese, Food"
"731",84540,"Bangkok Saigon Noodle","Bradford","ON","L3Z 2B4",44.1149027,-79.5597733,"1","Vietnamese, Thai, Restaurants"
"732",88812,"Rose's Vietnamese Sandwiches","Toronto","ON","M4M",43.6655139931,-79.3519440293,"1","Sandwiches, Vietnamese, Restaurants"
"733",75734,"Little Saigon","Glendale","AZ","85301",33.5391207,-112.1815141,"1","Restaurants, Vietnamese"
"734",141888,"K-Thi Viet Cuisine","Calgary","AB","T2T 1Z7",51.0239767,-114.1112949,"1","Vietnamese, Restaurants"
"735",31627,"Los Vietnamita Taqueria Shop","Toronto","ON","M5B",43.6531331164,-79.382928227,"1","Restaurants, Tacos, Asian Fusion, Mexican, Vietnamese"
"736",136373,"Pho Nhat","Mesa","AZ","85202",33.393568,-111.870476,"1","Restaurants, Vietnamese"
"737",20349,"Mr Pho","Richmond Hill","ON","L4B 3Y7",43.8418877308,-79.3974527344,"1","Vietnamese, Restaurants"
"738",128939,"District One","Las Vegas","NV","89146",36.1274286041,-115.2240718495,"1","Asian Fusion, Bars, Sports Bars, Vietnamese, Seafood, Restaurants, Nightlife, Dive Bars"
"739",187617,"TAO Vietnamese Cuisine","Calgary","AB","T2R 0J4",51.0421031,-114.082193,"1","Restaurants, Vietnamese"
"740",138208,"Vietnam Noodle Star","Toronto","ON","M1S 4T6",43.8045829,-79.2877916,"1","Noodles, Restaurants, Vietnamese"
"741",32830,"Lymai","Montréal","QC","H2X 3K6",45.5151291,-73.5637402,"0","Vietnamese, Restaurants"
"742",11855,"Tea Light Cafe","Phoenix","AZ","85054",33.6580898333,-111.9329554516,"1","Vietnamese, Korean, Restaurants"
"743",102982,"Le's Sandwiches & Cafe","Charlotte","NC","28213",35.2559996507,-80.791980922,"1","Vietnamese, Restaurants, Sandwiches"
"744",71888,"Saigon Y2K Vietnamese Restaurant","Calgary","AB","T2M 3Y7",51.069973,-114.116699,"1","Restaurants, Vietnamese, Soup, Asian Fusion"
"745",121716,"Pho Mi 89","Oakville","ON","L6H 0E9",43.4974381,-79.7067765,"1","Vietnamese, Restaurants"
"746",17597,"Saigon Style","Montréal","QC","H2X 1K5",45.511129,-73.562781,"0","Vietnamese, Restaurants, Food"
"747",121061,"Pho Hùng","Verdun","QC","H4G 2A1",45.4642920532,-73.5647508,"0","Vietnamese, Restaurants, Thai, Cantonese, Chinese"
"748",56169,"Mr. Sandwich","Las Vegas","NV","89103",36.1243036,-115.243101,"0","Vietnamese, Restaurants"
"749",52988,"Angus Pho House","Toronto","ON","M2N 5S1",43.7770441,-79.4146454,"1","Malaysian, Vietnamese, Asian Fusion, Restaurants"
"750",19079,"Pho Plus","North York","ON","M3H",43.7863316605,-79.4687866979,"1","Vietnamese, Restaurants"
"751",28025,"Cuisine Du Cambodge","Cleveland","OH","44111",41.4582548,-81.7809899,"0","Restaurants, Cambodian, Thai, Vietnamese"
"752",86878,"Restaurant Ong Ca Can","Montréal","QC","H2X 1K5",45.5108185,-73.5631496,"1","Vietnamese, Restaurants"
"753",54804,"Restaurant Cambodiana","Joliette","QC","J6E 3M3",46.023012,-73.437797,"1","Asian Fusion, Vietnamese, Thai, Restaurants"
"754",86162,"Mint Vietnamese Cuisine","Calgary","AB","T2S",51.0371059824,-114.070672,"1","Vietnamese, Restaurants, Soup"
"755",123451,"Viet Bistro","Las Vegas","NV","89128",36.1953124953,-115.2481780262,"1","Restaurants, Specialty Food, Ethnic Food, Food, Vietnamese"
"756",20328,"Pho Peter Restaurant","Brampton","ON","L6V 1X6",43.697218,-79.752177,"1","Restaurants, Vietnamese"
"757",180572,"Red Lantern Pho Vietnamese Grill","Las Vegas","NV","89148",36.0864360649,-115.307593419,"1","Chicken Wings, Vietnamese, Soup, Restaurants"
"758",110320,"Pho Dau Bo","Mississauga","ON","L4Y 2C3",43.6040563,-79.5907629,"1","Restaurants, Vietnamese"
"759",69833,"Seoul Korean Bar B Q Restaurant","Las Vegas","NV","89104",36.143672,-115.1409598,"0","Restaurants, Korean, Vietnamese"
"760",23650,"Thang Long","Airdrie","AB","T4B 3L8",51.2905687,-114.0134538,"1","Restaurants, Vietnamese"
"761",152374,"VIP Vietnamese Cuisine","Markham","ON","L3R 3P3",43.848271,-79.349289,"1","Restaurants, Noodles, Vietnamese, Thai, Chinese, Asian Fusion"
"762",77447,"Lac Viet","Calgary","AB","T3K",51.1255325,-114.0694533,"1","Restaurants, Vietnamese"
"763",69333,"Saigon West Noodle house","Calgary","AB","T3B 1A8",51.0715185,-114.1635349,"0","Vietnamese, Restaurants"
"764",12155,"Le Petit Sao","Verdun","QC","H3E 1J6",45.466729,-73.542465,"1","Restaurants, Vietnamese, Food Court, Asian Fusion"
"765",44620,"Saigon Night","Calgary","AB","T2E 4X4",51.058873,-114.014522,"1","Restaurants, Vietnamese"
"766",100660,"Star King Viet Thai Cuisine","Toronto","ON","M4P 2E6",43.7085029,-79.3989157,"1","Restaurants, Thai, Vietnamese"
"767",21923,"Flamin' Crawfish","Charlotte","NC","28209",35.1717353,-80.8492716,"0","Seafood, Vietnamese, Cajun/Creole, Asian Fusion, Restaurants"
"768",24407,"Pho Kim Long","Las Vegas","NV","89102",36.1261943318,-115.193445287,"1","Vietnamese, Restaurants, Chinese, Korean"
"769",27357,"Banh Mi & Che Cali","Toronto","ON","M5T 2E7",43.6536791,-79.3984583,"0","Desserts, Vietnamese, Sandwiches, Food, Restaurants"
"770",172543,"Lanterne","Longueuil","QC","J4H",45.5387265,-73.5098332,"1","Vietnamese, Restaurants"
"771",104091,"Banh Mi Boys","Toronto","ON","M4P 3J6",43.7092455,-79.3984441,"1","Asian Fusion, Restaurants, Vietnamese"
"772",107722,"Panda Express","Phoenix","AZ","85054",33.655595,-111.929181,"1","Asian Fusion, Event Planning & Services, Chinese, Fast Food, Restaurants, Caterers, Vietnamese"
"773",28063,"Pho Vietnamese Cuisine","Las Vegas","NV","89109",36.1247643,-115.1719639,"1","Restaurants, Vietnamese"
"774",135893,"Zizzy","Las Vegas","NV","89102",36.125908,-115.197904,"0","Korean, Bars, Karaoke, Cocktail Bars, Vietnamese, Restaurants, Nightlife"
"775",189633,"Seoul Jung","Glendale","AZ","85302",33.5783014,-112.1523116,"0","Restaurants, Vietnamese, Korean"
"776",38715,"Treasure of Saigon","Calgary","AB","T3H",51.060827,-114.179945,"1","Vietnamese, Restaurants"
"777",65185,"Chez Lien Plus","Montréal","QC","H3B 2S7",45.4988353,-73.5728377,"1","Vietnamese, French, Restaurants"
"778",169963,"Sahara Korean Restaurant","Las Vegas","NV","89104",36.1438508,-115.1450044,"1","Restaurants, Vietnamese, Korean"
"779",28869,"Dac Biet Burger","Toronto","ON","M5B 1Y7",43.6559443653,-79.3767318882,"0","Restaurants, Burgers, Vietnamese, Asian Fusion"
"780",43701,"3 Regions Vietnamese Kitchen","Cave Creek","AZ","85331",33.7424752,-111.9773539,"1","Vietnamese, Restaurants"
"781",17150,"Nguyet Minh Lo Banh Mi","Mississauga","ON","L4Y 4G6",43.5978634,-79.5946016,"1","Sandwiches, Restaurants, Vietnamese"
"782",138546,"Pho Dacao","Vaughan","ON","L4H 2J3",43.8279072474,-79.5499604568,"0","Vietnamese, Thai, Chinese, Restaurants"
"783",125476,"Pho VT","Concord","ON","L4K 2V1",43.7826623,-79.4900102,"0","Vietnamese, Restaurants"
"784",137227,"Pure Contemporary Vietnamese Kitchen + Bar","Calgary","AB","T2P 2T4",51.0457437,-114.0797206,"1","Restaurants, Vietnamese"
"785",140344,"Pho Zui Zui","Dollard-des Ormeaux","QC","H9B 1E2",45.4936573068,-73.8058978713,"1","Vietnamese, Restaurants"
"786",93442,"Hanoi 3 Seasons","Toronto","ON","M4M 1Y3",43.6656695302,-79.3520745381,"1","Thai, Vietnamese, Restaurants"
"787",113462,"Tong-Por","Montréal","QC","H4K 1M9",45.527962,-73.721471,"1","Restaurants, Dim Sum, Vietnamese, Chinese, Seafood"
"788",109516,"Bonjour Vietnam","Phoenix","AZ","85004",33.4505535,-112.0741097,"0","Vietnamese, French, Asian Fusion, Restaurants"
"789",176686,"Fresh Ginger Vietnamese Cuisine","Toronto","ON","M4R 1A1",43.7065804,-79.3997742,"0","Restaurants, Vietnamese"
"790",61847,"Pho Express","Toronto","ON","M5T 2W7",43.6538162145,-79.3911539018,"1","Restaurants, Vietnamese"
"791",66002,"Pho Van Vietnamese Cuisine","Chandler","AZ","85224",33.3359999365,-111.8756398418,"0","Thai, Vietnamese, Restaurants"
"792",172411,"DelightPho","Brampton","ON","L6Y 5Z6",43.6554172,-79.7678929,"1","Vietnamese, Restaurants"
"793",88164,"Shawnessy Vietnamese Restaurant","Calgary","AB","T2Y 3S5",50.9078559,-114.0658111,"1","Restaurants, Vietnamese"
"794",83024,"Pho for Days","Peoria","AZ","85382",33.6271966768,-112.2368825717,"1","Sandwiches, Juice Bars & Smoothies, Food, Vietnamese, Soup, Restaurants"
"795",1468,"Pho Huong Viet Noodle House","Calgary","AB","T3G 2A7",51.123231,-114.19751,"1","Restaurants, Vietnamese"
"796",15433,"Banh Mi Brothers","Charlotte","NC","28262",35.3035097938,-80.7487670917,"1","Food, Bubble Tea, Juice Bars & Smoothies, Restaurants, Vietnamese, Sandwiches"
"797",88033,"Ginger","Toronto","ON","M5S 1Y4",43.6655484,-79.409125,"0","Vegan, Restaurants, Vietnamese"
"798",34789,"Pho Hao","Calgary","AB","T2A 6K3",51.0556977,-113.9853439,"1","Restaurants, Vietnamese"
"799",13995,"Pho Mi Asia","Mississauga","ON","L4Y 2C1",43.6056743629,-79.5849891927,"0","Restaurants, Vietnamese"
"800",180167,"Saigon Boyz Sandwich","Gilbert","AZ","85234",33.3655334,-111.7881503,"1","Vietnamese, Sandwiches, Restaurants"
"801",184248,"Hue-Thai","Las Vegas","NV","89146",36.125587,-115.211199,"1","Sandwiches, French, Vietnamese, Asian Fusion, Restaurants, Chinese, Thai"
"802",177043,"Kim Chau Deli","Calgary","AB","T2A 6K4",51.056770916,-113.988487778,"1","Delis, Sandwiches, Vietnamese, Restaurants"
"803",97635,"Mr. Pho","Charlotte","NC","28273",35.1441372,-80.9329131,"1","Restaurants, Vietnamese"
"804",187578,"Pho Friendly 18","Vaughan","ON","L4K 2M9",43.8184036,-79.5311006,"1","Vietnamese, Restaurants"
"805",185294,"TNK Vietnamese Restaurant","Calgary","AB","T1Y 6T2",51.0693667,-113.9338176,"1","Vietnamese, Restaurants"
"806",127158,"Pho Thuan Thanh","Mesa","AZ","85202",33.405652,-111.875246,"1","Vietnamese, Restaurants"
"807",131583,"Pho Thang Long","Tempe","AZ","85281",33.425938,-111.940346,"0","Restaurants, Vietnamese"
"808",103584,"Restaurant Can Tho","Longueuil","QC","J4L 4N5",45.517682,-73.4555622,"1","Restaurants, Vietnamese"
"809",117252,"Pho Da Lat","Tempe","AZ","85284",33.3478602,-111.9450558,"1","Restaurants, Vietnamese, Thai"
"810",113961,"Pho Thai Binh","Las Vegas","NV","89102",36.1263001,-115.2037174,"0","Vietnamese, Restaurants"
"811",177972,"Pho Vietnam","Toronto","ON","M1V 4W7",43.8055096,-79.2874408,"1","Restaurants, Vietnamese"
"812",128402,"Pho Annie 2","Las Vegas","NV","89148",36.0861570412,-115.3075191379,"0","Restaurants, Vietnamese"
"813",110620,"Bun Bo Hue","North York","ON","M9M 2W8",43.7513363,-79.5436677,"1","American (New), Restaurants, Vietnamese, Canadian (New)"
"814",623,"Pho Saigon","Las Vegas","NV","89146",36.1268123125,-115.2409445336,"0","Vietnamese, Food, Restaurants, Korean, Sandwiches"
"815",184968,"Mimosa Vietnamese Restaurant","Calgary","AB","T2Y 3S6",50.9013478591,-114.0678551108,"1","Vietnamese, Food, Ethnic Food, Specialty Food, Restaurants"
"816",60200,"Pho Tien Thanh","Toronto","ON","M6J 2Y9",43.6455482,-79.4190055,"1","Restaurants, Vietnamese"
"817",15772,"iPho","Charlotte","NC","28209",35.1611334,-80.8492823,"0","Vegan, Soup, Sandwiches, Vegetarian, Chicken Wings, Restaurants, Vietnamese, Noodles"
"818",189403,"Angus Pho House","Markham","ON","L3R 3P3",43.848192,-79.349857,"1","Restaurants, Noodles, Soup, Vietnamese"
"819",45078,"Vietnamese Village Express","Calgary","AB","T2P 3N8",51.0473774,-114.0820479,"1","Vietnamese, Restaurants"
"820",156502,"Saigon Nites Vietnamese Cuisine","Scottsdale","AZ","85260",33.62204,-111.9044144,"1","Restaurants, Vietnamese"
"821",42601,"Pho T & T","Vaughan","ON","L4K 1Z7",43.818302,-79.5028143,"1","Vietnamese, Restaurants"
"822",19210,"Pho Phuong","Toronto","ON","M6J 1E8",43.6463209,-79.4088734,"0","Restaurants, Vietnamese"
"823",186323,"Pho Cao","Tempe","AZ","85281",33.4369319,-111.9270714,"0","Restaurants, Nightlife, Vietnamese, Karaoke, Sushi Bars, Bars"
"824",91134,"East","Montréal","QC","H3B 3B8",45.5027146,-73.5693876,"1","Thai, Restaurants, Japanese, Asian Fusion, Vietnamese, Chinese"
"825",74848,"Lee's Sandwiches","Las Vegas","NV","89139",36.0516832,-115.2441671,"1","Vietnamese, Restaurants, Sandwiches"
"826",5178,"Vietnam Palace Grill & Noodle House","Calgary","AB","T3A 6B8",51.161892,-114.125318,"1","Vietnamese, Restaurants"
"827",166769,"Vic Hong Restaurant","Richmond Hill","ON","L4S 1P3",43.876528,-79.4107135,"0","Barbeque, Vietnamese, Restaurants"
"828",41620,"Le's Sandwich - Banh Mi Viet Nam","Toronto","ON","M6K",43.652841,-79.4333115,"1","Restaurants, Vietnamese"
"829",130575,"Green Mango Boys","Toronto","ON","M9B 3Y8",43.6319647065,-79.5552534257,"1","Vietnamese, Thai, Restaurants"
"830",143814,"Pho Hoan Pasteur Fusion Noodle House","Calgary","AB","T3R 0R5",51.1502247699,-114.2130088806,"1","Vietnamese, Restaurants"
"831",23258,"Rice For King","Calgary","AB","T2J 0P5",50.971461,-114.069929,"1","Restaurants, Vietnamese"
"832",3025,"Pho Ngoc Yen Restaurant","Mississauga","ON","L4W 2P3",43.6383305,-79.6429298,"1","Vietnamese, Vegetarian, Asian Fusion, Noodles, Restaurants"
"833",119048,"Pho Saigon 8","Las Vegas","NV","89146",36.1259555,-115.2189011,"1","Restaurants, Bars, Nightlife, Vietnamese, Karaoke"
"834",70178,"Star Ginger","Chandler","AZ","85048",33.2816398,-111.9729284,"1","Vietnamese, Asian Fusion, Vegan, Restaurants, Salad"
"835",67531,"Pho Bistro","Las Vegas","NV","89121",36.1139613,-115.0909408,"1","Vietnamese, Restaurants, Chinese"
"836",142857,"Me Lyng Restaurant","Homestead","PA","15120",40.405053,-79.913952,"1","Vietnamese, Restaurants, Chinese"
"837",50874,"Pho Dau Bo","Toronto","ON","M1H 1R2",43.7610656,-79.2252895,"1","Vietnamese, Restaurants"
"838",164113,"Hoai Huong","Brossard","QC","J4X 1C2",45.4440989,-73.4734341,"1","Restaurants, Gluten-Free, Vietnamese"
"839",173763,"Restaurant Lanterne","Montréal","QC","H2L 2A1",45.5190613,-73.557765,"0","Vietnamese, Restaurants"
"840",26296,"Song Huong Vietnamese Restaurant","Calgary","AB","T2E 7A2",51.0783855,-114.0124835,"1","Soup, Vietnamese, Restaurants"
"841",69559,"Top Saigon Restaurant","North York","ON","M2H 1T1",43.7915862,-79.3669321,"0","Thai, Vietnamese, Restaurants"
"842",113958,"Thai Island","Toronto","ON","M5H",43.648528,-79.3833359,"1","Thai, Vietnamese, Restaurants"
"843",191699,"Viet Kong","Markham","ON","L6E 0B7",43.9072302,-79.2667048,"1","Vietnamese, Restaurants"
"844",15169,"Pho Quynh","Charlotte","NC","28205",35.2112960815,-80.7613372803,"1","Desserts, Food, Nightlife, Vietnamese, Bars, Restaurants, Beer Bar"
"845",19732,"La Citronnelle","Montréal","QC","H2C 1R4",45.560843,-73.657388,"1","Asian Fusion, Restaurants, Chinese, Vietnamese"
"846",178014,"Saigon Bangkok Restaurant","Toronto","ON","M6N 1L2",43.669529,-79.4822644,"1","Vietnamese, Thai, Restaurants"
"847",190752,"Spoon & Fork Thai & Vietnamese Cuisine","Etobicoke","ON","M9C 5M1",43.6493986165,-79.6036862147,"0","Vietnamese, Thai, Restaurants"
"848",71351,"Sate Sub","Calgary","AB","T2P 1A3",51.0472973,-114.0828068,"1","Restaurants, Sandwiches, Vietnamese"
"849",102832,"Mii Sandwich Co.","Toronto","ON","M6A 2T9",43.726153,-79.451764,"1","Restaurants, Sandwiches, Fast Food, Vietnamese"
"850",166951,"Pho Vietnamese Delight","North York","ON","M2N 5S3",43.7933162861,-79.3542798885,"1","Restaurants, Vietnamese"
"851",68572,"Restaurant Little Saigon","Montréal","QC","H2R 2N2",45.5408858,-73.6133472,"1","Vietnamese, Thai, Restaurants, Chinese"
"852",120902,"O Banh Mi","Toronto","ON","M6P 2R1",43.6652662,-79.4685177,"0","Vietnamese, Restaurants"
"853",26085,"Kim Anh Vietnamese Submarines","Calgary","AB","T2S 0B4",51.037993,-114.075993,"1","Restaurants, Sandwiches, Vietnamese"
"854",113642,"Le Comptoir Mæl","Montréal","QC","H2S 1Z6",45.5335327,-73.5960261,"1","Food, Coffee & Tea, Restaurants, Juice Bars & Smoothies, Sandwiches, Vietnamese"
"855",35257,"Pho 28","Laval","QC","H7T 1R3",45.559065,-73.766627,"1","Vietnamese, Restaurants"
"856",141819,"Pho Hoa Restaurant","Toronto","ON","M1S 2B7",43.785886,-79.2761558,"0","Professional Services, Restaurants, Life Coach, Vietnamese"
"857",66540,"Da Vang Restaurant","Phoenix","AZ","85015",33.5037755,-112.1005014,"1","Vietnamese, Restaurants"
"858",94267,"Pho Kha Le","Calgary","AB","T3H 3V4",51.0155877,-114.1752644,"0","Restaurants, Vietnamese"
"859",127796,"Xe Lua Restaurant","Markham","ON","L3R 0W4",43.8607259,-79.304713,"0","Restaurants, Vietnamese"
"860",62081,"New Saigon Gourmet","Toronto","ON","M6G 1Z4",43.6716755,-79.4207827,"0","Vietnamese, Food, Ethnic Food, Restaurants, Chinese, Specialty Food"
"861",143310,"Viet Thai Bistro","Calgary","AB","T2Z 4R5",50.9134212,-113.9492492,"1","Restaurants, Vietnamese, Thai"
"862",77564,"SEA: The Thai Experience","Las Vegas","NV","89109",36.1137571281,-115.1688201804,"1","Thai, Vietnamese, Nightlife, Restaurants, Bars, Asian Fusion, Cocktail Bars"
"863",99096,"Spring 'N Fresh Rolls","Toronto","ON","M1L 4C2",43.7259981416,-79.2867549509,"1","Thai, Vietnamese, Restaurants"
"864",23111,"Red Kitchen","Ajax","ON","L1S 2J1",43.8442686357,-79.0187925473,"0","Restaurants, Thai, Vietnamese"
"865",171898,"Pho & Rice","Cleveland Heights","OH","44118",41.51117139,-81.5801511221,"1","Restaurants, Vietnamese, Thai"
"866",4242,"Lotus Island Vietnamese Eatery","Mississauga","ON","L5E",43.584875,-79.5509924,"1","Vietnamese, Restaurants"
"867",88180,"Pho Mi Viet Thai","Vaughan","ON","L6A 1R8",43.8545649,-79.5161402,"1","Restaurants, Thai, Vietnamese"
"868",180161,"Pho Mymy","Laval","QC","H7S 1M9",45.5679383,-73.7266086,"1","Vietnamese, Restaurants"
"869",74294,"Dong-A","Phoenix","AZ","85017",33.5081911,-112.134648,"0","Chinese, Restaurants, Vietnamese"
"870",96955,"Ginger Pho","North York","ON","M9N 2A9",43.7106209,-79.5352067,"1","Vietnamese, Restaurants"
"871",151415,"Anything Cafe","Calgary","AB","T2T 4X6",51.022645,-114.106325,"1","Restaurants, Vietnamese"
"872",85740,"Viet Kitchen","Phoenix","AZ","85024",33.671426,-112.03017,"1","Restaurants, Vietnamese"
"873",42729,"Charmes Cochinchine","Laval","QC","H7S 2C9",45.5702905609,-73.7394581016,"1","Asian Fusion, Restaurants, Vietnamese"
"874",146624,"Pho Thang Cafe","Cleveland","OH","44114",41.5024433,-81.6893526,"1","Vietnamese, Restaurants"
"875",28453,"Dakao Sandwiches","Las Vegas","NV","89146",36.1265771332,-115.2195137078,"1","Food, Sandwiches, Restaurants, Asian Fusion, Vietnamese, Bakeries, Delis"
"876",116117,"Fantastic Curry House","Markham","ON","L6C 0A2",43.8889628,-79.3143887,"0","Thai, Restaurants, Vietnamese"
"877",53330,"The Bake Chef Company","Calgary","AB","T2N 1N4",51.0784729366,-114.1314021554,"1","Vietnamese, Food, Grocery, Ethnic Food, Bakeries, Restaurants, Specialty Food"
"878",136476,"Banh Mi Huy-Ky","Toronto","ON","M4M 1Z6",43.6691753,-79.3364065,"1","Restaurants, Vietnamese"
"879",180151,"Woodstone Thai & Vietnamese Cuisine","Markham","ON","L3R 5Z1",43.8570556,-79.3589109,"0","Restaurants, Vietnamese, Thai"
"880",80263,"Bowl Of Pho","Woodmere","OH","44122",41.4633454,-81.4854769,"1","Vietnamese, Restaurants, Specialty Food, Ethnic Food, Soup, Food, Vegetarian"
"881",69667,"Golden Turtle - Pho Rua Vang Restaurant","Mississauga","ON","L5B 4L1",43.5762264464,-79.6453531327,"1","Vietnamese, Restaurants"
"882",191324,"Binh Duong Quan","Mesa","AZ","85202",33.4134626757,-111.8760139123,"1","Restaurants, Vietnamese"
"883",177484,"Pho Kitchen","Las Vegas","NV","89103",36.1235575,-115.2075378,"0","Vietnamese, Restaurants"
"884",89642,"Top Noodle","Calgary","AB","T2A 1B7",51.0378673,-113.9555867,"1","Restaurants, Vietnamese"
"885",161463,"Bun Viet","Montréal","QC","H2S 2M9",45.5400015,-73.6118664,"1","Vietnamese, Restaurants"
"886",66466,"Bowl To Go","Chandler","AZ","85233",33.2757431,-111.7918256,"1","Vietnamese, Restaurants"
"887",80940,"Pho Xe Lua","Scarborough","ON","M1V 1V2",43.8092547,-79.2696046,"1","Vietnamese, Restaurants"
"888",127765,"Taydo Vietnamese & Chinese Restaurant","Parma","OH","44130",41.4042964,-81.7697802,"1","Vietnamese, Chinese, Restaurants"
"889",149769,"The Saigon Kitchen","Mississauga","ON","L4Y 2B1",43.6179903,-79.5949443,"1","Restaurants, Vietnamese"
"890",14451,"Purple Bubble Asian Cuisine","Ajax","ON","L1Z 1E8",43.863555,-79.02512,"1","Food, Vietnamese, Asian Fusion, Bubble Tea, Restaurants, Coffee & Tea"
"891",125176,"Panda House","Toronto","ON","M4B 1M6",43.7058731158,-79.311500847,"0","Chinese, Vietnamese, Restaurants, Italian, Asian Fusion, Thai"
"892",76812,"Pho Do Thi","Mississauga","ON","L5A 1V9",43.5812774,-79.6160309,"1","Restaurants, American (Traditional), Vietnamese, Food"
"893",134841,"Gia Lai","Lyndhurst","OH","44124",41.5031356085,-81.500377126,"0","Restaurants, Vietnamese, Asian Fusion"
"894",83775,"Pho East Lake","Airdrie","AB","T4A 2G4",51.2851050565,-113.9966640589,"1","Vietnamese, Restaurants"
"895",113411,"Pho Hoai Vietnamese Noodle House","Calgary","AB","T2G 0B6",51.0503479,-114.060811,"1","Vietnamese, Restaurants"
"896",106064,"Brother 888 Restaurant","Mississauga","ON","L4Y 4G6",43.5971782,-79.5948389,"0","Chinese, Vietnamese, Restaurants, Thai"
"897",9774,"Pho Weston","Vaughan","ON","L4H 2Z7",43.8387995821,-79.559870868,"1","Vietnamese, Restaurants"
"898",104820,"Balo Vietnamese","Calgary","AB","T2R 0J3",51.0411945,-114.0813991,"0","Restaurants, Vietnamese"
"899",104210,"PT Noodles - Avondale","Avondale","AZ","85392",33.4659061444,-112.2801140567,"1","Noodles, Restaurants, Food, Juice Bars & Smoothies, Vietnamese"
"900",62708,"Vua","Montréal","QC","H2X 3K3",45.5148967,-73.5621983,"1","Restaurants, Sushi Bars, Sandwiches, Asian Fusion, Vietnamese, Chinese"
"901",161325,"Thai Viet Noodles House","Indian Trail","NC","28079",35.0794016242,-80.6550195068,"0","Restaurants, Vietnamese, Noodles, Thai"
"902",7557,"Sweet Basil Pan Asian","Richmond Hill","ON","L4C 3N8",43.8902554,-79.4189538,"0","Asian Fusion, Vietnamese, Restaurants, Thai, Chinese"
"903",93064,"Pho Khanh Hoa","Saint-Léonard","QC","H1S 1K7",45.576846,-73.583377,"1","Sandwiches, Soup, Restaurants, Vietnamese"
"904",30426,"Pho Viet Nam #2","Mesa","AZ","85205",33.4345275498,-111.7196086066,"1","Restaurants, Vietnamese"
"905",90572,"Pho Long Phung","Montréal","QC","H1M 1B1",45.5873525255,-73.5616708592,"1","Vietnamese, Restaurants"
"906",77712,"Asian One Noodle Soup & Grill","Las Vegas","NV","89119",36.1209172572,-115.1354880651,"0","Soup, Desserts, Noodles, Restaurants, Vietnamese, Food Court, Food"
"907",158716,"Saigon Palace Restaurant","Toronto","ON","M5T 2G8",43.6573415,-79.4000523,"0","Restaurants, Vietnamese"
"908",116560,"Pho 88","Montréal","QC","H3X 2H9",45.4836271385,-73.6301028728,"1","Food, Vietnamese, Restaurants"
"909",69360,"Pho Ngoc Tuan","Montréal","QC","H1R 1X6",45.5770499,-73.5983084,"1","Restaurants, Vietnamese, Vegetarian, Soup, Asian Fusion"
"910",50964,"Green Lemon Grass","Richmond Hill","ON","L4B 3N8",43.8662922087,-79.3864051095,"1","Restaurants, Thai, Malaysian, Asian Fusion, Vietnamese"
"911",156512,"Biên Hòa","Las Vegas","NV","89146",36.1262521188,-115.2177886609,"1","Food, Specialty Food, Vietnamese, Restaurants, Imported Food, Sandwiches, Ethnic Food, Desserts"
"912",109785,"Bamboo Bubble Tea","Mississauga","ON","L5C 4E6",43.5700754185,-79.6612048184,"0","Vietnamese, Restaurants, Thai"
"913",24194,"Pho Phuong","Calgary","AB","T2W 1G8",50.9489596815,-114.0854565769,"1","Noodles, Vietnamese, Soup, Restaurants"
"914",36721,"Big Head Prawn","Markham","ON","L3R 1L9",43.8611398,-79.311118,"0","Vietnamese, Restaurants"
"915",170462,"Pho Hung","Mississauga","ON","L4Y 2C1",43.605639,-79.589006,"1","Restaurants, Vietnamese"
"916",47797,"Kiem Bo Vietnamese Restaurant","North York","ON","M3J 3H6",43.7540084,-79.487747,"0","Restaurants, Vietnamese"
"917",71252,"Le's Pho","Calgary","AB","T2H 3B5",50.978424,-114.041507,"1","Restaurants, Vietnamese"
"918",17979,"Pho Yummy","Oakville","ON","L6M 4M2",43.4662160324,-79.7464222088,"0","Vietnamese, Noodles, Restaurants"
"919",178807,"Pho Ong Rau","Montréal","QC","H2P 1T7",45.5414149,-73.6296789,"1","Vietnamese, Restaurants"
"920",20405,"Spice Asian Bistro","Mesa","AZ","85206",33.385161,-111.6872749,"0","Restaurants, Vietnamese, Asian Fusion"
"921",139977,"Valley Vietnamese food","Phoenix","AZ","85032",33.601554,-111.9837624,"0","Vietnamese, Restaurants"
"922",176137,"Song Viet Restaurant","Calgary","AB","T2G 0B6",51.0503543,-114.0606341,"1","Vietnamese, Restaurants"
"923",139865,"Viet Noodle Bar","Calgary","AB","T2J 0N3",50.9423826,-114.047266,"1","Restaurants, Food, Vietnamese"
"924",171682,"Pho Lotus","Gilbert","AZ","85234",33.3652572122,-111.7877729237,"1","Vietnamese, Vegetarian, Restaurants"
"925",178247,"Pho Leo","Mesa","AZ","85203",33.4157124506,-111.7935410142,"1","Vietnamese, Restaurants, Soup, Pan Asian"
"926",109022,"Lotus Noodle House","Calgary","AB","T2G 2M8",51.0423947918,-114.0580745712,"1","Restaurants, Vietnamese, Noodles"
"927",159878,"Sugar Bowl","Willoughby","OH","44094",41.6072740891,-81.4388920739,"1","Bubble Tea, Food, Restaurants, Vietnamese, Bakeries"
"928",32302,"Restaurant Zen Asia","Saint-Lambert","QC","J4P 1X1",45.500102,-73.509021,"1","Vietnamese, Restaurants"
"929",111095,"Pho Old Saigon","Las Vegas","NV","89103",36.125886,-115.203317,"0","Restaurants, Vietnamese"
"930",67838,"Pho Express","Calgary","AB","T3E 7C7",51.0140460322,-114.1404486862,"1","Soup, Restaurants, Vietnamese, Noodles"
"931",21191,"WTPho","Las Vegas","NV","89178",36.02093,-115.269738,"1","Salad, Vietnamese, Restaurants, Soup"
"932",64950,"Le Viet Sandwich","Montréal","QC","H2X 2A1",45.5067878,-73.5664741,"1","Sandwiches, Restaurants, Vietnamese"
"933",117024,"La Petite Saigonnaise","Brossard","QC","J4V 1M8",45.4777120664,-73.4757645154,"1","Restaurants, Vietnamese"
"934",43711,"Mr Sandwich","Las Vegas","NV","89119",36.105748,-115.136843,"1","Juice Bars & Smoothies, Sandwiches, Vietnamese, Food, Restaurants"
"935",55520,"Oceans Fresh Market","Brampton","ON","L6T",43.710297,-79.733607,"1","Chinese, Food, Restaurants, Grocery, Vietnamese"
"936",131118,"Chez Nga","Westmount","QC","H3Z",45.4885904,-73.5850341,"0","Food, Restaurants, Vietnamese, Asian Fusion"
"937",159567,"Little Saigon Bistro","Calgary","AB","T2E 7E4",51.0763411,-114.0124735,"1","Restaurants, Vietnamese"
"938",110724,"Miss Saigon88","Pittsburgh","PA","15213",40.4512474328,-79.9514841288,"0","Thai, Restaurants, Chinese, Vietnamese"
"939",158156,"Green Bamboo Restaurant","Scarborough","ON","M1S 5H5",43.785267,-79.277624,"0","Specialty Food, Thai, Restaurants, Food, Vietnamese, Chinese, Comfort Food"
"940",161857,"Cà Phê Con Leche","Montréal","QC","H2S 2L7",45.533654,-73.598045,"0","Restaurants, Coffee & Tea, Latin American, Food, Vietnamese, Venezuelan"
"941",25030,"Wok In","Mesa","AZ","85207",33.4158437,-111.6688207,"1","Thai, Restaurants, Asian Fusion, Vietnamese"
"942",42970,"Spoon and Fork Thai & Vietnamese Cuisine","Mississauga","ON","L5J 1J6",43.5127728,-79.6282566,"0","Vietnamese, Thai, Restaurants"
"943",39320,"Pho Xua","Toronto","ON","M6N 1J3",43.6741568799,-79.4612735346,"1","Thai, Restaurants, Vietnamese"
"944",86240,"Lemongrass West Vietnamese Cuisine","Calgary","AB","T3E 6V2",51.0213887685,-114.1603836045,"1","Vietnamese, Restaurants"
"945",170187,"Lucky Red","Toronto","ON","M5T 2E7",43.6536877,-79.3984616,"0","Restaurants, Vietnamese, Chinese, Sandwiches, Asian Fusion"
"946",162598,"Restaurant Phayathai","Montréal","QC","H2T 2N6",45.521755,-73.594198,"0","Thai, Restaurants, Vietnamese"
"947",160924,"White Lotus","Toronto","ON","M6K 2W5",43.6506713,-79.4393277,"0","Restaurants, Vietnamese, Vegetarian"
"948",70423,"CreAsian Bar & Grill","Tempe","AZ","85281",33.4153043,-111.9199712,"1","Asian Fusion, Restaurants, Vietnamese"
"949",29853,"Vie&Nam","Montréal","QC","H3B",45.50361,-73.571405,"1","Asian Fusion, Food Court, Vietnamese, Restaurants"
"950",167324,"Pho Bistro","Vaughan","ON","L4J 7Y1",43.797476,-79.424783,"1","Thai, Restaurants, Vietnamese"
"951",37308,"Pho Mi Gia Phung","Toronto","ON","M4M 1Y3",43.665616,-79.3518608,"0","Vegetarian, Vietnamese, Restaurants"
"952",107604,"Pho 99","Mississauga","ON","L4Z 3M2",43.6068265,-79.6490854,"1","Thai, Vietnamese, Restaurants, Chinese"
"953",85220,"Pho Vaughan","Vaughan","ON","L6A 4H8",43.836709,-79.533312,"1","Vietnamese, Restaurants"
"954",91593,"Gong Kee Bbq Noodle House","Calgary","AB","T2A 0A7",51.0443627,-113.9692718,"1","Chinese, Japanese, Barbeque, Vietnamese, Restaurants"
"955",122829,"Chingu","Montréal","QC","H2V 4G3",45.520372,-73.5971231,"0","Arts & Entertainment, Canadian (New), Seafood, Korean, Bars, Brasseries, Restaurants, Nightlife, Music Venues, Vietnamese"
"956",65437,"Basil Box","Toronto","ON","M5V 2A5",43.6487076,-79.3959931,"1","Restaurants, Gluten-Free, Thai, Vietnamese"
"957",187420,"Pho Tay Ho","Montréal","QC","H2S 2R7",45.533616,-73.6047339,"1","Vietnamese, Restaurants, Soup"
"958",45288,"Superior Pho","Cleveland","OH","44114",41.5104851,-81.6696382,"1","Vietnamese, Food, Restaurants, Soup, Sandwiches"
"959",139051,"Pho Hoan Pasteur","Calgary","AB","T2C 5E1",50.9621908412,-114.0096920328,"1","Vietnamese, Restaurants"
"960",165486,"Pho Cuu Long Mien Tay","Toronto","ON","M3L 1S3",43.7402480978,-79.5134747028,"1","Vietnamese, Restaurants"
"961",119175,"Vinh's Café","Montréal","QC","H3A 1A5",45.5069651,-73.5793099,"1","Vietnamese, Restaurants, Cafes"
"962",28787,"Sunshine Vietnamese Restaurant","Calgary","AB","T2J 7C3",50.930988,-114.0642469,"1","Soup, Vietnamese, Noodles, Restaurants"
"963",133282,"Pho Mi 99","Mississauga","ON","L5A 1W4",43.5813162828,-79.614269467,"0","Restaurants, Vietnamese"
"964",142635,"Sylantro Restaurant","Las Vegas","NV","89146",36.1431923,-115.242116,"0","Vietnamese, Specialty Food, Restaurants, Food"
"965",184722,"Kol3","Calgary","AB","T2N 1Y4",51.051956,-114.0918716,"0","Food, Restaurants, Vietnamese"
"966",34634,"Le Soleil de Saigon","Saint-Laurent","QC","H4R 1K4",45.5181092,-73.700843,"0","Restaurants, Vietnamese"
"967",4574,"Pho Thanh Vietnamese Noodle House & Restaurant","Calgary","AB","T2K 6H1",51.1115404,-114.0558958,"1","Imported Food, Noodles, Chinese, Vietnamese, Specialty Food, Food, Ethnic Food, Restaurants"
"968",44225,"Bolsa  Restaurant","Calgary","AB","T2J 3G8",50.969718,-114.070117,"1","Vietnamese, Restaurants"
"969",138819,"AZ Pho & Grill","Gilbert","AZ","85234",33.380805779,-111.724275272,"1","Restaurants, Nightlife, Vietnamese, American (Traditional), Wine Bars, Bars"
"970",19893,"Cafe Pho Nho","Toronto","ON","M6R 1W9",43.6521116,-79.447655,"1","Nightlife, Asian Fusion, Restaurants, Vietnamese, Bars"
"971",45018,"Saigon Restaurant and Bar","Cleveland","OH","44115",41.498806,-81.68987,"1","Thai, Vietnamese, Chinese, Restaurants"
"972",89924,"Jardin des Délices","Montréal","QC","H1W 1A8",45.5495019,-73.5583911,"1","Vegetarian, Vietnamese, Cambodian, Asian Fusion, Restaurants, Thai"
"973",32148,"Pho Tempe","Tempe","AZ","85282",33.4074267,-111.9099123,"1","Thai, Vietnamese, Restaurants"
"974",125232,"Pho Cuu Long Mien Tay","Toronto","ON","M6N 1J3",43.6743067,-79.4607145,"0","Vietnamese, Restaurants"
"975",161352,"Pho Daravan Restaurant","Charlotte","NC","28213",35.2562941,-80.7911635,"0","Laotian, Vietnamese, Restaurants"
"976",51661,"Pho Delight Vietnamese Cuisine","North York","ON","M2N 5P6",43.7718268,-79.4136536,"0","Vietnamese, Restaurants"
"977",159593,"Saigon Y2K Vietnamese Restaurant","Calgary","AB","T2H 0L3",50.9935065008,-114.0703627252,"0","Vietnamese, Restaurants"
"978",12351,"Pho Hanh Thy","Las Vegas","NV","89148",36.0992272,-115.3013067,"1","Restaurants, Vietnamese"
"979",41952,"Le Red Tiger","Montréal","QC","H2L 2A1",45.519202,-73.557836,"1","Pubs, Bars, Cocktail Bars, Vietnamese, Nightlife, Restaurants"
"980",98009,"Silk Restaurant & Bar","Toronto","ON","M5A 3A2",43.663435,-79.3677887,"1","Restaurants, Food Delivery Services, Vietnamese, Thai, Food"
"981",133287,"Pho An","Aurora","ON","L4G 0K3",44.0058098,-79.4463034,"1","Noodles, Restaurants, Soup, Vietnamese"
"982",110573,"Pho Hoang Kim","Richmond Hill","ON","L4B",43.8410893,-79.3988063,"0","Restaurants, Vietnamese"
"983",6415,"Pho Ginseng","Huntersville","NC","28078",35.4084806337,-80.8609515423,"1","Vietnamese, Restaurants"
"984",127623,"Central King Eggroll","Goodyear","AZ","85338",33.4509405,-112.3505076,"1","Vietnamese, Restaurants"
"985",23952,"Saigon Flower Restaurant","Toronto","ON","M6J 1J3",43.6432219,-79.4242064,"1","Food, Ethnic Food, Specialty Food, Restaurants, Vietnamese, Imported Food, Chinese"
"986",107356,"Forget Me Not Cafe","Toronto","ON","M3K 1E6",43.7306693,-79.4666262,"1","Restaurants, Vietnamese"
"987",182433,"Vrolls Vietnamese Food","Vaughan","ON","L6A 4H6",43.8633964,-79.4867786,"1","Restaurants, Vietnamese"
"988",152097,"Pho Dau Bo Restaurant","North York","ON","M9M 2E7",43.7498162,-79.5493678,"1","Restaurants, Vietnamese"
"989",39859,"Lemongrass","Scarborough","ON","M1V 5N1",43.8215127,-79.2988384,"0","Asian Fusion, Vietnamese, Thai, Restaurants"
"990",130427,"Pho Tién Phát","Toronto","ON","M3M 1A2",43.7197418,-79.5076981,"1","Food, Restaurants, Bubble Tea, Vegetarian, Vietnamese"
"991",32889,"Loi Nam Oriental Market","Phoenix","AZ","85015",33.492651,-112.100274,"0","Vietnamese, Restaurants"
"992",72788,"Wok To Go","Longueuil","QC","J4H 3M8",45.5335971206,-73.4913507075,"1","Vietnamese, Chinese, Restaurants, Singaporean"
"993",58278,"Cyclo Vietnamese Cuisine","Chandler","AZ","85224",33.30548,-111.874484,"1","Chinese, Restaurants, Asian Fusion, Vietnamese, Korean"
"994",148247,"Etoiles De Ville Emard (Les)","Montréal","QC","H4E 3H7",45.456287,-73.594994,"1","Restaurants, Vietnamese"
"995",113231,"Ginger","Toronto","ON","M5B 1S1",43.6579460838,-79.3813354908,"1","Vietnamese, Restaurants"
"996",83238,"Pho Mesa","Mesa","AZ","85209",33.405652,-111.875246,"0","Sushi Bars, Vietnamese, Restaurants"
"997",124768,"Savor Flavor Asia","Phoenix","AZ","85044",33.317289,-111.9777108,"1","Restaurants, Asian Fusion, Japanese, Vietnamese, Chinese, Thai"
"998",139933,"Kim Vietnamese Restaurant","Toronto","ON","M5T 1H3",43.6527742,-79.3993997,"1","Restaurants, Vietnamese"
"999",26471,"Mama's Tofu","Toronto","ON","M6L 3C9",43.7045581,-79.4921887,"1","Vegetarian, Vietnamese, Vegan, Restaurants"
"1000",173043,"Dynasty House Seafood Restaurant","Toronto","ON","M6L 3C9",43.7045112,-79.4921188,"1","Dim Sum, Chinese, Vietnamese, Restaurants"
"1001",114277,"La Saigonaise","Montréal","QC","H3S 1Y7",45.4990743,-73.6277977,"0","Imported Food, Food, Thai, Ethnic Food, Specialty Food, Restaurants, Vietnamese"
"1002",13821,"Golden Sea","Painesville","OH","44077",41.764242,-81.181496,"1","Vietnamese, Restaurants, Chinese"
"1003",91956,"Restaurant Mylys","Montréal","QC","H2P 1V9",45.5455933,-73.6266893,"1","Vietnamese, Barbeque, Asian Fusion, Restaurants, Chinese"
"1004",171257,"Pho Pho Pho","Mississauga","ON","L5T",43.6685498,-79.6816285,"1","Restaurants, Vietnamese"
"1005",124588,"Huong Viet","Toronto","ON","M6N 1J3",43.6743067,-79.4607145,"1","Vietnamese, Restaurants"
"1006",130688,"Pho Tuong Lai","LaSalle","QC","H8N 1T4",45.4265692,-73.6273638,"0","Thai, Vietnamese, Restaurants"
"1007",77114,"Pho Pasteur","Toronto","ON","M5T 1H4",43.6525566,-79.398991,"1","Restaurants, Vietnamese"
"1008",77568,"Banh Mi Thai Tai","Calgary","AB","T2S 0B3",51.0375502,-114.0751507,"1","Fast Food, Vietnamese, Sandwiches, Restaurants, Asian Fusion, Thai"
"1009",65860,"Pho Anise","Concord","ON","L4K 2M9",43.8190092884,-79.5310963413,"0","Food, Restaurants, Vietnamese"
"1010",180951,"Sizzlewich","Charlotte","NC","28273",35.152077,-80.950839,"1","Food, Coffee & Tea, Vietnamese, Creperies, Restaurants, American (New)"
"1011",164865,"Saigon Maxim","Calgary","AB","T2C 4E4",50.977018,-114.0124934,"0","Restaurants, Vietnamese"
"1012",39686,"Pho Ao Sen - Lotus Pond","Mississauga","ON","L5N 7L7",43.5835462,-79.7786889,"1","Vietnamese, Restaurants"
"1013",38660,"Pho Hoang Vietnamese Restaurant","Calgary","AB","T3J",51.0985360209,-113.9554309845,"1","Restaurants, Vietnamese"
"1014",43373,"Ben Thanh","Charlotte","NC","28205",35.2114058096,-80.7612180045,"0","Vietnamese, Restaurants, Local Flavor"
"1015",45408,"Tay Do","Montréal","QC","H2W 1H9",45.5197467736,-73.5766535982,"1","Vietnamese, Restaurants"
"1016",123839,"Spring Rolls","Toronto","ON","M2J 5A7",43.7777578,-79.3444513,"0","Chinese, Thai, Restaurants, Vietnamese, Food"
"1017",172346,"Pho East","Toronto","ON","M4M 1Y3",43.665809,-79.351546,"1","Restaurants, Vietnamese, Asian Fusion"
"1018",95330,"Saigon Pearl Vietnamese Restaurant","Calgary","AB","T3K 0B3",51.140560141,-114.0674030967,"1","Vietnamese, Restaurants"
"1019",108929,"Yasda Bento","Phoenix","AZ","85003",33.449474,-112.074334,"0","Japanese, Noodles, Vietnamese, Restaurants, Korean"
"1020",27304,"Pho Nhat","Tempe","AZ","85281",33.4212886,-111.9246995,"1","Asian Fusion, Chicken Shop, Vietnamese, Restaurants"
"1021",160940,"The Pho Restaurant","Markham","ON","L6G 0A4",43.8476953,-79.3486239,"1","Vietnamese, Restaurants"
"1022",133161,"La Belle Tonkinoise","Montréal","QC","H2E 1S2",45.545712,-73.608752,"1","Comfort Food, Vietnamese, Asian Fusion, Restaurants, Pan Asian"
"1023",55070,"Pho Dau Bo","Brampton","ON","L6X 5A5",43.7026299,-79.7856743,"1","Restaurants, Specialty Food, Ethnic Food, Food, Vietnamese"
"1024",161948,"Pho Saigon","Pickering","ON","L1V 4G7",43.8341581,-79.0907593,"1","Vietnamese, Restaurants"
"1025",3576,"Sunflower Vietnamese Restaurant","North Las Vegas","NV","89032",36.2397761,-115.196633,"1","Sandwiches, Restaurants, Vietnamese, Noodles, Soup"
"1026",101935,"Mekong Plaza","Mesa","AZ","85209",33.4130573,-111.8759922,"1","Ethnic Food, Shopping Centers, Specialty Food, Grocery, Restaurants, Food, Chinese, Imported Food, Shopping, Dim Sum, Vietnamese"
"1027",152718,"Cyclo Sandwichs","Saint-Lambert","QC","J4S 1H1",45.4767975595,-73.4751349626,"1","Sandwiches, Soup, Asian Fusion, Restaurants, Vietnamese"
"1028",185248,"Le goût du Vietnam","Montréal","QC","H2L 2H7",45.5204751,-73.5545183,"1","Restaurants, Vietnamese"
"1029",92635,"Co Anh Sandwich & Noodle Kitchen","Las Vegas","NV","89102",36.1254098,-115.2052654,"1","Vietnamese, Restaurants, Sandwiches, Cantonese, Noodles, Chinese"
"1030",79319,"Pho Mi Saigon","Oakville","ON","L6H 1M4",43.4650503132,-79.6848830378,"0","Vietnamese, Thai, Asian Fusion, Restaurants"
"1031",21452,"Chi Lan Restaurant","Calgary","AB","T2Z 4Y5",50.9301318,-113.9716621,"0","Vietnamese, Restaurants"
"1032",8107,"TRAN Cantine","Montréal","QC","H1V 2B1",45.4727884679,-73.5885065634,"1","Restaurants, Vietnamese"
"1033",162304,"Pho Maisonneuve","Montréal","QC","H2L 1Z1",45.5174297,-73.5588731,"1","Vietnamese, Soup, Restaurants"
