"","business_id","name","city","state","postal_code","latitude","longitude","is_open","categories"
"1",167387,"Mad Crush Wine Bar","Toronto","ON","M6G 1B3",43.6554201,-79.4133518,"0","Restaurants, Breakfast & Brunch, Bars, Modern European, Nightlife, Wine Bars"
"2",72343,"Vintage 95","Chandler","AZ","85225",33.3020931,-111.8426128,"0","American (New), Bars, Wine Bars, Nightlife, Restaurants"
"3",79854,"Bistro Divino","Las Vegas","NV","89102",36.1582642,-115.1579672,"0","Food, Pizza, Wine Bars, Bars, Restaurants, Nightlife"
"4",88804,"Circles Grill and Market","Charlotte","NC","28277",35.0393909574,-80.7950710445,"0","Burgers, Italian, Beauty & Spas, Wine Bars, Barbers, Peruvian, American (Traditional), Bars, Gastropubs, Diners, Salad, Specialty Food, Restaurants, American (New), Nightlife, Cafes, Food"
"5",164561,"Mimi's Cafe","Glendale","AZ","85308",33.6386542,-112.219354,"1","Nightlife, Restaurants, American (Traditional), Wine Bars, Bars, Breakfast & Brunch, French"
"6",80781,"Bomberos Cafe & Wine Bar","Phoenix","AZ","85020",33.5650982,-112.0737503,"0","Nightlife, Latin American, Wine Bars, Restaurants, Bars, Lounges"
"7",171449,"S & V Urban Italian","Scottsdale","AZ","85260",33.5813628,-111.8796351,"1","Nightlife, Bars, Restaurants, Wine Bars, Pizza, Italian"
"8",66452,"Tarbell's The Tavern","Phoenix","AZ","85018",33.5091229429,-112.0126287829,"1","American (Traditional), Lounges, American (New), Mexican, Wine Bars, Restaurants, Nightlife, Bars, Cocktail Bars"
"9",90628,"Swirl Wine Bar","Solon","OH","44139",41.39023,-81.442376,"1","Wine Bars, Nightlife, American (New), Restaurants, Bars, Tapas/Small Plates"
"10",75692,"Bathurst Local","Toronto","ON","M5T 2S3",43.6514918,-79.4058339,"1","Beer, Wine & Spirits, Whiskey Bars, Coffee & Tea, Beer Bar, Breakfast & Brunch, Bars, Cocktail Bars, Food, Cafes, Wine Bars, Restaurants, Local Flavor, Nightlife"
"11",177646,"River Café","Calgary","AB","T2P 0R1",51.0547701109,-114.0714097023,"1","Restaurants, Wine Bars, Cafes, Food, American (New), Local Flavor, Nightlife, Canadian (New), Bars"
"12",182371,"Le Vin Papillon","Montréal","QC","H3J 1N4",45.48277,-73.5754852,"1","Nightlife, Wine Bars, Restaurants, Canadian (New), Bars"
"13",70359,"Les Cavistes","Montréal","QC","H3L 1T5",45.545757,-73.666302,"1","Sports Bars, Seafood, French, Bars, Nightlife, Bistros, Wine Bars, Canadian (New), Restaurants"
"14",135298,"Dolce Ristorante","Charlotte","NC","28203",35.2026242,-80.8444191,"1","Nightlife, Desserts, American (New), Food, Wine Bars, Bars, Restaurants, Italian"
"15",119961,"The Beech Tree","Toronto","ON","M4E 1S5",43.6803871,-79.2888628,"1","Bars, British, Nightlife, Wine Bars, Restaurants"
"16",155892,"Fidelli Kitchen","Charlotte","NC","28203",35.2142874097,-80.8574509097,"0","Bars, Nightlife, Italian, Wine Bars, Restaurants"
"17",90838,"Savoy","Pittsburgh","PA","15222",40.4554975,-79.9780389,"1","Restaurants, American (Traditional), Bars, Nightlife, Seafood, Wine Bars, American (New)"
"18",160929,"Le Ballpark","Montréal","QC","H2S 3E7",45.5313097,-73.6126688,"1","Canadian (New), Coffee & Tea, Italian, Food, Cocktail Bars, Comfort Food, Restaurants, Bars, Nightlife, Wine Bars"
"19",57998,"La Cucina Bistro & Wine Bar","Scottsdale","AZ","85260",33.6188062452,-111.8762465943,"1","Italian, Nightlife, Bars, Restaurants, Wine Bars"
"20",119661,"Bonterra Restaurant & Wine Room","Charlotte","NC","28203",35.2100942,-80.8571985,"1","American (New), Wine Bars, Restaurants, Bars, Seafood, Nightlife"
"21",114530,"Harvard Wine & Grill","Cleveland","OH","44128",41.449265,-81.5827479,"1","Bars, Restaurants, Wine Bars, American (Traditional), Nightlife, Barbeque"
"22",177875,"Rott n' Grapes Uptown","Phoenix","AZ","85012",33.5071180897,-112.0742981546,"1","Lounges, Gastropubs, Sports Bars, Breakfast & Brunch, Bars, Wine Bars, Nightlife, Restaurants, Pubs, Italian, Beer, Wine & Spirits, Food, Tapas/Small Plates, Beer Bar"
"23",81880,"Arpa","Charlotte","NC","28202",35.2279912,-80.843388,"0","Basque, Spanish, Tapas Bars, Wine Bars, Nightlife, Bars, Restaurants"
"24",45437,"I'll Be Seeing You","Toronto","ON","M4M 1H3",43.6589928,-79.3480738,"1","Bars, Wine Bars, Comfort Food, Cocktail Bars, Restaurants, Nightlife"
"25",110161,"French Grocery","Phoenix","AZ","85013",33.5164493875,-112.0821531733,"0","Restaurants, Bars, Wine Bars, Bakeries, Coffee & Tea, Breakfast & Brunch, Food, French, Macarons, Nightlife, Grocery, Specialty Food, Beer, Wine & Spirits"
"26",115412,"Andys Wine Bar","Pittsburgh","PA","15222",40.4414335,-80.0020533,"1","Bars, Nightlife, Restaurants, Jazz & Blues, Cocktail Bars, Wine Bars, Arts & Entertainment"
"27",68935,"The Covenant","Phoenix","AZ","85028",33.5831802,-111.9786115,"1","American (New), Food, Nightlife, Wine Bars, Bars, Coffee & Tea, Restaurants, Breakfast & Brunch"
"28",16797,"WineStyles","Peoria","AZ","85345",33.5515304,-112.2707018,"0","Wine Bars, Beer, Wine & Spirits, Bars, Food, Musical Instruments & Teachers, Nightlife, Shopping"
"29",107257,"Pennyard Bistro & Winery","Charlotte","NC","28215",35.251968,-80.656881,"0","American (New), Bars, Restaurants, Wine Bars, Nightlife"
"30",189181,"The Living Room","Chandler","AZ","85248",33.2611752,-111.8840725,"1","Restaurants, Bars, American (New), Wine Bars, Nightlife"
"31",61637,"Perfect Pear Bistro","Tempe","AZ","85284",33.3216322198,-111.9625568958,"1","Wine Bars, American (New), Nightlife, Salad, Gluten-Free, Bars, Sandwiches, Restaurants"
"32",100001,"32 Shea","Phoenix","AZ","85028",33.5834783394,-112.0134559392,"1","Nightlife, Food, Restaurants, Beer, Wine & Spirits, Coffee & Tea, Breakfast & Brunch, Bars, Wine Bars, Do-It-Yourself Food, Cafes"
"33",145525,"Share Wine Lounge And Bistro","Monroeville","PA","15146",40.4318151,-79.7922189,"1","Wine Bars, Restaurants, Nightlife, Beer, Wine & Spirits, American (Traditional), Bars, American (New), Food"
"34",153176,"B Spot","Westlake","OH","44145",41.4603545053,-81.9525702814,"1","Salad, Burgers, Desserts, Bars, Food, Whiskey Bars, Nightlife, Restaurants, Beer Bar, Wine Bars"
"35",140812,"Olde Wine Cellar Bistro & Bottle Shop","Olmsted Falls","OH","44138",41.376812,-81.901644,"1","Tapas/Small Plates, Bars, Wineries, Beer, Wine & Spirits, Food, Arts & Entertainment, Wine Bars, Restaurants, Wine Tasting Room, Nightlife, Modern European"
"36",130843,"sarita a restaurant","Lakewood","OH","44107",41.4769713,-81.7968525,"1","American (New), Nightlife, Bars, Wine Bars, Seafood, Pizza, Restaurants"
"37",71121,"Pitchforks & Corks","Tempe","AZ","85281",33.4234904,-111.935169,"1","Food, Bars, Restaurants, Sandwiches, Beer, Wine & Spirits, Nightlife, Wine Bars, Coffee & Tea, Cocktail Bars"
"38",63495,"Café Taste","Toronto","ON","M6K",43.6416745,-79.4316079,"0","Bars, Wine Bars, Restaurants, Tapas Bars, Nightlife"
"39",117548,"Bricco Wine Bar","Toronto","ON","M6P",43.6654047,-79.4710144,"1","Wine Bars, Nightlife, Bars, Italian, Restaurants"
"40",185769,"Lazy Dog Restaurant & Bar","Las Vegas","NV","89119",36.0701464765,-115.1738562678,"1","Comfort Food, American (New), Restaurants, Bars, Breakfast & Brunch, Wine Bars, Tapas/Small Plates, Burgers, Nightlife, Cocktail Bars, Beer, Wine & Spirits, Food, Beer Bar"
"41",40393,"Max & Lola Bodega","Charlotte","NC","28203",35.2188599,-80.8605894,"1","Beer Bar, Mexican, Food, Beer Gardens, Restaurants, Wine Bars, Bars, Beer, Wine & Spirits, Nightlife, Food Trucks"
"42",23314,"Olive Garden Italian Restaurant","Las Vegas","NV","89119",36.1140471648,-115.132257289,"1","Wine Bars, Italian, Salad, Nightlife, Bars, Restaurants"
"43",43001,"Don Michael's","Las Vegas","NV","89130",36.2472804,-115.2089199,"1","Specialty Food, Nightlife, Pasta Shops, Wine Bars, Restaurants, Salad, Bars, Italian, Food"
"44",44530,"Postino Kierland","Scottsdale","AZ","85254",33.623665,-111.929272,"1","Restaurants, Breakfast & Brunch, Nightlife, Wine Bars, Italian, Bars"
"45",9226,"Walnut Grill - Robinson","Robinson Township","PA","15136",40.439191,-80.148535,"1","Restaurants, Wine Bars, Bars, Gluten-Free, American (Traditional), Nightlife"
"46",139616,"Upstream","Charlotte","NC","28210",35.145671,-80.825569,"1","Seafood, Nightlife, Bars, Sushi Bars, Wine Bars, Restaurants, Breakfast & Brunch"
"47",102851,"Empire Grill","Toronto","ON","M6C 2E2",43.699788833,-79.4318662615,"1","Nightlife, Wine Bars, Thai, Restaurants, Portuguese, Seafood, Chicken Shop, Barbeque, Bars, Indian"
"48",112963,"Khoury's Fine Wine & Spirits","Las Vegas","NV","89183",36.0092075661,-115.1181343195,"1","Bars, Wine Bars, Beer, Wine & Spirits, Beer Bar, Nightlife, Food"
"49",75606,"Grazie","Scottsdale","AZ","85251",33.4932262,-111.9310373,"1","Bars, Italian, Pizza, Nightlife, Restaurants, Wine Bars"
"50",38412,"Table 49","Chandler","AZ","85248",33.2339148,-111.8584479,"0","Restaurants, American (New), Bars, Wine Bars, Nightlife, Cocktail Bars"
"51",97837,"Chica","Las Vegas","NV","89109",36.1226902,-115.1701939,"1","Latin American, Mexican, Wine Bars, Bars, Restaurants, Nightlife"
"52",111982,"Fleming's Prime Steakhouse & Wine Bar","Madison","WI","53705",43.0747399,-89.451447,"1","Seafood, Restaurants, Steakhouses, Nightlife, Wine Bars, Bars"
"53",159983,"Hoffstot's Cafe Monaco","Oakmont","PA","15139",40.5186528,-79.8433871,"1","Bars, Wine Bars, Nightlife, Italian, Restaurants, Seafood, Salad"
"54",190175,"Ciao Wine Bar","Toronto","ON","M5R 1C4",43.6704754,-79.3936453,"0","Nightlife, Italian, Restaurants, Wine Bars, Bars"
"55",168425,"Jubilations Calgary Dinner Theatre","Calgary","AB","T3C 1S1",51.0439381,-114.1402794,"1","Wine Bars, Bars, Performing Arts, Nightlife, Restaurants, Dinner Theater, Arts & Entertainment, Cinema"
"56",65554,"AKA Wine Bar","Calgary","AB","T2E",51.0584294,-114.0543386,"0","Bars, Nightlife, Restaurants, Wine Bars"
"57",58386,"Social Bistro & Wine Bar","Las Vegas","NV","89145",36.1672799,-115.2862703,"0","Restaurants, Pizza, Nightlife, Bars, Wine Bars, American (New)"
"58",67206,"Yadkin Valley WIne Bar","Charlotte","NC","28208",35.2205594,-80.9438737,"1","Beer, Wine & Spirits, Bars, Nightlife, Food, Wine Bars"
"59",88503,"Sai Sushi","Henderson","NV","89052",35.9800381,-115.0979894,"0","Bars, Wine Bars, Nightlife, Restaurants, Beer Bar, Sushi Bars, Japanese"
"60",41465,"Daily Mews Cat Cafe","Charlotte","NC","28205",35.1988743,-80.7954054,"1","Coffee & Tea, Themed Cafes, Bars, Wine Bars, Pets, Shopping, Gift Shops, Food, Restaurants, Flowers & Gifts, Nightlife, Cafes"
"61",88213,"87 West 2","Westlake","OH","44145",41.4594181,-81.9536274,"0","Wine Bars, Nightlife, American (New), Restaurants, Bars"
"62",184863,"Lobby Bar","Henderson","NV","89052",36.020696,-115.0901928,"1","Nightlife, Beer Bar, Bars, Wine Bars, Cocktail Bars"
"63",16972,"Cork and Barrel","Avon","OH","44011",41.4587662,-82.0157432,"1","Wine Tasting Classes, American (New), Wine Bars, Restaurants, Tasting Classes, Bars, Nightlife, Education"
"64",53000,"Olive Garden Italian Restaurant","Tarentum","PA","15084",40.5700889,-79.7985959,"1","Salad, Restaurants, Nightlife, Wine Bars, Italian, Bars"
"65",105893,"Stone & Vine","Scottsdale","AZ","85260",33.5813336,-111.8795047,"0","Bars, Nightlife, Restaurants, Wine Bars, Italian"
"66",46282,"Fat Ox","Scottsdale","AZ","85253",33.5303579,-111.925905,"1","Restaurants, Italian, Nightlife, Desserts, Wine Bars, Food, Bars"
"67",115148,"Fleming's Prime Steakhouse & Wine Bar- Chandler","Chandler","AZ","85226",33.3185006589,-111.9680584264,"1","Wine Bars, Nightlife, Bars, Seafood, Steakhouses, Restaurants"
"68",102621,"Martin's Deli","Rocky River","OH","44116",41.476153,-81.847554,"1","Beer, Wine & Spirits, Breakfast & Brunch, Delis, Caterers, Sandwiches, Nightlife, Food, Restaurants, Bars, Wine Bars, Event Planning & Services"
"69",40805,"Village Martini & Wine Bar","Chagrin Falls","OH","44022",41.425876,-81.3731625,"1","Bars, Beer, Wine & Spirits, Restaurants, Food, American (Traditional), Wine Bars, Nightlife"
"70",188725,"Cambridge Winery - Madison Tasting Room","Madison","WI","53711",43.0439729,-89.4736579,"1","Wine Bars, Bars, Arts & Entertainment, Nightlife, Food, Wineries"
"71",85853,"TGI Fridays","Westlake","OH","44145",41.4627711,-81.9540381,"1","Bars, American (Traditional), Burgers, Restaurants, Wine Bars, Sports Bars, Nightlife"
"72",125478,"Chada Thai & Wine","Las Vegas","NV","89146",36.1273748593,-115.2241710499,"0","Wine Bars, Restaurants, Bars, Thai, Nightlife"
"73",135464,"Pasquales on Macleod","Calgary","AB","T2H 0L3",50.9928416732,-114.0707807006,"1","Steakhouses, Restaurants, Italian, Seafood, Nightlife, Bars, Wine Bars, Sandwiches"
"74",4096,"Modern Margarita","Phoenix","AZ","85054",33.6759107,-111.9644412,"1","Restaurants, Bars, Cocktail Bars, Wine Bars, Local Flavor, Nightlife, Tapas/Small Plates, Mexican"
"75",120129,"Code Ambiance","Montréal","QC","H3J 1M6",45.4873777,-73.5687653,"0","Mediterranean, Nightlife, Bars, Restaurants, Wine Bars, Canadian (New), French, Asian Fusion"
"76",185395,"Provision","Calgary","AB","T2R 1N8",51.0408406,-114.0707798,"1","Modern European, Vegetarian, Breakfast & Brunch, American (Traditional), Wine Bars, Nightlife, Restaurants, French, Food, Sandwiches, Coffee & Tea, Bars"
"77",113429,"Nonna Urban Eatery","Scottsdale","AZ","85251",33.4932738,-111.9249317,"1","Nightlife, Bars, Italian, Asian Fusion, Tapas/Small Plates, French, Restaurants, Gastropubs, Latin American, Wine Bars"
"78",192547,"Battista's Hole In the Wall","Las Vegas","NV","89109",36.115189,-115.168244,"1","Bars, Restaurants, Nightlife, Italian, Wine Bars"
"79",40584,"Vegas Valley Winery","Henderson","NV","89011",36.0539902,-115.0181468,"1","Wineries, Wine Tasting Room, Hotels & Travel, Bars, Wine Bars, Arts & Entertainment, Food, Tours, Nightlife, Wine Tours"
"80",61554,"Pullman","Montréal","QC","H2X 2H5",45.5085134,-73.5720624,"1","Tapas/Small Plates, Nightlife, Bars, Restaurants, Wine Bars"
"81",120418,"Zebra Restaurant","Charlotte","NC","28211",35.1507088,-80.8286454,"0","Wine Bars, French, Nightlife, American (Traditional), Restaurants, American (New), Event Planning & Services, Caterers, Bars"
"82",80392,"Dundas and Carlaw","Toronto","ON","M4M 1S1",43.6647176,-79.3417907,"1","Pubs, Food, Nightlife, Bars, Coffee & Tea, Wine Bars"
"83",150025,"Olive Garden Italian Restaurant","Pineville","NC","28134",35.086418,-80.8773419,"1","Bars, Italian, Wine Bars, Restaurants, Salad, Nightlife"
"84",74849,"The Wine Room at Afton Village","Concord","NC","28027",35.4141736,-80.6701084,"1","Wine Bars, Sandwiches, Food, Nightlife, Beer, Wine & Spirits, American (Traditional), Bars, Restaurants"
"85",79670,"The Hop Shop","Charlotte","NC","28204",35.2203521462,-80.8169672638,"1","Wine Bars, Bars, Nightlife, Beer Bar"
"86",130458,"4 Sisters Restaurant","Verona","WI","53593",42.9729291688,-89.5077184215,"1","Tapas/Small Plates, Bars, Restaurants, Seafood, Wine Bars, Nightlife"
"87",11957,"Eldorado Barbecue Lounge","Calgary","AB","T2P 1G6",51.0459705,-114.0753528,"0","American (Traditional), Nightlife, Wine Bars, Barbeque, Bars, Restaurants"
"88",168634,"La Locanda Ristorante Italiano","Scottsdale","AZ","85251",33.4957952,-111.9330128,"1","Seafood, Restaurants, Wine Bars, Nightlife, Cocktail Bars, Italian, Bars"
"89",38978,"Vintage Chophouse & Tavern","Calgary","AB","T2R 0C5",51.042678,-114.068379,"1","Seafood, Wine Bars, Bars, Nightlife, Steakhouses, Restaurants"
"90",100508,"Urban Sip","Charlotte","NC","28202",35.2262411,-80.8419351,"0","Nightlife, Bars, Wine Bars"
"91",31721,"Olive Garden Italian Restaurant","Mesa","AZ","85206",33.393459,-111.6972339,"1","Restaurants, Salad, Wine Bars, Italian, Bars, Nightlife"
"92",35728,"Olive Garden Italian Restaurant","Elyria","OH","44035",41.3975072,-82.1065361,"1","Salad, Restaurants, Wine Bars, Nightlife, Bars, Italian"
"93",187432,"Next Door Wine Bar & Tapas","Calgary","AB","T2H 2V2",50.978271,-114.071094,"1","Bars, Restaurants, Mediterranean, Wine Bars, Tapas Bars, Nightlife"
"94",97739,"Grape Vegas","Las Vegas","NV","89119",36.0686142,-115.1776615,"0","Nightlife, Greek, Mediterranean, Wine Bars, Restaurants, Bars"
"95",145260,"Taj Mahal","Scottsdale","AZ","85251",33.4970635,-111.9275168,"1","Restaurants, Indian, Vegetarian, Wine Bars, Bars, Nightlife"
"96",114556,"Cafe Monarch","Scottsdale","AZ","85251",33.494225,-111.931461,"1","American (New), Wine Bars, Bars, Nightlife, American (Traditional), Cocktail Bars, Desserts, Food, Restaurants, Breakfast & Brunch"
"97",190150,"Beaudevin","Charlotte","NC","28208",35.2203324063,-80.9440162454,"1","Wine Bars, Sandwiches, Arts & Entertainment, Nightlife, Wineries, Tapas/Small Plates, Restaurants, Food, Bars"
"98",103590,"Vino Rosso Bar & Restaurant","Toronto","ON","M5S 3C4",43.665223,-79.3874872,"0","Italian, Nightlife, Wine Bars, Lounges, Breakfast & Brunch, Bars, Restaurants"
"99",42560,"South Point Tavern","Akron","OH","44313",41.1142998,-81.5779365,"1","Lounges, Wine Bars, Bars, Nightlife, Cocktail Bars, Pubs, Whiskey Bars"
"100",102732,"Glas Wine Bar","Toronto","ON","M4M 1K9",43.6622335,-79.3353151,"0","Nightlife, Wine Bars, Vegan, Bars, Restaurants, Canadian (New), French, Vegetarian"
"101",162637,"Fleming's Prime Steakhouse & Wine Bar - Las Vegas","Las Vegas","NV","89119",36.0695675256,-115.1737473847,"1","Nightlife, Restaurants, Steakhouses, American (New), Seafood, Bars, Wine Bars"
"102",28786,"Vortex Bottle Shop","Harrisburg","NC","28075",35.3216101,-80.6513386,"1","Nightlife, Restaurants, Bars, Beer Bar, Wine Bars"
"103",131297,"Mavrik Wine Bar","Toronto","ON","M6J 1E5",43.6466125,-79.4073567,"0","American (New), Bars, Nightlife, Restaurants, Canadian (New), Wine Bars"
"104",24597,"Corkbuzz Restaurant & Wine Bar","Charlotte","NC","28210",35.1459386949,-80.8304107446,"1","Restaurants, Beer, Wine & Spirits, American (New), Food, Bars, Tasting Classes, American (Traditional), Wine Bars, Breakfast & Brunch, Nightlife, Education, Wine Tasting Classes"
"105",188392,"Studio Vino","Tempe","AZ","85283",33.3613512,-111.9105458,"0","Nightlife, Food, Wineries, Wine Bars, Arts & Entertainment, Bars"
"106",174752,"Taste Restaurant","Calgary","AB","T2R 0V4",51.041205,-114.0655745,"0","Restaurants, Tapas/Small Plates, Bars, Nightlife, Wine Bars"
"107",1611,"Vintner Grill","Las Vegas","NV","89135",36.1594376869,-115.3166287189,"1","American (New), Wine Bars, Sandwiches, Cocktail Bars, Bars, Nightlife, American (Traditional), Restaurants"
"108",131834,"Wine Warehouse","Scottsdale","AZ","85255",33.6405519,-111.9245513,"0","Bars, Local Flavor, Food, Nightlife, Restaurants, Wine Bars, Beer, Wine & Spirits, Yelp Events"
"109",8981,"Amaro Italiano Ristorante","Cave Creek","AZ","85331",33.7428028,-111.9782697,"0","Pizza, Italian, Nightlife, Restaurants, Bars, Wine Bars"
"110",189294,"El Tenedor","Toronto","ON","M4W 2H2",43.6749085,-79.3884712,"1","Nightlife, Restaurants, Bars, Wine Bars, Spanish"
"111",8146,"Grotto Wine Bar","Cleveland","OH","44120",41.4842541,-81.5914351,"0","Wine Bars, Nightlife, Bars, Italian, Restaurants"
"112",128051,"Harris Grill","Pittsburgh","PA","15222",40.439691,-80.0015484,"1","Wine Bars, Burgers, Bars, Breakfast & Brunch, Nightlife, Restaurants, American (Traditional)"
"113",72690,"Pittsburgh Winery","Pittsburgh","PA","15222",40.4572247932,-79.975274881,"1","Food, Event Planning & Services, Venues & Event Spaces, Music Venues, Arts & Entertainment, Wine Bars, Wine Tasting Room, Wineries, Bars, Nightlife"
"114",135530,"Barolo Wine Bar","Madison","WI","53703",43.0810765183,-89.3739205238,"0","Lounges, Restaurants, Wine Bars, Bars, Tapas/Small Plates, Nightlife"
"115",136379,"Olive Garden Italian Restaurant","Peoria","AZ","85382",33.6377418163,-112.2279345478,"1","Restaurants, Italian, Salad, Wine Bars, Bars, Nightlife"
"116",149708,"Olive Garden Italian Restaurant","Las Vegas","NV","89110",36.1605513,-115.0617047,"1","Restaurants, Salad, Bars, Nightlife, Italian, Wine Bars"
"117",24329,"V Picasso","Champaign","IL","61820",40.117237,-88.2431919,"1","Wine Bars, Food, Nightlife, Venues & Event Spaces, Sandwiches, American (New), Tapas Bars, Farmers Market, Event Planning & Services, Bars, Restaurants"
"118",74927,"HOME Tasting Room","Calgary","AB","T2P 1B3",51.0457090792,-114.0638518561,"0","Nightlife, American (New), Restaurants, Seafood, Canadian (New), Wine Bars, Bars, Tapas Bars"
"119",86978,"Sol Diablo Cantina","Tempe","AZ","85281",33.4248119841,-111.9353913143,"0","Wine Bars, Nightlife, Restaurants, Mexican, Bars, American (New)"
"120",95905,"Dilworth Tasting Room","Charlotte","NC","28203",35.2087438,-80.8586005,"1","Food, Wine Tasting Room, Nightlife, Bars, Modern European, American (Traditional), Beer, Wine & Spirits, Arts & Entertainment, Tapas/Small Plates, Wine Bars, Wineries, Restaurants"
"121",174671,"Basilico Italiano","Concord","NC","28027",35.402342,-80.758648,"1","Restaurants, Italian, Food, Bars, Pizza, Desserts, Wine Bars, Nightlife"
"122",184926,"The Wine Spot","Cleveland Heights","OH","44118",41.4973699453,-81.5647292929,"1","Pubs, Event Planning & Services, Nightlife, Arts & Entertainment, Wedding Planning, Food, Venues & Event Spaces, Beer Bar, Bars, Wine Bars, Beer, Wine & Spirits"
"123",1014,"il Capo Pizzeria","Scottsdale","AZ","85260",33.5841115,-111.9223001,"1","Restaurants, Food, Bars, Italian, Nightlife, Beer, Wine & Spirits, Pizza, Wine Bars"
"124",20241,"56 Kitchen","Solon","OH","44139",41.3864229,-81.440083,"1","Bars, Cocktail Bars, Restaurants, Nightlife, Wine Bars, Pizza, Sandwiches, American (New)"
"125",110727,"deVille Luxury Coffee & Pastries","Calgary","AB","T2E 0C4",51.0532746,-114.043925,"0","Nightlife, Breakfast & Brunch, Restaurants, Bars, Cafes, Wine Bars"
"126",76380,"Old Pineville Premium Pub","Charlotte","NC","28217",35.1806194,-80.8799355,"1","Wine Bars, American (Traditional), Bars, Beer Gardens, Restaurants, Nightlife"
"127",137473,"Il Covo","Toronto","ON","M6G 1B2",43.6551659159,-79.413312301,"1","Tapas/Small Plates, Nightlife, Bars, Italian, Wine Bars, Restaurants"
"128",23925,"La Pizzetta","Scottsdale","AZ","85255",33.6277476644,-111.8559048492,"0","Cooking Classes, Beer Bar, Restaurants, Food, Shopping, Bars, Italian, Specialty Schools, Wine Bars, Cooking Schools, Arts & Crafts, Coffee & Tea, Nightlife, Pizza, Education"
"129",181473,"Parma By Chef Marc","Las Vegas","NV","89128",36.1808242173,-115.2589672002,"0","Pizza, Nightlife, Restaurants, Bars, Wine Bars, Italian"
"130",73078,"JoBeck's Bar","Madison","WI","53716",43.0836295,-89.3172126,"1","Wine Bars, Sports Bars, Party Bus Rentals, Event Planning & Services, Nightlife, Bars, Cocktail Bars, Dive Bars"
"131",71699,"Bistro 83","North Ridgeville","OH","44039",41.4177311,-82.0192785,"1","Bars, Wine Bars, American (New), Restaurants, Nightlife, Tapas/Small Plates"
"132",52199,"Pastaga","Montréal","QC","H3C",45.4985311757,-73.5521639477,"1","Cafes, Wine Bars, Nightlife, Bars, Restaurants"
"133",50257,"Angelo's Nido Italia","Cleveland","OH","44106",41.5083822,-81.598595,"1","Bars, Restaurants, Wine Bars, Nightlife, Italian, Venues & Event Spaces, Event Planning & Services"
"134",40157,"Firebirds Wood Fired Grill","Peoria","AZ","85382",33.6308784,-112.2382757,"1","Seafood, Restaurants, Steakhouses, American (Traditional), Wine Bars, Nightlife, American (New), Bars"
"135",108079,"Fleming's Prime Steakhouse & Wine Bar","Las Vegas","NV","89117",36.1585332,-115.2857479,"1","Restaurants, Steakhouses, Breakfast & Brunch, Bars, Wine Bars, Nightlife, Seafood"
"136",42105,"Dairy Lane Café","Calgary","AB","T2N 2J2",51.055060311,-114.1057819216,"1","Bars, Food, Burgers, Wine Bars, Breakfast & Brunch, Nightlife, Restaurants"
"137",122718,"Dominick's Steakhouse","Scottsdale","AZ","85254",33.6234810428,-111.9249184251,"1","Seafood, Wine Bars, Bars, Nightlife, American (New), Piano Bars, Italian, Steakhouses, Restaurants"
"138",145262,"Lola 45","Saint-Sauveur","QC","J0R 1R0",45.8955727012,-74.1563833963,"1","Restaurants, Tapas/Small Plates, Bars, Food, Wine Bars, Comfort Food, Nightlife, Bistros"
"139",19632,"Nostos","Montréal","QC","H4N 1L8",45.534296,-73.66139,"1","Salad, Bars, Wine Bars, Nightlife, Greek, Restaurants"
"140",96242,"Eighth & Hays","Homestead","PA","15120",40.4052422,-79.9129219,"1","Bars, Wine Bars, Pizza, Restaurants, Cocktail Bars, Nightlife"
"141",168824,"Loft & Cellar","Charlotte","NC","28202",35.2282036723,-80.8464987203,"1","Bars, Wine Bars, Tapas Bars, American (New), Cocktail Bars, Restaurants, Nightlife, Tapas/Small Plates, Lounges, Music Venues, Arts & Entertainment, Breakfast & Brunch"
"142",75081,"Painting with a Twist","Tempe","AZ","85283",33.377714,-111.936579,"1","Art Classes, Party & Event Planning, Event Planning & Services, Social Clubs, Paint & Sip, Nightlife, Arts & Entertainment, Education, Venues & Event Spaces, Wine Bars, Bars"
"143",60256,"Chez Sophie","Montréal","QC","H3J 1M8",45.4865205,-73.5696234,"1","Modern European, French, Restaurants, Wine Bars, Bars, Nightlife"
"144",169134,"The West Hill Wine Bar","Toronto","ON","M1E 2P8",43.7745227,-79.1774638,"0","Restaurants, Seafood, Wine Bars, Nightlife, Bars"
"145",167918,"Portofino's Italian Restaurant Ayrsley","Charlotte","NC","28273",35.13840091,-80.9331648601,"1","Italian, Nightlife, Restaurants, Pizza, Wine Bars, Bars"
"146",170672,"Pips Cucina & Wine Bar","North Las Vegas","NV","89084",36.2919185,-115.1809645,"0","Wine Bars, Food, Nightlife, Bars, Restaurants"
"147",26520,"Olive Garden Italian Restaurant","Monroe","NC","28110",35.0224380483,-80.5796484548,"1","Salad, Italian, Wine Bars, Restaurants, Nightlife, Bars"
"148",121992,"Vintage Wine Lounge","Charlotte","NC","28202",35.2261079,-80.8468595,"1","Restaurants, Nightlife, Bars, Wine Bars, Tapas/Small Plates"
"149",63231,"Sorso Wine Room","Scottsdale","AZ","85254",33.6251587937,-111.9235111423,"1","Breakfast & Brunch, Specialty Food, American (Traditional), Grocery, Meat Shops, Nightlife, Cheese Shops, Bars, Italian, Mediterranean, Lounges, Wine Bars, Cocktail Bars, American (New), Food, Restaurants"
"150",153114,"Firebirds Wood Fired Grill","Charlotte","NC","28277",35.0620547,-80.815746,"1","Restaurants, Steakhouses, Wine Bars, Nightlife, American (Traditional), Bars, Seafood, American (New)"
"151",17723,"Public Works Coffee Bar","Henderson","NV","89015",36.0289833,-114.9795192,"1","Food, Bars, Beer Bar, Nightlife, Wine Bars, Coffee & Tea"
"152",73111,"Red, Wine & Brew - Mentor","Mentor","OH","44060",41.6810591,-81.294979,"1","Beer, Wine & Spirits, Shopping, Wine Bars, Restaurants, Bars, Food, Tobacco Shops, American (New), Pubs, Nightlife, Breweries"
"153",145855,"Perfect Pear Bistro","Phoenix","AZ","85048",33.3050931742,-112.0566525463,"1","Comfort Food, Food, Bars, Sandwiches, Salad, Wine Bars, Vegetarian, Nightlife, American (New), Soup, Restaurants, Beer, Wine & Spirits, Italian"
"154",191846,"VIA","Gilbert","AZ","85296",33.3353688,-111.7389268,"0","Arts & Entertainment, Bars, Restaurants, Wine Bars, Jazz & Blues, Nightlife, Italian, Pizza"
"155",106980,"ReBAR","Las Vegas","NV","89104",36.156507104,-115.1535546407,"1","Gastropubs, Dive Bars, Bars, Shopping, Wine Bars, Nightlife, Pubs, Restaurants, Antiques"
"156",67459,"Bella Vista","Pittsburgh","PA","15211",40.4379704,-80.0183184,"0","Steakhouses, Bars, Wine Bars, Nightlife, Italian, Restaurants"
"157",83746,"The Whining Pig-Phoenix","Phoenix","AZ","85016",33.523744,-112.0467307,"1","Nightlife, Restaurants, Lounges, Dive Bars, Pubs, Wine Bars, Beer Bar, Bars, Sandwiches"
"158",125290,"Top of Binion's Steakhouse","Las Vegas","NV","89101",36.171235,-115.144061,"1","Steakhouses, Nightlife, Restaurants, Bars, Beer, Wine & Spirits, Wine Bars, Food, Seafood"
"159",38393,"Jamie's Wine Bar","Phoenix","AZ","85016",33.5227741701,-112.0270070862,"1","Wine Bars, American (New), Restaurants, Bars, Nightlife"
"160",43210,"Bocata","Montréal","QC","H2Y 2A3",45.501442,-73.55588,"1","Restaurants, Nightlife, Wine Bars, Modern European, Bars, Tapas/Small Plates"
"161",125904,"Marché Bacchus","Las Vegas","NV","89128",36.2075389,-115.2681541,"1","Food, Nightlife, Wine Bars, Specialty Food, French, Beer, Wine & Spirits, Restaurants, Bars"
"162",178858,"Hidden Track Café","Phoenix","AZ","85003",33.4500991,-112.0756821,"1","Nightlife, Bars, Cheese Shops, Specialty Food, Food, Wine Bars, Coffee & Tea"
"163",149873,"Olive Garden Italian Restaurant","Las Vegas","NV","89108",36.218748,-115.2444449,"1","Salad, Bars, Restaurants, Wine Bars, Italian, Nightlife"
"164",157805,"Bacaro","Champaign","IL","61820",40.1168917,-88.2426766,"1","American (New), Bars, Restaurants, Italian, Nightlife, Lounges, Wine Bars"
"165",139217,"Montgomery's Restaurant","Toronto","ON","M6J 1H1",43.6443769,-79.4184651,"1","Restaurants, Desserts, Nightlife, Coffee & Tea, Canadian (New), Food, Bars, Wine Bars"
"166",187840,"Vin Master","Charlotte","NC","28203",35.209251702,-80.8609794074,"1","Local Flavor, Nightlife, Shopping, Bars, Tasting Classes, Wine Bars, Food, Wine Tasting Classes, Beer, Wine & Spirits, Education"
"167",110666,"Vino Lounge","Scottsdale","AZ","85254",33.583122,-111.9293283,"0","Wine Bars, Nightlife, Bars, Restaurants, Tapas Bars"
"168",65569,"Cork Tree Tavern","Amherst","OH","44001",41.3982815327,-82.2262772468,"1","Italian, Wine Bars, Bars, Restaurants, Nightlife"
"169",182515,"The Suffolk Punch","Charlotte","NC","28211",35.152188,-80.83176,"1","Beer Bar, Wine Bars, Nightlife, Bars, Food, Coffee & Tea"
"170",7209,"The Kitchen By Wolfgang Puck","Calgary","AB","T2E 3B9",51.1300685421,-114.0031341423,"1","Nightlife, Bars, Wine Bars, Salad, Sports Bars, Breakfast & Brunch, Restaurants, Pizza"
"171",99563,"Wooden Vine Wine Bar & Bistro","Charlotte","NC","28202",35.2285242629,-80.8412508294,"1","Bistros, Restaurants, Nightlife, Breakfast & Brunch, Wine Bars, American (New), Bars"
"172",54252,"CM2 Pizzeria & Bakeshop","Scottsdale","AZ","85259",33.5907897949,-111.7866744995,"1","Wine Bars, Restaurants, Pizza, Italian, Bars, Food, Bakeries, Nightlife, Breakfast & Brunch"
"173",161358,"Milo's Cellar","Boulder City","NV","89005",35.9774210253,-114.8380921273,"1","Nightlife, Bars, Beer, Wine & Spirits, Food, American (New), Restaurants, Wine Bars"
"174",11238,"Due Forni","Las Vegas","NV","89135",36.1248405,-115.3252217,"0","Nightlife, Bars, Italian, Pizza, Wine Bars, Restaurants"
"175",30765,"Big Fish","Calgary","AB","T2E 3K4",51.0621941393,-114.0554763584,"1","Bars, Restaurants, Wine Bars, Gluten-Free, Seafood Markets, Breakfast & Brunch, Seafood, Nightlife, Specialty Food, Food"
"176",14715,"Buck & Honeys","Sun Prairie","WI","53590",43.1994537233,-89.2261479996,"1","Wine Bars, Venues & Event Spaces, American (Traditional), Bars, Restaurants, Breakfast & Brunch, Event Planning & Services, Nightlife, Steakhouses"
"177",12240,"Garage-East","Gilbert","AZ","85296",33.321866,-111.7262523,"1","Food, Arts & Entertainment, Wineries, Wine Bars, Nightlife, Bars, Wine Tasting Room"
"178",169650,"James Place","Aurora","OH","44202",41.3176338,-81.3358375,"1","Nightlife, Wine Bars, Bars, American (New), Restaurants"
"179",84818,"Evoo Ristorante","Toronto","ON","M5R 2H6",43.674457,-79.3968168,"1","Canadian (New), Restaurants, Bars, Nightlife, Wine Bars"
"180",139834,"Baratin","Scottsdale","AZ","85251",33.497828,-111.927267,"0","Cafes, Food, Grocery, Restaurants, Bars, Nightlife, Wine Bars"
"181",49416,"Clifton Martini & Wine Bar","Cleveland","OH","44102",41.4851348,-81.7572183,"1","Bars, Wine Bars, American (New), Tapas/Small Plates, Nightlife, Restaurants"
"182",53329,"Silver Wine & Martini Bar","Phoenix","AZ","85004",33.4485922,-112.0716023,"0","Wine Bars, Lounges, Bars, Nightlife"
"183",86467,"Queen Creek Olive Mill Trattoria","Phoenix","AZ","85016",33.5104258,-112.0284918,"0","Mediterranean, Bars, Diners, Wine Bars, Sandwiches, Restaurants, Nightlife"
"184",84267,"Olive Garden Italian Restaurant","Monroeville","PA","15146",40.4340368,-79.7869004,"1","Bars, Restaurants, Wine Bars, Italian, Salad, Nightlife"
"185",17526,"Pita Bistro","Phoenix","AZ","85040",33.4045844,-111.9791782,"1","Bars, Nightlife, Food, Juice Bars & Smoothies, Salad, Beer, Wine & Spirits, Mediterranean, Wine Bars, Middle Eastern, Restaurants"
"186",32841,"Elda","Montréal","QC","H2T 1S1",45.5238223,-73.5949011,"0","Bars, Restaurants, Gastropubs, Bistros, Nightlife, Breakfast & Brunch, Wine Bars"
"187",157833,"Brix Wine","Carefree","AZ","85377",33.827361,-111.924222,"1","Beer, Wine & Spirits, Bars, Nightlife, Food, Wine Bars"
"188",45222,"SUGARCANE Raw Bar Grill","Las Vegas","NV","89109",36.121179,-115.169653,"1","Nightlife, Bars, Coffee & Tea, Tapas/Small Plates, Wine Bars, American (Traditional), Cocktail Bars, American (New), Tapas Bars, Desserts, Food, Restaurants"
"189",190574,"Aroojis Wine Room","Charlotte","NC","28277",35.0622318,-80.7733554,"1","Restaurants, Bars, Nightlife, Italian, Wine Bars, Cocktail Bars"
"190",89563,"Cask 63","Scottsdale","AZ","85258",33.5672601,-111.9259093,"0","Nightlife, American (New), Restaurants, Wine Bars, Bars"
"191",46205,"Vault","Cleveland","OH","44115",41.500043,-81.6861312,"0","Wine Bars, Nightlife, Lounges, Bars, Dance Clubs"
"192",115446,"Dom DeMarco's Pizzeria & Bar","Las Vegas","NV","89117",36.1578224556,-115.3112018601,"1","Bars, Pizza, Restaurants, Wine Bars, Food, Italian, Nightlife"
"193",118315,"Open Sesame","Calgary","AB","T2H 0L3",50.9921485,-114.070811,"1","Asian Fusion, Restaurants, Bars, Nightlife, Wine Bars, Japanese"
"194",176680,"Double L","Pittsburgh","PA","15209",40.4794344,-79.9723269,"1","Beer Bar, Nightlife, Bars, Wine Bars"
"195",172587,"Fleming's Prime Steakhouse & Wine Bar - Charlotte","Charlotte","NC","28202",35.2254656104,-80.8430188493,"1","Wine Bars, Nightlife, Steakhouses, Restaurants, Bars, Seafood, Salad"
"196",12600,"That Italian Place Cafe & Eatery","Brampton","ON","L6S 0C1",43.7475061052,-79.7138679028,"1","Restaurants, Nightlife, Pizza, Bars, Wine Bars, Italian, Cafes"
"197",41189,"Opus Restaurant","Toronto","ON","M5R 1B2",43.6692085,-79.3972042,"1","Wine Bars, Bars, Tapas/Small Plates, Italian, American (New), Nightlife, Restaurants, Canadian (New)"
"198",11013,"Bistro Du Beaujolais","Olmsted Falls","OH","44138",41.3739499,-81.9020698,"1","Bars, Restaurants, Food, Wine Bars, Nightlife, French, Specialty Food, Ethnic Food"
"199",75794,"Blue North","McCandless","PA","15101",40.5672988245,-80.0002830514,"1","American (New), Restaurants, Bars, Nightlife, Wine Bars"
"200",38504,"Olive Garden Italian Restaurant","Scottsdale","AZ","85254",33.598052694,-111.9764364986,"1","Italian, Salad, Nightlife, Restaurants, Bars, Wine Bars"
"201",46189,"Plein Sud","Montréal","QC","H2T 1P4",45.5221891,-73.5843189,"1","Restaurants, Wine Bars, French, Nightlife, Bars, Tapas/Small Plates"
"202",37584,"Mordeo Boutique Wine Bar","Las Vegas","NV","89146",36.1259171,-115.2152677,"1","Tapas/Small Plates, Wine Bars, Spanish, American (Traditional), Restaurants, American (New), Nightlife, Bars"
"203",64674,"Prairie Fire","Madison","WI","53715",43.0717653,-89.4081342,"1","Beer Bar, Nightlife, Bars, Coffee & Tea, Food, Wine Bars, Delis, Restaurants"
"204",52029,"Paint Party and Wine - My Wine Cellar","Phoenix","AZ","85044",33.3339212,-111.9778633,"1","Nightlife, Bars, Arts & Entertainment, Wine Bars, Paint & Sip"
"205",92564,"Vine Expressions","Gilbert","AZ","85296",33.330835,-111.792282,"0","Nightlife, Beer, Wine & Spirits, Bars, Food, Wine Bars"
"206",36790,"Terrazzo Ristorante","Mississauga","ON","L5S 1X2",43.6490721,-79.7033173,"1","Wine Bars, Restaurants, Nightlife, Bars, Italian, Mediterranean"
"207",168588,"Wine-Ohs","Calgary","AB","T2P 7N2",51.0451208,-114.065744,"0","Nightlife, Wine Bars, French, Restaurants, Music Venues, Jazz & Blues, Arts & Entertainment, Bars"
"208",35251,"Meridiem Kitchen & Lounge","Chandler","AZ","85286",33.287547,-111.890511,"1","Bars, Wine Bars, Lounges, Nightlife, Breakfast & Brunch, Restaurants, American (New)"
"209",84738,"Social Box Neighborhood Eatery","Chandler","AZ","85224",33.326858213,-111.8583250791,"0","Bars, Nightlife, Pizza, Wine Bars, American (New), Restaurants, Seafood"
"210",73794,"Visible Voice Books","Cleveland","OH","44113",41.4812023,-81.6866433,"1","Bars, Food, Shopping, Coffee & Tea, Nightlife, Bookstores, Books, Mags, Music & Video, Wine Bars"
"211",108402,"Olive Garden Italian Restaurant","Chandler","AZ","85226",33.3062186132,-111.900707583,"1","Wine Bars, Restaurants, Nightlife, Bars, Italian, Salad"
"212",53282,"Macchiatos Coffee & Wine Bar","DeForest","WI","53532",43.2416769,-89.3437155,"0","Food, Coffee & Tea, Cafes, Bars, Wine Bars, Restaurants, Nightlife, Beer, Wine & Spirits, Tapas/Small Plates"
"213",187862,"Sun Devil Liquors","Mesa","AZ","85201",33.42028,-111.8396342,"1","Nightlife, Bars, Food, Beer, Wine & Spirits, Wine Bars"
"214",102537,"Nuit de Beyrouth","Laval","QC","H7V 3M9",45.5423482032,-73.7487497675,"1","Bars, Wine Bars, Restaurants, Nightlife, Lebanese, Middle Eastern"
"215",11119,"Sérénité Restaurant","Medina","OH","44256",41.1389406,-81.8723983,"1","Brasseries, Seafood, Restaurants, Bars, Nightlife, Cocktail Bars, Steakhouses, Beer, Wine & Spirits, Wine Bars, Food, French"
"216",41661,"Grapeables Fine Wines","Fountain Hills","AZ","85268",33.6013951,-111.7154171,"1","Beer, Wine & Spirits, Bars, Lounges, Food, Nightlife, Wine Bars"
"217",47799,"Grand Canyon Wine Tasting Room","Fountain Hills","AZ","85268",33.6058863,-111.7159383,"0","Arts & Entertainment, Event Planning & Services, Bars, Local Flavor, Nightlife, Wineries, Venues & Event Spaces, Food, Wine Bars"
"218",140767,"Highside","Phoenix","AZ","85020",33.5731009,-112.0649397,"1","Arts & Entertainment, Lounges, Event Planning & Services, Wine Bars, Nightlife, Beer Bar, Venues & Event Spaces, Music Venues, Bars, Cocktail Bars"
"219",85969,"The Whining Pig Desert Ridge","Phoenix","AZ","85054",33.6742826,-111.97447,"1","Beer Bar, Wine Bars, Bars, Pubs, Nightlife"
"220",31902,"The Winery At Wilcox","Pittsburgh","PA","15205",40.4385746392,-80.1464086398,"1","Nightlife, Arts & Entertainment, Wineries, Beer, Wine & Spirits, Food, Wine Bars, Bars"
"221",104768,"Salud Beer Shop","Charlotte","NC","28205",35.2477994,-80.8040482,"1","Food, Beer Bar, Pizza, Restaurants, Beer, Wine & Spirits, Wine Bars, Bars, Nightlife"
"222",155824,"Stagioni","Pittsburgh","PA","15203",40.4282783,-79.9760162,"1","Event Planning & Services, Nightlife, Venues & Event Spaces, Wine Bars, Restaurants, Bars, Italian, Pizza, Breakfast & Brunch"
"223",95981,"Cibo Wine Bar","Toronto","ON","M5R 1C4",43.6704745,-79.3936313,"1","Wine Bars, Bars, Mediterranean, Italian, Nightlife, Restaurants"
"224",132334,"Seasons 52","Phoenix","AZ","85016",33.5104706939,-112.0266086496,"1","American (New), Wine Bars, Gluten-Free, Nightlife, Bars, Restaurants, Seafood, Vegetarian, American (Traditional)"
"225",148903,"Alio Restaurant & Wine Bar","Toronto","ON","M5G 1C3",43.655728,-79.384169,"1","Bars, Nightlife, Wine Bars, Restaurants, Italian"
"226",129207,"Anthonys of Little Italy","Cleveland","OH","44106",41.5084795,-81.5986543,"0","Nightlife, Wine Bars, Restaurants, Bars, Italian"
"227",69798,"Cork and Crate","Charlotte","NC","28205",35.2196905,-80.8009872,"1","Wine Bars, Bars, Nightlife"
"228",175141,"Lager & Vine","Medina","OH","44256",41.139364,-81.863411,"0","Bars, Wine Bars, Nightlife, Gastropubs, Restaurants"
"229",20410,"Wildfish Seafood Grille","Scottsdale","AZ","85251",33.5020036166,-111.9280350208,"0","Jazz & Blues, Nightlife, Restaurants, Arts & Entertainment, American (Traditional), Wine Bars, Steakhouses, Bars, Seafood"
"230",10326,"Brooklin Pour House","Whitby","ON","L1M 1B3",43.9586835,-78.9601093,"0","Steakhouses, Nightlife, Gastropubs, Restaurants, Italian, Bars, Wine Bars"
"231",131589,"Cul-sec","Montréal","QC","H2S 1P7",45.5306657,-73.6082385,"1","Wine Bars, Nightlife, Bars"
"232",186832,"The Wine Room","Avon","OH","44011",41.4683699,-82.0155941,"1","Food, Nightlife, Wine Bars, Beer, Wine & Spirits, Bars"
"233",16808,"Pinspiration","Phoenix","AZ","85054",33.6759892,-111.9644988,"1","Event Planning & Services, Nightlife, Wine Bars, Bars, Shopping, Arts & Entertainment, Paint & Sip, Party & Event Planning, Home & Garden, Paint Stores, Venues & Event Spaces, Arts & Crafts"
"234",162495,"Black Chicken Wine Cellar","Matthews","NC","28105",35.1167363,-80.7192328,"1","Beer, Wine & Spirits, Food, Bars, Local Flavor, Arts & Entertainment, Nightlife, Wine Bars, Wineries"
"235",131207,"Nora's Italian Cuisine","Las Vegas","NV","89103",36.1150515442,-115.2202835693,"1","Caterers, Nightlife, Bars, Wine Bars, Venues & Event Spaces, Pizza, Cocktail Bars, Italian, Restaurants, Event Planning & Services"
"236",156069,"Sfizio Pizzeria & Wine Bar","Toronto","ON","M4W 1H7",43.6721292,-79.3774052,"0","Pizza, Nightlife, Bars, Wine Bars, Restaurants, Italian"
"237",174893,"The Wine Bar at Solaire","Hudson","OH","44236",41.242179,-81.4419988,"0","Nightlife, Event Planning & Services, Hotels & Travel, American (New), Bars, Hair Salons, Restaurants, Mediterranean, Hotels, Wine Bars, Beauty & Spas"
"238",33461,"Greek Town","Calgary","AB","T2S 0G8",51.0348858465,-114.0715220196,"0","Bars, Wine Bars, Nightlife, Restaurants, Greek"
"239",166076,"Les Incorruptibles","Montréal","QC","H2C 1S1",45.561529,-73.656989,"0","Nightlife, Lounges, Bars, Wine Bars, Restaurants, Gastropubs, Cocktail Bars, French"
"240",125258,"Fratello's","Avon Lake","OH","44012",41.5087029,-81.9886608,"1","Nightlife, Bars, Wine Bars, Restaurants, American (New), Italian"
"241",93773,"Cafe CODA","Madison","WI","53703",43.0839048,-89.3636915,"1","Bars, Music Venues, Wine Bars, Nightlife, Jazz & Blues, Arts & Entertainment, Restaurants, Cafes"
"242",59823,"Noda Company Store","Charlotte","NC","28205",35.2470061423,-80.8045076865,"1","Arts & Entertainment, Art Galleries, Shopping, Wine Bars, Nightlife, Bars, Beer Bar"
"243",39011,"Anabel","Montréal","QC","H2V 4H3",45.5234705,-73.6059026,"0","Bars, Canadian (New), Nightlife, Wine Bars, Restaurants"
"244",123865,"The Wine Loft","Charlotte","NC","28203",35.2066386183,-80.8611153025,"1","Nightlife, Wine Bars, Tapas Bars, Arts & Entertainment, Restaurants, Bars"
"245",88461,"S&S Nails Spa","Medina","OH","44256",41.136983,-81.8158035,"1","Beauty & Spas, Nail Salons, Bars, Wine Bars, Nightlife"
"246",141866,"Accords","Montréal","QC","H2Y 1T3",45.5036104,-73.557484,"0","Wine Bars, Restaurants, Bars, Nightlife, French"
"247",28475,"Alma","Montréal","QC","H2V 1P2",45.5210619,-73.6107003,"1","Bars, Wine Bars, Nightlife"
"248",142155,"Sauce Pizza and Wine","Mesa","AZ","85204",33.3811254605,-111.7569634659,"1","Pizza, Food, Bars, Nightlife, Restaurants, Wine Bars, Beer, Wine & Spirits, Italian"
"249",151947,"Les Tontons Flingueurs","Montréal","QC","H3T 1X8",45.495401,-73.6208071,"1","Bars, Nightlife, Wine Bars, Seafood, Restaurants, French"
"250",5248,"Joy Bistro","Toronto","ON","M4M 1J3",43.6604177399,-79.3434817648,"0","Venues & Event Spaces, American (Traditional), Gastropubs, American (New), Canadian (New), Bars, Nightlife, Wine Bars, Breakfast & Brunch, French, Comfort Food, Pubs, Event Planning & Services, Restaurants"
"251",70974,"Mezzo","Pittsburgh","PA","15222",40.443983,-79.9964184,"1","Pizza, Italian, Bars, Nightlife, Restaurants, Wine Bars"
"252",48327,"Divino Wine & Cheese Bistro","Calgary","AB","T2P 1B4",51.0453072,-114.0639138,"0","Wine Bars, Restaurants, Bars, American (New), Nightlife"
"253",82883,"Olive Garden Italian Restaurant","Champaign","IL","61820",40.135722,-88.241153,"1","Nightlife, Salad, Bars, Italian, Restaurants, Wine Bars"
"254",143065,"Mimi la Nuit","Montréal","QC","H2Y 1G3",45.5059189543,-73.5534445159,"1","Restaurants, Nightlife, Canadian (New), Wine Bars, Bars"
"255",161407,"Sauce Pizza & Wine","Phoenix","AZ","85034",33.4358912122,-111.9978582859,"0","Nightlife, Italian, Bars, Wine Bars, Pizza, Restaurants, Gluten-Free"
"256",89953,"Hearthstone Kitchen & Cellar","Las Vegas","NV","89135",36.156348,-115.334471,"1","Tapas/Small Plates, Nightlife, Beer, Wine & Spirits, Bars, Tapas Bars, Food, Wine Bars, Lounges, Breakfast & Brunch, American (New), Restaurants"
"257",102535,"Crazy Pita Rotisserie & Grill","Las Vegas","NV","89135",36.148125,-115.3329749,"1","Wine Bars, Restaurants, Sandwiches, Beer Bar, Bars, Mediterranean, Nightlife, Salad, Fast Food"
"258",174790,"Bar Maximus","Phoenix","AZ","85003",33.458871,-112.077177,"0","Restaurants, Nightlife, Food, Gastropubs, Beer, Wine & Spirits, Wine Bars, Bars"
"259",12180,"Kit's Trackside Crafts","Pineville","NC","28134",35.0859853,-80.89104,"1","Nightlife, Bars, Wine Bars, Beer Bar"
"260",3711,"Gohyang Restaurant","Toronto","ON","M9A 1C2",43.6449713,-79.5327411,"1","Korean, Restaurants, Asian Fusion, Thai, Noodles, Wine Bars, Sushi Bars, Chinese, Nightlife, Bars, Dim Sum"
"261",125683,"Embarcadero Wine & Oyster Bar","Calgary","AB","T2G 1H4",51.0378165,-114.0606134,"1","Tapas Bars, Tapas/Small Plates, Bars, Seafood, Restaurants, Wine Bars, Nightlife"
"262",162227,"La Esquina Resto Lounge and Wine Bar","Vaughan","ON","L4L 2V5",43.7876301,-79.5544726,"0","Argentine, Wine Bars, Nightlife, Restaurants, Bars"
"263",164297,"Le Pier 66","Montréal","QC","H2V 1T6",45.5234705,-73.6059026,"0","Restaurants, Seafood, Delicatessen, Breakfast & Brunch, Wine Bars, Seafood Markets, Bars, Specialty Food, Nightlife, Food"
"264",84619,"Tutti Matti Restaurant","Toronto","ON","M5V 1R7",43.6473981,-79.3939269,"1","Nightlife, Bars, Wine Bars, Beer Bar, Restaurants, Italian"
"265",24707,"Press Wine / Food","Charlotte","NC","28202",35.228991,-80.845797,"0","Restaurants, Bars, Wine Bars, Nightlife"
"266",20710,"La Cave Wine and Food Hideaway","Las Vegas","NV","89109",36.126753,-115.16503,"1","Nightlife, Tapas Bars, Wine Bars, Bars, Restaurants, American (New)"
"267",77090,"Twisted Italian","Peoria","AZ","85383",33.7108522,-112.2731342,"1","Comfort Food, Breakfast & Brunch, Wine Bars, Italian, American (Traditional), Bars, Nightlife, Restaurants, Polish"
"268",96144,"Prego Cucina Italiana","Calgary","AB","T2P 4R5",51.052572,-114.0683471,"1","Wine Bars, Italian, Bars, Nightlife, Restaurants"
"269",100073,"Cuisine & Wine Bistro","Gilbert","AZ","85233",33.3359225,-111.8212295,"1","Bars, Gastropubs, Restaurants, French, Nightlife, American (Traditional), Wine Bars, Tapas/Small Plates, Bistros"
"270",2610,"Decanter Winery & Lounge","Scottsdale","AZ","85255",33.6517043419,-111.8862381239,"0","Wine Tasting Room, Tapas/Small Plates, Wineries, Restaurants, Music Venues, Bars, Arts & Entertainment, Food, Nightlife, American (Traditional), Wine Bars"
"271",99397,"Emerald City Lounge","Champaign","IL","61820",40.3191829,-88.346751,"0","Gay Bars, Lounges, Nightlife, Wine Bars, Bars"
"272",180303,"Union","Toronto","ON","M6J 2Y7",43.6458334,-79.4195681,"1","Bars, Restaurants, Nightlife, Gastropubs, Wine Bars, French"
"273",179014,"MercBar","Phoenix","AZ","85016",33.50873,-112.027564,"1","Wine Bars, Cocktail Bars, American (New), Restaurants, Bars, Nightlife, Lounges"
"274",114346,"Wines At the Pines","Urbana","IL","61802",40.0808719,-88.1904406,"0","Food, Nightlife, Bars, Wine Bars, Local Flavor, Beer, Wine & Spirits, Coffee & Tea"
"275",2219,"D'Vine Wine Bar","Cleveland","OH","44113",41.4993797,-81.6997212,"0","Nightlife, Wine Bars, Bars, Tapas/Small Plates, Restaurants"
"276",164957,"750 Ml Wines","Akron","OH","44313",41.1182933,-81.5882722,"1","Nightlife, Restaurants, Bars, Tapas/Small Plates, Wine Bars"
"277",55614,"VinciTorio's","Tempe","AZ","85284",33.34831,-111.908761,"1","Italian, Buffets, Bars, Wine Bars, Nightlife, Restaurants"
"278",144263,"Canis","Toronto","ON","M6J 1E9",43.6460933597,-79.4101145473,"1","Bars, Wine Bars, Canadian (New), Nightlife, Restaurants"
"279",131438,"Trevor Kitchen & Bar","Toronto","ON","M5E 1C7",43.6484528,-79.375089,"1","Nightlife, Restaurants, Canadian (New), American (New), Bars, Wine Bars"
"280",108198,"Brio Tuscan Grille","Scottsdale","AZ","85254",33.6254092922,-111.9251276157,"1","Venues & Event Spaces, Nightlife, Pizza, Event Planning & Services, Cocktail Bars, Italian, Seafood, Bars, Breakfast & Brunch, Wine Bars, Restaurants"
"281",93145,"Rambla","Montréal","QC","H2L 2H2",45.5190087,-73.5554346,"0","Nightlife, Restaurants, Spanish, Bars, Wine Bars, Tapas Bars"
"282",179292,"The Ivy","Chandler","AZ","85286",33.2766511,-111.8740924,"1","Pizza, Mediterranean, Bars, Restaurants, Lounges, Cocktail Bars, Nightlife, Greek, Wine Bars"
"283",54217,"Pitch","Scottsdale","AZ","85251",33.4807095,-111.945349,"1","Wine Bars, Nightlife, Italian, Bars, Coffee & Tea, Food, Pizza, Restaurants"
"284",166212,"Blink Restaurant & Bar","Calgary","AB","T2P 1B4",51.0453432,-114.0638283,"1","Nightlife, Bars, Wine Bars, Restaurants, American (New), French, Canadian (New)"
"285",25830,"Franco's Italian Caffe","Scottsdale","AZ","85251",33.499275,-111.9259214,"1","Bars, Diners, Restaurants, Italian, Wine Bars, Nightlife"
"286",4925,"Trattoria D'Amico","Phoenix","AZ","85044",33.3321869,-111.979151,"1","Restaurants, Event Planning & Services, Italian, Bars, Nightlife, American (New), Wine Bars, Caterers, Desserts, Food"
"287",173907,"Salute Piano Bar","Toronto","ON","M5R 3N7",43.6709082,-79.3910312,"0","Restaurants, Nightlife, Canadian (New), Piano Bars, Bars, Wine Bars"
"288",163667,"Basso Pizzeria","Toronto","ON","M5A 1S8",43.6555457,-79.3652656,"1","Pizza, Restaurants, Nightlife, Italian, Wine Bars, Bars, Breakfast & Brunch"
"289",133683,"Down Under Wines & Bistro","Gilbert","AZ","85233",33.3358523,-111.8205495,"0","Music Venues, Wine Bars, American (New), Restaurants, Asian Fusion, Arts & Entertainment, Bars, Nightlife"
"290",149824,"Benvenuto's Italian Grill","Middleton","WI","53717",43.0820548,-89.5234428,"1","Italian, American (Traditional), Bars, Food, Wine Bars, Beer, Wine & Spirits, Restaurants, Gluten-Free, Nightlife"
"291",84336,"Grandview Saloon","Pittsburgh","PA","15211",40.4381076,-80.0185368,"1","Steakhouses, Seafood, Nightlife, American (Traditional), Lounges, Restaurants, Wine Bars, Event Planning & Services, Caterers, Bars"
"292",114215,"Il Vinaio","Mesa","AZ","85201",33.4155078,-111.8389254,"1","Wineries, Arts & Entertainment, Nightlife, Italian, Food, Gluten-Free, Mediterranean, Bars, Restaurants, American (New), Wine Bars"
"293",97956,"WineSide","Akron","OH","44334",41.114352,-81.577783,"0","Bars, Nightlife, Wine Bars"
"294",80648,"The Wine Mill","Peninsula","OH","44264",41.204515,-81.495715,"1","Bars, Nightlife, Wine Bars"
"295",29289,"Red Rocks Cafe- Charlotte","Charlotte","NC","28211",35.156539,-80.794655,"1","American (New), Nightlife, Bakeries, American (Traditional), Cafes, Southern, Steakhouses, Bars, Restaurants, Wine Bars, Food"
"296",7653,"Tabla Wine Bar","Toronto","ON","M4N 3R6",43.7176275,-79.4004256,"0","Nightlife, Wine Bars, Bars"
"297",60288,"Murrieta's Bar & Grill","Calgary","AB","T2P 1M9",51.0453155,-114.0652006,"1","Bars, Wine Bars, Steakhouses, Canadian (New), American (New), Seafood, Nightlife, Restaurants"
"298",59346,"Switch Restaurant & Wine Bar","Phoenix","AZ","85004",33.477031,-112.073616,"1","Sandwiches, Delis, Cocktail Bars, Comfort Food, Food, Modern European, Bars, Nightlife, Restaurants, American (Traditional), Burgers, Wine Bars, Breakfast & Brunch, American (New)"
"299",124397,"Truvé Wines","Calgary","AB","T2G 0Y4",51.0424262,-114.0542061,"1","Nightlife, Bars, Beer, Wine & Spirits, Food, Wine Bars"
"300",86303,"Nemo Grille","Avon","OH","44011",41.4521407,-82.0347739,"1","Bars, Wine Bars, Steakhouses, American (New), Seafood, Nightlife, Restaurants"
"301",20139,"DJ's Wine & Coffee House","Denver","NC","28037",35.4445863,-80.9967741,"0","Food, Coffee & Tea, Wine Bars, Nightlife, Bars"
"302",151927,"District 8 Beer Company","Belmont","NC","28012",35.248801,-81.070324,"1","Nightlife, Bars, Sports Bars, Beer Bar, Wine Bars"
"303",15007,"Matteo's Casual Italian","Olmsted Falls","OH","44138",41.3747475,-81.9017388,"1","Caterers, Bars, Cocktail Bars, Wine Bars, Event Planning & Services, Restaurants, Italian, Nightlife, Pizza"
"304",162973,"Rooney's Market","Charlotte","NC","28273",35.1382102,-80.9332075,"0","Restaurants, Delis, Bars, Food, Wine Bars, Tapas/Small Plates, Specialty Food, Sandwiches, Nightlife"
"305",145481,"Apis Meadery & Winery","Carnegie","PA","15106",40.4077198,-80.0875988,"1","Arts & Entertainment, Wineries, Beer, Wine & Spirits, Wine Tasting Room, Food, Bars, Nightlife, Wine Bars"
"306",190685,"Etna Restaurant & Wine Bar","Cleveland","OH","44106",41.5088363,-81.5994753,"1","Nightlife, Seafood, Wine Bars, Italian, Bars, Restaurants"
"307",148707,"D'Vine Wine Cafe","Charlotte","NC","28277",35.053681,-80.8514579,"0","Music Venues, Bars, Food, Nightlife, Wineries, Wine Bars, Restaurants, Arts & Entertainment, American (New)"
"308",29627,"MVPita Mediterranean Grill","Mesa","AZ","85205",33.4357051523,-111.6849132255,"1","Falafel, Fast Food, Middle Eastern, Vegetarian, American (New), Nightlife, Restaurants, Lebanese, Mediterranean, Sandwiches, Beer Bar, Wine Bars, Bars"
"309",164577,"N° 900","Montréal","QC","H4A 1E2",45.4755517915,-73.6230416223,"1","Bars, Wine Bars, Pizza, Restaurants, Nightlife"
"310",144120,"H2 Huth & Harris Wine Merchants","Medina","OH","44256",41.1376067,-81.864672,"1","Beer, Wine & Spirits, Wine Bars, Nightlife, Bars, Food"
"311",81732,"Olive Garden Italian Restaurant","Glendale","AZ","85305",33.5367983,-112.2647142,"1","Restaurants, Italian, Wine Bars, Nightlife, Salad, Bars"
"312",28095,"Merchant","Madison","WI","53703",43.0742365,-89.3810119,"1","Cocktail Bars, Grocery, Wine Bars, Sandwiches, Nightlife, Food, Restaurants, American (New), Bars, American (Traditional)"
"313",72434,"Casey's Draft House","Pittsburgh","PA","15203",40.4289561,-79.9799623,"1","American (Traditional), Sports Bars, Bars, Wine Bars, Burgers, Restaurants, Nightlife, Cocktail Bars"
"314",135586,"Olive Garden Italian Restaurant","Phoenix","AZ","85035",33.4775475,-112.2212168,"1","Wine Bars, Bars, Salad, Restaurants, Nightlife, Italian"
"315",8654,"Blossom Grille","Cuyahoga Falls","OH","44223",41.1915444854,-81.5626926797,"1","Bars, American (Traditional), Nightlife, Restaurants, Wine Bars, American (New)"
"316",188451,"Reds Bistro and Wine Bar","Toronto","ON","M5X 1B1",43.6493334,-79.3824714,"0","Nightlife, Bars, Wine Bars"
"317",119225,"Touro Churrascaria","Richmond Hill","ON","L4B 3B4",43.8470768,-79.3763544,"1","Breakfast & Brunch, Nightlife, Wine Bars, Restaurants, Brazilian, Steakhouses, Bars"
"318",25788,"Brassaii","Toronto","ON","M5V 1K4",43.6444564,-79.3960911,"1","Mediterranean, Wine Bars, Bars, Breakfast & Brunch, Cocktail Bars, Nightlife, Restaurants, French"
"319",30849,"Blue Restaurant & Bar","Charlotte","NC","28202",35.227392,-80.840592,"0","Greek, Bars, Wine Bars, American (New), Nightlife, Jazz & Blues, Restaurants, Arts & Entertainment, Mediterranean"
"320",148975,"Moleskine","Montréal","QC","H2X 2H5",45.5083635,-73.5715948,"1","Pizza, Cafes, Nightlife, Italian, Wine Bars, Bars, Comfort Food, Restaurants"
"321",147508,"Olive Garden Italian Restaurant","Mentor","OH","44060",41.659689,-81.364183,"1","Italian, Restaurants, Wine Bars, Bars, Nightlife, Salad"
"322",24695,"Eddie Merlot's","Scottsdale","AZ","85255",33.6970334404,-111.9239969887,"1","Wine Bars, Seafood, Nightlife, Food, Steakhouses, Bars, Beer, Wine & Spirits, Restaurants"
"323",179999,"Philemon Bar","Montréal","QC","H2Y 1Z4",45.5052265451,-73.5540890694,"1","Bars, Nightlife, Wine Bars"
"324",161516,"Namastay Kitchen and Hangout","Charlotte","NC","28211",35.176496,-80.802224,"0","Sushi Bars, Vegan, American (New), Juice Bars & Smoothies, Restaurants, Nightlife, Vegetarian, Bars, Wine Bars, Food"
"325",125590,"Cibo Wine Bar","Toronto","ON","M5V 1L7",43.6452414,-79.3974043,"1","Bars, Restaurants, Wine Bars, Food, Italian, Nightlife"
"326",63917,"Le Muscadin","Montréal","QC","H2Y 3A6",45.507486,-73.553975,"1","Bars, Nightlife, Restaurants, Wine Bars, Italian"
"327",129743,"Stumptown Station","Matthews","NC","28105",35.1162328,-80.7223712,"1","Wine Bars, Beer Bar, Nightlife, Cocktail Bars, Bars, Speakeasies"
"328",128215,"Goodfellas Pizza","Mississauga","ON","L5M 1X3",43.5813283,-79.7127965,"1","Restaurants, Italian, Nightlife, Beer, Wine & Spirits, Pizza, Wine Bars, Bars, Food"
"329",56879,"Chianti Cafe","Las Vegas","NV","89134",36.1936092,-115.3040091,"0","Italian, Nightlife, Restaurants, Wine Bars, Bars"
"330",73611,"The Capital Grille","Phoenix","AZ","85016",33.51023428,-112.0272009918,"1","Seafood, Steakhouses, Bars, American (Traditional), Wine Bars, Restaurants, Nightlife"
"331",67415,"Wink 24","Phoenix","AZ","85016",33.510564,-112.026669,"1","Salad, Bars, Pizza, Breakfast & Brunch, Wine Bars, Nightlife, Italian, Restaurants"
"332",108283,"Olive Garden Italian Restaurant","Cuyahoga Falls","OH","44221",41.11865,-81.478319,"1","Nightlife, Italian, Wine Bars, Salad, Restaurants, Bars"
"333",73444,"Black Chicken Fine Wine and Craft Beer","Waxhaw","NC","28173",34.9253528,-80.7432028,"1","Nightlife, Food, Wine Bars, Beverage Store, Bars, Sandwiches, Beer Gardens, American (New), Restaurants"
"334",9432,"Sweets Raku","Las Vegas","NV","89146",36.1264269463,-115.2099140423,"1","Food, Desserts, Wine Bars, Bars, American (Traditional), Nightlife, Restaurants, Japanese"
"335",138265,"Phoenix Big Cinemas North Versailles Stadium 18","North Versailles","PA","15137",40.3716593,-79.7863875,"1","Cinema, Nightlife, Wine Bars, Arts & Entertainment, Bars"
"336",62431,"Bar Marco","Pittsburgh","PA","15222",40.4524912,-79.9815446,"1","Beer, Wine & Spirits, American (New), Wine Bars, Bars, Restaurants, Nightlife, Tapas/Small Plates, Cafes, Food"
"337",114107,"747 Wine Bar","Toronto","ON","M4M 1H3",43.6591536,-79.3481684,"0","Bars, American (New), Lounges, Canadian (New), Tapas Bars, Restaurants, Nightlife, Wine Bars, Tapas/Small Plates"
"338",187823,"The Side Door Corner Store","Scottsdale","AZ","85251",33.4863942,-111.9103522,"1","Italian, Nightlife, Sandwiches, Restaurants, Wine Bars, Food, Bars, Pizza"
"339",97666,"28GO The Restaurant","Las Vegas","NV","89119",36.1050259,-115.1359481,"0","Restaurants, Bars, Nightlife, Korean, Wine Bars, Asian Fusion, Tapas/Small Plates, American (New), Breakfast & Brunch"
"340",81791,"Mimi's Cafe","Goodyear","AZ","85395",33.4597711,-112.3415539,"1","Event Planning & Services, Wine Bars, Caterers, Restaurants, Breakfast & Brunch, Nightlife, Bars"
"341",191075,"Wildfire Steakhouse & Wine Bar","Toronto","ON","M4N 2M9",43.7336349,-79.40477,"1","Nightlife, Steakhouses, Food, Bars, Restaurants, Wine Bars, Desserts"
"342",134518,"Walrus & The Pearl","Phoenix","AZ","85004",33.458382,-112.073555,"0","Beer Bar, Bars, Wine Bars, Nightlife, Seafood, Restaurants"
"343",47734,"Bin 110","Cornelius","NC","28031",35.4816828954,-80.8825221285,"1","Wine Bars, Beer Bar, Whiskey Bars, Bars, Cocktail Bars, Nightlife"
"344",86982,"Sam and Luca Rustic Kitchen","Mesa","AZ","85206",33.3799224,-111.687266,"1","Bars, Italian, Wine Bars, Restaurants, Nightlife"
"345",59855,"Dressler's - Charlotte","Charlotte","NC","28204",35.2123518,-80.8358725,"1","American (New), Restaurants, Seafood, Steakhouses, Wine Bars, Nightlife, Bars"
"346",25870,"Yama Sushi House","Phoenix","AZ","85012",33.5072383,-112.0741104,"1","Bars, Sushi Bars, Japanese, Restaurants, Wine Bars, Nightlife"
"347",26829,"Lola","Phoenix","AZ","85014",33.5095175,-112.0638736,"0","Restaurants, Wine Bars, Basque, Coffee & Tea, Bars, Spanish, Nightlife, Tapas Bars, Food"
"348",163772,"La Cave du Vin","Cleveland","OH","44106",41.5083171,-81.5802997,"0","Nightlife, Bars, Lounges, Food, Beer, Wine & Spirits, Wine Bars"
"349",10221,"Bravo! Cucina Italiana","Pittsburgh","PA","15228",40.356525,-80.051222,"1","Gluten-Free, Nightlife, Restaurants, Bars, Italian, Wine Bars, Cocktail Bars"
"350",182190,"Alice Fazooli's","Vaughan","ON","L4L 9J5",43.78702,-79.544559,"0","Beer, Wine & Spirits, Bars, Food, Restaurants, Wine Bars, Nightlife, Italian"
"351",148773,"Vargas","Montréal","QC","H3B 1X8",45.501487,-73.567383,"1","Sushi Bars, Wine Bars, Asian Fusion, Nightlife, Bars, Steakhouses, Restaurants"
"352",122292,"Tom Colicchio's Heritage Steak","Las Vegas","NV","89109",36.1216084937,-115.1739997148,"1","Food, Restaurants, American (Traditional), Diners, Steakhouses, Beer, Wine & Spirits, Nightlife, Wine Bars, Pool Halls, Bars"
"353",95051,"Doolittles Woodfire Grill","Madison","WI","53704",43.1259959104,-89.3079048582,"1","Restaurants, American (Traditional), Wine Bars, Bars, Nightlife"
"354",83195,"North End","Hudson","OH","44236",41.2707031,-81.4409248,"1","Wine Bars, American (New), Nightlife, Bars, Arts & Entertainment, Wine Tasting Room, Beer, Wine & Spirits, Restaurants, Beer Bar, Caterers, Wineries, Event Planning & Services, Food"
"355",155744,"Chestermere Landing Steak House & Wine Bar","Chestermere","AB","T1X 1A1",51.0518282,-113.8164079,"0","Steakhouses, Restaurants, Wine Bars, Bars, Nightlife"
"356",149844,"Vox Wine Lounge","Henderson","NV","89077",36.0017447,-115.1021393,"0","Bars, Nightlife, Wine Bars, Restaurants"
"357",83602,"MidiCi The Neapolitan Pizza Company","Phoenix","AZ","85050",33.674112721,-111.9762973294,"1","Bars, Italian, Nightlife, Restaurants, Wine Bars, Pizza"
"358",160459,"FireWater","Charlotte","NC","28262",35.310898,-80.7506949,"1","American (New), Restaurants, Wine Bars, Nightlife, Bars"
"359",81715,"J. Sams Wine Bar","Charlotte","NC","28210",35.1523135263,-80.8394454686,"1","Shopping, Wine Bars, American (New), Bars, Nightlife, Restaurants, Arts & Entertainment, Art Galleries"
"360",125083,"Boar & Barrel","Madison","WI","53703",43.0766274,-89.3839725,"1","Tapas Bars, Bars, Nightlife, Cocktail Bars, Whiskey Bars, Restaurants, Wine Bars"
"361",118756,"Polo's Italian Cuisine","Glendale","AZ","85301",33.53807,-112.166508,"0","Nightlife, Wine Bars, Restaurants, Bars, Italian"
"362",66393,"Trattoria Reggiano","Las Vegas","NV","89135",36.149152,-115.332376,"1","Italian, Wine Bars, Nightlife, Bars, Restaurants, Pizza, Breakfast & Brunch"
"363",2408,"Santosuossos'pizza Pasta Vino","Medina","OH","44256",41.1379504529,-81.8214201217,"1","Bars, Restaurants, Pizza, Wine Bars, Nightlife, Seafood"
"364",147146,"D. Vino","Las Vegas","NV","89109",36.1049170576,-115.1741682573,"0","Nightlife, Wine Bars, Italian, Restaurants, Bars"
"365",76818,"Meritage - An Urban Tavern","Phoenix","AZ","85054",33.6835743,-111.965985,"1","Beer Bar, Restaurants, Food, Desserts, Bars, Cocktail Bars, Lounges, Steakhouses, Nightlife, American (New), Wine Bars, Sports Bars, Beer, Wine & Spirits"
"366",77855,"Midfield","Toronto","ON","M6J 1Y6",43.649779,-79.4300257,"1","Wine Bars, Bars, Nightlife"
"367",95987,"We Olive & Wine Bar","Avondale","AZ","85392",33.4668272613,-112.3383037215,"1","Food, Herbs & Spices, Bars, Beer, Wine & Spirits, Olive Oil, Specialty Food, Restaurants, Tapas/Small Plates, Wine Bars, Nightlife"
"368",130447,"Flour Italian Kitchen","Moreland Hills","OH","44022",41.455111,-81.443116,"1","Restaurants, Italian, Bars, Nightlife, Wine Bars"
"369",5297,"LV bar","Las Vegas","NV","89119",36.067581,-115.17423,"1","Nightlife, Bars, Wine Bars, Restaurants, Beer Bar, Salad, American (New)"
"370",158595,"PNPK","Scottsdale","AZ","85255",33.698032,-111.924718,"1","American (Traditional), Bars, Restaurants, Nightlife, Wine Bars"
"371",188626,"The Lodge Taproom & Grille","Streetsboro","OH","44241",41.252941,-81.324407,"0","Nightlife, Burgers, Sandwiches, American (Traditional), Restaurants, Salad, Wine Bars, Bars"
"372",42892,"Piccolina's","Pittsburgh","PA","15241",40.34659,-80.0831979,"0","American (New), Italian, Nightlife, Restaurants, Bars, Wine Bars, Cocktail Bars"
"373",79097,"D'Vine Bistro & Wine Bar - Mesa","Mesa","AZ","85215",33.4674017947,-111.682808,"1","Restaurants, Wine Bars, American (New), Nightlife, Bars"
"374",90526,"Rosewood Bistro & Wine Bar","Mississauga","ON","L5K 1P9",43.5399294,-79.66256,"0","French, Caterers, Bars, Wine Bars, Event Planning & Services, Nightlife, Restaurants, American (Traditional)"
"375",172337,"Oven + Vine","Phoenix","AZ","85003",33.474235,-112.0746535,"1","Pizza, Restaurants, Bars, Nightlife, American (New), Wine Bars"
"376",137449,"Deux - Cave à Manger","Sainte-Thérèse","QC","J7E 3H3",45.6393523,-73.8418159,"1","Restaurants, Coffee & Tea, Food, Tapas Bars, Comfort Food, Breakfast & Brunch, Cafes, Bars, Tapas/Small Plates, Wine Bars, Nightlife"
"377",24522,"Persuasian Restaurant","Charlotte","NC","28203",35.2,-80.852472,"1","Vietnamese, Persian/Iranian, Bars, Food, Asian Fusion, Chinese, Thai, Nightlife, Wine Bars, Restaurants, Beer, Wine & Spirits"
"378",73778,"Grape Wine Bistro","Scottsdale","AZ","85255",33.700033,-111.888462,"0","Restaurants, Bars, Wine Bars, Nightlife, Steakhouses, American (New)"
"379",42695,"Italian Festival of Arizona","Scottsdale","AZ","85251",33.4931641,-111.9208139,"1","Festivals, Bars, Arts & Entertainment, Italian, Restaurants, Nightlife, Wine Bars"
"380",30462,"Cibo Wine Bar","Toronto","ON","M4P 2H5",43.7113987,-79.399712,"1","Restaurants, Nightlife, Italian, Wine Bars, Bars"
"381",90929,"Eight Wine Bar","Toronto","ON","M5E 1E1",43.6487518,-79.3770532,"0","Nightlife, American (New), Restaurants, Bars, Wine Bars, Canadian (New)"
"382",1714,"Olde Towne Bistro & Oyster Bar","Toronto","ON","M5E 1C7",43.6484529,-79.3750706,"0","Nightlife, Seafood, Bars, Wine Bars, Tapas Bars, Restaurants"
"383",8569,"Sauce Pizza & Wine","Chandler","AZ","85248",33.2612195,-111.8848787,"0","Nightlife, Italian, Gluten-Free, Wine Bars, Pizza, Restaurants, Salad, Bars"
"384",158768,"Firebirds Wood Fired Grill","Charlotte","NC","28216",35.352549,-80.851181,"1","American (Traditional), Seafood, Bars, Wine Bars, Steakhouses, Nightlife, Restaurants"
"385",124949,"Via Vai Pizzeria & Wine Bar","Toronto","ON","M5S 1Z6",43.6617048,-79.3862897,"0","Wine Bars, Bars, Nightlife, Pizza, Italian, Restaurants"
"386",87952,"Peter's Cuisine -Grill- Banquets","Scottsdale","AZ","85258",33.5576287,-111.8990652,"0","Bars, Event Planning & Services, Wine Bars, Restaurants, American (Traditional), American (New), French, Venues & Event Spaces, Nightlife"
"387",153652,"The Whining Pig- Ahwatukee","Phoenix","AZ","85044",33.3217554,-111.9757703,"1","Lounges, Wine Bars, Bars, Pubs, Beer Bar, Nightlife"
"388",177367,"Nonna's","Markham","ON","L6E 1A3",43.8940185571,-79.2633498086,"0","Nightlife, Wine Bars, Sandwiches, Italian, Bars, Restaurants"
"389",14413,"Mr Ciao","Toronto","ON","M4M 1Y3",43.665616,-79.3518608,"0","Restaurants, Italian, Nightlife, Bars, Wine Bars, Pizza"
"390",99608,"Gusto!","Cleveland","OH","44106",41.5085264,-81.5983722,"0","Italian, Wine Bars, Bars, Restaurants, Nightlife"
"391",74906,"Bella Vista Trattoria & Wine Bar","Toronto","ON","M6G 1B8",43.6551859,-79.4164775,"1","Nightlife, Bars, Shopping, Wine Bars, Restaurants, Italian"
"392",44306,"Olive Garden Italian Restaurant","Concord","NC","28027",35.3705105,-80.7153346,"1","Italian, Salad, Bars, Wine Bars, Restaurants, Nightlife"
"393",190142,"Chiaro Ristorante","Woodbridge","ON","L4L 8E3",43.803731,-79.5500409,"0","Wine Bars, Bars, Italian, Nightlife, Restaurants"
"394",133837,"Chada Street","Las Vegas","NV","89102",36.1261759,-115.1909378,"0","Restaurants, Thai, Food, Nightlife, Bars, Desserts, Wine Bars"
"395",180319,"Olive Garden Italian Restaurant","Phoenix","AZ","85051",33.5812824,-112.1181853,"1","Wine Bars, Italian, Salad, Nightlife, Restaurants, Bars"
"396",158994,"Javino Coffee & Wine Bar","Calgary","AB","T3H 5X2",51.0155061,-114.21362,"1","Nightlife, Wine Bars, Bars, Food, Coffee & Tea"
"397",49295,"Winedown","Madison","WI","53703",43.074971297,-89.3872926012,"0","Lounges, Nightlife, Beer, Wine & Spirits, Music Venues, Arts & Entertainment, Bars, Food, Wine Bars"
"398",175054,"Postino Arcadia","Phoenix","AZ","85018",33.5021572,-111.9963105,"1","Nightlife, Wine Bars, Bars, Restaurants, Italian, Breakfast & Brunch"
"399",148370,"Wienstein & Gavino's","Montréal","QC","H3G 2B6",45.497494,-73.576754,"1","Italian, Restaurants, Bars, Wine Bars, Nightlife"
"400",162303,"Midtown","Las Vegas","NV","89109",36.1294227,-115.1424913,"0","Coffee & Tea, Pizza, Sports Bars, Restaurants, Bars, Nightlife, Food, Lounges, Wine Bars, Italian"
"401",159253,"Hambar","Montréal","QC","H2Y 2E8",45.500091,-73.556718,"1","Event Planning & Services, Hotels, Restaurants, Wine Bars, Cocktail Bars, Hotels & Travel, Food, Bars, Nightlife, Modern European, Canadian (New)"
"402",104563,"Pastina Rustic Italian","Mentor","OH","44060",41.6781850213,-81.30492948,"1","Italian, Cocktail Bars, Bars, Restaurants, Wine Bars, Nightlife"
"403",36292,"Pop! Bar à Vin","Montréal","QC","H2W 1P3",45.5174295,-73.5729081,"1","Nightlife, Wine Bars, Bars"
"404",47080,"Stella Mia Ristorante","Westlake","OH","44145",41.4370664,-81.937694,"1","Food, Beer, Wine & Spirits, Italian, Bars, Mediterranean, Nightlife, American (Traditional), Restaurants, Gluten-Free, Wine Bars, Seafood"
"405",141592,"TGI Fridays","Las Vegas","NV","89102",36.1448718,-115.2023475,"1","Nightlife, American (New), Restaurants, Wine Bars, American (Traditional), Burgers, Bars"
"406",135709,"Salt Wine Bar","Toronto","ON","M6J 2Z8",43.648977,-79.4204946,"1","Wine Bars, Tapas/Small Plates, Restaurants, Bars, Nightlife"
"407",166418,"Bachi Burger","Las Vegas","NV","89117",36.1469098416,-115.3007770203,"1","Asian Fusion, Nightlife, Bars, American (New), Wine Bars, Burgers, Restaurants"
"408",79083,"Trib Steakhouse","Calgary","AB","T2P 1B3",51.045752,-114.063762,"0","Bars, Restaurants, Seafood, Steakhouses, Wine Bars, Nightlife"
"409",186910,"AZ Wine Company","Scottsdale","AZ","85257",33.4753889,-111.9253855,"1","Food, Bars, Wineries, Wine Bars, Arts & Entertainment, Beer, Wine & Spirits, Nightlife, Beer Bar"
"410",168725,"Olive Garden Italian Restaurant","Calgary","AB","T2A 7R4",51.0529559,-113.9826491,"1","Bars, Restaurants, Nightlife, Italian, Salad, Wine Bars"
"411",90199,"Casbah","Pittsburgh","PA","15206",40.4581413,-79.9248403,"1","Restaurants, Bars, Cocktail Bars, Wine Bars, Diners, Mediterranean, Nightlife, Greek, Breakfast & Brunch"
"412",8943,"Aladdin's Eatery","Strongsville","OH","44136",41.3046286,-81.835837,"1","Nightlife, Middle Eastern, Bars, Wine Bars, Juice Bars & Smoothies, Food, Restaurants"
"413",123579,"Firebirds Wood Fired Grill","Gilbert","AZ","85295",33.3071941,-111.7478546,"1","Wine Bars, Seafood, Bars, Nightlife, Restaurants, Steakhouses"
"414",23960,"The Vandal","Pittsburgh","PA","15201",40.4708089,-79.9599895,"1","Restaurants, American (New), Wine Bars, Cafes, Bars, Soul Food, Breakfast & Brunch, Coffee & Tea, Modern European, Burgers, Nightlife, Sandwiches, Food"
"415",176128,"Olive Garden Italian Restaurant","Madison","WI","53717",43.0602878766,-89.5044983736,"1","Restaurants, Nightlife, Bars, Salad, Italian, Wine Bars"
"416",141897,"Fat Cat Wine Bar","Toronto","ON","M6R 2M8",43.6491315,-79.4501214,"0","Nightlife, Bars, Wine Bars"
"417",130997,"Karina Club Lounge","Montréal","QC","H3G 2B2",45.4979112,-73.5768909,"1","American (Traditional), Lounges, Bars, Dance Clubs, Wine Bars, Restaurants, Venues & Event Spaces, Event Planning & Services, Nightlife"
"418",152593,"Primo Prime","Charlotte","NC","28207",35.1975303,-80.8255385,"1","Bars, Seafood, Restaurants, Italian, Nightlife, Steakhouses, Cocktail Bars, Wine Bars"
"419",87327,"CRAFT 64","Scottsdale","AZ","85251",33.4932974762,-111.9315222278,"1","Bars, Wine Bars, Nightlife, Restaurants, Beer Gardens, American (New), Pizza"
"420",99425,"Le Rouge Gorge","Montréal","QC","H2J 1Y2",45.5291117541,-73.577978164,"1","French, Tapas/Small Plates, Music Venues, Gastropubs, Nightlife, Wine Bars, Restaurants, Arts & Entertainment, Hotels & Travel, Bars, Hotels, Event Planning & Services"
"421",186443,"The Cabin","Davidson","NC","28036",35.5058302,-80.8681771,"1","Arts & Entertainment, Wine Bars, Lounges, Music Venues, Nightlife, Bars"
"422",80635,"Reds Wine Tavern","Toronto","ON","M5X 1B1",43.6483116,-79.3823318,"1","Restaurants, Food, Event Planning & Services, Canadian (New), Bars, Seafood, Wine Bars, American (New), Nightlife, Beer, Wine & Spirits, Argentine, Venues & Event Spaces"
"423",2142,"Eighteen","Pittsburgh","PA","15217",40.4339539495,-79.9230235443,"1","Kosher, Wine Bars, Bars, Food, Mediterranean, Restaurants, Diners, Nightlife, Cafes, Internet Cafes"
"424",159368,"Rancho Pinot","Paradise Valley","AZ","85253",33.5297969,-111.9271372,"1","Nightlife, American (New), Bars, Restaurants, Wine Bars, Italian"
"425",33265,"Ovest Cucina e Vineria","Toronto","ON","M5V 1N6",43.6434,-79.406627,"1","Bars, Wine Bars, Nightlife, Italian, Restaurants"
"426",148161,"La Casa","Pittsburgh","PA","15232",40.457861,-79.9280308,"0","Basque, Nightlife, Restaurants, Bars, Tapas Bars, Spanish, Wine Bars"
"427",132337,"Atomic Liquors","Las Vegas","NV","89101",36.1667913,-115.1355082,"1","Beer Bar, Dive Bars, Cocktail Bars, Wine Bars, Bars, Nightlife, Pubs, Food, Beer, Wine & Spirits"
"428",148037,"Cafe Bricco","Fairlawn","OH","44333",41.130044,-81.615561,"1","American (New), Bars, Breakfast & Brunch, Nightlife, Venues & Event Spaces, Wine Bars, Restaurants, Event Planning & Services"
"429",41317,"Re:bar","Cleveland","OH","44115",41.4985717391,-81.6853002459,"1","Wine Bars, Bars, Nightlife, Cocktail Bars, Beer Bar"
"430",168055,"55 Degrees","Las Vegas","NV","89119",36.0912617,-115.1742471,"0","Nightlife, Wine Bars, Bars"
"431",89334,"The Capital Grille","Scottsdale","AZ","85254",33.6371089,-111.92407,"1","Steakhouses, Wine Bars, Nightlife, Restaurants, American (Traditional), Seafood, Bars"
"432",144308,"Vino Volo","Pittsburgh","PA","15231",40.4957464411,-80.2562058717,"1","Wine Bars, Nightlife, Bars"
"433",110456,"The Fairmount","Cleveland Heights","OH","44106",41.5008841,-81.5926564,"1","Nightlife, Cocktail Bars, Bars, Wine Bars, Restaurants, American (New)"
"434",132205,"Corks Playhouse Square","Cleveland","OH","44115",41.5010719299,-81.6813812256,"0","Nightlife, Bars, Wine Bars, Restaurants, Specialty Food, Tapas/Small Plates, Food"
"435",2951,"Biff's Bistro","Toronto","ON","M5E 1G4",43.6476052,-79.3766496,"1","Wine Bars, French, Restaurants, Bars, Food, Beer, Wine & Spirits, Nightlife"
"436",12703,"Nottinghams Pub & Restaurant","Calgary","AB","T3B 5K1",51.1165594348,-114.2045701508,"1","Nightlife, Wine Bars, Food, Beer, Wine & Spirits, Pubs, American (Traditional), Restaurants, Burgers, Bars"
"437",94486,"Nuit Social","Toronto","ON","M6J 1J5",43.6429593,-79.4254188,"1","Diners, Restaurants, Wine Bars, Nightlife, Canadian (New), Cocktail Bars, Modern European, Bars, French"
"438",102399,"Tomaso's When in Rome","Scottsdale","AZ","85255",33.701525,-111.924798,"1","Desserts, Food, Restaurants, Wine Bars, Italian, Bars, Nightlife"
"439",92137,"Bistro D'antonio","Waxhaw","NC","28173",34.937832,-80.7504118,"1","Nightlife, Lounges, Restaurants, Italian, Wine Bars, Breakfast & Brunch, Bars"
"440",164820,"Cowboy Steak Chicken Ribs","Cornelius","NC","28031",35.458582,-80.86835,"1","Nightlife, Bars, Wine Bars, Steakhouses, Barbeque, American (Traditional), Restaurants"
"441",136171,"Magdalena","Montréal","QC","H4C 1R3",45.4778791,-73.5844922,"0","Wine Bars, Bars, Nightlife"
"442",189799,"La Folie","Saint-Sauveur","QC","J0R 1R0",45.8945026,-74.1578531,"1","Wine Bars, Restaurants, Comfort Food, Italian, Nightlife, Bars"
"443",76630,"The Glass House","Charlotte","NC","28209",35.1746489,-80.8397621,"0","Bars, Cocktail Bars, Wine Bars, Local Flavor, Nightlife"
"444",61096,"Grape Water Wine Bar","Middleton","WI","53562",43.095618,-89.511224,"1","Nightlife, Wine Bars, Bars"
"445",151576,"Buvette Chez Simone","Montréal","QC","H2V 4E7",45.5188216,-73.5935031,"1","Bars, Wine Bars, Restaurants, Tapas/Small Plates, American (New), Nightlife"
"446",147836,"Papa Paul's Brick Oven Pizza & Pasta","Litchfield Park","AZ","85340",33.4944106962,-112.3583637864,"1","Pizza, Wine Bars, Nightlife, Restaurants, Italian, Food, Specialty Food, Bars, Pasta Shops"
"447",124553,"Eno Vino Wine Bar & Bistro","Madison","WI","53717",43.073189,-89.525189,"1","Tapas/Small Plates, Wine Bars, Bars, Nightlife, Restaurants, American (New)"
"448",120566,"Grapes","Scottsdale","AZ","85260",33.581506,-111.92342,"0","Arts & Entertainment, Bars, Wine Bars, Restaurants, Food, Wineries, Nightlife, Italian"
"449",176064,"Va Bene Italian Restaurant - Martini & Wine Bar","Phoenix","AZ","85048",33.304026,-111.980951,"1","Italian, Food, Wine Bars, Bars, Restaurants, Nightlife, Beer, Wine & Spirits"
"450",168254,"Dolce Vita Wine Bar","Charlotte","NC","28205",35.247357,-80.8056579,"0","Beer, Wine & Spirits, Cocktail Bars, Wine Bars, Pizza, Food, Restaurants, Bars, Nightlife"
"451",59725,"Chart House","Scottsdale","AZ","85258",33.5508893717,-111.9239916513,"1","Event Planning & Services, Restaurants, Venues & Event Spaces, American (Traditional), Seafood, Nightlife, Bars, Steakhouses, Wine Bars"
"452",175407,"AZ Wine Co","Carefree","AZ","85377",33.8241129,-111.922769,"0","Bars, Restaurants, Nightlife, Shopping, Beer, Wine & Spirits, Wine Bars, American (New), Food"
"453",24880,"Black Betty Burger & Winebar","Calgary","AB","T2P 4E2",51.0472415,-114.0653607,"0","Burgers, Restaurants, Wine Bars, Bars, Music Venues, Nightlife, Arts & Entertainment"
"454",127124,"Piccolo Restaurant","Mayfield Heights","OH","44124",41.52617,-81.438778,"1","Bars, Nightlife, Restaurants, Wine Bars, Italian"
"455",124285,"Piazza Talarico and Papa Joe's Wine Cellar","Pittsburgh","PA","15201",40.4646337,-79.9602715,"1","Restaurants, Wine Tasting Room, Wineries, Food, Pizza, Nightlife, Bars, Italian, Arts & Entertainment, Wine Bars"
"456",143589,"Jump Restaurant","Toronto","ON","M5L 1G4",43.6479063,-79.3780646,"1","Beer, Wine & Spirits, Mediterranean, Wine Bars, Bars, Food, Restaurants, American (New), Nightlife, American (Traditional), Canadian (New)"
"457",153704,"Whats Crackin Cafe","Mesa","AZ","85215",33.4659371,-111.6864275,"1","Beer Bar, Breakfast & Brunch, Barbeque, Caterers, Bars, Event Planning & Services, Nightlife, Acai Bowls, Wine Bars, Cafes, Restaurants, American (Traditional), Cocktail Bars, Food, Pubs, Coffee & Tea"
"458",81778,"Pizzaiolo Primo","Pittsburgh","PA","15222",40.440305,-80.002113,"1","Nightlife, Italian, Wine Bars, Restaurants, Bars, Pizza"
"459",128435,"The Melting Pot - Fairview Park","Fairview Park","OH","44126",41.4613978,-81.8498051,"0","Salad, Cocktail Bars, Gluten-Free, Bars, Vegetarian, Fondue, Nightlife, Wine Bars, Restaurants"
"460",36223,"FiAMMA Ristorante","Etobicoke","ON","M9C 5M1",43.6488171508,-79.6056890826,"1","Italian, Restaurants, Wine Bars, Nightlife, Pizza, Bars"
"461",15824,"Villa Dolce Cafe","Middleton","WI","53562",43.0956239944,-89.5117448783,"1","Italian, Restaurants, Nightlife, Wine Bars, Food, Bars, Pizza, Delis, Gelato"
"462",139810,"Sanctuary","Beachwood","OH","44122",41.460861,-81.492412,"1","Nightlife, Wine Bars, American (New), Restaurants, Bars"
"463",160955,"Le Chardonnay","Madison","WI","53703",43.0743689,-89.3905441,"0","Wine Bars, Restaurants, Nightlife, Bars, French"
"464",143802,"Brothers","Toronto","ON","M5R 2A7",43.6709006519,-79.3900142983,"1","Nightlife, Wine Bars, Diners, American (New), Salad, Restaurants, Bars"
"465",118019,"BLK Live","Scottsdale","AZ","85260",33.6223195182,-111.9217016614,"1","Restaurants, Arts & Entertainment, American (New), Wine Bars, Burgers, Nightlife, Bars, Music Venues, Desserts, Food"
"466",132229,"Sip Wine Bar","Toronto","ON","M4P 1T4",43.709659,-79.398488,"1","Restaurants, Wine Bars, Pizza, Arts & Entertainment, Italian, Bars, Wineries, Nightlife, Food"
"467",162852,"The Icon","Madison","WI","53703",43.0747755,-89.3884537,"1","Tapas Bars, Restaurants, Bars, Nightlife, Wine Bars"
"468",68885,"Red's","Mississauga","ON","L5B 2C9",43.593887,-79.643223,"1","Argentine, Wine Bars, American (Traditional), Event Planning & Services, Venues & Event Spaces, Restaurants, Bars, Nightlife"
"469",57742,"Bestellen","Toronto","ON","M6H 1A5",43.6535007,-79.427609,"0","Bars, Restaurants, Modern European, Cocktail Bars, Nightlife, Wine Bars"
"470",56831,"Fox & Hound","Charlotte","NC","28277",35.054213,-80.848278,"1","Restaurants, Sports Bars, Nightlife, American (New), American (Traditional), Wine Bars, Bars, Beer Bar, Burgers"
"471",39769,"Colony Café","Pittsburgh","PA","15222",40.4455105,-79.9932528,"1","Pets, Animal Shelters, Food, Wine Bars, Cafes, Coffee & Tea, Restaurants, Nightlife, Bars"
"472",92810,"Kandy Bar","Charlotte","NC","28202",35.2253792,-80.8419644,"1","Cocktail Bars, Venues & Event Spaces, Wine Bars, Desserts, Food, Nightlife, Bars, Event Planning & Services"
"473",9526,"The Capital Grille","Pittsburgh","PA","15222",40.4407195879,-80.0000391542,"1","Steakhouses, American (Traditional), Bars, Wine Bars, Seafood, Restaurants, Nightlife"
"474",49817,"Thursdays Too","Rock Hill","SC","29732",34.9578612,-81.0438182,"0","American (New), Restaurants, Wine Bars, Bars, Nightlife"
"475",187772,"Corkscrew Wine Shoppe & Bar","Huntersville","NC","28078",35.4456191,-80.8790345,"1","Wholesale Stores, Shopping, Bars, Food, Wine Bars, Nightlife, Beer, Wine & Spirits"
"476",141278,"The Maharaja","Mississauga","ON","L5R 1Y3",43.5985631,-79.6606921,"1","Lounges, Indian, Nightlife, Caterers, Restaurants, Event Planning & Services, Bars, Beer, Wine & Spirits, Pakistani, Food, Diners, Halal, Cocktail Bars, Wine Bars"
"477",19773,"Black Irish","Toronto","ON","M5A 1S5",43.6545202,-79.369416,"0","Beer, Wine & Spirits, Wine Bars, Nightlife, Restaurants, Pubs, Bars, Food"
"478",84812,"Wine Down Wine Bar","Harrisburg","NC","28075",35.326298,-80.648239,"0","Bars, Nightlife, Wine Bars, Food, Beer, Wine & Spirits"
"479",39364,"Hyde Bellagio","Las Vegas","NV","89109",36.112917,-115.175079,"1","Wine Bars, Bars, Lounges, Italian, Restaurants, Nightlife, Dance Clubs"
"480",132972,"Alchemy Restaurant","Fountain Hills","AZ","85268",33.6054232549,-111.763081195,"0","Restaurants, Bars, Wine Bars, Nightlife, American (New)"
"481",133713,"The Vintage Conservatory","Toronto","ON","M5C 2H4",43.6523168,-79.3728437,"1","Arts & Entertainment, Wine Bars, Bars, Nightlife, Social Clubs"
"482",123567,"Waldo's BBQ Express","Phoenix","AZ","85020",33.574496,-112.065478,"0","Bars, Nightlife, Restaurants, Event Planning & Services, Southern, Barbeque, Wine Bars, Caterers, Sandwiches, Beer Bar"
"483",24215,"Painting & Vino - Phoenix","Phoenix","AZ","85282",33.3897576,-111.9343636,"1","Art Classes, Paint & Sip, Wine Bars, Education, Arts & Entertainment, Nightlife, Bars, Party & Event Planning, Event Planning & Services"
"484",40780,"Roman Bistro","Pittsburgh","PA","15221",40.419454,-79.850259,"1","Italian, Restaurants, Wine Bars, Nightlife, Bars"
"485",177396,"Wisconsin Union Hotel","Madison","WI","53715",43.0717653,-89.4081342,"1","Nightlife, Bars, Wine Bars, Hotels, Food, Event Planning & Services, Hotels & Travel"
"486",133534,"Alice Fazooli's","Oakville","ON","L6H 6P5",43.5102304,-79.6667038,"0","Beer, Wine & Spirits, Restaurants, Wine Bars, Italian, Nightlife, Bars, Food"
"487",118214,"Yard House","Phoenix","AZ","85050",33.6762340435,-111.9711772712,"1","American (Traditional), Asian Fusion, Bars, Steakhouses, Restaurants, Vegetarian, Beer Bar, Seafood, American (New), Cocktail Bars, Wine Bars, Nightlife"
"488",98631,"Battery Park Wine Bar","Cleveland","OH","44102",41.48711,-81.7367099,"0","Nightlife, Tapas/Small Plates, Wine Bars, Restaurants, Bars"
"489",27427,"Urban Vine","Phoenix","AZ","85006",33.4713,-112.064761,"0","Restaurants, Wine Bars, Bars, Nightlife, American (New)"
"490",130779,"Portland's Restaurant & Wine Bar","Phoenix","AZ","85003",33.4596909,-112.0743181,"0","Bars, Nightlife, Restaurants, American (New), Wine Bars"
"491",48503,"Gypsy Bistro-Wine Bar","Calgary","AB","T2P 7N2",51.0451913,-114.0655752,"0","Bars, Wine Bars, Nightlife"
"492",100449,"Restaurant Le Vieux Four","Saint-Sauveur","QC","J0R 1R0",45.8939155,-74.1578809,"1","Restaurants, Italian, Wine Bars, Nightlife, Bars"
"493",65913,"Studio Cellar","Charlotte","NC","28203",35.212368,-80.8592767,"0","Arts & Entertainment, Paint & Sip, Venues & Event Spaces, Nightlife, Wine Bars, Event Planning & Services, Bars"
"494",73719,"The Summerhill","Nobleton","ON","L0G 1T0",43.921109049,-79.6567385336,"1","Beer, Wine & Spirits, Gastropubs, Canadian (New), Restaurants, Nightlife, Wine Bars, Food, Bars, Modern European, Seafood"
"495",11117,"Taverna","Montréal","QC","H2S 1W3",45.530406,-73.604014,"1","Wine Bars, Nightlife, Bars"
"496",77400,"Dooney's Cafe","Toronto","ON","M6G 1M5",43.6622986091,-79.4247616025,"0","Diners, Nightlife, Restaurants, Wine Bars, Bars, Cafes"
"497",33425,"Churrasqueira Do Sardinha","Toronto","ON","M6G 1C2",43.6551038,-79.4181254,"1","Restaurants, Food, Nightlife, French, Wine Bars, Portuguese, Bars"
"498",181532,"Lotus of Siam","Las Vegas","NV","89119",36.1151541,-115.1497063,"1","Restaurants, Thai, Bars, Seafood, Nightlife, Wine Bars"
"499",77898,"Langolino Wine Bar & Grill","Toronto","ON","M6G 2Y3",43.6555203,-79.4141069,"0","Restaurants, Wine Bars, Nightlife, Bars, Italian"
"500",51200,"The Gallery","Charlotte","NC","28203",35.220037,-80.856953,"0","Restaurants, Wine Bars, Bars, Bakeries, Art Galleries, Shopping, Nightlife, Beer, Wine & Spirits, Arts & Entertainment, Food"
"501",167275,"On the Roxx Ballantyne","Charlotte","NC","28277",35.0558229,-80.853652,"0","Sports Bars, Lounges, Wine Bars, Nightlife, Bars, Local Services, Local Flavor"
"502",109939,"The Attic Ale House","Phoenix","AZ","85018",33.494594,-111.9893939,"1","Restaurants, Nightlife, American (New), Pizza, Burgers, Pubs, Wine Bars, Beer Gardens, Gastropubs, Bars"
"503",87158,"Napoleon's Piano Bar","Las Vegas","NV","89109",36.112523549,-115.1710697806,"1","Bars, Wine Bars, Lounges, Nightlife"
"504",11402,"MWC Bistro","Gilbert","AZ","85233",33.3359143,-111.8212783,"0","Tapas/Small Plates, American (Traditional), Tapas Bars, Wine Bars, Gluten-Free, Gastropubs, Lounges, Bars, Restaurants, American (New), Nightlife"
"505",74092,"Sushi Moto","North York","ON","M2N 5N6",43.763983,-79.41138,"1","Nightlife, Wine Bars, Restaurants, Bars, Japanese, Sushi Bars"
"506",12267,"Piatto Bistro","Mississauga","ON","L5C 1E6",43.5443025,-79.6548155,"1","Bars, Nightlife, Restaurants, Wine Bars, Italian, Seafood"
"507",118837,"Furco","Montréal","QC","H3A 2E4",45.5059904,-73.5691448,"1","Nightlife, Bars, Wine Bars"
"508",97009,"Ristorante Primo & Secondo","Montréal","QC","H2S 3B6",45.5344434,-73.6154682,"1","Italian, Restaurants, Wine Bars, Bars, Nightlife"
"509",27215,"Paragon Wines+ Martinis + Plates","Euclid","OH","44123",41.6085901634,-81.5282380727,"1","Restaurants, Nightlife, Wine Bars, Bars, American (New)"
"510",86317,"Humble Wine Bar","Lakewood","OH","44107",41.4850751,-81.803588,"1","Desserts, Restaurants, Food, Vegan, Bars, Pizza, Nightlife, Lounges, Tapas/Small Plates, Wine Bars"
"511",72929,"Foxcroft Wine Co - Dilworth","Charlotte","NC","28203",35.202596,-80.845205,"1","Nightlife, Food, Bars, Restaurants, Tapas/Small Plates, Beer Bar, Beer, Wine & Spirits, American (New), Wine Bars, Desserts"
"512",9122,"Veranda Restaurant & Wine Bar","Fitchburg","WI","53711",43.006191,-89.426755,"0","Nightlife, Restaurants, Mediterranean, Bars, Wine Bars"
"513",6206,"Toast! Kitchen & Wine Bar","Pittsburgh","PA","15224",40.4552521,-79.9435851,"0","Nightlife, Wine Bars, Restaurants, American (New), Bars"
"514",140461,"Modern Grove Views","Scottsdale","AZ","85256",33.5556735,-111.8769802,"1","Gastropubs, Nightlife, Bars, Event Planning & Services, Wine Bars, Sandwiches, Pizza, Breakfast & Brunch, American (Traditional), American (New), Restaurants, Venues & Event Spaces, Cocktail Bars"
"515",120627,"Yard House","Las Vegas","NV","89135",36.1567959455,-115.3343868256,"1","Food, American (Traditional), Vegetarian, Nightlife, Beer Bar, American (New), Wine Bars, Restaurants, Cocktail Bars, Asian Fusion, Beer, Wine & Spirits, Seafood, Bars, Steakhouses"
"516",127118,"Uncorked Wine Lounge & Eatery","Scottsdale","AZ","85255",33.6404376434,-111.9244784423,"1","Bars, American (Traditional), Restaurants, Wine Bars, Nightlife, Tapas Bars"
"517",10054,"Aridus Wine Company Tasting Room","Scottsdale","AZ","85251",33.4928431,-111.9267253,"1","Bars, Hotels & Travel, Tours, Arts & Entertainment, Wine Tours, Wineries, Nightlife, Food, Wine Bars"
"518",178902,"The Market Cafe and Wine Bar","Cleveland","OH","44114",41.5019217,-81.6868785,"1","Wine Bars, Nightlife, Restaurants, Bars, American (Traditional)"
"519",5235,"The Capital Grille","Charlotte","NC","28202",35.2283137726,-80.8419989013,"1","Steakhouses, Seafood, Bars, American (Traditional), Restaurants, Wine Bars, Nightlife"
"520",82548,"Boxcar Social","Toronto","ON","M5H 0B4",43.6505116953,-79.3822063878,"1","Bars, Food, Whiskey Bars, Coffee & Tea, Nightlife, Wine Bars"
"521",76998,"Les Deux Gamins","Montréal","QC","H2X 1B7",45.515472,-73.570962,"1","Restaurants, Bars, Cafes, Wine Bars, French, Nightlife"
"522",182325,"The Charcoal Room","Las Vegas","NV","89130",36.2505580649,-115.2440329054,"1","Restaurants, Mexican, Active Life, Bowling, Arts & Entertainment, Seafood, Hotels & Travel, Wine Bars, Casinos, Event Planning & Services, Bars, Steakhouses, Breakfast & Brunch, Hotels, Nightlife"
"523",6244,"The Summit","Pittsburgh","PA","15211",40.4307117137,-80.0074910503,"1","Bars, Restaurants, American (New), Lounges, Cocktail Bars, Wine Bars, Nightlife, Pubs"
"524",48849,"Posticino Ristorante","Etobicoke","ON","M8Z 1M8",43.6259053,-79.5035941,"1","Wine Bars, Bars, Restaurants, Nightlife, Italian"
"525",183265,"Corleone's Ristorante & Bar","Parma","OH","44134",41.4081300284,-81.6906800866,"1","Wine Bars, Pizza, Nightlife, Italian, Bars, Restaurants, Seafood"
"526",105697,"Monterey Bay Fish Grotto","Pittsburgh","PA","15211",40.439059,-80.021242,"1","Cocktail Bars, Wine Bars, Nightlife, Seafood, Bars, Restaurants"
"527",27817,"The Cork and Cask","Cornelius","NC","28031",35.458256,-80.867458,"1","Tapas/Small Plates, Beer, Wine & Spirits, Bars, Pubs, Food, Beer Bar, Restaurants, Wine Bars, Nightlife, Breweries, Beer Gardens"
"528",112621,"Cheuvront","Phoenix","AZ","85004",33.4633319,-112.0741467,"0","American (New), Bars, Restaurants, Wine Bars, Cheese Shops, Specialty Food, Food, Nightlife"
"529",83639,"Lola","Cleveland","OH","44115",41.4987935,-81.6902577,"1","American (New), Bars, Nightlife, Wine Bars, Restaurants"
"530",136754,"Alizé","Las Vegas","NV","89103",36.1144756162,-115.1948296933,"0","Nightlife, French, Wine Bars, Desserts, Bars, Food, Restaurants"
"531",17812,"Harris Grill","Pittsburgh","PA","15232",40.4559632,-79.9313287,"1","Wine Bars, Diners, Burgers, Bars, Restaurants, Pubs, Seafood, Nightlife, Lounges, American (Traditional)"
"532",86113,"Crust","Scottsdale","AZ","85250",33.5381018,-111.9085143,"0","Bars, Italian, Event Planning & Services, Cafes, Caterers, Pizza, Nightlife, Wine Bars, Restaurants"
"533",175448,"The Whining Pig - Gilbert","Gilbert","AZ","85295",33.304851,-111.756208,"1","Pubs, Restaurants, Sandwiches, Nightlife, Lounges, Desserts, Food, Wine Bars, Beer Bar, Bars"
"534",85823,"Secret Cellar","Kent","OH","44240",41.1535164,-81.356653,"0","Nightlife, Wine Bars, Jazz & Blues, Arts & Entertainment, Bars"
"535",183956,"Partage","Las Vegas","NV","89102",36.1261759,-115.1909378,"1","French, Bars, Wine Bars, Nightlife, Restaurants, Cocktail Bars"
"536",36003,"Larry's","Montréal","QC","H2T 1S4",45.5241749508,-73.594631095,"1","Bars, Restaurants, Breakfast & Brunch, Nightlife, Wine Bars, Cafes"
"537",176631,"Kings Beer & Wine","Phoenix","AZ","85004",33.4792377,-112.0732583,"1","Nightlife, Food, Beer, Wine & Spirits, Convenience Stores, Bars, Beer Bar, Wine Bars"
"538",84771,"Fine's Cellar","Scottsdale","AZ","85251",33.497568,-111.929223,"0","Bars, Diners, Nightlife, Wine Bars, Shopping, American (New), Sandwiches, Restaurants"
"539",155633,"The Capital Grille","Las Vegas","NV","89109",36.1276483735,-115.1683280326,"1","American (New), Nightlife, American (Traditional), Brazilian, Restaurants, Steakhouses, Seafood, Wine Bars, Bars"
"540",112305,"Cadet","Montréal","QC","H2X 2S8",45.510394,-73.564563,"1","Canadian (New), Bars, Nightlife, Restaurants, Wine Bars"
"541",30289,"First & Vine","Airdrie","AB","T4B 0R4",51.2928718,-114.0114151,"1","Restaurants, Bars, Nightlife, Canadian (New), Wine Bars"
"542",117619,"Romano's Macaroni Grill","Las Vegas","NV","89102",36.144605,-115.174916,"0","Italian, Wine Bars, Nightlife, Restaurants, Bars"
"543",171038,"Javelina Wine Tours","Phoenix","AZ","85014",33.506057,-112.0477991,"0","Wine Tours, Wine Bars, Tours, Hotels & Travel, Party & Event Planning, Bars, Event Planning & Services, Nightlife"
"544",150264,"Grape Street","Las Vegas","NV","89128",36.19518,-115.2573615,"0","Italian, Food, Wine Bars, Nightlife, Restaurants, Beer, Wine & Spirits, Bars, Pizza, American (New)"
"545",191386,"Sienna On The Square","Pittsburgh","PA","15222",40.4411661898,-80.0022912025,"1","Bars, Restaurants, Italian, Nightlife, Wine Bars"
"546",5478,"Cluny Bistro & Boulangerie","Toronto","ON","M5A 3C4",43.6505879,-79.3578962,"1","Nightlife, Restaurants, Bars, Wine Bars, Cocktail Bars, French"
"547",47856,"Paint Cabin","Toronto","ON","M4M 1Y5",43.6663445,-79.3477635,"1","Restaurants, Cafes, Wine Bars, Venues & Event Spaces, Lounges, Bars, Nightlife, Event Planning & Services, Food, Art Classes, Social Clubs, Arts & Entertainment, Coffee & Tea, Education"
"548",28142,"TŪK Urban Kafé","Phoenix","AZ","85048",33.303365,-111.9748621,"1","Bars, Nightlife, Cafes, Wine Bars, Restaurants, Breakfast & Brunch"
"549",167898,"Wine Bar Rocky River","Rocky River","OH","44116",41.480701,-81.840076,"1","Tapas/Small Plates, Restaurants, American (New), Bars, Wine Bars, Nightlife"
"550",66518,"Carens Wine and Cheese Bar","Toronto","ON","M5R 1A8",43.6698978,-79.3933731,"0","French, Wine Bars, Bars, Restaurants, Nightlife"
"551",43818,"Upper Crust Pizza Midtown","Phoenix","AZ","85016",33.4800312,-112.0283414,"0","Nightlife, Wine Bars, Pizza, Restaurants, Bars, Italian"
"552",182089,"Lotus of Siam","Las Vegas","NV","89104",36.1436636,-115.1418906,"0","Car Dealers, Nightlife, Automotive, Buffets, Wine Bars, Bars, Thai, Restaurants, Seafood"
"553",182796,"Arbar","Toronto","ON","M5V 4A7",43.6400317077,-79.397213012,"1","Nightlife, Canadian (New), Bars, Wine Bars, Restaurants"
"554",126101,"Arrabiata's Italian Restaurant","Bay Village","OH","44140",41.478687,-81.921482,"1","Italian, Bars, Nightlife, Restaurants, Wine Bars, Seafood"
"555",96127,"Taste","Cleveland Heights","OH","44118",41.4966561,-81.5648135,"1","Salad, Restaurants, Wine Bars, Italian, Nightlife, Bars, American (New)"
"556",55731,"Molinari's","Mentor","OH","44060",41.67344,-81.321784,"1","Wine Bars, Bars, Venues & Event Spaces, Nightlife, Party & Event Planning, Event Planning & Services, Diners, Pizza, Italian, Restaurants"
"557",82986,"Prosecco Fresh Italian Kitchen","Las Vegas","NV","89123",36.0282323,-115.1149365,"1","Wine Bars, Nightlife, Bars, Italian, Restaurants, Pizza"
"558",80874,"ParkerHouse Grill & Wine Bar","Calgary","AB","T2P",51.0474769,-114.064864,"0","Nightlife, Restaurants, Canadian (New), Steakhouses, Wine Bars, Seafood, Food, Bars, American (New)"
"559",179699,"Fleming's Prime Steakhouse - Scottsdale","Scottsdale","AZ","85255",33.674238,-111.889288,"1","Bars, Restaurants, Nightlife, Wine Bars, Steakhouses, Seafood"
"560",33125,"Vintner Wine Market","Charlotte","NC","28277",35.0960065,-80.7801381,"1","Food, Bars, Arts & Entertainment, Wineries, Beer, Wine & Spirits, Nightlife, Wine Bars"
"561",186556,"Boralia","Toronto","ON","M6J 2Y9",43.6455612,-79.4192029,"1","Nightlife, Food, Bars, Desserts, Wine Bars, Restaurants, Canadian (New)"
"562",136375,"Market Street Kitchen","Scottsdale","AZ","85255",33.6748775,-111.888578,"0","Wine Bars, Bars, Nightlife, American (New), Chicken Shop, Seafood, American (Traditional), Steakhouses, Restaurants, Southern, Cocktail Bars"
"563",96948,"Toro Wine bar","Toronto","ON","M6K 1T8",43.6500123,-79.434764,"0","Bars, Wine Bars, Nightlife, Steakhouses, Restaurants, Seafood, Tapas Bars"
"564",109273,"Merchant Street","Cleveland","OH","44113",41.479394,-81.6890041,"0","Food, Italian, Salad, Wine Bars, French, Fruits & Veggies, Specialty Food, Nightlife, Sandwiches, Gluten-Free, Vegan, Restaurants, Mediterranean, Bars"
"565",190413,"The Living Room Wine Café & Lounge","Phoenix","AZ","85044",33.317289,-111.9777108,"1","Restaurants, Bars, Wine Bars, American (New), Lounges, Breakfast & Brunch, Nightlife, Cafes"
"566",161710,"Sidebar","Las Vegas","NV","89101",36.1718303,-115.1420069,"0","Lounges, Wine Bars, Bars, Nightlife"
"567",94067,"Olive Garden Italian Restaurant","Mesa","AZ","85202",33.3926188,-111.8590477,"1","Restaurants, Italian, Wine Bars, Bars, Nightlife, Salad"
"568",65178,"Ombretta Cucina +Vino","Mississauga","ON","L5H 2E3",43.5495291144,-79.5877363533,"1","Restaurants, Wine Bars, Nightlife, Bars, Italian"
"569",10600,"The Wine Loft","Pittsburgh","PA","15203",40.4278642,-79.964244,"0","Arts & Entertainment, Food, Bars, Nightlife, Wineries, Wine Bars"
"570",47067,"Mad Jack's Grill & Pub","Aurora","OH","44202",41.3116339,-81.3461536,"1","American (New), Restaurants, Bars, Nightlife, Diners, Wine Bars"
"571",187026,"Grape & Barley","Gastonia","NC","28054",35.2255158,-81.1336984,"1","Food, Wine Bars, Nightlife, Beer, Wine & Spirits, Bars"
"572",172026,"Mimi's Cafe","Phoenix","AZ","85050",33.6779165873,-111.9768567545,"1","Restaurants, American (Traditional), Nightlife, Breakfast & Brunch, Wine Bars, Bars"
"573",148556,"Enoteca Monza","Montréal","QC","H3B 2Y4",45.501895,-73.570401,"1","Pizza, Italian, Wine Bars, Restaurants, Bars, Nightlife"
"574",143159,"Grape Vine Cafe","Las Vegas","NV","89128",36.1945947597,-115.2587036032,"1","Restaurants, Nightlife, Italian, Bars, Mediterranean, Wine Bars"
"575",133485,"Pacino's Italian","Mesa","AZ","85215",33.4668525,-111.6825913,"1","Nightlife, Restaurants, Italian, Pizza, Wine Bars, Bars"
"576",178151,"Olive Garden Italian Restaurant","Madison","WI","53704",43.1263408,-89.3093134,"1","Italian, Restaurants, Salad, Wine Bars, Nightlife, Bars"
"577",189614,"Satara","Peoria","AZ","85382",33.6353549,-112.2350274,"0","Nightlife, Restaurants, Thai, Wine Bars, Bars"
"578",41977,"Charlotte Cigar Club","Charlotte","NC","28202",35.2209029582,-80.8508539572,"1","Wine Bars, Cigar Bars, Nightlife, Local Flavor, Shopping, Sports Bars, Tobacco Shops, Bars"
"579",136252,"Paris Paris","Toronto","ON","M6J 1X4",43.6492577,-79.4214691,"1","Canadian (New), French, Restaurants, Nightlife, Wine Bars, Bars"
"580",42019,"Darcy's Ristorante","Scottsdale","AZ","85262",33.7278881,-111.8537378,"1","Italian, Bars, Restaurants, Wine Bars, Nightlife"
"581",190584,"Timo Wine Bar","Phoenix","AZ","85020",33.5646202,-112.073585,"1","Wine Bars, Nightlife, Tapas/Small Plates, Bars, Restaurants, American (New), Breakfast & Brunch, Pizza"
"582",183176,"Double Helix Wine & Whiskey Bar","Las Vegas","NV","89109",36.1240615,-115.167872,"0","Beer, Wine & Spirits, Whiskey Bars, Nightlife, Wine Bars, Food, Bars"
"583",105256,"Andrea Restaurant","Lachine","QC","H8S 2P4",45.4339167,-73.6919063,"1","Wine Bars, Restaurants, Italian, Nightlife, Canadian (New), Bars"
"584",174075,"Petrossian Bar","Las Vegas","NV","89109",36.1128473337,-115.1758146286,"1","Food, Delis, Pubs, Restaurants, Coffee & Tea, Nightlife, Music Venues, Tea Rooms, French, Wine Bars, Lounges, Arts & Entertainment, Bars"
"585",58077,"Aria Bistro & Lounge","Brampton","ON","L6X 1N8",43.6976062,-79.7761963,"1","Party & Event Planning, Italian, Bars, Local Services, Wine Bars, Event Planning & Services, Canadian (New), Bistros, Recording & Rehearsal Studios, Venues & Event Spaces, Jazz & Blues, Restaurants, Lounges, Arts & Entertainment, Nightlife"
"586",57722,"Grapevine","Fort Mill","SC","29708",35.027245,-80.9692141,"1","Wine Bars, Beer, Wine & Spirits, Food, Nightlife, Bars"
"587",162162,"Café le Petit Flore","Montréal","QC","H2C 1P9",45.5586307,-73.659089,"1","Cafes, Nightlife, Restaurants, Wine Bars, Bars, French"
"588",117884,"Carino Japanese Bistro + Wine","Calgary","AB","T2E 3J5",51.0585339,-114.0546608,"0","Wine Bars, Japanese, Italian, Bars, Nightlife, Restaurants"
"589",35744,"Joes Seafood Prime Steak & Stone Crab","Las Vegas","NV","89109",36.1189331996,-115.1737519444,"1","Steakhouses, Nightlife, Seafood, Restaurants, Bars, Wine Bars"
"590",170907,"The Grape at Northlake Mall","Charlotte","NC","28216",35.3530844,-80.8550431,"0","Nightlife, Wine Bars, Bars, Beer, Wine & Spirits, Restaurants, Food, Tapas Bars"
"591",76960,"Sidebar","Las Vegas","NV","89101",36.1718195,-115.1423178,"1","Lounges, Bars, Nightlife, Beer Bar, Wine Bars"
"592",65483,"Halo","Calgary","AB","T2J 7A4",50.9414743,-114.0687253,"0","Bars, Lounges, Nightlife, Wine Bars, Restaurants, Seafood, Steakhouses"
"593",91954,"District American Kitchen and Wine Bar","Phoenix","AZ","85004",33.4517463,-112.0702494,"1","Bars, Wine Bars, American (New), Restaurants, Nightlife"
"594",187774,"Twenty-Two","Charlotte","NC","28205",35.2202136,-80.8133676,"0","Art Galleries, Wine Bars, Nightlife, Shopping, Lounges, Bars, Arts & Entertainment"
"595",132670,"Indian Street Food Company","Toronto","ON","M4G 3C1",43.708002,-79.375814,"1","Indian, Bars, Nightlife, Wine Bars, Restaurants"
"596",93896,"Cafe Piccolo","Avon","OH","44011",41.4579754,-82.0113766,"1","Wine Bars, Bars, Nightlife, Italian, Buffets, Restaurants"
"597",2725,"Postino Highland","Scottsdale","AZ","85251",33.5066042,-111.9257002,"1","Breakfast & Brunch, Bars, Restaurants, Italian, Nightlife, Wine Bars"
"598",134818,"SO Lounge","Glendale","AZ","85304",33.584254,-112.186859,"0","Lounges, Wine Bars, Cocktail Bars, Bars, Nightlife"
"599",109448,"KB","Whitby","ON","L1N 4H2",43.8803171,-78.9424631,"1","Nightlife, Canadian (New), Wine Bars, Gluten-Free, Local Flavor, Bars, Restaurants, Diners, Gastropubs, Vegetarian"
"600",83660,"Cafe Notte","Emsworth","PA","15202",40.5096442,-80.0916677,"1","Restaurants, Nightlife, American (New), Bars, Wine Bars, Italian"
"601",171586,"Rush Espresso Cafe and Wine Bar","Charlotte","NC","28277",35.054163,-80.8519884,"1","Coffee & Tea, Bars, Internet Cafes, Cafes, Wine Bars, Breakfast & Brunch, Nightlife, Restaurants, Food"
"602",96582,"Wynona","Toronto","ON","M4M 1Y8",43.6670876,-79.3446258,"1","Restaurants, Wine Bars, Bars, Italian, Nightlife, Mediterranean"
"603",187638,"Metropolitan Coffee and Wine","Madison","WI","53703",43.0737205,-89.3919743,"0","Wine Bars, Bars, Restaurants, Nightlife, Cafes, Food, Coffee & Tea"
"604",31241,"Ole Ole","Toronto","ON","M5A 1J4",43.6505004,-79.371493,"0","Restaurants, Nightlife, Mexican, Wine Bars, Bars, Spanish, Tapas/Small Plates"
"605",140713,"Nota Bene","Toronto","ON","M5V 3X3",43.6507852,-79.3880479,"1","American (New), Wine Bars, Diners, Nightlife, Canadian (New), Restaurants, Bars"
"606",16031,"Lake Norman Cottage","Davidson","NC","28036",35.5059572,-80.8673773,"1","Wine Bars, Food, Restaurants, Nightlife, Beer, Wine & Spirits, Tapas/Small Plates, Bars"
"607",38842,"Diana's Oyster Bar And Grill","Markham","ON","L3R 2W1",43.8266613316,-79.3507739156,"1","Wine Bars, Nightlife, American (Traditional), Seafood, Bars, Restaurants"
"608",46900,"Bobby Hendrix Restaurant & Lounge","Pittsburgh","PA","15203",40.428796,-79.976795,"0","Bars, Beer, Wine & Spirits, Wine Bars, Restaurants, Chicken Wings, Lounges, Food, Nightlife, Burgers"
"609",15312,"Bar Frenchman","Pittsburgh","PA","15206",40.4605376,-79.9270228,"0","French, Brasseries, Wine Bars, Nightlife, Bars, Restaurants, Cocktail Bars"
"610",160689,"Upper Crust Pizza Patio & Wine Bar","Phoenix","AZ","85024",33.6710684743,-112.0301896334,"1","Bars, Pizza, Sports Bars, Wine Bars, Beer, Wine & Spirits, Restaurants, Italian, Nightlife, Food"
"611",167200,"GWIN Wine and Beer","Scottsdale","AZ","85260",33.5839855649,-111.9231343685,"1","Lounges, Beer Bar, Nightlife, Bars, Wine Bars"
"612",143698,"PZA Parlour","Calgary","AB","T2J 0P6",50.9671898505,-114.0725518351,"1","Pizza, Food Delivery Services, Wine Bars, Bars, Food, Italian, Nightlife, Restaurants"
"613",175156,"Saint-Houblon","Montréal","QC","H3T 1X5",45.4975393,-73.6230179,"1","Brewpubs, Breweries, Nightlife, Food, Bars, Cocktail Bars, Restaurants, Pubs, Wine Bars, Brasseries"
"614",92131,"Le Gourmand","Pointe-Claire","QC","H9S 4P8",45.42924,-73.825997,"1","Restaurants, Wine Bars, Cantonese, French, Bars, Chinese, Nightlife"
"615",136906,"Postino Central","Phoenix","AZ","85012",33.5126623,-112.0740684,"1","Breakfast & Brunch, Restaurants, Italian, Bars, Nightlife, Wine Bars"
"616",135153,"Prime Rib Loft","Las Vegas","NV","89103",36.1025498,-115.2016926,"1","Seafood, Wine Bars, Restaurants, Bars, Nightlife, Steakhouses"
"617",25071,"Olive Garden Italian Restaurant","Bethel Park","PA","15102",40.347895,-80.05019,"1","Restaurants, Wine Bars, Italian, Bars, Salad, Nightlife"
"618",122782,"My Wine Cellar","Ahwatukee","AZ","85044",33.3339455,-111.977862,"1","Tapas/Small Plates, Restaurants, Beer, Wine & Spirits, Wine Bars, Breakfast & Brunch, Gastropubs, Bars, Food, Nightlife"
"619",1486,"Vin Room Mission","Calgary","AB","T2S 1X2",51.0319388,-114.071189,"1","Restaurants, Bars, Nightlife, American (Traditional), Tapas Bars, Wine Bars"
"620",86277,"Jade Bar","Paradise Valley","AZ","85253",33.5220578,-111.9592241,"1","Bars, Wine Bars, Nightlife, Beer Bar, Lounges, Cocktail Bars"
"621",134355,"Fleming's Prime Steakhouse & Wine Bar- Akron","Akron","OH","44333",41.1353804,-81.6430213,"1","Wine Bars, Steakhouses, Bars, Nightlife, Seafood, Restaurants"
"622",166869,"Divine Cafe at the Springs Preserve","Las Vegas","NV","89152",36.1707064994,-115.1902884807,"1","Restaurants, Cafes, American (New), Nightlife, Bars, Breakfast & Brunch, Wine Bars"
"623",70824,"BRiX Wood Fired Wine Bar","Pittsburgh","PA","15233",40.4520115,-80.0167069,"0","Bars, Nightlife, Wine Bars"
"624",130316,"SouthPark Grill","Charlotte","NC","28209",35.1546655668,-80.8375291311,"1","Nightlife, Cocktail Bars, Restaurants, Steakhouses, American (New), Beer, Wine & Spirits, American (Traditional), Wine Bars, Bars, Food, Breakfast & Brunch"
"625",29383,"Miller Tavern","North York","ON","M4N 2P2",43.7407705874,-79.40574646,"1","Steakhouses, Bars, Nightlife, Seafood, Restaurants, Gastropubs, Wine Bars"
"626",165539,"Reds Midtown Tavern","Toronto","ON","M5B 1S8",43.6592409,-79.38286,"1","Restaurants, American (Traditional), Bars, Canadian (New), Event Planning & Services, Seafood, Argentine, Wine Bars, Nightlife, Breakfast & Brunch, Venues & Event Spaces"
"627",36467,"The Speakeasy on Easy Street","Carefree","AZ","85377",33.824072,-111.9226583,"0","Performing Arts, Wine Bars, Speakeasies, Jazz & Blues, Arts & Entertainment, Bars, Restaurants, Nightlife, Italian"
"628",171339,"Press Wine Bar","Cleveland","OH","44113",41.481905,-81.686666,"0","Wine Bars, Nightlife, Bars, Restaurants, American (New)"
"629",153629,"The Living Room","Scottsdale","AZ","85258",33.5670464,-111.9254673,"1","Lounges, American (New), Wine Bars, Bars, Restaurants, Nightlife"
"630",18205,"Rendezvous Wine & Dine","Las Vegas","NV","89102",36.1426633941,-115.2094890922,"1","Restaurants, Bars, Wine Bars, Greek, American (New), Nightlife, Sports Bars, Filipino"
"631",68708,"GenuWine Arizona","Phoenix","AZ","85003",33.4584206,-112.0751448,"1","Food, Wine Bars, Bars, Beer Bar, Beer, Wine & Spirits, Nightlife"
"632",158866,"La Capannina Restaurant","Brampton","ON","L6X 1R3",43.6854103,-79.7622206,"1","Restaurants, Bars, Buffets, Nightlife, Italian, Wine Bars"
"633",121523,"The Nosh Restaurant & Bar","Glendale","AZ","85308",33.6668156,-112.2017444,"0","Wine Bars, Bars, Italian, Restaurants, American (Traditional), Seafood, Cocktail Bars, Tex-Mex, Nightlife"
"634",96568,"Taste of Tops","Tempe","AZ","85281",33.4214529,-111.9448434,"1","Pubs, Nightlife, Bars, Wine Bars"
"635",30340,"The Refuge Coffee & Wine","Phoenix","AZ","85034",33.4360502,-111.994973,"1","Bars, Breakfast & Brunch, Nightlife, Coffee & Tea, Food, Wine Bars, Restaurants, Cafes"
"636",32992,"Lady M Cake Boutique","Charlotte","NC","28203",35.2200187,-80.8568751,"0","Bars, Wine Bars, Custom Cakes, Nightlife, Bakeries, Desserts, Food, Coffee & Tea"
"637",14545,"SS106 Aperitivo Bar","Calgary","AB","T2E 3J6",51.0592309,-114.0541527,"1","Cocktail Bars, Italian, Bars, Vegetarian, Nightlife, Restaurants, Wine Bars, Cafes"
"638",162548,"Ciao Grazie Pizzeria Winebar","Buckeye","AZ","85396",33.4957479,-112.51259,"1","Wine Bars, Bars, Nightlife, Pizza, Italian, Restaurants"
"639",133856,"Double Helix Wine & Whiskey Lounge","Las Vegas","NV","89119",36.068132,-115.17776,"1","Wine Bars, Nightlife, American (New), Tapas/Small Plates, Bars, Tapas Bars, Cocktail Bars, Restaurants, Lounges, Whiskey Bars"
"640",123322,"Winery 101 - Peoria","Peoria","AZ","85345",33.5652551549,-112.2590739525,"1","Nightlife, Bars, Wine Bars, Beer, Wine & Spirits, Arts & Entertainment, Wineries, Wine Tasting Room, Event Planning & Services, Venues & Event Spaces, Food"
"641",149339,"Joséphine","Montréal","QC","H2W 2M4",45.5208464,-73.5755691,"1","Pubs, Bars, Restaurants, Seafood, Wine Bars, Gastropubs, Nightlife"
"642",21279,"LunaHombre","Belmont","NC","28012",35.2433859394,-81.0379342759,"1","Wine Bars, Food, Bars, Mediterranean, Nightlife, Restaurants, Beer, Wine & Spirits, Tapas/Small Plates, American (New)"
"643",168196,"Olive Garden Italian Restaurant","Tempe","AZ","85284",33.3496394,-111.9551369,"1","Restaurants, Italian, Nightlife, Bars, Salad, Wine Bars"
"644",56151,"Sauce Pizza & Wine","Scottsdale","AZ","85254",33.6175304,-111.9262592,"1","Italian, Food, Beer, Wine & Spirits, Wine Bars, Gluten-Free, Bars, Pizza, Restaurants, Nightlife"
"645",9054,"The Wine Store at Tarbells","Phoenix","AZ","85018",33.5098759,-112.0124727,"1","Wineries, Food, Bars, Arts & Entertainment, Wine Bars, Nightlife, Wine Tasting Room"
"646",19457,"Streets of New York","Phoenix","AZ","85086",33.7975712,-112.1205616,"1","Restaurants, Nightlife, Italian, Bars, Pizza, Sandwiches, Wine Bars"
"647",5376,"Firebirds Wood Fired Grill","Chandler","AZ","85226",33.3045866,-111.9006511,"1","Bars, Seafood, Nightlife, American (Traditional), Steakhouses, Restaurants, Wine Bars"
"648",133598,"Haute Coffee","Toronto","ON","M5R 1V5",43.6757247859,-79.4027011965,"1","Breakfast & Brunch, Nightlife, Food, Bagels, Restaurants, Sandwiches, Wine Bars, Coffee & Tea, Bars"
"649",160987,"Casetta Kitchen and Counter","Madison","WI","53703",43.0734362651,-89.3867407926,"1","Delis, Italian, Cocktail Bars, Breakfast & Brunch, Wine Bars, Bars, Restaurants, Nightlife, Sandwiches"
"650",98715,"Durant's","Phoenix","AZ","85004",33.4772064084,-112.0735331216,"1","Burgers, Wine Bars, Restaurants, Steakhouses, Bars, Nightlife, Diners, Seafood"
"651",31617,"McCormick & Schmick's Seafood & Steaks","Charlotte","NC","28202",35.2264373483,-80.844559595,"1","Steakhouses, Seafood, Nightlife, American (Traditional), Wine Bars, Bars, Restaurants"
"652",49943,"300 East","Charlotte","NC","28203",35.2105584,-80.8566548,"1","Breakfast & Brunch, Seafood, Nightlife, Wine Bars, American (New), Sandwiches, Bars, Restaurants, Pizza"
"653",145970,"Tipsy Cactus TapRoom & Bottle Shop","Mesa","AZ","85210",33.3656605,-111.8596574,"1","Food, Food Trucks, Nightlife, Wine Bars, Bars, Beer Bar, Beer, Wine & Spirits"
"654",55622,"The Living Room","Scottsdale","AZ","85255",33.674741214,-111.8880501572,"1","Cafes, Bars, Lounges, Salad, Restaurants, American (New), Wine Bars, Sandwiches, Nightlife"
"655",52384,"Tommy V's Urban Kitchen & Bar","Scottsdale","AZ","85251",33.4946691,-111.9242563,"1","Bars, Italian, Restaurants, Pizza, Wine Bars, Sandwiches, Nightlife"
"656",163755,"The Wild Vine Uncorked","Chandler","AZ","85249",33.2356339,-111.7916295,"1","Bars, Restaurants, Tapas Bars, Wine Bars, Music Venues, Arts & Entertainment, Nightlife"
"657",39513,"XO Tapas and Wine Bar","Cornelius","NC","28031",35.479529,-80.888199,"0","Wine Bars, Food, Restaurants, Nightlife, Bars, Tapas Bars"
"658",51854,"Good Cheese","Toronto","ON","M4M 1Y3",43.6658712,-79.351462,"1","Bars, Specialty Food, Nightlife, Food, Beer Bar, Cheese Shops, Wine Bars"
"659",168056,"Fanzorelli's Restaurant & Wine Bar","Brampton","ON","L6X 4H3",43.6850865,-79.7613343,"1","Italian, Nightlife, Pizza, Caterers, Restaurants, Wine Bars, Event Planning & Services, Bars, Gluten-Free"
"660",161867,"FK","Toronto","ON","M6C 1B5",43.6812824,-79.4287282,"1","Bars, Nightlife, Italian, Restaurants, French, Wine Bars, Canadian (New)"
"661",1437,"Campo Food Hall","Toronto","ON","M5V 1K4",43.6452520999,-79.3955678169,"1","Bars, Restaurants, Food Court, Spanish, Food, Wine Bars, Nightlife, Juice Bars & Smoothies"
"662",17382,"Spirits In Willoughby","Willoughby","OH","44094",41.6445228,-81.4071761,"1","Music Venues, Wineries, Restaurants, Wine Bars, Bars, Arts & Entertainment, Nightlife, Food, Beer Bar"
"663",4730,"Regency Wine Sellers & Wine Bar","Fairlawn","OH","44333",41.1332253,-81.6140431,"1","Bars, Food, Wineries, Wine Tasting Room, Beer, Wine & Spirits, Wine Bars, Arts & Entertainment, Nightlife"
"664",103805,"Provision Coffee Bar","Chandler","AZ","85286",33.2757020523,-111.7914927349,"1","Lounges, Food, Beer Bar, Coffee Roasteries, Bars, Coffee & Tea, Nightlife, Wine Bars"
"665",154569,"Threes Tap Room Wine Bar Cafe","Charlotte","NC","28202",35.228893,-80.845776,"0","Nightlife, Bars, Wine Bars, Tapas/Small Plates, Restaurants, American (New)"
"666",110165,"Roost","Pittsburgh","PA","15222",40.4401718,-80.0012482,"1","Breakfast & Brunch, American (New), Event Planning & Services, Venues & Event Spaces, Restaurants, Wine Bars, Nightlife, Bars"
"667",79112,"Su Vino Winery","Scottsdale","AZ","85251",33.4933258946,-111.9238369067,"1","Venues & Event Spaces, Nightlife, Screen Printing, Wineries, Arts & Entertainment, Event Planning & Services, Printing Services, Beer, Wine & Spirits, Bars, Contractors, Wine Bars, Food, Home Services, Local Services"
"668",42454,"Biergarten","Pittsburgh","PA","15219",40.4414480387,-79.9963676268,"1","Beer Gardens, Nightlife, Bars, Restaurants, Wine Bars"
"669",39674,"Bar C","Calgary","AB","T2S 0A3",51.0379438134,-114.0708509861,"0","Tapas/Small Plates, Restaurants, Breakfast & Brunch, Cocktail Bars, Local Flavor, Bars, Canadian (New), Nightlife, Wine Bars"
"670",46950,"Le Notre Bistro","Toronto","ON","M6G 2V9",43.6605944343,-79.4148484841,"1","Bars, French, Restaurants, Nightlife, Wine Bars"
"671",174411,"Monopole","Montréal","QC","H3C 2M8",45.4966938,-73.5555158,"1","Bars, Cafes, Wine Bars, Restaurants, Breakfast & Brunch, Nightlife"
"672",25212,"Tommy V's Osteria & Pizzeria","Phoenix","AZ","85018",33.5096729,-112.0120027,"0","Nightlife, Italian, Bars, Restaurants, Wine Bars, Pizza"
"673",67630,"Bacchus Wine And Tapas","Mooresville","NC","28117",35.5268608662,-80.865456356,"1","Tapas Bars, Restaurants, Nightlife, Bars, Tapas/Small Plates, Wine Bars, Food, Beer, Wine & Spirits"
"674",116871,"Mantua Corners Bar & Grille","Mantua","OH","44255",41.3100206,-81.2217445,"1","Restaurants, Comfort Food, Dive Bars, Bars, American (Traditional), Nightlife, Wine Bars"
"675",149069,"Maison Fou Brasserie","Toronto","ON","M6S 1N2",43.6518201,-79.4077955,"0","Brasseries, Restaurants, Bars, French, Wine Bars, Nightlife"
"676",75874,"Domani Restaurant & Wine Bar","Toronto","ON","M6R 2M8",43.649319,-79.449876,"1","Wine Bars, American (New), Italian, Nightlife, Restaurants, Bars"
"677",154141,"Olive Garden Italian Restaurant","Charlotte","NC","28216",35.3483712,-80.8546009,"1","Restaurants, Italian, Wine Bars, Bars, Salad, Nightlife"
"678",118728,"Ferraro's Italian Restaurant And Wine Bar","Las Vegas","NV","89169",36.1091983422,-115.1519553743,"1","Wine Bars, Bars, Lounges, Food, Italian, Nightlife, Restaurants"
"679",12972,"Les Cavistes","Montréal","QC","H2W 2M7",45.5213108,-73.5770728,"0","Restaurants, Nightlife, Wine Bars, Bars, Tapas/Small Plates"
"680",104385,"Local Kitchen & Winebar","Toronto","ON","M6N",43.6389877,-79.4451285,"1","Restaurants, Italian, Bars, Canadian (New), American (New), Wine Bars, Nightlife"
"681",2339,"Sauce Pizza and Wine","Phoenix","AZ","85085",33.7148264,-112.1130493,"1","Nightlife, Wine Bars, Italian, Bars, Restaurants, Pizza"
"682",124024,"Earth Indian","Toronto","ON","M2M 3W5",43.7898425,-79.4180592,"0","Indian, Restaurants, Wine Bars, Bars, Nightlife"
"683",130208,"SCADDABUSH Italian Kitchen & Bar","Toronto","ON","M5B 1S8",43.659095,-79.382915,"1","Nightlife, Restaurants, Bars, Specialty Food, Food, Italian, Beer, Wine & Spirits, Wine Bars"
"684",116066,"Fleming's Prime Steakhouse - Peoria","Peoria","AZ","85345",33.55211,-112.268533,"1","Restaurants, Steakhouses, Wine Bars, Bars, Nightlife, Seafood"
"685",5602,"M.Mme","Montréal","QC","H2T 2N8",45.5203773,-73.5947763,"1","Restaurants, Tapas/Small Plates, Nightlife, Bars, Canadian (New), Wine Bars"
"686",100034,"Olive Garden Italian Restaurant","North Olmsted","OH","44070",41.4209096,-81.9099539,"1","Bars, Italian, Nightlife, Restaurants, Wine Bars, Salad"
"687",67092,"Carnevino","Las Vegas","NV","89109",36.1248436068,-115.1686550577,"0","Nightlife, Wine Bars, Bars, Italian, Restaurants, Steakhouses"
"688",89442,"Central Wine","Phoenix","AZ","85012",33.497502,-112.0740918,"0","Restaurants, American (New), Tapas Bars, Bars, Nightlife, Wine Bars, Food, Beer, Wine & Spirits"
"689",179581,"Gigino's","Goodyear","AZ","85338",33.437291,-112.381811,"0","Nightlife, Bars, Wine Bars, Piano Bars"
"690",133768,"Salumi Vino","Montréal","QC","H2Y 1C7",45.5099721,-73.5524526,"1","Restaurants, Nightlife, Italian, Wine Bars, Bars"
"691",138751,"Left Bank Grill & Wine Bar","Toronto","ON","M5M 4A5",43.7354671,-79.4197788,"0","Nightlife, Restaurants, Italian, American (Traditional), Bars, Wine Bars, French"
"692",90265,"Milk Tiger Lounge","Calgary","AB","T2R 0Y1",51.0393417,-114.0713437,"1","Restaurants, Wine Bars, Bars, Nightlife, Gluten-Free, Lounges"
"693",14446,"Wine Up","Charlotte","NC","28205",35.2477994,-80.8040482,"0","Nightlife, Bars, Wine Bars"
"694",119649,"Ten Restaurant & Wine Bar","Mississauga","ON","L5G 1E5",43.5548611,-79.5817496,"0","Nightlife, Wine Bars, Restaurants, Bars, Gastropubs, Caterers, Event Planning & Services"
"695",130642,"Cellar 59 Wine Bar & Wine Shop","Stow","OH","44224",41.1582518,-81.4180412,"1","Bars, Nightlife, Wine Bars, Food, Beer, Wine & Spirits"
"696",37498,"Cellar 13 Wine Bar","Carefree","AZ","85377",33.8258769,-111.9244066,"0","Bars, Wine Bars, Nightlife"
"697",43153,"The Mandrake","Charlotte","NC","28202",35.228893,-80.845776,"0","Tapas Bars, Bars, Wine Bars, Tapas/Small Plates, Sushi Bars, Restaurants, Nightlife"
"698",34302,"3 Brothers Pizza","Middleburg Heights","OH","44130",41.3606048,-81.8128904,"1","American (Traditional), Beer Bar, Salad, Event Planning & Services, Caterers, Italian, Burgers, Pizza, Wine Bars, Nightlife, Restaurants, Beer, Wine & Spirits, Bars, Gluten-Free, Sandwiches, American (New), Food, Chicken Wings"
"699",146597,"Fresco's Wine Bar & European Cuisine","Wexford","PA","15090",40.6107675,-80.0568288,"0","American (New), Wine Bars, Bars, Nightlife, Restaurants"
"700",104978,"Table Wine","Madison","WI","53704",43.0920714,-89.3535202,"1","Wine Bars, Beer, Wine & Spirits, Food, Nightlife, Bars"
"701",135999,"Bella Notte Italian Bistro","Las Vegas","NV","89147",36.1082160807,-115.2781162299,"1","Nightlife, Burgers, Wine Bars, Bars, Pizza, Seafood, Italian, Restaurants"
"702",88394,"Cowell & Hubbard","Cleveland","OH","44115",41.5009140743,-81.6828721762,"1","American (New), Bars, French, Restaurants, Wine Bars, Nightlife"
"703",78404,"Olive Garden Italian Restaurant","Henderson","NV","89014",36.0714455193,-115.0772288848,"1","Restaurants, Wine Bars, Italian, Salad, Nightlife, Bars"
"704",10699,"Grapes Wine Bar","Matthews","NC","28105",35.128028,-80.702461,"0","Restaurants, Wine Bars, Food, Nightlife, Bars, Music Venues, Tapas/Small Plates, Arts & Entertainment, Specialty Food"
"705",111133,"Le Bouchonné","Montréal","QC","H2M 2T6",45.5241381,-73.5946503,"0","Wine Bars, French, Restaurants, Nightlife, Bars"
"706",100991,"Crush Wine Bar","Toronto","ON","M5V 1K4",43.6450012,-79.3960233,"0","Wine Bars, Nightlife, Bars"
"707",169084,"Cru Wine Shop","Charlotte","NC","28277",35.0704972,-80.8444723,"0","Bars, Wine Bars, Beer, Wine & Spirits, Nightlife, Food"
"708",36881,"Epicure Cafe & Grill","Toronto","ON","M5V 2B3",43.6477412,-79.4012788,"0","Nightlife, Italian, Bars, Wine Bars, American (New), Canadian (New), Restaurants"
"709",104970,"Gravity Espresso & Wine Bar","Calgary","AB","T2G 0S7",51.042326,-114.038265,"1","Wine Bars, Food, Coffee & Tea, Nightlife, Bars"
"710",166715,"La Bella Italiana","Montreal","QC","H1S 1M2",45.5858272,-73.5797516,"1","Desserts, Italian, Bars, Pizza, Nightlife, Wine Bars, Food, Restaurants, Ice Cream & Frozen Yogurt"
"711",182680,"Pinot's Palette - Charlotte","Charlotte","NC","28203",35.2084732056,-80.8609466553,"0","Art Galleries, Shopping, Nightlife, Party & Event Planning, Art Classes, Arts & Entertainment, Wine Bars, Professional Services, Paint & Sip, Education, Event Planning & Services, Bars"
"712",8538,"Via Roma","Charlotte","NC","28277",35.0490437662,-80.7671303214,"1","Desserts, Restaurants, Nightlife, Bars, Italian, Wine Bars, Food"
"713",69788,"Cafe Montmartre","Madison","WI","53703",43.0768356,-89.3833003,"0","Bars, Wine Bars, Nightlife, Food, Beer, Wine & Spirits, Music Venues, Restaurants, Arts & Entertainment"
"714",32047,"Cagneys Steakhouse & Wine Bar","Mississauga","ON","L5M 1K8",43.582603,-79.7176393,"1","Seafood, Cocktail Bars, Steakhouses, American (Traditional), Bars, Jazz & Blues, Wine Bars, Nightlife, Restaurants, Arts & Entertainment"
"715",175333,"Jo Jo Carloni's Italian Restaurant & Pizzeria","Berea","OH","44017",41.3713969,-81.8751918,"1","Sandwiches, Italian, Wine Bars, Bars, Pizza, Nightlife, Restaurants, Seafood"
"716",63766,"Anima Trattoria and Wine Bar","Toronto","ON","M8Y 1K7",43.6274318,-79.4984186,"1","Nightlife, Restaurants, Wine Bars, Italian, Bars"
"717",93221,"Firebirds Wood Fired Grill","Charlotte","NC","28211",35.1559943107,-80.8239325442,"1","Restaurants, American (Traditional), Wine Bars, Bars, Nightlife, Seafood, Steakhouses"
"718",76403,"Haus Murphy's","Glendale","AZ","85301",33.5383092,-112.1830044,"1","Restaurants, Beer Bar, Food, Bars, German, Sandwiches, Wine Bars, Nightlife, Desserts"
"719",38525,"Toscano Italian Steakhouse","Las Vegas","NV","89169",36.1186973,-115.1542695,"0","Bars, Wine Bars, Music Venues, Steakhouses, Arts & Entertainment, Italian, Piano Bars, Restaurants, Nightlife"
"720",88610,"Your Vine Or Mine","Painesville","OH","44077",41.7255335,-81.2417939,"0","Nightlife, Wine Bars, Bars"
"721",157584,"Hostile Grape","Henderson","NV","89044",35.9644522544,-115.1704252408,"1","Food, Wine Bars, Wineries, Arts & Entertainment, Nightlife, Bars"
"722",87856,"Bistro Du Lac","Scottsdale","AZ","85258",33.557186,-111.900417,"0","Nightlife, French, Bars, Restaurants, Wine Bars"
"723",184878,"The Capital Grille","Lyndhurst","OH","44124",41.502243,-81.5014604,"1","Seafood, Steakhouses, Wine Bars, Nightlife, Restaurants, American (Traditional), Bars"
"724",9806,"Sawaddee Thai Restaurant","Las Vegas","NV","89103",36.114998302,-115.2099561151,"1","Bars, Nightlife, Restaurants, Thai, Wine Bars"
"725",70261,"Painting with a Twist","Robinson Township","PA","15136",40.4461018,-80.1437846,"1","Education, Shopping, Art Schools, Paint & Sip, Specialty Schools, Arts & Entertainment, Bars, Nightlife, Wine Bars, Art Galleries, Event Planning & Services, Art Classes, Social Clubs, Venues & Event Spaces, Party & Event Planning"
"726",136648,"Oxbow","Calgary","AB","T2N 3E3",51.0519017195,-114.0874978669,"1","Cocktail Bars, Restaurants, Bars, Canadian (New), Lounges, Nightlife, Wine Bars, Breakfast & Brunch"
"727",116698,"Restaurant Épik","Montréal","QC","H2Y 1Z5",45.5032338,-73.555286,"1","Tapas/Small Plates, Wine Bars, Cocktail Bars, Italian, Nightlife, Mediterranean, Restaurants, Bars"
"728",70450,"Carrabba's Italian Grill","Matthews","NC","28105",35.1275266,-80.707971,"1","Wine Bars, Seafood, Bars, Restaurants, Italian, Nightlife"
"729",55424,"Olive Garden Italian Restaurant","Phoenix","AZ","85085",33.7120553199,-112.1139507505,"1","Italian, Restaurants, Nightlife, Salad, Wine Bars, Bars"
"730",154570,"Open Bottle Bistro","Pittsburgh","PA","15232",40.457682,-79.9279112,"0","American (New), Wine Bars, Restaurants, Bars, Nightlife"
"731",148905,"Seaboard Brewing, Tap Room & Wine Bar","Matthews","NC","28105",35.1175778,-80.7213118,"1","Bars, Nightlife, Breweries, Wine Bars, American (Traditional), Pubs, Beer Bar, Restaurants, Food"
"732",174784,"Layalena Cuisine","North Olmsted","OH","44070",41.4285939,-81.889206,"0","Wine Bars, Bars, Restaurants, Middle Eastern, Nightlife, Lounges, Hookah Bars"
"733",83805,"Vintner's Hill","Mint Hill","NC","28227",35.176327,-80.653381,"1","American (New), Cafes, Food, Sandwiches, Wine Bars, Beer Gardens, Beer Bar, Restaurants, Tapas/Small Plates, Bars, Lounges, Nightlife, Coffee & Tea, American (Traditional)"
"734",20930,"Cork Restaurant","Chandler","AZ","85248",33.235134,-111.857908,"0","Wine Bars, Bars, American (New), Nightlife, Restaurants"
"735",145772,"Terroir Wine Pub","Scottsdale","AZ","85253",33.5392226861,-111.9245028479,"1","Wine Bars, Beer, Wine & Spirits, Nightlife, Bars, Food"
"736",82471,"L'Hôtel Montréal","Montréal","QC","H2Y 1L9",45.5030967036,-73.5585564366,"1","Nightlife, Hotels & Travel, Bars, Event Planning & Services, Wine Bars, Hotels"
"737",69480,"Vino Volo","Dorval","QC","H4Y 1H1",45.4574063257,-73.7516155858,"1","Airports, Nightlife, Bars, Tapas/Small Plates, Hotels & Travel, Wine Bars, Lounges, Tapas Bars, Restaurants"
"738",65828,"Yard House","Glendale","AZ","85305",33.534123,-112.261268,"1","Bars, Cocktail Bars, American (Traditional), Vegetarian, Wine Bars, American (New), Nightlife, Seafood, Restaurants, Beer Bar, Asian Fusion, Steakhouses"
"739",45688,"First Draft Book Bar","Phoenix","AZ","85013",33.5097699,-112.0788401,"1","Coffee & Tea, Beer Bar, Books, Mags, Music & Video, Bookstores, Food, Beer, Wine & Spirits, Bars, Shopping, Wine Bars, Internet Cafes, Nightlife"
"740",77073,"The Wine Shop","Charlotte","NC","28273",35.1023996,-80.9845604,"1","Wine Bars, American (New), Nightlife, Diners, Food, Beer, Wine & Spirits, Bars, Restaurants"
"741",70930,"40 Northh","Saint-Sauveur","QC","J0R 1R0",45.894573,-74.1576627,"0","Bars, Nightlife, Restaurants, Champagne Bars, Wine Bars, Steakhouses"
"742",145556,"Alice Fazooli's","Richmond Hill","ON","L4B 3B4",43.8469429,-79.3749695,"0","Beer, Wine & Spirits, Food, Bars, Italian, Wine Bars, Nightlife, Restaurants"
"743",120194,"Sparrow","Toronto","ON","M6S",43.6513515582,-79.4751622754,"0","Cocktail Bars, Bars, Seafood, Vegetarian, Nightlife, Wine Bars, Restaurants, Canadian (New), Tapas/Small Plates, Event Planning & Services, French, Venues & Event Spaces"
"744",63301,"Kamasutra Indian Restaurant & Wine Bar","Toronto","ON","M4G 3B4",43.7039983,-79.3748365,"1","Middle Eastern, Asian Fusion, Bars, Event Planning & Services, Restaurants, Indian, Caterers, Wine Bars, Pakistani, Nightlife"
"745",78131,"Cantina Fellini","Brampton","ON","L6X 1M8",43.686364,-79.760781,"1","Diners, Bars, Restaurants, Italian, Breakfast & Brunch, Nightlife, French, Wine Bars"
"746",146472,"Mere's CLT","Charlotte","NC","28203",35.1985583,-80.8525254,"1","Food, Cheese Shops, Specialty Food, Bars, Wine Bars, Nightlife"
"747",32491,"Copper Modern Indian Cuisine","Charlotte","NC","28203",35.2107515,-80.8558333,"1","Pakistani, Bars, Indian, Restaurants, Wine Bars, Nightlife"
"748",34028,"Wine Cellar & Tasting Room","Las Vegas","NV","89103",36.1169147153,-115.186267491,"1","Beer, Wine & Spirits, Arts & Entertainment, Wine Bars, Wineries, Bars, American (Traditional), Restaurants, Nightlife, Food"
"749",183912,"Petite Maison","Montreal","QC","H2V 4H2",45.5225171,-73.6028695,"0","French, Restaurants, Breakfast & Brunch, Canadian (New), Wine Bars, Bars, Nightlife"
"750",101760,"ABBIOCCO","Toronto","ON","M6G 1B3",43.6552816,-79.413522,"0","Desserts, Wine Bars, Italian, French, Bars, Cocktail Bars, Food, Restaurants, Seafood, Nightlife"
"751",85224,"Grazie Ristorante","Toronto","ON","M4P 2C8",43.7093922,-79.3986839,"1","Wine Bars, Nightlife, Italian, Restaurants, Bars"
"752",82774,"Tinto Bar De Tapas","East York","ON","M4G 3B5",43.7058471,-79.3751845,"0","Nightlife, Bars, Restaurants, Tapas Bars, Wine Bars, Cocktail Bars, Seafood, Spanish"
"753",52293,"Toula Restaurant & Bar","Toronto","ON","M5J 1A6",43.6408581,-79.377079,"1","Food, Wine Bars, Bars, Italian, Beer, Wine & Spirits, Restaurants, Nightlife"
"754",151937,"Patria","Toronto","ON","M5V 1L7",43.6454236,-79.3962213,"1","Bars, Spanish, Tapas Bars, Restaurants, Nightlife, Wine Bars"
"755",73279,"Brown Derby","Cleveland","OH","44124",41.5193358,-81.4863154,"1","Nightlife, Bars, Wine Bars, Restaurants, Steakhouses"
"756",150235,"Tributary","Cleveland","OH","44102",41.4861099,-81.723517,"1","Sports Bars, Cocktail Bars, Bars, Nightlife, Wine Bars"
"757",58769,"Olive Garden Italian Restaurant","Middleburg Heights","OH","44130",41.3724132,-81.8226215,"1","Restaurants, Italian, Salad, Wine Bars, Bars, Nightlife"
"758",94014,"Magpie Pizza","Sheffield","OH","44035",41.419354,-82.081356,"0","Restaurants, Beer Bar, Wine Bars, Food, Bars, Pizza, Nightlife"
"759",55087,"Cabo Winery","Concord","NC","28025",35.4099659,-80.5802727,"1","Beer, Wine & Spirits, Nightlife, Wine Bars, Wineries, Wine Tasting Room, Food, Arts & Entertainment, Bars"
"760",69388,"Martin's Deli","Bay Village","OH","44140",41.4907043,-81.9502303,"1","Nightlife, Restaurants, Event Planning & Services, Sandwiches, Delis, Bars, Wine Bars, Caterers, Food, Beer, Wine & Spirits"
"761",161206,"Bonefish Grill","Madison","WI","53717",43.0601717613,-89.5085259603,"1","Seafood, Restaurants, Wine Bars, American (New), Bars, Nightlife, Cocktail Bars"
"762",29799,"Ros & Lina","Montréal","QC","H3B 4W5",45.4981757,-73.5663859,"1","Wine Bars, Italian, Cocktail Bars, Bars, Restaurants, Nightlife"
"763",135448,"Gigi's On Fairmount","Cleveland Heights","OH","44118",41.4866991,-81.5547964,"1","American (New), Bars, Restaurants, Wine Bars, Breakfast & Brunch, Cafes, Nightlife"
"764",3356,"Minneci's at the Crossing","Champaign","IL","61822",40.081711927,-88.2963885071,"0","Wine Bars, Bars, Soup, Restaurants, Italian, Nightlife"
"765",100779,"Opal on Pearl","Cleveland","OH","44109",41.4400282,-81.7065097,"1","Bars, Restaurants, Tapas/Small Plates, Nightlife, Wine Bars"
"766",70001,"Castello Ristorante","Woodbridge","ON","L4L 9E7",43.8093153367,-79.5472340214,"1","Wine Bars, Bars, Italian, Nightlife, Restaurants"
"767",172733,"Bar Henrietta","Montréal","QC","H2T 1E7",45.5216406,-73.5941173,"1","Wine Bars, Cocktail Bars, Bars, Nightlife, Portuguese, Restaurants"
"768",157194,"Sapori","Toronto","ON","M6K 1T8",43.6500123,-79.434764,"1","Restaurants, Bars, Food, Beer Bar, Tapas/Small Plates, Wine Bars, Beer, Wine & Spirits, Nightlife"
"769",113898,"Tavern of Independence","Independence","OH","44131",41.4117490813,-81.6412070108,"1","Restaurants, Chicken Wings, Nightlife, Wine Bars, Gastropubs, Bars, Burgers, Lounges, American (Traditional), American (New), Seafood, Sports Bars"
"770",76073,"Chez Nous","Toronto","ON","M4M 1H4",43.659657,-79.3468765,"1","Wine Bars, Nightlife, Bars"
"771",54364,"Lara's Restaurant","Toronto","ON","M2J",43.7732164,-79.3326493,"1","Bars, Mediterranean, Restaurants, Nightlife, Middle Eastern, Wine Bars"
"772",29657,"Osteria","Mesa","AZ","85215",33.4513169,-111.7093444,"1","Breakfast & Brunch, Specialty Food, Cafes, Pizza, Nightlife, Wine Bars, Italian, Restaurants, Bars, Food"
"773",10223,"Vino Veritas Little Italy","Cleveland","OH","44106",41.5085002,-81.5977041,"0","Jazz & Blues, Lounges, Nightlife, Restaurants, Bars, Cafes, Wineries, Food, Arts & Entertainment, Wine Bars, Beer, Wine & Spirits"
"774",61752,"Alchemy Food & Drink","Toronto","ON","M6H 1A3",43.6540339,-79.4250039,"1","Bars, Restaurants, Gastropubs, Wine Bars, Burgers, Cocktail Bars, Nightlife, Comfort Food"
"775",100878,"Baravin","Montréal","QC","H2X 3K4",45.515739,-73.5644282,"0","Wine Bars, French, Nightlife, Breakfast & Brunch, Restaurants, Tapas Bars, Bars"
"776",155370,"Wine and Canvas","Henderson","NV","89011",36.0645301,-115.0240553,"1","Party & Event Planning, Arts & Entertainment, Education, Art Schools, Wine Bars, Nightlife, Paint & Sip, Event Planning & Services, Art Classes, Bars, Specialty Schools"
"777",75436,"Tertio Wine Bar","Phoenix","AZ","85012",33.488807,-112.065237,"1","Bars, Wine Bars, Vegetarian, Vegan, Food, Nightlife, Restaurants, Local Flavor, Beer, Wine & Spirits, Tapas/Small Plates"
"778",21463,"Phoenix Wine Parties","Phoenix","AZ","85018",33.4962205,-111.9641728,"1","Nightlife, Event Planning & Services, Education, Party & Event Planning, Wine Tasting Classes, Wineries, Tasting Classes, Food, Special Education, Beer, Wine & Spirits, Wine Bars, Local Flavor, Arts & Entertainment, Bars"
"779",96408,"Table 21 Kitchen & Wine Bar","Toronto","ON","M8X 1G2",43.6481585463,-79.5084975176,"1","Gastropubs, Diners, Nightlife, Cocktail Bars, Breakfast & Brunch, Wine Bars, Canadian (New), Bars, American (Traditional), Lounges, Restaurants"
"780",100816,"Yard House","Las Vegas","NV","89109",36.1175416594,-115.1686615124,"1","American (Traditional), Restaurants, American (New), Cocktail Bars, Steakhouses, Beer Bar, Seafood, Bars, Wine Bars, Nightlife, Vegetarian, Asian Fusion"
"781",18987,"Willy's Bar","Glendale","AZ","85308",33.639217,-112.195739,"1","Wine Bars, Pubs, Bars, Nightlife, Lounges"
"782",18325,"Paint Craze","Charlotte","NC","28209",35.1628304067,-80.8495406897,"1","Venues & Event Spaces, Art Schools, Shopping, Specialty Schools, Education, Event Planning & Services, Bars, Cultural Center, Nightlife, Wine Bars, Art Galleries, Arts & Entertainment, Paint & Sip"
"783",59754,"Napa on Providence","Charlotte","NC","28207",35.1968338368,-80.8260918945,"1","Italian, Bars, American (New), Breakfast & Brunch, Wine Bars, Nightlife, Food, Beer, Wine & Spirits, Restaurants"
"784",56159,"Loka","Toronto","ON","M6J 1E4",43.6471075,-79.4055135,"0","Nightlife, Canadian (New), Restaurants, Food, Bars, Wine Bars"
"785",86005,"Olde Towne Glendale Wine and Beer Bar","Glendale","AZ","85301",33.5384875237,-112.1831784171,"0","Nightlife, Beer Bar, Bars, Italian, Arts & Entertainment, Music Venues, Restaurants, Food, Diners, Wine Bars, Beer, Wine & Spirits"
"786",34236,"Milestones Restaurants","Whitby","ON","L1N 2C4",43.8678288583,-78.9147691825,"1","Food, Nightlife, Restaurants, Comfort Food, Wine Bars, Bars, Canadian (New)"
"787",72758,"Lobo Iberico Restaurant","Newmarket","ON","L3Y 4W4",44.0721842348,-79.4334554814,"1","Tapas/Small Plates, Bars, Wine Bars, Restaurants, Nightlife, Spanish, Seafood, Vegetarian, Tapas Bars"
"788",99011,"Down Under Wines","Chandler","AZ","85226",33.3055845,-111.9002766,"0","Wine Bars, Nightlife, Food, Bars, Beer, Wine & Spirits"
"789",142215,"Cru Uncorked","Moreland Hills","OH","44022",41.4540237,-81.4428984,"1","Restaurants, Bars, Nightlife, Wine Bars, American (New), French"
"790",63292,"The Peace Pipe","Charlotte","NC","28217",35.1815097,-80.8838257,"1","Beer Bar, Lounges, Gay Bars, Coffee & Tea, Bars, Nightlife, Wine Bars, Hookah Bars, Cocktail Bars, Food"
"791",150840,"Caballero Grill","Goodyear","AZ","85395",33.4664613,-112.3588235,"0","Bars, Nightlife, American (Traditional), Sports Bars, Beer, Wine & Spirits, American (New), Food, Wine Bars, Restaurants"
"792",128126,"The Livermore","Pittsburgh","PA","15206",40.4604323,-79.9252567,"0","Bars, Tapas/Small Plates, Cocktail Bars, Nightlife, Restaurants, Wine Bars"
"793",160540,"Vallozzis Pittsburgh","Pittsburgh","PA","15222",40.4411279,-80.0014571,"1","Italian, Nightlife, Bars, Wine Bars, Restaurants"
"794",1557,"The Refuge Cafe","Phoenix","AZ","85013",33.5067002,-112.0821724,"1","Food, Coffee & Tea, Bars, Wine Bars, Nightlife, Cafes, Restaurants"
"795",28329,"Cantine","Broadview Heights","OH","44147",41.314715,-81.687027,"1","Nightlife, American (Traditional), Bars, Beer, Wine & Spirits, Cocktail Bars, Wine Bars, Food, Beer Bar, Restaurants"
"796",8244,"Tour de Food","Charlotte","NC","28202",35.2326781,-80.8460822,"1","Food Tours, Hotels & Travel, Restaurants, American (New), Wine Bars, Tours, Bars, Nightlife"
"797",96134,"Ferrovia Ristorante","Thornhill","ON","L3T 5Z2",43.8136278,-79.3986359,"1","Nightlife, Bars, Wine Bars, Italian, Pizza, Restaurants"
"798",63037,"Scaddabush Italian Kitchen & Bar","Etobicoke","ON","M9C 5H5",43.6143023,-79.5601245,"1","Food, Wine Bars, Bars, Restaurants, Beer, Wine & Spirits, Italian, Nightlife"
"799",173152,"Olive Garden Italian Restaurant","Las Vegas","NV","89135",36.1596119,-115.3314004,"1","Italian, Restaurants, Salad, Nightlife, Bars, Wine Bars"
"800",11354,"Carolina Meat & Fish","Charlotte","NC","28277",35.0266893,-80.8387736,"1","Cheese Shops, Specialty Food, Nightlife, Grocery, Do-It-Yourself Food, Beer, Wine & Spirits, Wine Bars, Seafood Markets, Bars, Food, Meat Shops, Butcher"
"801",166683,"Mimi' & Coco' Bistro","Henderson","NV","89011",36.1032374358,-114.92991945,"1","Bars, Nightlife, French, Wine Bars, Restaurants, Food, Cocktail Bars"
"802",78814,"Midwood Country Club","Charlotte","NC","28205",35.2200799812,-80.8046227374,"1","Pubs, Arts & Entertainment, Sports Bars, Pool Halls, Cocktail Bars, Nightlife, Wine Bars, Bars, Country Clubs, Dive Bars"
"803",40705,"NoCA Uptown","Charlotte","NC","28202",35.225217,-80.8362889,"0","Southern, Restaurants, American (New), Bars, Wine Bars, Lounges, Nightlife, Sports Bars, French"
"804",40366,"Visible Voice Books","Cleveland","OH","44113",41.4794578,-81.6884391,"0","Bars, Food, Wine Bars, Nightlife, Arts & Entertainment, Performing Arts, Music Venues, Books, Mags, Music & Video, Shopping, Bookstores, Beer, Wine & Spirits"
"805",105274,"Warren's Spirited Kitchen","Burton","OH","44021",41.4710188384,-81.1441246793,"1","American (Traditional), Restaurants, Bars, American (New), Wine Bars, Nightlife, Supper Clubs, Cocktail Bars, Gastropubs"
"806",53891,"Hola Tapas Bar","Toronto","ON","M4L 1C4",43.6638814,-79.3305676,"0","Cafes, Wine Bars, Restaurants, Breakfast & Brunch, Nightlife, Cocktail Bars, Bars, Spanish, Tapas Bars"
"807",113629,"Ciao Grazie","Scottsdale","AZ","85255",33.6567087987,-111.8665075239,"1","Sandwiches, Restaurants, Pizza, Bars, Wine Bars, Italian, Nightlife"
"808",168111,"Stone & Vine Urban Italian","Chandler","AZ","85248",33.2608865864,-111.8594436234,"1","Restaurants, Pizza, Wine Bars, Bars, Nightlife, Italian"
"809",110189,"Pasta Tutti Giorni","Ajax","ON","L1Z 1G1",43.8638182077,-79.0130602652,"0","Restaurants, Wine Bars, Italian, Bars, Nightlife"
"810",37895,"Tutto Mondo Lounge","Charlotte","NC","28203",35.2861512,-80.7256489,"0","Restaurants, Bars, Nightlife, Wine Bars, Tapas Bars, Beer, Wine & Spirits, Dance Clubs, Lounges, Food"
"811",116980,"Bar Volo","Toronto","ON","M4Y 1Z4",43.6659949,-79.3848248,"0","Food, Bars, Restaurants, Beer, Wine & Spirits, Nightlife, Canadian (New), Brasseries, Wine Bars"
"812",4530,"Bubbles - Vegan Champagne Bar","Scottsdale","AZ","85254",33.5828975719,-111.930701,"0","Tapas Bars, Beer Bar, Nightlife, Food Delivery Services, American (New), Bars, Tapas/Small Plates, Champagne Bars, Food, Wine Bars, French, Desserts, Modern European, Speakeasies, Vegan, Restaurants"
"813",172435,"Fin","Las Vegas","NV","89109",36.1216024764,-115.1744376229,"0","Restaurants, Nightlife, Bars, Food, Beer, Wine & Spirits, Wine Bars, Chinese"
"814",150958,"Voila French Bistro and Wine Bar","Scottsdale","AZ","85258",33.5738837112,-111.8619431889,"1","Food, Restaurants, Creperies, Specialty Food, Wine Bars, French, Seafood, Bars, Nightlife"
"815",163854,"Board & Batten","Mesa","AZ","85215",33.470438,-111.742445,"1","Bars, Restaurants, Cafes, Wine Bars, Salad, Desserts, French, Comfort Food, American (New), Nightlife, Food"
"816",75321,"Sophie's French Bistro","Phoenix","AZ","85016",33.4878123,-112.0314685,"0","Bars, Restaurants, Nightlife, Wine Bars, French"
"817",105065,"Fiamma Italian Kitchen","Las Vegas","NV","89109",36.1022507,-115.1699679,"1","Bars, Italian, Nightlife, Wine Bars, Restaurants"
"818",136623,"Claret Wine Bar","Toronto","ON","M4E 1E3",43.6715273,-79.2936052,"0","Bars, Wine Bars, Nightlife"
"819",149978,"Aioli Bistro","Toronto","ON","M1N 1V3",43.7095715,-79.249383,"1","Wine Bars, French, Bars, Nightlife, Restaurants"
"820",142582,"Pallantia Tapas de España","Pittsburgh","PA","15232",40.451213,-79.932284,"0","Bars, Restaurants, Cocktail Bars, Nightlife, Tapas Bars, Spanish, Tapas/Small Plates, Wine Bars"
"821",40965,"Taza Grill & Bar","Mississauga","ON","L5N 0B4",43.6015167,-79.7552844,"1","Nightlife, Breakfast & Brunch, Bars, Canadian (New), Wine Bars, Sports Bars, Restaurants"
"822",147042,"South East Gears & Cheers Restaurant & Bar","Bedford Heights","OH","44146",41.4175121,-81.5145101,"1","Restaurants, Sports Bars, Music Venues, Nightlife, Bars, Burgers, Beer, Wine & Spirits, Sandwiches, Arts & Entertainment, Soup, Breakfast & Brunch, American (Traditional), Food, Wine Bars, American (New), Cocktail Bars"
"823",9603,"PJ's Coffee & Lounge","Charlotte","NC","28202",35.225324,-80.842187,"0","Desserts, Tapas Bars, Coffee & Tea, Bars, Food, Wine Bars, Restaurants, Arts & Entertainment, Music Venues, Nightlife"
"824",109820,"Grand Cafe","Las Vegas","NV","89135",36.1564004,-115.3335562,"1","Bars, Burgers, Wine Bars, Restaurants, Nightlife, Cafes, Breakfast & Brunch, American (Traditional)"
"825",75245,"Eno Vino Downtown","Madison","WI","53703",43.076451736,-89.3823144212,"1","American (New), Restaurants, Nightlife, Cocktail Bars, Seafood, Wine Bars, Bars"
"826",71578,"Sun Singer Wine and Spirits","Champaign","IL","61821",40.083205,-88.264459,"1","Bars, Nightlife, Delis, Restaurants, Sandwiches, Wine Bars, Beer, Wine & Spirits, Cheese Shops, Specialty Food, Food, American (Traditional)"
"827",144697,"TOCA","Toronto","ON","M5V 3G7",43.6454311773,-79.387058589,"1","Breakfast & Brunch, Restaurants, Bars, American (New), Dinner Theater, French, Cocktail Bars, Wine Bars, Canadian (New), Italian, Nightlife"
"828",107598,"Swan Restaurant","Toronto","ON","M6J 1G3",43.6452774,-79.4149396,"0","Wine Bars, Nightlife, Bars, Diners, American (Traditional), Comfort Food, Restaurants"
"829",83482,"Christo's Ristorante","Phoenix","AZ","85014",33.529845,-112.064704,"1","Nightlife, Restaurants, Bars, Seafood, Mediterranean, Italian, Wine Bars"
"830",113396,"Sassi","Scottsdale","AZ","85255",33.725968,-111.855946,"0","Bars, Venues & Event Spaces, Event Planning & Services, Party & Event Planning, Nightlife, Restaurants, Italian, Wine Bars"
"831",105742,"Vittorio's buon appetito","Wickliffe","OH","44092",41.609633689,-81.4695366472,"1","Venues & Event Spaces, Restaurants, Nightlife, Event Planning & Services, Italian, Bars, Wine Bars"
"832",89342,"La Bocca Urban Kitchen + Wine Bar","Chandler","AZ","85225",33.3021309,-111.8412086,"0","Pizza, Nightlife, Mediterranean, Bars, Wine Bars, Restaurants"
"833",19795,"Royal Vine Wine Bar","North Royalton","OH","44133",41.3152884,-81.7833308,"0","American (New), Restaurants, Nightlife, Bars, Wine Bars"
"834",77106,"Tartine Bistro & Wine Bar","Rocky River","OH","44116",41.4830335,-81.8342876,"1","Mediterranean, Bars, Nightlife, Wine Bars, Salad, French, Food, Restaurants"
"835",105010,"Entice Restaurant & Lounge","Toronto","ON","M6J 1H7",43.6440657,-79.4203072,"1","Lounges, Wine Bars, Cocktail Bars, Bars, Comfort Food, Breakfast & Brunch, American (Traditional), Nightlife, Restaurants"
"836",39361,"Original Gravity","Phoenix","AZ","85014",33.5057937197,-112.0569326477,"1","Tapas Bars, Breakfast & Brunch, Nightlife, American (New), Food, Wine Bars, Restaurants, Beer Bar, Burgers, Bars, Tapas/Small Plates, Cocktail Bars"
"837",155303,"Oggi Ristorante","Broadview Heights","OH","44147",41.3149939,-81.683157,"0","Bars, Restaurants, Nightlife, Seafood, Wine Bars, Italian"
"838",184240,"Queen City Craft and Gourmet","Charlotte","NC","28277",35.0619601882,-80.7729914412,"1","Burgers, Bars, Wine Bars, Gastropubs, Nightlife, American (New), Restaurants, Tapas/Small Plates"
"839",62361,"Starbelly","Calgary","AB","T3M 1T4",50.8818071845,-113.958084324,"1","Wine Bars, Breakfast & Brunch, Lounges, Nightlife, Bars, Restaurants"
"840",171539,"Postino Annex","Tempe","AZ","85281",33.4240289389,-111.9347241787,"1","Italian, Wine Bars, Bars, Nightlife, Breakfast & Brunch, Restaurants"
"841",149321,"DEQ Terrace & Lounge","Toronto","ON","M5V 3G7",43.6454133,-79.3872946,"1","Lounges, Nightlife, Restaurants, Bars, Wine Bars, Canadian (New)"
"842",77136,"Olive Garden Italian Restaurant","Akron","OH","44333",41.1353247,-81.6401108,"1","Italian, Nightlife, Restaurants, Bars, Wine Bars, Salad"
"843",45413,"Dolcetto Wine Room","Charlotte","NC","28210",35.1536538,-80.8397897,"0","Nightlife, Bars, Wine Bars, Mediterranean, Restaurants, Beer, Wine & Spirits, Food"
"844",142068,"Graft","Madison","WI","53703",43.0742022,-89.3862015,"1","Nightlife, Bars, American (New), Wine Bars, Restaurants"
"845",61988,"Boxcar Social","Toronto","ON","M5J 2G8",43.6385245966,-79.3825308698,"1","Cafes, Restaurants, Beer, Wine & Spirits, Bars, Nightlife, Wine Bars, Coffee & Tea, Food"
"846",43460,"La Vigne","Phoenix","AZ","85044",33.3197199,-111.9766885,"0","Wine Bars, Restaurants, French, Bars, Nightlife"
"847",1363,"C3 Coffee Crepes Creamery","Concord","NC","28027",35.3967068,-80.6615136,"1","Nightlife, Bars, Creperies, Coffee & Tea, Wine Bars, Ice Cream & Frozen Yogurt, Restaurants, Food"
"848",5349,"Divided Vine","Gilbert","AZ","85234",33.3664005336,-111.7200112442,"1","Nightlife, Beer Bar, Bars, Wine Bars"
"849",111735,"Tiki Underground","Hudson","OH","44236",41.2289339759,-81.4908255208,"1","Cocktail Bars, Sandwiches, Wine Bars, Restaurants, Tiki Bars, Bars, Nightlife"
"850",132956,"Sunset & Vines","Henderson","NV","89011",36.1031046018,-114.9295985699,"0","Wine Bars, Beer, Wine & Spirits, Food, Restaurants, American (New), Mediterranean, Nightlife, Bars"
"851",157620,"Yakitori Bar","Toronto","ON","M5T 1K5",43.6562331,-79.3923185,"0","Wine Bars, Restaurants, Korean, Nightlife, Tapas Bars, Bars"
"852",162276,"Infusion Contemporary Cuisine","Calgary","AB","T2Y 4Z9",50.9072648,-114.1060353,"0","Desserts, Bars, Nightlife, Breakfast & Brunch, Food, Asian Fusion, Canadian (New), French, Wine Bars, Restaurants"
"853",138819,"AZ Pho & Grill","Gilbert","AZ","85234",33.380805779,-111.724275272,"1","Restaurants, Nightlife, Vietnamese, American (Traditional), Wine Bars, Bars"
"854",77981,"La Bocca Urban Pizzeria + Wine Bar","Tempe","AZ","85281",33.4235849683,-111.939763531,"1","Nightlife, Wine Bars, Bars, Restaurants, Pizza, Mediterranean, Food, Beer, Wine & Spirits"
"855",97053,"Senti Restaurant","Pittsburgh","PA","15201",40.4642168798,-79.9663847326,"1","Restaurants, Wineries, Italian, Wine Bars, Bars, Arts & Entertainment, Modern European, Food, Desserts, Nightlife"
"856",163217,"The Perch Brewery","Chandler","AZ","85225",33.300157,-111.842515,"1","Nightlife, Pubs, Wine Bars, Restaurants, Gastropubs, Bars, Breweries, Food"
"857",57006,"Escoba Bistro & Wine Bar","Calgary","AB","T2P 1G4",51.046024,-114.0751193,"1","American (New), Food, Nightlife, Restaurants, Wine Bars, Beer, Wine & Spirits, Bars, Shopping, Canadian (New)"
"858",161999,"Noorden Food Bar","Toronto","ON","M4S 2A5",43.7034576338,-79.3977655853,"0","Restaurants, Bars, Nightlife, Wine Bars, Tapas Bars"
"859",13468,"The Allegheny Wine Mixer","Pittsburgh","PA","15201",40.4824569,-79.951507,"1","Bars, Nightlife, Food, Wine Bars, Beer, Wine & Spirits"
"860",187015,"Olive Garden Italian Restaurant","Scottsdale","AZ","85251",33.4873691817,-111.9270547422,"1","Salad, Restaurants, Nightlife, Bars, Wine Bars, Italian"
"861",77870,"Olive Garden Italian Restaurant","Pittsburgh","PA","15205",40.450569548,-80.1615641423,"1","Salad, Restaurants, Wine Bars, Bars, Italian, Nightlife"
"862",121688,"Marottas","Cleveland Heights","OH","44118",41.4973505,-81.564913,"1","Nightlife, Wine Bars, Pizza, Italian, Restaurants, Bars"
"863",188853,"Block Bistro","Huntersville","NC","28078",35.4133017,-80.8338346,"1","Cafes, Bars, Breakfast & Brunch, Restaurants, Nightlife, Wine Bars"
"864",102006,"Alioli Ristorante","Mississauga","ON","L5B 3J1",43.5852,-79.644006,"1","Bars, Mediterranean, Italian, Wine Bars, Restaurants, Nightlife"
"865",158302,"Eighty Seven W Wine Bar","Chagrin Falls","OH","44022",41.43171,-81.39355,"0","Nightlife, Wine Bars, Bars"
"866",65635,"Postino East","Gilbert","AZ","85234",33.3551422,-111.789959,"1","Restaurants, Italian, Nightlife, Breakfast & Brunch, Bars, Food, Beer, Wine & Spirits, Wine Bars"
"867",68760,"Ciao Europa Cafe","Toronto","ON","M6K 3S2",43.6395739,-79.4146105,"1","Food, Desserts, Wine Bars, Pizza, Restaurants, Cafes, Nightlife, Coffee & Tea, Bars"
"868",161580,"Tappo Wine Bar & Restaurant","Toronto","ON","M5A 3C4",43.6497181,-79.3593,"0","Restaurants, Nightlife, Wine Bars, Religious Organizations, Italian, American (New), Bars, Canadian (New)"
"869",19587,"Luma","Toronto","ON","M5V 3X5",43.6466224,-79.3903325,"1","Cocktail Bars, Religious Organizations, Bars, Restaurants, Wine Bars, American (New), Lounges, Nightlife, Canadian (New)"
"870",23362,"McCormick & Schmick's Seafood & Steaks","Charlotte","NC","28209",35.1529699851,-80.834318954,"1","Restaurants, American (Traditional), Steakhouses, Seafood, Wine Bars, Nightlife, Bars"
"871",135761,"Toot + Kate's winebar","Verona","WI","53593",42.9900248,-89.5332375,"1","Nightlife, Bars, Wine Bars"
"872",89465,"Pier 54","Tempe","AZ","85283",33.3755635248,-111.9197692534,"1","Arts & Entertainment, American (New), Restaurants, Beer, Wine & Spirits, Wine Bars, Bars, Italian, Cocktail Bars, Breakfast & Brunch, Food, Nightlife, Burgers, Music Venues, Lounges, Mediterranean"
"873",56846,"Black Dog Wine Company","Oakdale","PA","15071",40.440604,-80.19686,"1","Wineries, Food, Wine Bars, Wine Tasting Room, Nightlife, Arts & Entertainment, Bars"
"874",95260,"M's","Cornelius","NC","28031",35.4817178,-80.882529,"0","American (New), Wine Bars, Music Venues, Mexican, Arts & Entertainment, Cocktail Bars, Nightlife, Restaurants, Bars"
"875",95539,"Mabou Cheese + Bar","Calgary","AB","T2T 0A6",51.0379717,-114.0846651,"0","Food, Bars, Cheese Shops, Specialty Food, Wine Bars, Nightlife"
"876",75870,"Winebar Kensington","Calgary","AB","T2N",51.0524336,-114.0878013,"1","Bars, Nightlife, Restaurants, Wine Bars, Tapas Bars"
"877",125937,"Sotto Voce Wine & Pasta Bar","Toronto","ON","M6G 1B2",43.655166,-79.4136114,"1","Nightlife, Italian, Wine Bars, Restaurants, Bars"
"878",55345,"Wine Vault","Charlotte","NC","28262",35.3105707,-80.7492861,"1","Arts & Entertainment, Bars, Nightlife, Music Venues, Beer, Wine & Spirits, Wine Bars, Food"
"879",60023,"Alexi's Grill","Phoenix","AZ","85012",33.4894132,-112.0745574,"1","Salad, Restaurants, Wine Bars, Bars, Seafood, Italian, Nightlife"
"880",164568,"Bravo! Cucina Italiana","Charlotte","NC","28277",35.034313,-80.806325,"0","Bars, Nightlife, Food, Restaurants, Desserts, Wine Bars, Italian"
"881",39691,"Grapevine Riverwalk","Rock Hill","SC","29730",34.9836062519,-80.9725784449,"1","Venues & Event Spaces, Coffee & Tea, Food, Beer Bar, Beer, Wine & Spirits, Tobacco Shops, Event Planning & Services, Bars, Wine Bars, Nightlife, Shopping"
"882",138988,"St-Jean Pizzeria","Saint-Jean-sur-Richelieu","QC","J3B 6S4",45.2938233,-73.2557242,"1","Bars, Pizza, Nightlife, Wine Bars, Restaurants"
"883",121527,"The Toasted Cork","Scottsdale","AZ","85251",33.499172,-111.921134,"0","Restaurants, Venues & Event Spaces, Wine Bars, Bars, Event Planning & Services, Cocktail Bars, Beer Gardens, Nightlife, Tapas/Small Plates"
"884",87571,"Vines & Hops","Scottsdale","AZ","85251",33.497244,-111.9245629,"1","American (New), Pubs, Bars, Restaurants, Nightlife, Beer Bar, Wine Bars"
"885",171668,"The Creek Patio Grill","Cave Creek","AZ","85331",33.742285,-111.979619,"1","Nightlife, Cocktail Bars, Breakfast & Brunch, American (Traditional), Bars, Restaurants, Wine Bars, American (New), Burgers"
"886",27458,"House of Tricks","Tempe","AZ","85281",33.4235148,-111.9374375,"1","French, Bars, Nightlife, Home Services, Real Estate, American (New), Wine Bars, Restaurants"
"887",120455,"Pigeonhole","Calgary","AB","T2S 0A8",51.0380119,-114.0689151,"1","Canadian (New), Bars, Tapas/Small Plates, Cocktail Bars, Nightlife, Restaurants, Wine Bars"
"888",176447,"Arem Restaurant","Montréal","QC","H3J 1R1",45.4883504,-73.5660372,"1","Wine Bars, Restaurants, Turkish, Bars, Breakfast & Brunch, Buffets, Cocktail Bars, Nightlife, Middle Eastern"
"889",141302,"The Keg Steakhouse + Bar - Leslie","Don Mills","ON","M3B 2N3",43.7588997,-79.3604731,"1","Wine Bars, Nightlife, Bars, Steakhouses, Restaurants, Seafood"
"890",88655,"Sardine","Madison","WI","53703",43.0758619691,-89.3746270099,"1","French, Restaurants, American (New), Breakfast & Brunch, Nightlife, Bars, Wine Bars"
"891",26612,"Rooftop Bar @ Simmons","Calgary","AB","T2G 0G1",51.0479225,-114.0498307,"1","Nightlife, Restaurants, Cocktail Bars, Wine Bars, Bars, Canadian (New)"
"892",170768,"Restaurant Guy Savoy","Las Vegas","NV","89109",36.115367,-115.174912,"1","Bars, Restaurants, Desserts, French, Nightlife, Food, Wine Bars"
"893",111809,"Olive Garden Italian Restaurant","Beachwood","OH","44122",41.4490950902,-81.4970637688,"1","Fast Food, Italian, Nightlife, Salad, Wine Bars, Bars, Restaurants"
"894",9220,"Vino Del Lago","Henderson","NV","89011",36.1021255,-114.9308177,"1","Nightlife, Wine Bars, Bars, Lounges"
"895",177596,"The Whining Pig- Arcadia","Phoenix","AZ","85018",33.4957219827,-112.0008417416,"1","Pubs, Beer Gardens, Nightlife, Lounges, Bars, Wine Bars, Beer Bar"
"896",166524,"Brickyard Bistro","Toronto","ON","M4L 1Y6",43.670883311,-79.3278544822,"1","French, Bars, Restaurants, Wine Bars, Nightlife, Diners"
"897",170686,"750ml Wines","Brecksville","OH","44141",41.3198252,-81.626506,"1","Restaurants, Beer, Wine & Spirits, Food, Wine Bars, Bars, Tapas/Small Plates, Nightlife"
"898",74110,"Sushiya Sushi","Gilbert","AZ","85296",33.3057479529,-111.7896652222,"1","Nightlife, Bars, Wine Bars, Sushi Bars, Restaurants, Japanese"
"899",20592,"The Wine Bar","Toronto","ON","M5E 1M2",43.6478315,-79.3732265,"0","Canadian (New), Wine Bars, Bars, Restaurants, Nightlife, Beer, Wine & Spirits, Tapas Bars, Food, Tapas/Small Plates"
"900",31394,"The Dylan Bar","Toronto","ON","M4J 1M6",43.6820280074,-79.3305167184,"1","Bars, Wine Bars, Nightlife, Comfort Food, Italian, Restaurants"
"901",728,"The Vintage Market","Phoenix","AZ","85016",33.5094566,-112.0291624,"0","Food, Restaurants, Bars, Nightlife, Beer, Wine & Spirits, Wine Bars"
"902",158370,"Walkers Wine Bar & Grill","Mississauga","ON","L5K 1M9",43.52597038,-79.6792359764,"0","Live/Raw Food, Seafood, Steakhouses, Restaurants, Bars, Nightlife, Wine Bars"
"903",144574,"Swirl","Toronto","ON","M4M 1J7",43.660855481,-79.3410301208,"0","American (New), Wine Bars, Bars, Canadian (New), Nightlife, Restaurants"
"904",4860,"Raca Cafe and Bar","Toronto","ON","M6R 1B3",43.638961,-79.444963,"0","Cafes, Breakfast & Brunch, Wine Bars, Italian, Bars, Nightlife, Canadian (New), Restaurants"
