"","business_id","name","city","state","postal_code","latitude","longitude","is_open","categories"
"1",132506,"Nowshak Restaurant","Vaughan","ON","L4K 5Y6",43.8291402796,-79.5372338641,"0","Restaurants, Afghan"
"2",132934,"Zam Zam Catering & Mobile Cuisine","Madison","WI","53715",43.0710301,-89.4064136,"0","Restaurants, Food, Food Trucks, Afghan"
"3",4951,"Kabul Kebob and Shawarma","Toronto","ON","M4R 1A1",43.7064550832,-79.3997823183,"0","Afghan, Restaurants, Persian/Iranian"
"4",133974,"Zaher Restaurant","Richmond Hill","ON","L4E 3K2",43.942933967,-79.4544386119,"0","Middle Eastern, Afghan, Persian/Iranian, Restaurants"
"5",184486,"Kabob Factory","Las Vegas","NV","89123",36.0416591,-115.1353976,"0","Mediterranean, Afghan, Restaurants"
"6",38245,"Crown Pita","Pickering","ON","L1V 1C6",43.850205,-79.070689,"1","Afghan, Halal, Restaurants, Mediterranean, Middle Eastern, Falafel"
"7",153901,"Bamiyan Kabob","East York","ON","M4H 1C4",43.7078994,-79.3433474,"1","Restaurants, Afghan"
"8",80446,"Kandahar Kabab","Mississauga","ON","L4W 4G1",43.640037,-79.625372,"1","Middle Eastern, Afghan, Restaurants"
"9",55585,"Fenêtre sur Kaboul","Montréal","QC","H2J 2J2",45.5244041,-73.5759533,"1","Restaurants, Food, Afghan, Tea Rooms"
"10",68702,"Tops Pizza & Chicken","Markham","ON","L3S 0B6",43.8507974,-79.2538693,"0","Pizza, Kebab, Afghan, Chicken Wings, Restaurants, Burgers, Halal"
"11",14868,"King of Shawarma","Calgary","AB","T3C 3S8",51.0424917,-114.093646,"1","Falafel, Halal, Middle Eastern, Restaurants, Food, Donairs, Mediterranean, Afghan"
"12",157121,"Afghan Cuisine","Richmond Hill","ON","L4C 4M6",43.8931308924,-79.440486962,"1","Food, Ethnic Food, Specialty Food, Halal, Afghan, Pakistani, Restaurants"
"13",41035,"Peshawari Tikka","Montréal","QC","H4K 1M9",45.5272053,-73.7188586,"1","Indian, Afghan, Pakistani, Restaurants"
"14",121797,"Pamier Kabob","Toronto","ON","M5V 2L1",43.6472101935,-79.3954726614,"1","Restaurants, Afghan"
"15",180013,"L'Afghan Grillade","Laval","QC","H7V 3T4",45.5391034596,-73.7351162493,"1","Barbeque, Restaurants, Afghan"
"16",21350,"Maimana Naan & Kabab","Ajax","ON","L1Z 0K5",43.8632915,-79.012061,"1","Middle Eastern, Restaurants, Afghan"
"17",100954,"The Kabab Shoppe","Pickering","ON","L1V 1C1",43.8417711,-79.0840136,"1","Restaurants, Afghan, Persian/Iranian, Mediterranean"
"18",53801,"Pamier Kabob","Mississauga","ON","L5L 5R9",43.525626,-79.704421,"1","Afghan, Restaurants"
"19",51690,"Silk Road Kabob House","Toronto","ON","M5G 2J8",43.6598162519,-79.3855910264,"1","Afghan, Kebab, Restaurants"
"20",70341,"Parwan Kabob","Toronto","ON","M1P 0A1",43.7524762,-79.2639726,"0","Afghan, Restaurants"
"21",141536,"Bakhtar Kabab","Mississauga","ON","L4W 4L8",43.6461103248,-79.6576950124,"1","Restaurants, Middle Eastern, Afghan"
"22",162940,"Ali Baba Cafe and Restaurant","Scarborough","ON","M1P 2W6",43.765813,-79.281899,"0","Afghan, Cafes, Dance Clubs, Nightlife, Restaurants"
"23",147531,"Helmand Kabob Afghan Cuisine","Mississauga","ON","L5T 2Y3",43.6385654409,-79.6925443411,"0","Restaurants, Afghan"
"24",85851,"Alanoor Afghan Kabob","Toronto","ON","M1T 3K8",43.7804142,-79.2984859,"1","Afghan, Halal, Middle Eastern, Restaurants"
"25",67475,"Pizza Hot Wings","Toronto","ON","M1T 3J5",43.7764067,-79.3181349,"0","Pizza, Afghan, Halal, Restaurants"
"26",89131,"Mumtaz Grill Restaurant","Toronto","ON","M3J 1L5",43.7457025,-79.487427,"1","Afghan, Restaurants, Persian/Iranian, Middle Eastern"
"27",19319,"Naan And Kabob","Toronto","ON","M4G 3V1",43.704905728,-79.3614039241,"1","Restaurants, Afghan"
"28",31186,"Sultan Kabob","Vaughan","ON","L6A 3X5",43.8440269,-79.5354452,"0","Middle Eastern, Halal, Restaurants, Afghan"
"29",28987,"Royal Kabob Restaurant","Las Vegas","NV","89134",36.2112472,-115.2987804,"0","Afghan, Restaurants"
"30",120313,"Madani","Richmond Hill","ON","L4E 1A7",43.9441734007,-79.4542133292,"1","Restaurants, Afghan, Butcher, Bakeries, Food"
"31",23664,"Baghlan Kebob & Bakery","Toronto","ON","M9W 5Z3",43.7142045953,-79.5583274832,"1","Restaurants, Halal, Middle Eastern, Bakeries, Food, Afghan"
"32",146683,"Zafran Kabab Palace","Pineville","NC","28134",35.0873529,-80.8863258,"1","Restaurants, Indian, Halal, Pakistani, Afghan"
"33",77326,"ZK Grill","Phoenix","AZ","85032",33.624311,-111.978425,"1","Middle Eastern, Afghan, Persian/Iranian, Mediterranean, Restaurants"
"34",164474,"ZK Grill","Phoenix","AZ","85016",33.5073239,-112.0468584,"0","Falafel, Restaurants, Mediterranean, Middle Eastern, Persian/Iranian, Afghan"
"35",45349,"Naan and Kabob","Toronto","ON","M1P 4P5",43.775038,-79.25738,"1","Restaurants, Afghan, Halal"
"36",85233,"Afghan Kitchen","Mississauga","ON","L5A 1W8",43.583626,-79.612558,"1","Afghan, Asian Fusion, Ethnic Food, Restaurants, Food, Specialty Food"
"37",92739,"L'Afghan Grillade","Montréal","QC","H4N 1L7",45.533669,-73.659334,"1","Afghan, Restaurants, Halal"
"38",105699,"The GyroMan","Charlotte","NC","28202",35.2326781,-80.8460822,"1","Mediterranean, Restaurants, Greek, Food Stands, Halal, Afghan"
"39",177020,"Flaming Kabob","Mesa","AZ","85204",33.379512,-111.78441,"1","Middle Eastern, Halal, Afghan, Restaurants, Mediterranean, American (Traditional)"
"40",145587,"Maza","Madison","WI","53774",43.075141,-89.394958,"0","Afghan, Restaurants"
"41",19353,"Kabuli Kabob","Markham","ON","L3S 0B5",43.8497046651,-79.253109805,"1","Restaurants, Afghan"
"42",77276,"Karahi Boys","Mississauga","ON","L5V 0B7",43.6090252864,-79.6969280526,"1","Restaurants, Pakistani, Halal, Afghan"
"43",43323,"Helmand Kabob Palace","Pickering","ON","L1X 0B6",43.8685101,-79.0830951,"1","Halal, Afghan, Kebab, Middle Eastern, Restaurants"
"44",129184,"Sahebi Kabob","Toronto","ON","M1X 0A5",43.8356211,-79.2504341,"0","Restaurants, Halal, Afghan"
"45",5367,"Royal kabob","Brampton","ON","L6V 1C2",43.6995382488,-79.746392759,"1","Afghan, Restaurants"
"46",21057,"Masrawy Fine Egyptian Catering","Mississauga","ON","L5M 2G6",43.5832811,-79.7308736,"1","Restaurants, Caterers, Event Planning & Services, Egyptian, Afghan, Middle Eastern"
"47",77067,"Mediterranean & Persian Kabob House","Oak Ridges","ON","L4E 3L7",43.9427466,-79.4597531,"1","Afghan, Restaurants, Persian/Iranian, Mediterranean"
"48",160328,"Watan Kabob","Mississauga","ON","L4Z 1X8",43.6200547,-79.6674377,"1","Afghan, Pakistani, Halal, Restaurants, Middle Eastern"
"49",131474,"White Castle Banquet & Event Centre","Vaughan","ON","L1K 1Z2",43.8094025,-79.5014078,"1","Venues & Event Spaces, Buffets, Music Venues, Event Planning & Services, Restaurants, Nightlife, Afghan, Indian, American (Traditional), Arts & Entertainment"
"50",93407,"Safaryan","Whitby","ON","L1N 4J8",43.8791298,-78.9421062,"1","Afghan, Middle Eastern, Mediterranean, Vegan, Restaurants"
"51",10148,"Bamiyan Kabob","Mississauga","ON","L4T 1H4",43.7099244987,-79.6534178673,"1","Afghan, Restaurants"
"52",80917,"Afghan Cuisine","Toronto","ON","M4H 1C4",43.7080443,-79.3429693,"1","Persian/Iranian, Halal, Afghan, Restaurants"
"53",76602,"Kohinoor Kabob House","Richmond Hill","ON","L4C 3E3",43.8904304,-79.4403617,"1","Restaurants, Pakistani, Afghan, Indian"
"54",47715,"Mazar Kabob","Toronto","ON","M9C",43.6192764,-79.5613274,"1","Restaurants, Afghan"
"55",65660,"Hot Pot Cafe","Toronto","ON","M4J 1M9",43.6823172,-79.3291564,"1","Moroccan, Middle Eastern, Afghan, Halal, Restaurants"
"56",55873,"Afghan Cuisine","Ajax","ON","L1Z 0C7",43.8646598551,-79.016832523,"1","Restaurants, Halal, Kebab, Afghan"
"57",31731,"Afghan Village Restaurant","Toronto","ON","M3C 1E4",43.716793,-79.33568,"0","Afghan, Restaurants"
"58",6379,"Kandahar Kabab","Toronto","ON","M4H 1C3",43.7051458823,-79.3486794388,"1","Afghan, Restaurants, Halal"
"59",4752,"Mexikhan","Mississauga","ON","L5M 7P5",43.5453174645,-79.7145005454,"0","Afghan, Middle Eastern, Mexican, Mediterranean, Restaurants"
"60",154255,"Khyber Pass","Montréal","QC","H2L 1A7",45.5218539,-73.5746754,"1","Restaurants, Afghan"
"61",154205,"The Suya Spot","Toronto","ON","M9M 1M8",43.7397277,-79.5385519,"1","Afghan, African, Restaurants"
"62",75408,"Restaurant Makkah","Montréal","QC","H2R 1T3",45.5376102,-73.6147675,"1","Restaurants, Afghan, Halal, Indian"
"63",99629,"Rania's Kabob Grill","Gilbert","AZ","85234",33.381279,-111.724168,"0","Mediterranean, Afghan, American (New), Halal, Restaurants, Middle Eastern"
"64",8415,"Ali Baba Kabob House","Calgary","AB","T3C 1E2",51.038334,-114.094406,"1","Afghan, Mediterranean, Halal, Restaurants"
"65",8125,"Riaz Kabab","Laval","QC","H7T",45.5585630745,-73.7668117333,"1","Middle Eastern, Halal, Restaurants, Afghan"
"66",160976,"Aryana Cuisine","Calgary","AB","T3J 5H2",51.106866667,-113.9701020246,"1","Halal, Afghan, Restaurants, Kebab, Buffets, Persian/Iranian"
"67",86719,"Kabab King","Phoenix","AZ","85041",33.3782676,-112.1156827,"1","Afghan, Mediterranean, Middle Eastern, Restaurants"
"68",48831,"Radiance Restaurant and Banquet Hall","Toronto","ON","M3J 2C7",43.7683588,-79.4690242,"0","Halal, Restaurants, Afghan"
"69",107409,"Naan and Kabob","Scarborough","ON","M1R 2X9",43.742424,-79.3052223,"1","Afghan, Middle Eastern, Restaurants"
"70",46089,"Afghan Kabob Restaurant & Bakery","Las Vegas","NV","89103",36.115157,-115.2320144,"0","Restaurants, Caterers, Bakeries, Event Planning & Services, Halal, Buffets, Afghan, Middle Eastern, Food, Mediterranean"
"71",81898,"Pamier Kabob","Brampton","ON","L6W 4K7",43.6584254414,-79.7218791136,"1","Restaurants, Afghan"
"72",185608,"Kabul Restaurant and Bakery","Toronto","ON","M3C 1T2",43.7145615146,-79.3336165188,"1","Bakeries, Ice Cream & Frozen Yogurt, Persian/Iranian, Pakistani, Afghan, Food, Restaurants, Mediterranean"
"73",137643,"Curry Kitchen By the Grange","Toronto","ON","M5T 2W7",43.6537184,-79.3909035,"0","Food Delivery Services, Indian, Restaurants, Afghan, Food"
"74",164510,"Marché Afghan","Brossard","QC","J4W 1Z3",45.472845,-73.474757,"1","Food, Afghan, Restaurants, International Grocery"
"75",170572,"Kabob Express","Vaughan","ON","L6A",43.8285899915,-79.5410596423,"1","Restaurants, Halal, Indian, Afghan"
"76",183105,"Pita & Grill","Newmarket","ON","L3Y 7R8",44.0500834695,-79.479545296,"1","Halal, Mediterranean, Afghan, Restaurants"
"77",172240,"Taftan Kebab","Toronto","ON","M2N 5R5",43.774496,-79.4143012,"1","Middle Eastern, Persian/Iranian, Restaurants, Afghan"
"78",134769,"Chapli Kabob","Mississauga","ON","L5B 1H4",43.5787584283,-79.6168676957,"1","Restaurants, Halal, Afghan"
"79",1816,"Watan Kabob","Mississauga","ON","L5K 1R9",43.5240319,-79.6813007,"1","Mediterranean, Afghan, Middle Eastern, Restaurants, Halal"
"80",67352,"Q's Shawarma","Brampton","ON","L6T 5B9",43.7138970322,-79.6772869304,"1","Middle Eastern, Afghan, Mediterranean, Halal, Restaurants"
"81",136169,"Shawarma Q","Toronto","ON","M4V 2Y7",43.6871903,-79.396706,"1","Middle Eastern, Afghan, Restaurants"
"82",50715,"Nader's Middle Eastern Grill & Bakery","Mississauga","ON","L5B 4M6",43.577556,-79.644281,"0","Food, Bakeries, Restaurants, American (New), Middle Eastern, Canadian (New), Halal, Afghan"
"83",127872,"Helmand Kabab House","Ajax","ON","L1S 2H6",43.8486927,-79.022214,"1","Afghan, Restaurants, Halal, Middle Eastern"
"84",146383,"Kabob Express","Las Vegas","NV","89119",36.0997437,-115.1179817,"1","Persian/Iranian, Halal, Restaurants, Kebab, Afghan, Mediterranean"
"85",10294,"Kabob Place","Westlake","OH","44145",41.4510113,-81.914599,"0","Indian, Middle Eastern, Afghan, Restaurants, Food, American (New)"
"86",130321,"Kabab Palace","Tempe","AZ","85284",33.349623236,-111.9473032708,"0","Restaurants, Buffets, Indian, Afghan"
"87",127079,"Afghan Kabob Cuisine","Calgary","AB","T3J 4N4",51.0996101,-113.9639729,"1","Restaurants, Afghan"
"88",150125,"Pak Afghan Halal Restaurant & Catering","Phoenix","AZ","85008",33.467014,-111.995926,"0","Pakistani, Afghan, Restaurants, Indian"
"89",143306,"Bawarchi Kebab","Pickering","ON","L1V 1B8",43.8359986,-79.0863992,"1","Afghan, Restaurants"
"90",126542,"Eggs & Kabob","Brampton","ON","L6Y 0L8",43.6443014,-79.7571251,"0","Breakfast & Brunch, Halal, Restaurants, Afghan"
"91",97206,"Firdous Restaurant","Mississauga","ON","L5A 2G4",43.5792424,-79.6142213,"0","Afghan, Restaurants"
"92",134209,"Zaytoon Kabob Bistro","Chandler","AZ","85226",33.319526,-111.925763,"0","Restaurants, Afghan"
"93",38704,"Pamier Kabob","Mississauga","ON","L5N 8P7",43.5961872,-79.7873874,"1","Afghan, Restaurants"
"94",110073,"Bamiyan Kabob","Markham","ON","L3S 4S1",43.8550516,-79.2563367,"1","Afghan, Restaurants"
"95",42356,"Naan & Kabob","Mississauga","ON","L4Z 3K8",43.6146219,-79.6630912,"0","Pakistani, Restaurants, Afghan, Middle Eastern, Kebab"
