"","business_id","name","city","state","postal_code","latitude","longitude","is_open","categories"
"1",191051,"Bières et Compagnie","Montréal","QC","H2J 2L1",45.5228389,-73.5807616,"0","Nightlife, Belgian, Beer, Wine & Spirits, Pubs, Brazilian, Food, Bars, Restaurants"
"2",108388,"Yolie's Brazilian Steak House","Las Vegas","NV","89169",36.11654,-115.1542695,"0","Brazilian, Restaurants, Steakhouses"
"3",122821,"Minas Brazilian Steakhouse","Calgary","AB","T2P 0S7",51.0527455174,-114.0672777484,"1","Steakhouses, Restaurants, Brazilian"
"4",120524,"La Taguara Johnson","Madison","WI","53703",43.0837417,-89.3769002,"1","Caribbean, Colombian, Latin American, Restaurants, Brazilian, Cuban, Venezuelan"
"5",69311,"Copa By Sea","Toronto","ON","M5H 3H1",43.648443,-79.3882263,"0","Vegetarian, Brazilian, Seafood, Restaurants, Barbeque"
"6",86045,"Le Milsa","Laval","QC","H7M 1Y9",45.5764889499,-73.7137208907,"1","Restaurants, Brazilian, Barbeque, Buffets"
"7",119900,"Brazas Brazilian Grill","Charlotte","NC","28205",35.194894,-80.767442,"0","Restaurants, Brazilian, Steakhouses"
"8",140300,"Texas de Brazil","Pittsburgh","PA","15219",40.4343522,-80.0054111,"1","Venues & Event Spaces, Event Planning & Services, Brazilian, Restaurants, Steakhouses"
"9",155767,"Caju","Toronto","ON","M6J 1G6",43.6448797,-79.4158406,"0","Brazilian, Restaurants"
"10",47704,"Rodizio Grill - Mesa","Mesa","AZ","85204",33.3822058,-111.7544137,"1","Restaurants, Desserts, Brazilian, Food, Steakhouses"
"11",59133,"Serra Gaucha Brazilian Steakhouse","Peoria","AZ","85382",33.6340691,-112.2352814,"1","Brazilian, Steakhouses, Restaurants"
"12",174465,"Amor de Brazil","Matthews","NC","28105",35.1282274625,-80.7024335861,"0","Restaurants, Brazilian, Steakhouses"
"13",191871,"Via Brasil Steakhouse on South Fort Apache and Charleston","Las Vegas","NV","89117",36.1568983622,-115.2919117492,"1","Diners, Desserts, Steakhouses, Food, Restaurants, Seafood, Buffets, Beer, Wine & Spirits, Brazilian, Portuguese"
"14",49859,"Pampas","Las Vegas","NV","89109",36.1081488,-115.1699073,"0","Sandwiches, Restaurants, Brazilian, Seafood"
"15",50077,"Sea Salt Brazilian Grill","Monroe","NC","28110",35.0035317,-80.5536603,"0","Latin American, Restaurants, Salad, Steakhouses, Brazilian"
"16",34877,"Egg Works","Las Vegas","NV","89120",36.0719180321,-115.1172133228,"1","Burgers, Restaurants, Breakfast & Brunch, Brazilian, American (Traditional)"
"17",127307,"Pampas Churrascaria Brazilian Grille","Las Vegas","NV","89109",36.108761,-115.170129,"1","Event Planning & Services, Restaurants, Buffets, Caterers, Steakhouses, Seafood, Brazilian"
"18",33343,"Belém Café & Yoga - L'Espace Café","Montréal","QC","H2W 1Z8",45.5196301,-73.584917,"1","Active Life, Yoga, Brazilian, Restaurants, Breakfast & Brunch, Vegan, Food, Coffee & Tea, Sandwiches, Fitness & Instruction"
"19",26168,"Symposium Cafe Restaurant & Lounge","Thornhill","ON","L3T 2C6",43.827252,-79.426972,"1","Food, Bars, Cafes, Coffee & Tea, Desserts, Lounges, American (Traditional), Restaurants, Breakfast & Brunch, Nightlife, Brazilian"
"20",85059,"Val's Brazilian Cuisine","Goodyear","AZ","85338",33.4922373,-112.3802113,"0","Restaurants, Brazilian"
"21",146696,"Texas de Brazil","Dallas","TX","75247",36.0701358,-115.1753479,"0","Restaurants, Brazilian, Gluten-Free, Buffets, Steakhouses"
"22",139660,"Angá","Montréal","QC","H2X 3L1",45.5172354,-73.5680881,"0","Brazilian, Restaurants, Steakhouses, Seafood"
"23",40747,"Carvalho's Brazilian Kitchen","Scottsdale","AZ","85255",33.7006985225,-111.923719424,"0","Sandwiches, Restaurants, Latin American, Brazilian, Salad, Steakhouses"
"24",7309,"Batuqui","Cleveland","OH","44120",41.4874525269,-81.5941883093,"1","Tapas Bars, Brazilian, Latin American, Restaurants, Tapas/Small Plates, Salad"
"25",486,"Pampa Brazilian Steakhouse","Calgary","AB","T2R 0A8",51.0435828,-114.0721717,"1","Brazilian, Restaurants, Steakhouses"
"26",171602,"Brazil Brazil","Las Vegas","NV","89123",36.017627,-115.1182839,"0","Restaurants, Brazilian"
"27",72795,"Cafuné","Toronto","ON","M5A 2K8",43.6637597,-79.371044,"0","Food, Coffee & Tea, Restaurants, Brazilian"
"28",119225,"Touro Churrascaria","Richmond Hill","ON","L4B 3B4",43.8470768,-79.3763544,"1","Breakfast & Brunch, Nightlife, Wine Bars, Restaurants, Brazilian, Steakhouses, Bars"
"29",10872,"Copacabana Brazilian Steakhouse","Toronto","ON","M5H 1W7",43.6483440823,-79.3878309801,"1","Nightlife, Steakhouses, Bars, Restaurants, Barbeque, Brazilian"
"30",21720,"Rio 40 Restaurant","Toronto","ON","M6E 1B9",43.6774457,-79.4464837,"1","Steakhouses, Restaurants, Brazilian"
"31",162296,"Invictus","Toronto","ON","M6E 1C2",43.6762825895,-79.449459212,"0","Brazilian, Pizza, Italian, Portuguese, Sandwiches, Restaurants"
"32",63269,"Rodízio Brasil","Montréal","QC","H2Y 1C2",45.507884,-73.5543227,"1","Buffets, Brazilian, Restaurants, Steakhouses"
"33",168794,"Le Milsa","Pierrefonds","QC","H8Y 3E3",45.5086141,-73.8215858,"1","Brazilian, Restaurants"
"34",28912,"Copacabana Brazilian Steak House","Toronto","ON","M4P 1E8",43.7078631,-79.394156,"1","Restaurants, Steakhouses, Latin American, Food, Brazilian, Beer, Wine & Spirits"
"35",42354,"Fogo de Chão Brazilian Steakhouse","Las Vegas","NV","89169",36.1150184807,-115.1564544439,"1","Seafood, Restaurants, Brazilian, Steakhouses"
"36",160415,"Sarava At Shaker Square","Cleveland","OH","44120",41.4841708,-81.5897355,"0","Brazilian, Tapas Bars, Restaurants, Latin American, Seafood, Steakhouses"
"37",25418,"Gaucho Brazilian Barbecue","Calgary","AB","T2H 0K2",51.000604,-114.070675,"1","Brazilian, Restaurants, Food"
"38",55415,"Green Forest Churrascaria","Pittsburgh","PA","15235",40.446357054,-79.826819346,"1","Lounges, Bars, Nightlife, Brazilian, Steakhouses, Latin American, Restaurants, Cocktail Bars"
"39",81323,"Brazilian Star Bar & Grill","Toronto","ON","M6J 1X5",43.6496172,-79.424082,"0","Restaurants, Brazilian"
"40",176365,"Fogo de Chão Brazilian Steakhouse","Pittsburgh","PA","15222",40.4406418146,-79.9984258041,"1","Steakhouses, Restaurants, Brazilian"
"41",174078,"Le Milsa","Montréal","QC","H3G 2E4",45.4972277,-73.5774177,"0","Restaurants, Brazilian, Steakhouses, Barbeque, Seafood"
"42",162788,"Los Paisas","Charlotte","NC","28217",35.1685609,-80.874931,"0","Latin American, Brazilian, Restaurants"
"43",171770,"Pampas","Las Vegas","NV","89109",36.1081488,-115.1699073,"0","Restaurants, Brazilian"
"44",179621,"Red Violin","Toronto","ON","M4K 1N2",43.6762554,-79.3581314,"0","Barbeque, Steakhouses, Restaurants, Brazilian"
"45",89135,"Los Chicos Brasa","Markham","ON","L3S 0B6",43.8503882,-79.2539052,"0","Chicken Wings, Brazilian, Specialty Food, Latin American, Barbeque, Restaurants, Peruvian, Food, Ethnic Food"
"46",52512,"Sergio's in University Circle","Cleveland","OH","44106",41.5107947,-81.6076002,"0","Brazilian, Seafood, Italian, Restaurants, Tapas Bars"
"47",73843,"CopaCabana Brazilian Steakhouse","Vaughan","ON","L4L 5X8",43.784552,-79.565759,"1","Barbeque, Steakhouses, Restaurants, Brazilian, Latin American"
"48",107634,"Casa Brasil","Pittsburgh","PA","15206",40.4756756928,-79.9197259864,"1","Pop-Up Restaurants, Brazilian, Restaurants"
"49",177482,"Braz.1.L Esfiha House","Toronto","ON","M4Y 1Y5",43.6638752,-79.3836603,"0","Brazilian, Restaurants"
"50",113925,"Rio Bar & Grill","Calgary","AB","T2P",51.0482063,-114.0790428,"1","Brazilian, Nightlife, Restaurants, Bars"
"51",35900,"Brazz Carvery & Brazilian Steakhouse","Charlotte","NC","28202",35.2231876,-80.8466272,"1","Brazilian, Restaurants, Steakhouses, Gluten-Free"
"52",35173,"Bolero","Calgary","AB","T2H 0L3",50.9921485,-114.070811,"1","Barbeque, Brazilian, Buffets, Restaurants, Steakhouses"
"53",51263,"Juice 'N' Go","Las Vegas","NV","89146",36.1525834,-115.2435895,"1","Food, Restaurants, Sandwiches, Juice Bars & Smoothies, Ice Cream & Frozen Yogurt, Brazilian"
"54",155633,"The Capital Grille","Las Vegas","NV","89109",36.1276483735,-115.1683280326,"1","American (New), Nightlife, American (Traditional), Brazilian, Restaurants, Steakhouses, Seafood, Wine Bars, Bars"
"55",46252,"Peixoto Coffee","Chandler","AZ","85225",33.3019003349,-111.8416900188,"1","Coffee Roasteries, Food, Brazilian, Coffee & Tea, Restaurants"
"56",178093,"Brazilian Grill","Las Vegas","NV","89123",36.017627,-115.1182839,"0","Steakhouses, Brazilian, Restaurants"
"57",85266,"Brazilian Bull Steakhouse","Phoenix","AZ","85048",33.3039011,-111.9784087,"0","Latin American, Brazilian, Barbeque, Restaurants, Steakhouses"
"58",188258,"Braiseryy","Toronto","ON","M9B 1L1",43.6412251,-79.5386553,"0","Brazilian, Chicken Wings, Restaurants"
"59",7878,"Brazil Bakery and Pastry","Toronto","ON","M6K 1T8",43.64990783,-79.4341259884,"1","Food, Brazilian, Restaurants, Bakeries, Portuguese"
"60",104708,"Texas de Brazil","Westlake","OH","44145",41.4609961208,-81.9525268849,"1","Beer, Wine & Spirits, Venues & Event Spaces, Event Planning & Services, Brazilian, Food, Steakhouses, Restaurants"
"61",19909,"Brasa Grill","Cleveland","OH","44113",41.4988193,-81.7008219,"0","Restaurants, Brazilian, Steakhouses"
"62",72056,"Pineapple Grill","Mesa","AZ","85215",33.4512883,-111.7322612,"0","Gluten-Free, American (Traditional), Modern European, Brazilian, Mexican, Fast Food, Burgers, American (New), Restaurants"
"63",53128,"Samba","Las Vegas","NV","89109",36.1211173924,-115.174633683,"0","Brazilian, Beer, Wine & Spirits, Restaurants, Food, Steakhouses"
"64",74443,"Chima Steakhouse","Charlotte","NC","28202",35.226268,-80.843786,"1","Venues & Event Spaces, Vegetarian, Buffets, Restaurants, Event Planning & Services, Brazilian, Nightlife, Bars, Steakhouses, Cocktail Bars"
"65",110488,"Braiseryy Chicken","Toronto","ON","M8V 1B6",43.6161495,-79.4882836,"0","Mediterranean, Sandwiches, Restaurants, Chicken Shop, Chicken Wings, Brazilian"
"66",57275,"The Gilbert House","Gilbert","AZ","85296",33.3431356,-111.7893434,"1","Brazilian, American (New), Breakfast & Brunch, Restaurants"
"67",64424,"Fogo de Chão Brazilian Steakhouse","Scottsdale","AZ","85253",33.529908,-111.926438,"1","Brazilian, Food, Steakhouses, Seafood, Restaurants"
"68",124117,"Samba Brazilian Grill","Madison","WI","53703",43.07546,-89.393063,"1","Food, Brazilian, Restaurants"
"69",71263,"Solo Sushi Ya","Newmarket","ON","L3Y 2N6",44.0580178087,-79.4671871513,"1","Restaurants, Sushi Bars, Japanese, Brazilian"
"70",46614,"Cobrinha Brazilian Jiu Jitsu Academy","Las Vegas","NV","89145",36.1762947,-115.2608378,"1","Martial Arts, Fitness & Instruction, Gyms, Brazilian Jiu-jitsu, Brazilian, Active Life, Restaurants, Trainers"
"71",6320,"Brasileirissimo Steak House","Toronto","ON","M6J 1X3",43.6492549,-79.4226414,"1","Brazilian, Portuguese, Restaurants"
"72",81076,"Tropical Bakery Cafe","Matthews","NC","28105",35.1231771,-80.7301678,"1","Restaurants, Food, Bakeries, Brazilian"
"73",175651,"Texas De Brazil","Woodmere","OH","44122",41.462876,-81.480056,"1","Desserts, Steakhouses, Event Planning & Services, Food, American (New), Brazilian, Restaurants, Venues & Event Spaces"
"74",55353,"Rodizio Grill","Cleveland","OH","44125",41.399473,-81.625168,"0","Brazilian, Venues & Event Spaces, Steakhouses, Restaurants, Event Planning & Services"
"75",62532,"Mata Petisco Bar","Toronto","ON","M6R 1B3",43.639115,-79.4442339,"0","Brazilian, Restaurants, Tapas/Small Plates, Latin American, Bars, Nightlife"
