"","business_id","name","city","state","postal_code","latitude","longitude","is_open","categories"
"1",113186,"Impressionz","Pittsburgh","PA","15206",40.4623454064,-79.9241651595,"0","Restaurants, Caribbean"
"2",20760,"T&T Roti Trinidad & Toronto Roti","Toronto","ON","",43.6521961365,-79.4055628113,"1","Caribbean, Restaurants"
"3",91598,"Drupatis Doubles & Roti Shop","Brampton","ON","L7A 3E9",43.6993912066,-79.8227834796,"1","Restaurants, Caribbean, Halal"
"4",27889,"The Hummingbird Caribbean Cuisine","Toronto","ON","M4L 2L1",43.6636872,-79.3287741,"0","Caribbean, Restaurants"
"5",31888,"Patois Jamaican Food Restaurant","Pickering","ON","L1V 1B7",43.8355745,-79.0918898,"1","Restaurants, Caribbean"
"6",74719,"Kings Delight Caribbean Cuisine","Toronto","ON","M9N 2S1",43.7019167,-79.5035253,"1","Ethnic Food, Food, Fish & Chips, Restaurants, Specialty Food, Barbeque, Caribbean"
"7",177124,"Calypso Hut Family Restaurant and Bar","Brampton","ON","L6W 4K6",43.7017176,-79.7425213,"1","Bars, Nightlife, Chinese, Restaurants, Caribbean"
"8",50227,"Caribbean Palm - Scottsdale","Scottsdale","AZ","85257",33.4656047,-111.9293095,"1","Restaurants, Seafood, Bars, Diners, Caribbean, Nightlife"
"9",144809,"Betta Jerk","Brampton","ON","L6T",43.7395903,-79.6993696,"1","Caribbean, Restaurants"
"10",131143,"Casa Rasta","Pittsburgh","PA","15216",40.4052704,-80.0302382,"0","Mexican, Restaurants, Caribbean"
"11",114248,"Flavours","Ajax","ON","L1S 6L9",43.8543021,-79.0555956,"1","Food Delivery Services, Food, Restaurants, Caribbean"
"12",31329,"1 Love Kitchen","Toronto","ON","M5V 1Z4",43.6502718,-79.3887054,"0","Caribbean, Restaurants"
"13",78188,"Dewdney Delish","Las Vegas","NV","89108",36.196751,-115.223802,"1","Restaurants, Caribbean"
"14",166709,"The Trane Studio","Toronto","ON","M5R 3G5",43.6695092,-79.413069,"0","Restaurants, Caribbean, Nightlife, Music Venues, Arts & Entertainment, Jazz & Blues"
"15",117588,"Jam Rock Cafe and Grill","Phoenix","AZ","85007",33.4515502,-112.0964669,"0","Caribbean, Seafood, Soul Food, Cafes, Restaurants"
"16",54415,"Twilight Lounge","Charlotte","NC","28269",35.3495452064,-80.8439844847,"0","Bars, Restaurants, Trinidadian, Caribbean, Nightlife, Music Venues, Arts & Entertainment"
"17",9417,"Jerkup Central","Toronto","ON","M1S 4N7",43.789956322,-79.2689159239,"1","Gluten-Free, Restaurants, Caribbean, Event Planning & Services, Caterers"
"18",156635,"Over By Stuch","Calgary","AB","T2A",51.0524184,-113.9776231,"0","Restaurants, Caribbean, Food"
"19",35914,"Sunshine Caribbean Restaurant","Toronto","ON","M4J 1L8",43.6801301,-79.3380133,"0","Caribbean, Restaurants"
"20",83294,"Local Jerk","Montréal","QC","H2W 1G6",45.5171696,-73.5790995,"1","Restaurants, Steakhouses, Caribbean, Chicken Shop"
"21",163427,"Jamerica Food Cart","Madison","WI","53715",43.0757312674,-89.3851399991,"1","Southern, Food Stands, Caribbean, Food, Restaurants, Street Vendors"
"22",125212,"Xaymaca Restaurant","Brampton","ON","L6W 3E2",43.693045,-79.745969,"1","Caterers, Nightlife, Caribbean, Restaurants, Event Planning & Services, Sports Bars, Bars"
"23",87538,"Island Grocery","Charlotte","NC","28212",35.2039919,-80.7462014,"1","Restaurants, Caribbean, Food, Soul Food, Grocery"
"24",42508,"Casa Rasta","Pittsburgh","PA","15216",40.405401,-80.0301225,"0","Caribbean, Restaurants, Mexican"
"25",151896,"The Jerk Spot","Toronto","ON","M5V 2W9",43.6428729,-79.4070948,"0","Caribbean, Restaurants"
"26",179352,"Taste of T & T","Ajax","ON","L1S 7J4",43.8628777,-79.0181543,"1","Caribbean, Restaurants"
"27",102928,"Bubbles' Doubles","Madison","WI","53706",43.0709434125,-89.4061112931,"0","Restaurants, Food, Caribbean, Trinidadian, Food Trucks, Street Vendors"
"28",153937,"Steady's Jamaican Home Cooking","Toronto","ON","M4K 3T6",43.6839915,-79.3467715,"1","Caribbean, Restaurants"
"29",17161,"Patties Express","Toronto","ON","M5G 1G7",43.6578559,-79.381882,"1","Specialty Food, Restaurants, Ethnic Food, Bakeries, Caribbean, Food"
"30",16495,"Aunt Elsie's Carribean Kitchen","Toronto","ON","M1K 2S3",43.7362402,-79.2499133,"1","Food, Restaurants, Caribbean"
"31",80277,"Nun Such Jerk","Scarborough","ON","M1P 2L1",43.7536661,-79.2765364,"0","Restaurants, Caribbean"
"32",114386,"Caribbean Roti Palace","Toronto","ON","M5S 2R6",43.6639823,-79.4109262,"0","Restaurants, Event Planning & Services, Caribbean, Caterers"
"33",187859,"Marché Méli-Mélo","Montréal","QC","H2P 1V7",45.5447305591,-73.6275914858,"1","Restaurants, Haitian, Convenience Stores, Food, Ethnic Food, Caribbean, Cajun/Creole, Imported Food, Specialty Food, Delicatessen"
"34",68027,"O Rhéma","Montréal","QC","H2S 3C4",45.5300853,-73.6084883,"1","Seafood, Restaurants, Caribbean, Cajun/Creole"
"35",168105,"Aquarela Restaurant","Toronto","ON","M3M 1H5",43.722994,-79.4980982,"1","Restaurants, Latin American, Caribbean"
"36",46422,"Taste of Jamaica","Lyndhurst","OH","44124",41.518802,-81.49556,"1","Restaurants, Caribbean"
"37",61319,"MamaLand Resto-Lounge","Toronto","ON","M6H 3Y9",43.6588937,-79.4427568,"1","African, Lounges, Caribbean, Bars, Nightlife, Restaurants"
"38",111741,"One Love Vegetarian","Toronto","ON","M5R 3G2",43.6667741,-79.4120657,"1","Vegetarian, Restaurants, Caribbean"
"39",156402,"El New Yorican Central Catering & Delivery","Peoria","AZ","85345",33.5810937434,-112.2404557094,"0","Restaurants, Puerto Rican, Spanish, Caribbean"
"40",20366,"Pilón Dominican Kitchen","Concord","NC","28025",35.3834685,-80.5844283,"0","Dominican, Restaurants, Spanish, Caribbean"
"41",149774,"Mckoy's Caribbean Fusion","Mississauga","ON","L5J 2Y4",43.5084547,-79.6322049,"1","Caribbean, Restaurants"
"42",108161,"Patty Time","Scarborough","ON","M1P 2S8",43.7538088,-79.2520875,"1","Caribbean, Restaurants"
"43",24510,"Elvira's Belizean Cafe","Chandler","AZ","85224",33.3403592,-111.8596998,"1","Restaurants, American (Traditional), Caribbean"
"44",44220,"Roywoods Ossington","Toronto","ON","M6J 2Z7",43.6486658,-79.4207925,"1","Caribbean, Restaurants"
"45",185786,"The Jerk Spot","Toronto","ON","M1E 5K4",43.790302,-79.1957593,"0","Restaurants, Caribbean"
"46",33206,"The World Carribean Bistro","Toronto","ON","M4K 2P7",43.6769993,-79.3587876,"0","Caribbean, Restaurants"
"47",130937,"Luna Restaurant and Lounge","Charlotte","NC","28206",35.2536124,-80.805372,"0","Caribbean, Dominican, Restaurants, Salad, Latin American"
"48",141848,"Kaya","Pittsburgh","PA","15222",40.4516553,-79.9844699,"1","Restaurants, Nightlife, Bars, Latin American, Caribbean"
"49",62725,"Wok & Fortune","Toronto","ON","M1J 2E4",43.7393264837,-79.2378300199,"1","Chinese, Caribbean, Restaurants"
"50",191264,"SunRise Caribbean Restaraunt","Newmarket","ON","L3Y 3E6",44.0756472825,-79.434302263,"1","Soul Food, Restaurants, Caribbean"
"51",77984,"Kiskidee Restaurant & Bar","Ajax","ON","L1S 2C1",43.8605663,-79.0248191,"1","Caterers, Nightlife, Bars, Event Planning & Services, Caribbean, Restaurants"
"52",120524,"La Taguara Johnson","Madison","WI","53703",43.0837417,-89.3769002,"1","Caribbean, Colombian, Latin American, Restaurants, Brazilian, Cuban, Venezuelan"
"53",139807,"Cocoa's Jamaican Jerk","Charlotte","NC","28269",35.3334785,-80.796379,"1","Restaurants, Caribbean"
"54",76997,"Ange Ricky","Montréal","QC","H2P 1T4",45.5406715,-73.6305108,"0","Restaurants, Haitian, Caribbean"
"55",36782,"Potluck Restaurant","Mississauga","ON","L5A 1V9",43.58125,-79.616055,"1","Restaurants, Caribbean, Diners, Vegetarian"
"56",14067,"Village Suya","Mississauga","ON","L5C 4L2",43.5782985,-79.6612622,"1","Restaurants, Caribbean, African, Barbeque"
"57",142278,"Peppers","North York","ON","M9L 2K9",43.7596488584,-79.5703868608,"1","Indian, Restaurants, Caribbean"
"58",70337,"Jerk Spot","Toronto","ON","M5T 1L8",43.6549112,-79.3994556,"1","Caribbean, Restaurants"
"59",93193,"Caribbean Choice","Calgary","AB","T2E 2T4",51.0721549,-114.0629827,"1","Event Planning & Services, Caterers, Sandwiches, Grocery, Delis, Restaurants, Caribbean, Food"
"60",75014,"The Breadfruit & Rum Bar","Phoenix","AZ","85004",33.4557075,-112.0720114,"1","Cocktail Bars, Restaurants, Caribbean, Nightlife, Bars, Vegan, Lounges, Active Life, Seafood"
"61",14918,"Tropical Nights Roti House","Pickering","ON","L1V 3E2",43.847526153,-79.0756265322,"1","Restaurants, Caribbean"
"62",57781,"Mr Pattie","Montréal","QC","H4V 1Z2",45.4602064,-73.6543716,"1","Restaurants, Caribbean"
"63",46952,"Pelican's Patio Bar & Grill","Cornelius","NC","28031",35.481292,-80.8844,"0","Buffets, Restaurants, Caribbean"
"64",33569,"Ocean Blue Caribbean Restaurant and Bar","Chandler","AZ","85226",33.3059385,-111.9471779,"1","Restaurants, Sandwiches, Buffets, Seafood, Caribbean"
"65",174307,"Sunrise Caribbean Restaurant","Toronto","ON","M3N 2V3",43.756264,-79.518164,"1","Caribbean, Restaurants"
"66",97463,"Beryl's Pepper Pot","Toronto","ON","M4L 1G2",43.6663973,-79.3168252,"0","Caribbean, Restaurants"
"67",41603,"Carib Patties","Montréal","QC","H8R 1E8",45.4430816,-73.6486059,"1","Caribbean, Restaurants"
"68",47700,"Michael's West Indian Flavor","Toronto","ON","M8V 4C9",43.5995201976,-79.5102864872,"1","Restaurants, Canadian (New), Indian, Caribbean, Ethnic Food, Food, Specialty Food, Imported Food"
"69",119989,"Bacchus Roti Shop","Toronto","ON","M6K 1L7",43.6414885,-79.4332219,"1","Restaurants, Indian, Caribbean"
"70",174539,"Z Bar & Grille","York","ON","M6M 1T2",43.690807,-79.4712894,"1","Caterers, Caribbean, Southern, Indian, Nightlife, Bars, Event Planning & Services, Restaurants"
"71",122198,"Brampton Roti Shop","Brampton","ON","L6W 3P3",43.6884192,-79.7407323,"1","Restaurants, Caribbean"
"72",188216,"La Bodega","Calgary","AB","T2N 1V8",51.0548050702,-114.0856991047,"1","Tapas Bars, Lounges, Restaurants, Bars, Nightlife, Cajun/Creole, Mexican, Breakfast & Brunch, Caribbean"
"73",66149,"FrinGo's Kitchen","Chandler","AZ","85224",33.3375314,-111.8596545,"0","Restaurants, Latin American, Puerto Rican, Caribbean"
"74",19868,"Enmore Paradise Restaurant","Newmarket","ON","L3Y 2R2",44.0628087366,-79.4463564456,"1","Restaurants, Chinese, Caribbean"
"75",56626,"Punta Cana","Madison","WI","53713",43.034577,-89.4235659,"0","Restaurants, Caribbean"
"76",141068,"Nina's Tropical Island","Vaughan","ON","L4K 3N3",43.8116071647,-79.4817111597,"1","Soul Food, Caribbean, Restaurants"
"77",185602,"Caribbean Hut","Charlotte","NC","28262",35.3171887,-80.7391541,"1","Caribbean, Restaurants, Soul Food"
"78",151384,"Sabor de Puerto Rico","Charlotte","NC","28208",35.2463499037,-80.9040200338,"1","Puerto Rican, Restaurants, Spanish, Caribbean"
"79",41882,"Ceylon Flavor","Toronto","ON","M1X 0A5",43.8363841,-79.2510473,"0","Asian Fusion, Ethnic Food, Health Markets, Specialty Food, Restaurants, Caribbean, Indian, Sri Lankan, Southern, Food"
"80",128180,"Soul Jerk","Toronto","ON","M6A 2S9",43.71456104,-79.4548845927,"1","Restaurants, Caribbean, Soul Food"
"81",188082,"Twilight Family Restaurant & Bar","Scarborough","ON","M1S 3L1",43.792085,-79.2595355,"1","Restaurants, Nightlife, Bars, Caribbean"
"82",166122,"Vena's Restaurant","Toronto","ON","M6H 1N7",43.6584445,-79.4417519,"1","Restaurants, Caribbean"
"83",115227,"The Canal Club","Scottsdale","AZ","85251",33.5088053,-111.9252515,"1","American (New), Latin American, Caribbean, Restaurants, Cuban"
"84",108894,"The Jerk Joint","Toronto","ON","M5V 1Z9",43.650344,-79.390459,"0","Specialty Food, Ethnic Food, Food, Caribbean, Restaurants"
"85",107048,"Drupati's Doubles and Roti Shop","Toronto","ON","M1H 3C7",43.7754964,-79.2419031,"1","Caribbean, Restaurants, Indian"
"86",121533,"Allwyn's Bakery","Toronto","ON","M3A 1K8",43.7459284,-79.3246225,"1","Bakeries, Food, Restaurants, Caribbean"
"87",151559,"Tropical Nights Restaurant & Lounge","Toronto","ON","M1B",43.800607,-79.199402,"1","Restaurants, Caribbean, Nightlife, Lounges, Chinese, Bars"
"88",159106,"Kalalu Fusion Caraibes","Montréal","QC","H2J 2K9",45.522903,-73.580071,"0","Caribbean, Restaurants"
"89",49942,"Ernie's Caribbean Restaurant","North York","ON","M3N 2L2",43.7696049,-79.5214291,"1","Restaurants, Caribbean"
"90",22100,"Jerk Hut Jamaican Grille","Phoenix","AZ","85015",33.4956607,-112.0997467,"0","Caribbean, Latin American, Breakfast & Brunch, Food, Restaurants"
"91",181942,"Rasta House Caribbean Resturant","Pittsburgh","PA","15212",40.456127,-80.006524,"0","Caribbean, Restaurants"
"92",36789,"The Avenue Restaurant & Lounge","Scarborough","ON","M1H 3C7",43.7754726,-79.2415026,"1","American (Traditional), Caribbean, Nightlife, Lounges, Cocktail Bars, Bars, Restaurants, Chinese"
"93",180649,"Alima's Roti and Pastry","Brampton","ON","L6T 5K9",43.7357084,-79.6490702,"1","Restaurants, Caribbean, Specialty Food, Food, Indian"
"94",81760,"Irie Food Joint","Toronto","ON","M6J 1G1",43.646449,-79.4071412,"0","Caribbean, Restaurants"
"95",137628,"Palme","Montréal","QC","H2L 2H9",45.5210222,-73.5540002,"1","Cajun/Creole, Cafes, Caribbean, Restaurants"
"96",92334,"Quisqueya La Bella","Cleveland","OH","44102",41.4698021,-81.7189132,"1","Dominican, Caribbean, Restaurants, Latin American"
"97",80605,"Havana Cafe","Phoenix","AZ","85018",33.509198,-111.988715,"0","Spanish, Cuban, Restaurants, Caribbean"
"98",185082,"Ackee Tree Dynamite Jamaican Jerk","Toronto","ON","M5A 1T1",43.6559115,-79.3637094,"1","Caribbean, Restaurants"
"99",12017,"Jamaican Joint Catering","Las Vegas","NV","89103",36.1104125,-115.2067011,"1","Restaurants, Food, Event Planning & Services, Caterers, Caribbean, Food Delivery Services, Street Vendors"
"100",132186,"Boom J's Cuisine","Montréal","QC","H3K 1W7",45.4788153,-73.5588964,"1","Caribbean, Restaurants"
"101",149475,"Taste Seduction","Toronto","ON","M6P 2K9",43.6661321,-79.4644767,"1","Restaurants, Event Planning & Services, Caterers, Caribbean"
"102",160086,"Pauline's Caribbean Soul Cuisine","Pittsburgh","PA","15212",40.4561256,-80.0065359,"1","Caribbean, Restaurants"
"103",48811,"Ackee Tree","Toronto","ON","M9W 5L7",43.7286458,-79.6082722,"1","Restaurants, Caribbean"
"104",132937,"El New Yorican Puerto Rican","Phoenix","AZ","85017",33.4810607,-112.1189212,"0","Caribbean, Puerto Rican, Restaurants, Latin American"
"105",113259,"Negril Jerk Food","Markham","ON","L3S 1Y5",43.8330612,-79.268837,"1","Canadian (New), Restaurants, Caribbean"
"106",39820,"Simone's Caribbean Restaurant","Toronto","ON","M4K 1R1",43.6787481,-79.3465337,"1","Caribbean, Restaurants"
"107",55952,"Allwyn's Bakery","Toronto","ON","M8Z 1P6",43.6240062,-79.5142003,"1","Caribbean, Food, Restaurants, Bakeries"
"108",61341,"Cafe Costa Rica","Madison","WI","53703",43.0825782,-89.3649184,"0","Caribbean, Latin American, Restaurants"
"109",156924,"Island Palace","Mississauga","ON","L4Y",43.6043257,-79.5894176,"0","Caribbean, Restaurants"
"110",78307,"Anntony's Caribbean Cafe","Charlotte","NC","28269",35.3354357,-80.7962394,"1","Restaurants, Chicken Wings, Barbeque, Caribbean, Seafood, Salad"
"111",188471,"Room Service Toronto","Toronto","ON","M6E 3A4",43.6793591,-79.4374897,"0","Caribbean, Restaurants"
"112",942,"Cheeseburger in Paradise","Middleton","WI","53562",43.0907640772,-89.5292315087,"0","Caribbean, American (Traditional), American (New), Burgers, Restaurants"
"113",87248,"Gem's House of Jerk","Brampton","ON","L6X 0G6",43.7026239,-79.7856743,"1","Caribbean, Chicken Shop, Restaurants"
"114",74435,"Goat Post Tropical Grill","Las Vegas","NV","89147",36.1135597,-115.2610867,"0","Restaurants, Caribbean, Latin American"
"115",1271,"The Tasty Bowl Subs N Such","Charlotte","NC","28273",35.1328203,-80.9529974,"1","Thai, Caribbean, Restaurants, Indian, Fast Food, Mexican, Sandwiches, Italian"
"116",173498,"Debe's Roti & Doubles","Toronto","ON","M3N 2J5",43.7523768,-79.5163725,"1","Restaurants, Cafes, Bars, Lounges, Caribbean, Nightlife"
"117",68380,"Delicious by Aldu Dominican Cuisine","Gilbert","AZ","85296",33.3346675,-111.7844293,"1","Burgers, Beer, Wine & Spirits, Sandwiches, Latin American, Nightlife, Salad, Breakfast & Brunch, Dominican, Soup, Restaurants, Caribbean, Food, Bars"
"118",74631,"Moxie's Grill & Bar","Calgary","AB","T2Y 3P3",50.9066235,-114.0672874,"1","Steakhouses, Food, Lounges, Canadian (New), Bars, Nightlife, Caribbean, Restaurants, American (Traditional)"
"119",51105,"Golden Stool Restaurant and Lounge","Brampton","ON","L6X 1B6",43.6861517801,-79.7622923258,"1","Bars, Restaurants, African, Nightlife, Lounges, Caterers, Event Planning & Services, Cocktail Bars, Caribbean"
"120",119209,"Sol Caribe Puerto Rican Cuisine","Scottsdale","AZ","85257",33.4662738,-111.9004743,"0","Restaurants, Puerto Rican, Caribbean"
"121",37724,"Pam's Caribbean Kitchen","Toronto","ON","M6H 1L1",43.6619057,-79.4265158,"0","Caribbean, Restaurants"
"122",62839,"Chefydrew's International Cuisine","Toronto","ON","M5A 1Z8",43.658124,-79.3724253,"0","Restaurants, French, Italian, Caribbean"
"123",113933,"Caribbean Chophouse","Toronto","ON","M1S 1S8",43.7835431,-79.2866707,"0","Caribbean, Restaurants"
"124",27329,"Ti-Mama","Verdun","QC","H4G 1N1",45.4571558,-73.571723,"0","Caribbean, Restaurants, Haitian"
"125",709,"Saveur Soleil","Montréal","QC","H2K 1T8",45.5267707,-73.5584808,"1","Seafood, Caribbean, Cajun/Creole, Restaurants, American (Traditional)"
"126",34193,"Pinchos El Bori","Charlotte","NC","28205",35.2269079,-80.8367258,"1","Restaurants, Caribbean, Puerto Rican, Food, Food Trucks"
"127",51783,"Musa Caribbean / Cajun Fare","Pittsburgh","PA","15216",40.4019969,-80.0313946,"1","Cajun/Creole, Restaurants, Caribbean"
"128",136067,"Caribbean Desire","Brampton","ON","L6W 3W8",43.6628794,-79.7277186,"1","Chinese, Restaurants, Caribbean"
"129",128615,"Friendship Restaurant","Scarborough","ON","M1T 3J4",43.77586,-79.322451,"1","Restaurants, Caribbean"
"130",172336,"Tassot Créole","Laval","QC","H7M 4M2",45.610642,-73.735443,"1","Haitian, Restaurants, Caribbean"
"131",167167,"Allspice Bakery Cafe","Mississauga","ON","L5L 5S3",43.5253171,-79.6842468,"0","Ethnic Food, Specialty Food, Restaurants, Coffee & Tea, Bakeries, Food, Caribbean, Imported Food"
"132",159137,"Savourez","Montréal","QC","H2X 2H5",45.5089737,-73.5728085,"0","Soul Food, Sandwiches, Caribbean, Restaurants"
"133",103097,"Uptown Fine Carribean","Scarborough","ON","M1H 2Z9",43.781981,-79.234442,"0","Food Delivery Services, Caribbean, Restaurants, Food"
"134",179972,"Caribbean Hut","Gastonia","NC","28056",35.2617473963,-81.1247755587,"1","Restaurants, Caribbean"
"135",140913,"Jerk King","Toronto","ON","M6G 1K1",43.6653403,-79.4102561,"1","Caribbean, Restaurants"
"136",22694,"Charlie's Caribbean Cuisine","Mississauga","ON","L5A 2G9",43.5815515,-79.6175495,"1","Restaurants, Caribbean"
"137",171839,"Vishnu's Doubles & Roti Shop","Brampton","ON","L6Z 0C5",43.720368,-79.782015,"1","Caribbean, Restaurants"
"138",185819,"De Mi Tierra Restaurant","Scottsdale","AZ","85257",33.4666298,-111.9000416,"0","Caribbean, Restaurants, Peruvian, Latin American, Puerto Rican, Dominican"
"139",169387,"La Taguara","Madison","WI","53704",43.1146792,-89.3285605,"1","Restaurants, Colombian, Venezuelan, Latin American, Caribbean"
"140",159625,"Mr. Jerk","Markham","ON","L3R 1M1",43.8607802,-79.3114199,"1","Caribbean, Fast Food, Restaurants"
"141",44806,"Fahmee Bakery & Jamaican Foods","Toronto","ON","M1V 1H8",43.8101261,-79.2798044,"1","Restaurants, Caribbean"
"142",170059,"Peter's Reggae Kitchen","North York","ON","M2J 4A8",43.7883567,-79.3291698,"0","Barbeque, Restaurants, Caribbean"
"143",121916,"Bienvenue Chez Fusion","Montréal","QC","H4G 1N1",45.4571558,-73.571723,"1","Caribbean, Cajun/Creole, Haitian, African, Restaurants"
"144",36150,"Hot Pot Restaurant","Toronto","ON","M6E 2G8",43.6974669682,-79.4413521141,"1","Food, Caribbean, Restaurants"
"145",143375,"Country Style Jamaican Restaurant","Cleveland","OH","44105",41.444873557,-81.5909201053,"1","Restaurants, Caribbean, Chicken Shop"
"146",174849,"Cleveland Mofongo Latin Grill","Cleveland","OH","44111",41.4617422,-81.7683554,"1","Food, Latin American, Caribbean, Restaurants, Desserts"
"147",92673,"Los Reyes 2","Charlotte","NC","28227",35.160978,-80.7400635,"1","Caribbean, Food, Restaurants, Mexican, Specialty Food, Meat Shops, Convenience Stores"
"148",183372,"Cabaret du Roy","Montréal","QC","H2Y 1J3",45.5091064,-73.5511025,"0","Canadian (New), Caribbean, Restaurants, Gastropubs"
"149",159819,"Radio Maria","Champaign","IL","61820",40.1171306,-88.2426005,"1","Caribbean, Breakfast & Brunch, Cajun/Creole, Restaurants, Mexican, Spanish, Basque"
"150",191014,"Hakka Bro's","North York","ON","M3J 3H6",43.7544332083,-79.4877773766,"1","Hakka, Caribbean, Halal, Chinese, Restaurants, Indian"
"151",134671,"Mangoes Restaurant","Toronto","ON","M8V 1C5",43.6130140653,-79.4893812173,"1","Restaurants, Caribbean, Canadian (New)"
"152",61561,"Mango's Caribbean Restaurant","Charlotte","NC","28205",35.24659,-80.80596,"1","Caribbean, Restaurants"
"153",39886,"Delly's Jerk Shack","Phoenix","AZ","85013",33.5080943,-112.0863874,"1","Food, Food Trucks, Caribbean, Restaurants"
"154",144357,"Tasty's Caribbean Restaurant","Toronto","ON","M5T 2G6",43.6567777,-79.3992574,"1","Caribbean, Butcher, Restaurants, Food"
"155",40153,"Starlite Family Restaurant","Toronto","ON","M1P 3R1",43.7671591,-79.2704479,"1","Cocktail Bars, Bars, Caribbean, Nightlife, Restaurants, Karaoke"
"156",8678,"Caribbean Authentic Restaurant","Mississauga","ON","L5T 2M9",43.648867,-79.686558,"1","Caribbean, Restaurants"
"157",133773,"Fourchette Antillaise","Montréal","QC","H4J 1J8",45.526989,-73.713709,"1","Cajun/Creole, Buffets, Restaurants, Caribbean"
"158",74011,"Tropical Delights","Charlotte","NC","28262",35.3121668,-80.7450891,"0","Haitian, Caribbean, Puerto Rican, Dominican, Restaurants"
"159",130571,"Mr Jerk","North York","ON","M2J 3C1",43.7858985216,-79.3526012,"1","Caribbean, Restaurants"
"160",100720,"Finga Lickin' Caribbean Eatery","Charlotte","NC","28205",35.2368058,-80.8010738,"1","Caribbean, Pizza, Internet Cafes, Food, Restaurants"
"161",28237,"Sofrito Rico Authentic Puerto Rican Cuisine","Las Vegas","NV","89146",36.1588302,-115.2111651,"1","Restaurants, Caribbean, Food, Latin American, Farmers Market, Puerto Rican"
"162",45476,"Vital Life","Toronto","ON","M5T",43.6543636272,-79.3993415354,"0","Restaurants, Caribbean, Vegan, Vegetarian"
"163",90475,"Mitaza","Toronto","ON","M1E 3G1",43.7715993,-79.1869592,"0","Canadian (New), Restaurants, Pizza, Caribbean, Food, African"
"164",27571,"Sunrise Caribbean Restaurant","Brampton","ON","L6T 2J5",43.707978,-79.7334769,"1","Caribbean, Restaurants"
"165",106890,"Caribbean Taste","Toronto","ON","M5A 4M8",43.6495772,-79.3652122,"0","Caribbean, Restaurants"
"166",163744,"Leela's Roti & Doubles","Mississauga","ON","L5C 4L3",43.5777434993,-79.6619912502,"1","Halal, Vegetarian, Caribbean, Indian, Restaurants, Food"
"167",101116,"Tommy Bahama Restaurant | Bar | Store - Las Vegas","Las Vegas","NV","89119",36.0684969257,-115.1769306291,"1","Restaurants, Caribbean, Seafood, American (New), Hawaiian"
"168",77772,"Mambo's Dominican Kitchen","Chandler","AZ","85225",33.3345013,-111.842792,"1","Latin American, Bars, Restaurants, Nightlife, Dominican, Caribbean"
"169",98570,"Caribbean Cabana","Markham","ON","L3P",43.8414954987,-79.27813299,"1","Chinese, Caribbean, Restaurants, Halal"
"170",103121,"The Jerk Box","Toronto","ON","M9N",43.7026700918,-79.5038488,"1","Caribbean, Restaurants"
"171",181587,"Island Foods","Toronto","ON","M5T 1G1",43.6544272,-79.3903373,"0","Caribbean, Restaurants"
"172",36852,"Street Shak Caribbean Kitchen","Toronto","ON","M6J 1E4",43.6468623,-79.4062783,"0","Restaurants, Caribbean"
"173",181023,"Randy's Take-Out","York","ON","M6E 2G9",43.6972407,-79.4424595,"1","Restaurants, Caribbean"
"174",144427,"David's Jamaican Cuisine","Monona","WI","53716",43.0585887,-89.3252664,"1","Restaurants, Caribbean"
"175",112232,"Esther's Jamaican Food","Glendale","AZ","85302",33.5674858,-112.1675112,"0","Restaurants, Caribbean"
"176",87976,"Sazon Bachata Restaurant","Phoenix","AZ","85007",33.4580382,-112.0914374,"0","Dominican, Caribbean, Restaurants"
"177",11914,"Jerk Spot","Toronto","ON","M5V 2G7",43.6480131,-79.3931822,"0","Restaurants, Caribbean"
"178",27934,"Sabor Latin Street Grill - Indian Trail","Indian Trail","NC","28079",35.078671,-80.653514,"1","Mexican, Restaurants, Caribbean, Latin American, Food, Desserts"
"179",87518,"Spotlight Caribbean Resturant","Etobicoke","ON","M9W 7K4",43.7153057,-79.5928985,"1","Nightlife, Breakfast & Brunch, Food, Dance Clubs, Caribbean, Restaurants"
"180",16701,"Cafe Costa Rica","Madison","WI","53703",43.0748397823,-89.3976026773,"1","Restaurants, Food Trucks, Latin American, Food Stands, Food, Caribbean"
"181",155986,"The Campus Grille","Berea","OH","44017",41.3666166002,-81.8512780219,"1","Restaurants, Fast Food, Latin American, Puerto Rican, Food, Spanish, Caribbean"
"182",37914,"Sunrise Caribbean Restaurant","Brampton","ON","L6Y 5X6",43.6654062,-79.7807694,"1","Ethnic Food, Food, Imported Food, Caribbean, Restaurants, Specialty Food"
"183",95782,"Yummy Jerk","Markham","ON","L6E 0B7",43.907233,-79.266688,"0","Restaurants, Caribbean"
"184",44593,"Jamaican Spice","Las Vegas","NV","89130",36.2393538428,-115.2327724016,"0","Caribbean, Restaurants, Chicken Wings"
"185",33728,"Puerto Rico Express","Las Vegas","NV","89104",36.1524828,-115.1519298,"1","Caribbean, Restaurants, Puerto Rican"
"186",45240,"Amaze Us","Brampton","ON","L6X 2R6",43.681921,-79.765713,"0","Caribbean, Restaurants"
"187",76869,"Willy's Jerk","North York","ON","M3J 1N6",43.7608071,-79.4896158,"1","Restaurants, Caribbean"
"188",68860,"Mr Big's Family Restaurant","Mississauga","ON","L5L 1V3",43.5367884,-79.687044,"1","Restaurants, Caribbean"
"189",51847,"Drupati's Doubles & Roti","Ajax","ON","L1S 3V4",43.8418067,-79.0282404,"1","Caribbean, Restaurants"
"190",77794,"Green Grato Restaurant","Calgary","AB","T2A 0R1",51.0370397,-113.9884142,"0","Pizza, Caribbean, Restaurants"
"191",111891,"Tommy Bahama Restaurant | Bar | Store - Scottsdale","Scottsdale","AZ","85254",33.624639,-111.930337,"1","Caribbean, Seafood, Hawaiian, American (New), Restaurants"
"192",95530,"House of Manchester Primal Brasserie -Organic Gluten-Free Fusion","North Las Vegas","NV","89030",36.2011662,-115.1389362,"1","Coffee & Tea, Food, Gluten-Free, Barbeque, Caribbean, Juice Bars & Smoothies, Restaurants"
"193",68716,"George's Tastee","Richmond Hill","ON","L4B",43.8484027,-79.3819863,"1","Caribbean, Restaurants"
"194",92618,"Subs N Such","Charlotte","NC","28269",35.3509222,-80.8416534,"0","Salad, Restaurants, Sandwiches, Greek, Hot Dogs, Cheesesteaks, Fast Food, Caribbean"
"195",136200,"Caribbean Lyme","Etobicoke","ON","M9V 1C1",43.7443155797,-79.6057593655,"1","Restaurants, African, American (Traditional), Caribbean"
"196",163447,"Casse-Croûte Sissi & Paul","Montréal","QC","H2A 1T6",45.553933,-73.602052,"1","Caribbean, Restaurants, Haitian"
"197",164097,"Lakay Caribbean Restaurant","Toronto","ON","M1K",43.7245895,-79.2646986,"0","Restaurants, Caribbean"
"198",74541,"The Peoples Caribbean Dutchpot","Toronto","ON","M4K 2P6",43.6759539,-79.3584181,"1","Caribbean, Restaurants"
"199",55924,"Da House Of Jerk","Etobicoke","ON","M9W 7J6",43.7210755,-79.6137669,"1","Caribbean, Restaurants"
"200",50729,"Pat's Homestyle Jamaican Restaurant","Toronto","ON","M5V 2B5",43.6475489,-79.4031942,"1","Caribbean, Food, Restaurants"
"201",38400,"Lena's Roti & Doubles","Brampton","ON","L6S",43.7473961,-79.6946371,"1","Indian, Restaurants, Caribbean"
"202",80133,"Big Jerk","Las Vegas","NV","89183",36.0145842,-115.1540219,"1","Restaurants, Caribbean"
"203",93594,"Chef De La maison Roti","LaSalle","QC","H8N 1T3",45.4279666,-73.6292712,"1","Caribbean, Restaurants"
"204",187159,"Island Hub Restaurant & Lounge","Charlotte","NC","28205",35.1999220757,-80.7956879586,"0","Caribbean, Nightlife, Lounges, Bars, Cajun/Creole, Restaurants, American (New)"
"205",109405,"Caribbean Bistro","Toronto","ON","M4P 1A1",43.7108022,-79.3990472,"0","Restaurants, Caribbean"
"206",108784,"Island Sunset","Toronto","ON","M1B",43.8008177291,-79.1984684301,"1","Restaurants, Caribbean"
"207",23018,"Red Snapper Cafe","Ajax","ON","L1S 2H3",43.8510242,-79.0237337,"1","Beer, Wine & Spirits, Ethnic Food, Imported Food, Caribbean, Specialty Food, Restaurants, Food"
"208",154157,"My Boricua Kitchen","Charlotte","NC","28303",35.3284362224,-80.7386656859,"1","Caribbean, Food Trucks, Puerto Rican, Food, Restaurants"
"209",191421,"Steve Anna","Montréal","QC","H1X 1A1",45.557919,-73.5931674,"1","Haitian, Restaurants, Caribbean"
"210",170824,"Under The Table Restaurant","Toronto","ON","M4X 1P8",43.6674228,-79.3694556,"0","Food, Comfort Food, Restaurants, Breakfast & Brunch, Caribbean"
"211",95567,"Bon Appetit Des Caraibes","Montreal","QC","H4C 1P2",45.48045,-73.579231,"0","Restaurants, Caribbean, Food"
"212",138477,"Molly's Hotte Shoppe- Roti & Doubles","Brampton","ON","L6S 0C1",43.7481807,-79.714966,"1","Restaurants, Caribbean"
"213",125942,"Sunrise Caribbean Restaurant","Toronto","ON","M3L 1A3",43.7212592,-79.511992,"1","Caribbean, Restaurants"
"214",115965,"Island Sensation Cuisine","Phoenix","AZ","85014",33.4951621328,-112.0633343607,"1","Restaurants, Caterers, Event Planning & Services, Caribbean"
"215",55968,"Cosmokat","Phoenix","AZ","85224",33.3391887,-111.8601656,"0","Caribbean, Hair Salons, Beauty & Spas, Hair Stylists, Dominican, Restaurants"
"216",146188,"Caribu West Indian Cuisine","Toronto","ON","M9M",43.7485766,-79.5417171,"1","Bars, Nightlife, Indian, Caribbean, Restaurants"
"217",154814,"First Class Delites","York","ON","M6M 4P4",43.6871194,-79.4901131,"1","Caribbean, Restaurants"
"218",107864,"Living Well","Toronto","ON","M3N 2V2",43.7571755,-79.5172087,"0","Food, Caribbean, Ethnic Food, Specialty Food, Restaurants"
"219",125784,"Annie's Cuisine","Toronto","ON","M6S 3Z3",43.6581999649,-79.4877670705,"1","Chicken Shop, Restaurants, Caribbean"
"220",149374,"Jamaica Stamp","Toronto","ON","M1K 4G8",43.7420037181,-79.2608663861,"1","Caribbean, Restaurants"
"221",169698,"Mi Barrio Halal Latin Grill","Charlotte","NC","28227",35.160978,-80.7400635,"1","Halal, Caribbean, Dominican, Restaurants, Seafood, Chicken Shop"
"222",180321,"Boulangerie Spicee","Montréal","QC","H3W 2T3",45.497384,-73.643923,"1","Bakeries, Restaurants, Caribbean, Food"
"223",183120,"Caribbean Curry House","Montréal","QC","H3W 1B8",45.4971574,-73.6442371,"1","Caribbean, Restaurants"
"224",186477,"Island Hot & Spicy","Toronto","ON","M5C 1S6",43.6537864,-79.3737592,"1","Caribbean, Restaurants"
"225",43660,"Caribbean Cooker","Henderson","NV","89012",36.0272975,-115.0473614,"0","Restaurants, Food, Caribbean, Specialty Food, Ethnic Food"
"226",45731,"Caribbean Market Place","Phoenix","AZ","85051",33.553509,-112.14994,"0","Soul Food, Trinidadian, Food, Ethnic Food, Grocery, Restaurants, Specialty Food, Caribbean"
"227",185817,"Sabor Latin Street Grill - Steele Creek","Charlotte","NC","28273",35.1172665,-80.9616367,"1","Restaurants, Latin American, Caribbean, Mexican"
"228",92921,"Coconut Bistro","Las Vegas","NV","89121",36.1296022,-115.1085145,"0","Caribbean, Restaurants"
"229",87356,"Hula's Modern Tiki","Phoenix","AZ","85014",33.511674,-112.065318,"1","Restaurants, Seafood, Caribbean, Hawaiian"
"230",166967,"Kitchen King West Indian Restaurant & Catering","Scarborough","ON","M1H 3G3",43.7809998,-79.2358636,"1","Soul Food, Caribbean, Event Planning & Services, Restaurants, Caterers, Indian"
"231",93218,"Caribbean Wave","Toronto","ON","M1B 5N6",43.799614047,-79.1947895514,"1","Caribbean, Restaurants"
"232",57816,"Barroco","Cleveland","OH","44120",41.4874122,-81.5937045,"1","Colombian, Bars, Nightlife, Venezuelan, Latin American, Restaurants, Caribbean"
"233",162658,"Margaritaville","Glendale","AZ","85305",33.5337727,-112.2617176,"0","American (New), Bars, Cajun/Creole, Nightlife, Arts & Entertainment, Restaurants, American (Traditional), Music Venues, Caribbean"
"234",175229,"Pauline's Roti & Pelau Shop","Scarborough","ON","M1B 1N1",43.7955646,-79.2271257,"1","Caribbean, Restaurants"
"235",34064,"Rainbow Bakery","Lorain","OH","44055",41.4442295,-82.1364827,"1","Caribbean, Bakeries, Food, Restaurants, Puerto Rican, Grocery"
"236",161416,"Mainsha Restaurant","North York","ON","M6A 2T4",43.7209698,-79.456164,"0","Asian Fusion, Caribbean, Restaurants"
"237",42477,"El Habanero & Churrobar","Toronto","ON","M1V 4Z4",43.8271892,-79.2909971,"1","Caterers, Food, Event Planning & Services, Caribbean, Cuban, Latin American, Donuts, Desserts, Spanish, Restaurants"
"238",62450,"Caribbean Grill Food Truck","Urbana","IL","61801",40.1134691,-88.2074338,"1","Caterers, Food Trucks, Food, Event Planning & Services, Desserts, Street Vendors, Caribbean, Restaurants"
"239",56608,"Palm Palace","Brampton","ON","L6W 3E7",43.6895996,-79.7384316,"1","Caribbean, Food, Indian, Chinese, Restaurants"
"240",191498,"Mr Jerk","North York","ON","M6L 1A4",43.7092188,-79.4765471,"1","Event Planning & Services, Caterers, Canadian (New), Caribbean, Restaurants, American (New)"
"241",20338,"Spade Bar & Lounge","Toronto","ON","M1V 5G2",43.8239635722,-79.2481405288,"1","Caribbean, Restaurants, International, Nightlife, Bars, Lounges"
"242",79550,"The Vineyard","Brampton","ON","L6P 2R1",43.784323,-79.663082,"1","Restaurants, Caribbean"
"243",188570,"Nicey's Eatery","Toronto","ON","M1B 2W4",43.8120515,-79.2439501,"1","Restaurants, Caribbean"
"244",43009,"Leon's Caribbean Restaurant","Pittsburgh","PA","15210",40.4219059,-79.9927969,"1","Restaurants, Comfort Food, Seafood, Caribbean"
"245",36906,"Sports One Bar & Lounge","Charlotte","NC","28202",35.2299028,-80.8372815,"1","Restaurants, Bars, Sports Bars, Nightlife, Caribbean, Lounges"
"246",127668,"Anancy","Brossard","QC","J4Y 1A4",45.4458733,-73.4699074,"0","Restaurants, Caribbean"
"247",190659,"Sunrise Caribbean Restaurant","Scarborough","ON","M3J 3K2",43.792576,-79.239335,"1","Food Delivery Services, Food, Caribbean, Restaurants"
"248",31630,"Gem's House Of Jerk","Brampton","ON","L6T",43.7626371831,-79.7223359719,"1","Caribbean, Restaurants"
"249",88580,"George's Tastee Bakery & Deli","Markham","ON","L3R 1B9",43.8243089,-79.3422432,"1","Caribbean, Sandwiches, Delis, Restaurants"
"250",17399,"Island Mix Restaurant & Lounge","Vaughan","ON","L4K 5Y6",43.8286745,-79.537128,"1","Nightlife, Lounges, Bars, Restaurants, Caribbean"
"251",64778,"I Love Roti","Pickering","ON","L1V 4L9",43.8487646,-79.0714882,"1","Caribbean, Restaurants"
"252",56555,"Patty King Bakery","Scarborough","ON","M1P 2Z7",43.773591,-79.2680632,"1","Restaurants, Food, Caribbean, Bakeries"
"253",67632,"Island Pot","Mississauga","ON","L5A 4E4",43.5819682,-79.6185932,"0","Caribbean, Restaurants, Barbeque, Vegetarian"
"254",130270,"Oasis","Montréal","QC","H2K 3K4",45.5157615,-73.564602,"0","Restaurants, Specialty Food, Caribbean, Food"
"255",118967,"Island Style","Cleveland","OH","44112",41.5379422,-81.5578387,"1","Restaurants, Caribbean"
"256",20155,"Sunrise Caribbean Restaurant","Brampton","ON","L7A 2X6",43.6963155,-79.8007812,"1","Restaurants, Caribbean"
"257",35951,"Jardin du Cari","Montréal","QC","H2T 1S8",45.5258341,-73.5992209,"1","Restaurants, Sandwiches, Caribbean"
"258",48790,"Brother's Jamaican","Newmarket","ON","L3Y 5L8",44.0383968609,-79.4776685536,"0","Restaurants, Caribbean"
"259",36966,"Carribean Queen Metro","Toronto","ON","M5B 0A1",43.6563733,-79.3810608,"1","Restaurants, Caribbean"
"260",7414,"Mynt Restaurant & Lounge","Charlotte","NC","28203",35.2192722,-80.860728,"0","Bars, Restaurants, Lounges, Caribbean, Nightlife"
"261",123760,"The Diner's Corner","Toronto","ON","M4Y 1W6",43.6670308,-79.3862151,"1","Nightlife, Canadian (New), Bars, Caribbean, Restaurants"
"262",157877,"Pour Coffeehouse","Las Vegas","NV","89119",36.0661492,-115.1190162,"1","Caribbean, Sandwiches, Vegan, Juice Bars & Smoothies, Coffee & Tea, American (Traditional), Cafes, Restaurants, Food, Desserts"
"263",6071,"Sunrise Caribbean Restaurant","Mississauga","ON","L4W 1V5",43.6255228,-79.604745,"1","Caribbean, Ethnic Food, Specialty Food, Imported Food, Restaurants, Food"
"264",167563,"CoolVybz Jamaican Restaurant","Phoenix","AZ","85021",33.5543,-112.109342,"1","Caribbean, Restaurants"
"265",176667,"Triple Z Roti Shop","Toronto","ON","M6P 1Y8",43.6655443,-79.466533,"0","Restaurants, Caribbean"
"266",87146,"Mama's Authentic Caribbean Restaurant","Toronto","ON","M6B 3H9",43.7067653,-79.4426656,"0","Restaurants, Caribbean"
"267",149436,"Mainsha Restaurant","York","ON","M6E 2G9",43.6972637,-79.4420615,"1","Caribbean, Indian, Restaurants"
"268",102511,"Roti Roti Family Restaurant","Etobicoke","ON","M9V 1A6",43.7361616,-79.5637026,"1","Restaurants, Caribbean"
"269",167130,"Nanalyn Jerk","North York","ON","M3H 2V8",43.7520816,-79.4570888,"1","Restaurants, Caribbean"
"270",85542,"Radica's Hot & Spicy","Mississauga","ON","L5L 1P5",43.5254633135,-79.6837564185,"1","Restaurants, Caribbean"
"271",184012,"Lloyd's Patty Plus","Calgary","AB","T2A 5K4",51.0498836,-113.9930936,"1","Restaurants, Caribbean, Food, Bakeries"
"272",85064,"Tasty Island Jamaican Restaurant","Las Vegas","NV","89103",36.1149232457,-115.2413547185,"1","Delis, Caribbean, Restaurants"
"273",114712,"Saona Dominican Restaurant & Bar","Charlotte","NC","28205",35.2500759,-80.7813192,"1","Restaurants, Food, Caribbean, Dominican, Latin American"
"274",99697,"Caribbean Fusion","Scottsdale","AZ","85257",33.475302,-111.925588,"0","Restaurants, Caribbean"
"275",295,"Mama's Caribbean Bar & Grill","Charlotte","NC","28205",35.2201956,-80.8131952,"1","Caribbean, Restaurants"
"276",80323,"Irie Vibes Caribbean Restaurant & Catering","Charlotte","NC","28206",35.2497143,-80.8155085,"1","Caribbean, Caterers, Restaurants, Specialty Food, Desserts, Food, Event Planning & Services, Seafood"
"277",27836,"Lawrence Caribbean Restaurant","Charlotte","NC","28208",35.2085506,-80.9134552,"1","Restaurants, Caribbean"
"278",120644,"Roti Vybz","Mississauga","ON","L5N 1A1",43.5896740999,-79.7227966413,"0","Restaurants, Caribbean"
"279",54135,"Ital Vital","Scarborough","ON","M1L 3J4",43.7172743,-79.2936906,"1","Juice Bars & Smoothies, Caribbean, Restaurants, Food, Vegan"
"280",125269,"Jerk King","Toronto","ON","M6H 1M8",43.6601965,-79.4346244,"1","Restaurants, Food, Ethnic Food, Caribbean, Imported Food, Specialty Food"
"281",154585,"Phoenix Coqui","Phoenix","AZ","85013",33.509051494,-112.0833296817,"1","Food, Puerto Rican, Food Delivery Services, Event Planning & Services, Food Trucks, Caterers, Caribbean, Restaurants"
"282",42979,"Albert's Real Jamaican Foods","Toronto","ON","M6C 1A5",43.6828895,-79.4207974,"1","Caribbean, Event Planning & Services, Caterers, Restaurants"
"283",33857,"Caribbean Marketplace Grill","Phoenix","AZ","85015",33.495662,-112.0996213,"1","Restaurants, Fast Food, Caribbean"
"284",71764,"Sunrise Restaurant","Brampton","ON","L6W 0A7",43.67407989,-79.7236633301,"1","Restaurants, Caribbean"
"285",10629,"Caribbean Restaurant Montreal","Montréal","QC","H4A 1Z3",45.474352,-73.60429,"0","Caterers, Caribbean, Restaurants, Event Planning & Services"
"286",66552,"El Wiscorican","Madison","WI","53703",43.0824892059,-89.3706132844,"1","Food, Restaurants, Puerto Rican, Food Trucks, Caribbean"
"287",106652,"Roti Roll Caribbean Cuisine","Toronto","ON","M5B",43.6582489,-79.3812866,"1","Restaurants, Indian, Caribbean"
"288",71547,"The New Caribbean Queen Jerk Drum","Toronto","ON","M9M",43.7498835,-79.5419598,"1","Restaurants, Caribbean"
"289",167917,"Quidleys Delight","Charlotte","NC","28262",35.3146025,-80.7024203,"1","Restaurants, Seafood, Caribbean, Comfort Food, Vegetarian, Soup, Breakfast & Brunch"
"290",168515,"Tweedy's Jamaican Patties & Restaurant","Newmarket","ON","L3Y 9A2",44.051663,-79.42695,"1","Caribbean, Restaurants, Food, Canadian (New), American (New)"
"291",116089,"Kwizinn Resto-Bar Créole","Montréal","QC","H2S 2M3",45.537362,-73.606202,"1","Caribbean, Haitian, Restaurants, Cajun/Creole"
"292",73834,"V's Caribbean Restaurant","Toronto","ON","M6M 4P7",43.6882775,-79.4924573,"1","Caribbean, Vegan, Restaurants"
"293",16556,"ACR Hot Roti & Doubles","Scarborough","ON","M1P 4Y4",43.7524465,-79.2622936,"1","Caribbean, Restaurants"
"294",35559,"Bratenahl Kitchen","Cleveland","OH","44110",41.5689478,-81.5849097,"1","Restaurants, Caribbean"
"295",160943,"Allwyn's Bakery","North York","ON","M3A 1Z5",43.760648,-79.3258039,"0","Food, Caribbean, Bakeries, Restaurants"
"296",24211,"Caribbean Taste","Toronto","ON","M5H 1G2",43.6484781,-79.3880553,"0","Caribbean, Restaurants"
"297",81931,"JJJ Jerk Restaurant","Toronto","ON","M1N 1V3",43.7103184,-79.2489087,"0","Caribbean, Restaurants"
"298",143554,"Rasta Pasta","Toronto","ON","M5T 2L7",43.654787,-79.4021369,"0","Restaurants, Caribbean"
"299",106599,"Drupati's Doubles & Roti Shop","Etobicoke","ON","M9V 1A6",43.7361133,-79.5636279,"0","Caribbean, Restaurants, Indian, Food, Grocery"
"300",40362,"Hot Pot Caribbean Cuisine","Chandler","AZ","85225",33.3373576,-111.8411132,"1","Restaurants, Desserts, Food Trucks, Food, Beer, Wine & Spirits, Caribbean"
"301",118453,"Bahama Breeze","Pittsburgh","PA","15205",40.4506444723,-80.1592732328,"1","Latin American, Seafood, Laotian, Caribbean, Restaurants, Nightlife, Bars"
"302",190723,"4uatro Rotisserie","La Prairie","QC","J5R 2E6",45.4141374715,-73.4832505882,"1","Barbeque, Desserts, Caribbean, Latin American, Restaurants, Tapas/Small Plates, Food"
"303",178819,"Ritz Caribbean Foods","Toronto","ON","M4Y 2B6",43.6695184,-79.3866159,"1","Restaurants, Caribbean"
"304",50917,"Aux Îles à Sucre","Montréal","QC","H2H 1K4",45.536742,-73.57071,"1","Restaurants, Caribbean, Cajun/Creole"
"305",103785,"Mango Bay","Montréal","QC","H3G 2H4",45.4951832,-73.5761874,"1","Caribbean, Soul Food, Restaurants, Seafood"
"306",62213,"RJ Gator's","Cornelius","NC","28031",35.480314,-80.878912,"0","Restaurants, Nightlife, Burgers, Caribbean, Bars, Sports Bars"
"307",169928,"DW Bistro","Las Vegas","NV","89148",36.0842933813,-115.293878168,"1","New Mexican Cuisine, Caribbean, Cocktail Bars, American (Traditional), American (New), Restaurants, Nightlife, Bars"
"308",3814,"Seg'z Restaurant","Toronto","ON","M6E 2V3",43.6928102092,-79.4408562407,"0","Canadian (New), Food, Caribbean, Restaurants"
"309",123871,"Stango Cuisine","Urbana","IL","61801",40.1106537,-88.2074643,"1","African, Restaurants, Caribbean, American (New)"
"310",135066,"Royal Caribbean Cafe","Toronto","ON","M6E 1B1",43.6781385,-79.4410688,"1","Caribbean, Restaurants"
"311",90696,"Mona's Roti-Caribbean Food","Scarborough","ON","M1S 4N6",43.7919977,-79.2504891,"1","Caribbean, Restaurants"
"312",53830,"Seasoned Dreams","Montréal","QC","H4E 3V9",45.463423,-73.5880207,"1","Caribbean, Restaurants"
"313",91888,"Golden Shores Restaurant","Brampton","ON","L6Z",43.7498740878,-79.7023441833,"0","Caribbean, Restaurants"
"314",127644,"Tropical Goodies Restaurant","Charlotte","NC","28206",35.254478,-80.800915,"1","Caribbean, Restaurants"
"315",58560,"Crumbs Patties","Toronto","ON","M5B 1R8",43.657432,-79.381599,"1","Food, Restaurants, Specialty Food, Caribbean, Bakeries"
"316",118905,"Tropical Joe's","Toronto","ON","M1V 1V2",43.8092547,-79.2696046,"1","Restaurants, Caribbean"
"317",104835,"The Roti Hut","Calgary","AB","T2A 6L8",51.0601777,-113.9810304,"1","Caribbean, Restaurants"
"318",138490,"Kings Delight","Toronto","ON","M6N 1J4",43.6738524,-79.4601047,"1","Caribbean, Restaurants"
"319",30285,"Portland Jerk","Brampton","ON","L6S 3L2",43.7352124,-79.7071206,"1","Restaurants, Ethnic Food, Specialty Food, Caribbean, Food, Imported Food"
"320",28792,"Danna's Caribbean Grill","Las Vegas","NV","89101",36.1673841,-115.1458384,"0","Caribbean, Cuban, Latin American, Asian Fusion, Restaurants"
"321",182632,"Callaloo Café and Bar","Cleveland","OH","44110",41.5712621726,-81.5717786059,"1","Bars, Nightlife, Vegetarian, Trinidadian, Caribbean, Restaurants"
"322",67668,"Spence's Bakery","York","ON","M6E 2G7",43.6975471,-79.4410224,"0","Caribbean, Bakeries, Caterers, Food, Event Planning & Services, Restaurants"
"323",152339,"Jamaica House Jerk","Brampton","ON","L6W 3G1",43.6876054937,-79.7406026878,"1","Caribbean, Restaurants"
"324",112894,"Island Foods","North York","ON","M3B 2W6",43.7459197,-79.3463013,"1","Restaurants, Caribbean"
"325",169443,"Windies","Scarborough","ON","M1H 1A7",43.7584511,-79.2341074,"1","Caribbean, Bars, Nightlife, Restaurants, Sports Bars"
"326",186555,"Nicey's","Toronto","ON","M1W 2N6",43.7984513485,-79.3330585957,"1","Restaurants, Specialty Food, Caribbean, Grocery, Food, Ethnic Food"
"327",178034,"Jerk So Good","Toronto","ON","M9M",43.7396263,-79.5390378,"1","Restaurants, Caribbean"
"328",32241,"Punta Cana Restaurant & Grill","Charlotte","NC","28217",35.166205,-80.876446,"1","Cuban, Latin American, Caterers, Caribbean, Dominican, Restaurants, Event Planning & Services"
"329",10391,"Casserole Kréole","Montreal-Nord","QC","H1H 1V4",45.5968355,-73.6307483,"1","Caribbean, Haitian, Restaurants"
"330",122517,"Tommy's Restaurant","Vaughan","ON","L4K 0A3",43.829573,-79.536329,"0","Caribbean, Chinese, Restaurants"
"331",159330,"Get Grill","Brampton","ON","L6Y 0P6",43.66358,-79.732279,"1","Restaurants, African, Asian Fusion, Caribbean, Barbeque"
"332",18098,"Homestyle Caribbean","Toronto","ON","M1X 1S8",43.8350234,-79.250859,"0","Restaurants, Caribbean"
"333",138487,"Casa Grande Restaurant","Charlotte","NC","28209",35.1927328,-80.8735693,"0","Latin American, Restaurants, Mexican, Caribbean"
"334",77860,"A Taste of the Islands","Newmarket","ON","L3X 1R2",44.0403492,-79.4528966,"1","Restaurants, Canadian (New), Caribbean"
"335",73781,"Sunrise Caribbean Restaurant","Toronto","ON","M6L 2C6",43.7163393,-79.5073864,"0","Breakfast & Brunch, Restaurants, Caribbean"
"336",71432,"Reidies Patties","Toronto","ON","M4C 1L8",43.6889867,-79.2974482,"0","American (Traditional), Restaurants, Caribbean"
"337",150880,"Bahama Breeze","Las Vegas","NV","89169",36.1150923353,-115.1546845794,"1","Seafood, Nightlife, Latin American, Laotian, Caribbean, Bars, Restaurants"
"338",185910,"Kalypso Hut","Mississauga","ON","L4W 1C7",43.6544873,-79.6492484,"1","Chinese, Caribbean, Restaurants"
"339",163717,"Doc's Caribbean Bar and Grill","Rock Hill","SC","29732",34.9642247,-81.0004819,"0","Caribbean, Restaurants"
"340",180000,"Mickie Finnz","Las Vegas","NV","89101",36.169628675,-115.1409367713,"1","Arts & Entertainment, Caribbean, Restaurants, Music Venues, Burgers, Bars, Seafood, Lounges, Nightlife"
"341",172053,"Soul Central","Charlotte","NC","28205",35.218607929,-80.7950378582,"1","Soul Food, Desserts, Caribbean, Southern, Sandwiches, Food, Burgers, Restaurants"
"342",15162,"Seasoned Dreams","Montréal","QC","H4E 4A1",45.4659211,-73.5845301,"0","Caribbean, Event Planning & Services, Caterers, Restaurants"
"343",80823,"Caribéana","Verona","PA","15147",40.4838954,-79.8205185,"0","Caribbean, Food, Restaurants"
"344",167748,"CARIB 21","Toronto","ON","M6E 2K4",43.6942584,-79.456203,"1","Caribbean, Restaurants"
"345",133618,"Twice As Nice","Scarborough","ON","M1E 2M4",43.7590131,-79.1981154,"1","Caribbean, Restaurants"
"346",124040,"La Binerie Mont-Royal","Montréal","QC","H2T 1R1",45.5237185,-73.5832918,"1","Breakfast & Brunch, Cafes, Canadian (New), Caribbean, French, American (Traditional), Restaurants"
"347",36757,"Flavours Of Sheba","Toronto","ON","M6E 1C1",43.6769786,-79.4484723,"1","Restaurants, Ethiopian, Caribbean"
"348",71415,"Willys Jerk","North York","ON","M9M 2W8",43.7511953,-79.5428684,"1","Caribbean, Restaurants"
"349",84474,"El Bohio Tipico Restaurant","Charlotte","NC","28205",35.2074907,-80.7568263,"1","Restaurants, Caribbean"
"350",31905,"Carribean Cuisine Delight","North York","ON","M3N 3A1",43.7589862,-79.5188033,"1","Restaurants, Caribbean"
"351",162497,"Royal Caribbean","Pittsburgh","PA","15289",40.4602716,-79.9251042,"0","Restaurants, Caribbean"
"352",192089,"Mango Bay","Montréal","QC","H3G 2E3",45.4957056,-73.575166,"0","Caribbean, Restaurants"
"353",124930,"El Fogón Dominican Restaurant","Gastonia","NC","28054",35.2613685105,-81.1703234911,"1","Restaurants, Caribbean, Nightlife, Cocktail Bars, Specialty Food, Ethnic Food, Dominican, Bars, Food"
"354",9289,"Pura Vida Bakery & Bystro","Las Vegas","NV","89102",36.1557391,-115.1595401,"0","Food Delivery Services, Vegan, Personal Chefs, Bakeries, Event Planning & Services, Restaurants, Food, Caribbean"
"355",12386,"Queen Sheba Bar & Restaurant","Charlotte","NC","28205",35.211281,-80.7625338,"1","Restaurants, Vegetarian, Ethiopian, Caribbean, Hookah Bars, Nightlife, Bars"
"356",155680,"Vineyard Jamaican Restaurant","Caledon","ON","L7E 1T6",43.8601883956,-79.7134145773,"1","Caribbean, Restaurants"
"357",30754,"George's Tastee","Markham","ON","L3P 3J3",43.8932858098,-79.2912279122,"1","Restaurants, Caribbean, Burgers"
"358",106170,"Beryl's Pepperpot","Ajax","ON","L1S 6M7",43.8334198,-79.0332783,"1","Caribbean, Restaurants, Food"
"359",114055,"Tasty's Caribbean Take Out","Toronto","ON","M5G 1G7",43.657911871,-79.3820446701,"0","Caribbean, Restaurants"
"360",158972,"Roti Stop","Mississauga","ON","L4Y 2C4",43.6040512,-79.5907629,"1","Caribbean, Restaurants"
"361",79620,"Kahunaville Island Restaurant","Las Vegas","NV","89109",36.1245859,-115.1716132,"0","Nightlife, Hawaiian, American (Traditional), Restaurants, Caribbean, Asian Fusion, Bars"
"362",182841,"Ritz Caribbean Foods","Toronto","ON","M1E 2M9",43.7638456736,-79.1924790602,"1","Restaurants, Caribbean"
"363",87537,"Caribbean Palm Tempe","Tempe","AZ","85282",33.3947965911,-111.940832669,"1","Seafood, Caribbean, Salad, Restaurants, Bakeries, Food, Juice Bars & Smoothies"
"364",114639,"Love Cuisine","Phoenix","AZ","85019",33.5091503,-112.1372596,"0","Soul Food, Caribbean, Chinese, Restaurants, African"
"365",87766,"Scotty Bons Caribbean Grill","Scarborough","ON","M2A 2T3",43.7260106,-79.2862866,"1","Restaurants, Caribbean"
"366",186631,"Island Flavors Cafe","Las Vegas","NV","89162",36.175,-115.136389,"0","Restaurants, Hawaiian, Caribbean"
"367",3865,"Caribbean Taste","Toronto","ON","M4W 3S9",43.6719211,-79.3787871,"1","Restaurants, Caribbean"
"368",44136,"Authentic Trini Foods","Brampton","ON","L6S 5R7",43.74504,-79.720028,"1","Caribbean, Restaurants"
"369",51533,"Sweet Land Cake","Phoenix","AZ","85018",33.4798377,-111.9787958,"1","Caribbean, Restaurants, Food, Bakeries, Patisserie/Cake Shop"
"370",39913,"Allwyn's Bakery","Toronto","ON","M3A 2J8",43.7603729,-79.4111154,"1","Food Court, Restaurants, Caribbean"
"371",113046,"Roti Lady On the Dunn Ave","Toronto","ON","M6K 2S1",43.6408763468,-79.4343026823,"0","Restaurants, Caribbean"
"372",19365,"Shandra's Roti Shop","Mississauga","ON","L4W 1N5",43.6297366,-79.6280594,"1","Restaurants, Caribbean"
"373",57458,"The Islands Caribbean Restaurant","Toronto","ON","M3J 1P3",43.7742081,-79.4983331,"1","Caribbean, Food Delivery Services, Food, Restaurants"
"374",77773,"Smitty's Kitchen","Glendale","AZ","85301",33.5419447877,-112.1859950978,"0","African, Restaurants, Caribbean"
"375",84954,"Randy's Roti & Doubles","Toronto","ON","M4W 2J1",43.672529,-79.3878412,"1","Food Trucks, Restaurants, Food, Caribbean"
"376",133235,"The Caribbean Queen of Patties","Toronto","ON","M6H 1N9",43.6585983,-79.4421236,"1","Restaurants, Food, Caribbean, Specialty Food"
"377",139434,"Just Soups Take Out & Catering","Toronto","ON","M1B",43.8011818,-79.1990738,"1","Imported Food, Restaurants, Specialty Food, Ethnic Food, Food, Soup, Caribbean"
"378",14344,"Wraps & Jerk","Toronto","ON","M3J 2E5",43.7677879333,-79.4717178345,"1","Caribbean, Restaurants"
"379",162733,"Mainsha Restaurant","Toronto","ON","M1W 3G5",43.7993396,-79.3066353,"1","Food, Caribbean, Restaurants"
"380",135489,"Caribbean Queen Roti Hut","Toronto","ON","M8V 1J5",43.6005364,-79.5058596,"1","Caribbean, Restaurants"
"381",40487,"Epiphany Foods","Toronto","ON","M9L 1Y7",43.7603995208,-79.5690229003,"0","Restaurants, Caribbean"
"382",68319,"The Roti Hut","Scarborough","ON","M1S 3E5",43.7868018,-79.2585729,"1","Restaurants, Halal, Caribbean"
"383",161485,"Cool Runnings Restaurant","Toronto","ON","M4E 2V8",43.6834386,-79.299971,"1","Restaurants, Caribbean"
"384",83794,"Joycee's Caribbean Food & Takeout","Calgary","AB","T2E 0B6",51.0535244,-114.0498296,"1","Caribbean, Meat Shops, Food, Specialty Food, Restaurants"
"385",184762,"The Flavor Grille","Akron","OH","44313",41.13701,-81.54814,"1","Caribbean, Chicken Wings, Restaurants, American (Traditional)"
"386",20392,"Casa Rasta","Pittsburgh","PA","15206",40.460212,-79.925355,"0","Restaurants, Caribbean, Mexican"
"387",28079,"Umi's Kitchen","Toronto","ON","M5A 2A1",43.6587258,-79.3697096,"1","Specialty Food, Food, Salad, Halal, Caribbean, Restaurants"
"388",171371,"La Lanterne","Rawdon","QC","J0K 1S0",46.042273,-73.706638,"1","Canadian (New), Caribbean, Restaurants"
"389",139586,"The Original Jerk","Mississauga","ON","L5L 5T3",43.5243471,-79.7048414,"1","Caribbean, Restaurants"
"390",153402,"Irie Jamaican Kitchen","Euclid","OH","44119",41.590787,-81.54962,"1","Caribbean, Restaurants"
"391",161677,"Irie Patties - Caribbean Street Food","Richmond Heights","OH","44143",41.541804,-81.492915,"0","Restaurants, Food, Food Court, Specialty Food, Caribbean, Ethnic Food"
"392",95417,"Diner's Corner","Toronto","ON","M4Y 1W6",43.666679,-79.386262,"0","Diners, Caribbean, Restaurants"
"393",73663,"Irie Cuisine","Oakville","ON","L6H 1A3",43.456676,-79.6895551,"1","Restaurants, Caribbean"
"394",165496,"Scotthill Carribean Cuisine","Toronto","ON","M5M 4A2",43.7339429813,-79.4195343554,"1","Restaurants, Nightlife, Lounges, Caribbean, Bars"
"395",130960,"Griyo","Montréal","QC","H2C 1S7",45.5635755,-73.6562131,"0","Caribbean, Restaurants, Cajun/Creole, Tapas Bars"
"396",89271,"Smilez Jamaican Restaurant","Mississauga","ON","L4W 0B8",43.6277242,-79.6269386,"0","Restaurants, Caribbean"
"397",74339,"Essence and Herbs","Henderson","NV","89011",36.1016495,-114.9307359,"0","Steakhouses, Nightlife, Restaurants, Caribbean, Tapas Bars, Tapas/Small Plates, Food, Bars, Latin American, Puerto Rican, Seafood"
"398",36507,"The Caribbean Queen of Patties","Toronto","ON","M6H 1N7",43.65836,-79.4422494,"0","Food, Specialty Food, Restaurants, Caribbean"
"399",166886,"Rum Diaries","Ajax","ON","L1S 6M3",43.8412297063,-79.0323671872,"1","Restaurants, Soul Food, Music Venues, Sports Bars, Arts & Entertainment, Caribbean, Nightlife, Cocktail Bars, Bars"
"400",154744,"Ritz Caribbean Foods","Toronto","ON","M5B 1M4",43.6538403,-79.3795657,"1","Restaurants, Caribbean"
"401",18437,"Cravins Caribbean Grill","Markham","ON","L3R 4B9",43.8205705,-79.3511578,"1","Restaurants, Caribbean"
"402",105581,"My Arepa","Mesa","AZ","85210",33.377252,-111.8596861,"0","Caribbean, Latin American, Restaurants, Food"
"403",153168,"Cabanas Island Restaurant","Mentor","OH","44060",41.675955,-81.315428,"0","American (New), Restaurants, Caribbean, Seafood"
"404",97857,"Beryl's Pepper Pot","Pickering","ON","L1V 1B5",43.8282543,-79.0961458,"1","Restaurants, Caribbean"
"405",3210,"Tropical Palms","Toronto","ON","M4Y 2A6",43.6675353,-79.3856618,"1","Caribbean, Restaurants"
"406",88586,"Sunrise Caribbean Restaurant","Mississauga","ON","L4Z 3X3",43.6077945,-79.6499474,"1","Caribbean, Restaurants"
"407",54023,"Caribbean Sunset Restaurant and Bar","Toronto","ON","M4M 1H3",43.6591784,-79.3480316,"1","Restaurants, Seafood, Vegetarian, Caribbean"
"408",54961,"Golden Patty","Toronto","ON","M5T 1M1",43.6545484,-79.4011268,"1","Food Stands, Caribbean, Restaurants"
"409",14752,"Roti n' Ting","Pickering","ON","L1V 1B7",43.8373548302,-79.0904878182,"1","Restaurants, Food, Caribbean"
"410",169853,"Lallys Island Soul Cafe","Las Vegas","NV","89115",36.239735,-115.0639288,"1","Restaurants, Breakfast & Brunch, Caribbean, Sandwiches, Seafood"
"411",190213,"Irie Jamaica Restaurant","Phoenix","AZ","85040",33.406669,-112.02249,"0","Caribbean, Restaurants"
"412",119065,"Hakka No. 1 Restaurant","Scarborough","ON","M1E 2P1",43.7721158,-79.1849733,"1","Restaurants, Chinese, Indian, Asian Fusion, Caribbean"
"413",34900,"De Kings Caribbean Restaurant","Vaughan","ON","L4K 3B9",43.7879311,-79.4718826,"0","Restaurants, Caribbean"
"414",103297,"Papa Moe's","Mississauga","ON","L5C 4L2",43.5782985,-79.6612622,"1","Pizza, Restaurants, Caribbean"
"415",120373,"Simply Irie Caribbean Cuisine","Calgary","AB","T2T 0E1",51.0377277044,-114.0948566899,"1","Caribbean, Restaurants"
"416",18185,"Pjays Take Out","Scarborough","ON","M1T 3H8",43.7963282,-79.2931193,"1","Restaurants, Canadian (New), Caribbean"
"417",142241,"Chris Jerk Caribbean Bistro","Toronto","ON","M1T 2M5",43.7903314,-79.302267,"1","Restaurants, Caribbean, Middle Eastern"
"418",173848,"Blue Water Curry & Roti Restaurant","North York","ON","M1R 1P7",43.7309491,-79.3057989,"1","Indian, Restaurants, Nightlife, Caribbean, Bars"
"419",94454,"Daddy's Jerk","Brampton","ON","L6Y 4W5",43.6546381292,-79.743214522,"1","Food, Restaurants, Caribbean"
"420",64587,"Sunset Gardens Restaurant & Bar","Ajax","ON","L1S 6L8",43.854217,-79.056626,"1","Caribbean, Restaurants"
"421",92123,"The Real Jerk","Toronto","ON","M4M 1Y7",43.667787,-79.3432553,"1","Vegan, Restaurants, Karaoke, Nightlife, Bars, Seafood, Caribbean, Lounges"
"422",191976,"Thymeless Bar & Grill","Toronto","ON","M5T 1S5",43.6571313,-79.4035757,"0","Nightlife, Caribbean, Bars, Restaurants"
"423",165132,"Potluck Caribbean Cuisine","Mississauga","ON","L5W 0E6",43.6388440939,-79.7159683301,"1","Caribbean, Restaurants, Soul Food"
"424",185155,"Trini Gardens Restaurant","Etobicoke","ON","M8Z 1P4",43.6243308,-79.5126995,"1","Indian, Caribbean, Chinese, Restaurants"
"425",179300,"Coconut Breeze","Brampton","ON","L6W 3G6",43.6813337,-79.7292085,"1","Caribbean, Restaurants"
"426",137896,"Barb's Roti Shop","Mississauga","ON","L5E 1G1",43.580619,-79.555482,"0","Caribbean, Restaurants"
"427",33743,"Willy's Jerk","Mississauga","ON","L5B 4M4",43.5804853,-79.6172669,"0","Caribbean, Restaurants"
"428",96397,"Rasta Pasta","Toronto","ON","M5T",43.6542328627,-79.4004420357,"1","Restaurants, Italian, Caribbean"
"429",143576,"Rose's Halal Kitchen","Toronto","ON","M1R 2Z1",43.7451084,-79.2981385,"1","Restaurants, Halal, Caribbean"
"430",57766,"Johnny Mango World Cafe & Bar","Cleveland","OH","44113",41.4837408,-81.7099093,"1","Juice Bars & Smoothies, Mexican, Food, Caribbean, Vegetarian, Restaurants, American (New)"
"431",177361,"Mama Rose","Pittsburgh","PA","15206",40.4639884,-79.9153194,"1","Caribbean, Restaurants"
"432",18402,"Lloyd's Foodmart","York","ON","M9N 2S4",43.7037388,-79.5043253,"1","Comfort Food, Food, Restaurants, Grocery, Caribbean, Canadian (New), Soul Food"
"433",28655,"Twist By Roger Mooking","Mississauga","ON","L5P 1B2",43.6806559218,-79.6151885771,"1","American (Traditional), Caribbean, Breakfast & Brunch, Asian Fusion, Salad, Restaurants"
"434",163761,"Restaurant & Bar Reddafire Caribbean","Mississauga","ON","L5C 4L3",43.5782985,-79.6612622,"1","Restaurants, Caribbean"
"435",72156,"Caribbean Corner","Toronto","ON","M5T 1L9",43.6547031,-79.4002122,"1","Restaurants, Caribbean, Grocery, Ethical Grocery, Food"
"436",175007,"Ceviches","Montréal","QC","H2W 1K8",45.5177229,-73.5766008,"0","Mexican, Food, Latin American, Restaurants, Caribbean, Grocery"
"437",95186,"Jamerica Caribbean Restaurant","Madison","WI","53703",43.0841601,-89.3633512,"1","Caribbean, Restaurants"
"438",1160,"Lloydie's","Montréal","QC","H3G 2C1",45.4986074,-73.578343,"1","Restaurants, Caribbean"
"439",125189,"Ritz Caribbean Foods","Toronto","ON","M4R 2H1",43.7065804,-79.3997742,"1","Restaurants, Caribbean"
"440",20818,"Austin's Caribbean Cuisine","Charlotte","NC","28204",35.211879,-80.833826,"0","Caribbean, Restaurants"
"441",49136,"Negril's Jerk Hut","Toronto","ON","M1R",43.7426846,-79.3087031,"1","Caribbean, Restaurants"
"442",61479,"Ty's Wings & Tings","Charlotte","NC","28215",35.234572,-80.7376591,"1","Caribbean, Chicken Wings, Restaurants, Soul Food"
"443",109009,"La Creole","Toronto","ON","M6C 1B6",43.6808858,-79.4303072,"0","Cajun/Creole, Arts & Entertainment, Event Planning & Services, French, Music Venues, Restaurants, Haitian, Nightlife, Caterers, Party & Event Planning, Caribbean"
"444",137239,"Little Jamaica","Phoenix","AZ","85042",33.3932914734,-112.0472946167,"1","Caribbean, Restaurants"
"445",188410,"Ali's West Indian Roti Shop","Toronto","ON","M6K 1M2",43.6408507,-79.4359336,"1","Seafood, Middle Eastern, Pakistani, Caribbean, Indian, Restaurants"
"446",175671,"Rhum Corner","Toronto","ON","M6J 1W3",43.6508775,-79.4131316,"1","Caribbean, Cocktail Bars, Bars, Restaurants, Nightlife, Canadian (New), Salad"
"447",79598,"Agrikol","Montréal","QC","H2L 3L6",45.5197118,-73.5621687,"1","Caribbean, Restaurants, Haitian, Cocktail Bars, Nightlife, Bars"
"448",116674,"The Jerk Joint","Charlotte","NC","28278",35.1716437,-80.9638796,"1","Sandwiches, Burgers, Restaurants, Caribbean"
"449",136489,"El Rinconcito","Charlotte","NC","28273",35.1338559,-80.893259,"0","Mexican, Puerto Rican, Latin American, Caterers, Event Planning & Services, Breakfast & Brunch, Caribbean, Cuban, Restaurants"
"450",6157,"Tinnels West Indian Take-Out","Brampton","ON","L6V 1X6",43.697012,-79.751873,"1","Caribbean, Middle Eastern, Pakistani, Indian, Restaurants"
"451",68346,"Las Palmas Cantina","Chandler","AZ","85225",33.3021622,-111.8425867,"1","Caribbean, Mexican, American (New), Restaurants"
"452",182925,"Sous Le Palmier","Montréal","QC","H8N 1B1",45.4368219,-73.6150237,"1","Caribbean, Restaurants"
"453",133502,"Reggae Fusion","Mississauga","ON","L4W 3X1",43.6484588,-79.655904,"1","Restaurants, Caribbean"
"454",32953,"Caribbean Heat","Pickering","ON","L1W 3A4",43.8328136,-79.0667565,"1","Restaurants, Caribbean"
"455",58816,"Patty Mon","Montréal","QC","H3T 1Y8",45.498524,-73.626637,"0","Restaurants, Caribbean, Cafes"
"456",56458,"Pop-Up On River","Toronto","ON","M5A 3P5",43.6609004,-79.3577872,"0","Diners, Caribbean, Greek, Restaurants"
"457",25783,"Ducky's Roti","Toronto","ON","M8V 1M2",43.5972,-79.52385,"1","Restaurants, Caribbean"
"458",81191,"Bahama Breeze","Beachwood","OH","44122",41.4554605666,-81.4896052103,"1","Latin American, Laotian, Seafood, American (New), Bars, Restaurants, Nightlife, Caribbean"
"459",31845,"Tamales Guadalajara","Tolleson","AZ","85353",33.4505421,-112.2610119,"1","Caribbean, Latin American, Mexican, Breakfast & Brunch, Restaurants"
"460",93043,"Sunrise Caribbean Restaurant","Ajax","ON","L1Z 0K5",43.8633171,-79.0121019,"1","Caribbean, Food Delivery Services, Restaurants, Food"
"461",77119,"Cuisine Caraïbe Delite","Montréal","QC","H2V 4E6",45.5182445,-73.593069,"1","Restaurants, Caribbean"
"462",178864,"D'Pavilion Restaurant & Lounge","Toronto","ON","M1H 1A6",43.7579944796,-79.2361140909,"1","Sports Bars, Bars, Restaurants, Nightlife, Lounges, Caribbean"
"463",112382,"The Lost Parrot Restaurant and Bar","Monroe","NC","28110",35.0095996901,-80.5625073986,"0","Nightlife, Restaurants, Caribbean, Bars, American (New)"
"464",39757,"Rose's Caribbean Kitchen","Brampton","ON","L6Y 0C7",43.6599999214,-79.7313515143,"1","Caribbean, Restaurants"
"465",138588,"Tropical Island Caribean Restaurant","Vaughan","ON","L4L 4Y9",43.7744178454,-79.6128808069,"1","Restaurants, Caribbean"
"466",77762,"Anancy Restaurant","Montréal","QC","H4V 1S7",45.4669962,-73.639123,"0","Restaurants, Caribbean"
"467",167760,"Celebrity Pure Vegetarian","York","ON","M6E 2G5",43.6980698,-79.4398229,"1","Restaurants, Caribbean"
"468",95279,"Lady Kiki","Vaudreuil-Dorion","QC","J7V 0W3",45.3893381899,-74.0445232764,"1","Restaurants, Caribbean"
"469",123204,"Sunrise Caribbean Restaurant","Pickering","ON","L1V 3N7",43.8160112,-79.1195561,"0","Restaurants, Caribbean"
"470",100881,"Kitchen King Jerk","Toronto","ON","M9N 3P1",43.6998073,-79.5169241,"1","Canadian (New), Caribbean, Food, Restaurants"
"471",43661,"Coconut Grove","Toronto","ON","M5G 1C7",43.6549701,-79.3865744,"0","Indian, Restaurants, Caribbean"
"472",12067,"Windup Caribbean Restaurant","Toronto","ON","M5T 1S7",43.6570912,-79.405361,"0","Venues & Event Spaces, Canadian (New), Event Planning & Services, Restaurants, Caribbean, American (New)"
"473",3617,"Upscale Restaurant & Lounge","Charlotte","NC","28205",35.202356,-80.790535,"0","Bars, Lounges, Adult Entertainment, Caribbean, Restaurants, Nightlife, Chicken Wings"
"474",50649,"Benab Family Restaurant","Mississuaga","ON","L5A 4E4",43.5825247321,-79.6193143353,"1","Chinese, Caribbean, Restaurants"
"475",60125,"Caribbean Grill Restaurant","Champaign","IL","61820",40.087699,-88.247455,"1","Vegan, Caribbean, Desserts, Food, Comfort Food, Vegetarian, Restaurants, Barbeque"
"476",148493,"Sa-Fire Restaurant & Bar","Toronto","ON","M1G 2M3",43.768141,-79.227599,"1","Caribbean, Chinese, Nightlife, Bars, Restaurants, Canadian (New)"
"477",23220,"Caribbean Sunset","Mississauga","ON","L5T 1J6",43.6507663,-79.6648838,"1","Bars, Nightlife, Restaurants, Lounges, Caribbean, Chinese"
"478",160132,"Kool Jerk","Phoenix","AZ","85017",33.5195347,-112.1173867,"0","Restaurants, Food, Caribbean, Bars, Nightlife, Specialty Food, Caterers, Event Planning & Services, Chicken Shop, Ethnic Food, Chicken Wings"
"479",106367,"Rumbi Island Grill","Chandler","AZ","85226",33.3174314,-111.9680386,"1","Caribbean, Sandwiches, Restaurants, Hawaiian"
"480",13932,"No. #1 jerk","Toronto","ON","M1M 1N3",43.7219685,-79.2356653,"1","Caribbean, Restaurants"
"481",56989,"Island Cuisine","Charlotte","NC","28269",35.365984,-80.786026,"1","Caribbean, Restaurants"
"482",147988,"La Bonne Bouffe Créole","Montréal","QC","H1W 2E5",45.5445703,-73.5379982,"1","Cajun/Creole, Soul Food, Restaurants, Caribbean"
"483",56374,"Tinnel's West Indian Take-Out","York","ON","M6M 1T2",43.69095,-79.4709651,"1","Middle Eastern, Pakistani, Restaurants, Indian, Caribbean"
"484",100981,"Gramps & Elaine Roti Place Restaurant","Scarborough","ON","M1J 2E9",43.7413817,-79.2258145,"1","Restaurants, Caribbean"
"485",101917,"Le Fils à Maman","Laval","QC","H7G 2B7",45.5719939,-73.689915,"1","Restaurants, Haitian, Caribbean"
"486",51571,"Jerk King Canada","Scarborough","ON","M1E 2N7",43.7685448,-79.1875686,"1","Restaurants, Caribbean"
"487",143993,"Aneal's Taste of the Islands","Richmond Hill","ON","L4C 3B6",43.8766368,-79.438607,"1","Caterers, Restaurants, Event Planning & Services, Halal, Caribbean"
"488",15964,"Tropical Joe's","Brampton","ON","L6T 5T9",43.7154187,-79.7215812,"1","Restaurants, Caribbean"
"489",121673,"Jollof King","Tempe","AZ","85284",33.3487001,-111.94489,"1","African, Restaurants, Vegetarian, Caribbean"
"490",29552,"Calypso Gardens","Brampton","ON","L6W 3P3",43.6884192,-79.7407323,"1","Ethnic Food, Restaurants, Chinese, Food, Specialty Food, Caribbean"
"491",126866,"Spicy Island Jerk","Brampton","ON","L6X 1M9",43.6880092458,-79.7626390094,"1","Caribbean, Restaurants"
"492",181640,"Triple C Restaurant And Grill","Concord","NC","28025",35.4068154951,-80.5863796876,"0","Caribbean, American (New), Soul Food, Restaurants"
"493",71164,"Caribbean Queen Fairview Mall","North York","ON","M2J 5A7",43.7778782,-79.3446538,"0","Restaurants, Fast Food, Caribbean"
"494",19239,"Timehri Int Restaurant","Scarborough","ON","M1V 5J6",43.8206785,-79.2618972,"1","Caribbean, Chinese, Restaurants"
"495",36428,"Calabash Caribbean Cuisine","Mississauga","ON","L5K 2K8",43.5259395,-79.6520526,"1","Caribbean, Restaurants, Seafood"
"496",55589,"Coquito's Deli & Bakery","Lorain","OH","44053",41.4295576,-82.2033511,"0","Puerto Rican, Cuban, Delis, Caribbean, Bakeries, Food, Restaurants"
"497",130428,"Asia Hut","Pickering","ON","L1V 1C1",43.841844,-79.083881,"1","Restaurants, Soup, Chinese, Caribbean"
