"","business_id","name","city","state","postal_code","latitude","longitude","is_open","categories"
"1",44769,"Megas Restaurant","Toronto","ON","M4K 1P3",43.6777565,-79.3515772,"1","Restaurants, Greek, Mediterranean, Caterers, Event Planning & Services"
"2",64317,"Restaurant Agora Souvlaki","Montréal","QC","H4V 1S8",45.4673896,-73.6386165,"0","Greek, Restaurants, Mediterranean"
"3",12197,"Showmars - Seventh Street","Charlotte","NC","28204",35.212005,-80.817991,"1","Breakfast & Brunch, Greek, American (Traditional), Restaurants, Mediterranean"
"4",126044,"Le Chalet Grec","Saint-Sauveur","QC","J0R 1R6",45.8972035,-74.1515048,"1","Greek, Restaurants"
"5",123650,"Pita Gourmet","Montréal","QC","H2S 1Z4",45.5322357611,-73.5975787416,"1","Restaurants, Turkish, Greek, Middle Eastern, Mediterranean, Lebanese, Kebab, Sandwiches"
"6",44082,"Moe's Tavern & Grill","Madison","WI","53703",43.0747406,-89.3865796,"0","Greek, American (Traditional), Burgers, Restaurants"
"7",75179,"My Big Fat Greek Gyro","Mount Lebanon","PA","15228",40.3813236,-80.0440054,"0","Greek, Restaurants"
"8",11569,"Pita Kitchen - Arrowhead","Glendale","AZ","85308",33.6702064,-112.2004519,"1","Mediterranean, Greek, Restaurants, Vegetarian"
"9",73265,"Alexandris Restaurant","Medina","OH","44256",41.1367315,-81.7893027,"1","Restaurants, Greek, Breakfast & Brunch"
"10",116578,"Sorento Restaurant Fine Mediterranean Cuisine","North York","ON","M3C 1V6",43.7269871,-79.3414943,"1","Restaurants, Italian, Local Services, Mediterranean, Greek"
"11",88176,"Mrs. Greek Souvlaki Express","Vaughan","ON","L4L 4Y6",43.7712021,-79.545334,"1","Greek, Restaurants"
"12",172513,"Opa Life Greek Cafe","Glendale","AZ","85308",33.6419971901,-112.2254376858,"1","Greek, Coffee & Tea, Food, Restaurants"
"13",164785,"Mr. Greek","Pickering","ON","L1V 1B5",43.829074,-79.096309,"1","Mediterranean, Restaurants, Greek"
"14",132796,"101 Bistro","Phoenix","AZ","85003",33.449799,-112.074714,"0","Greek, American (New), Restaurants, Mediterranean"
"15",180559,"Herb 'n Flavors","Tempe","AZ","85281",33.4065733395,-111.9081115723,"0","Restaurants, American (New), Mediterranean, Greek, Gluten-Free, Italian"
"16",190125,"Leena's Food","Pittsburgh","PA","15289",40.4418197,-79.9571314,"0","Halal, Vegan, Sandwiches, Vegetarian, Ethnic Food, Greek, Middle Eastern, Restaurants, Specialty Food, Mediterranean, Food"
"17",162322,"Restaurant Village Grec","Laval","QC","H7W 2H2",45.5298712,-73.7558925,"1","Restaurants, Greek"
"18",138164,"New Midway Restaurant","Mississauga","ON","L5T 2B8",43.6633367,-79.6698193,"1","Restaurants, Diners, Greek, Breakfast & Brunch"
"19",170636,"Greco Fresh Grille","Fort Mill","SC","29708",35.0473222131,-80.991676636,"1","Mediterranean, Greek, Restaurants"
"20",121469,"Maxwell's Tavern","Waxhaw","NC","28173",34.9246135,-80.7430295,"1","Greek, Southern, American (Traditional), Restaurants"
"21",59985,"Estiatorio Yia Sou!","Montréal","QC","H3X 1V1",45.4824558,-73.6302635,"1","Mediterranean, Restaurants, Greek"
"22",79033,"Tasso Bar a Mezze","Montréal","QC","H2W 2M4",45.519507,-73.5730557,"0","Seafood, Greek, Food, Restaurants, Tapas Bars"
"23",152703,"Greek House","Newmarket","ON","L3Y 2R9",44.0683036432,-79.4292091502,"1","Imported Food, Specialty Food, Greek, Food, Restaurants, Ethnic Food"
"24",3465,"The Simple Greek","Pittsburgh","PA","15222",40.4411266,-80.0025216,"1","Greek, Restaurants"
"25",63144,"Bangkok Thai Restaurant","Stow","OH","44224",41.1673719905,-81.4399877563,"1","Asian Fusion, Chinese, Restaurants, Thai, Greek, Cambodian"
"26",95164,"My Big Fat Greek Express","Tempe","AZ","85283",33.3782241,-111.936102,"0","Greek, Restaurants"
"27",25436,"Soulas Modern Greek Cuisine","Toronto","ON","M4K 1P6",43.6782533847,-79.3488195911,"1","Greek, Restaurants"
"28",143398,"Casa Grecque","Dollard-des-Ormeaux","QC","H9G 1X2",45.474503,-73.835546,"1","Greek, Restaurants, Seafood, Barbeque"
"29",86056,"Landmark Diner Restaurant","Charlotte","NC","28205",35.2139396,-80.7694598,"1","Mediterranean, Italian, Restaurants, Greek, Breakfast & Brunch, Diners"
"30",37048,"Kalyvia On the Danforth","Toronto","ON","M4K 1P3",43.6777591,-79.3509223,"1","Greek, Mediterranean, Restaurants"
"31",82187,"Nick's Restaurant","Madison","WI","53703",43.0749558,-89.389168,"1","Mediterranean, Bars, Diners, Restaurants, Nightlife, Greek"
"32",24475,"Zoes Kitchen","Chandler","AZ","85226",33.3179531038,-111.9671074491,"1","Restaurants, Kebab, Greek, American (New), Mediterranean, Southern, Sandwiches"
"33",87088,"Rock Hill Diner","Rock Hill","SC","29732",34.9662888,-80.9961289,"1","Breakfast & Brunch, American (Traditional), Diners, Greek, Restaurants, Seafood"
"34",88871,"Kyklos Greek Cafe","Henderson","NV","89014",36.0677813671,-115.0415401663,"1","Restaurants, Mediterranean, Greek, Vegetarian"
"35",11952,"Peño Mediterranean Grill","Charlotte","NC","28262",35.3374379,-80.7570791,"1","Restaurants, Greek, Mediterranean"
"36",152652,"Mickele's Bistro","Etobicoke","ON","M9C 5K5",43.6532211,-79.6007767,"0","Greek, Italian, Pizza, Mediterranean, Restaurants"
"37",117986,"It's Greek To Me","Pittsburgh","PA","15226",40.3919796,-80.0173011,"0","Restaurants, Greek"
"38",104475,"Greek Stop","Markham","ON","L3R 0B5",43.857985,-79.331777,"1","Greek, Restaurants"
"39",90532,"Zante Bistro","Toronto","ON","M4E 2B1",43.680955053,-79.3104485795,"0","Greek, Mediterranean, Restaurants"
"40",77624,"Greco Fresh Grille","Charlotte","NC","28226",35.1065191,-80.8073691,"1","Greek, Mediterranean, Restaurants"
"41",120890,"Athen's Gyros & Pasta","Phoenix","AZ","85021",33.55312,-112.1091777,"0","Salad, Restaurants, Mediterranean, Greek, Fast Food"
"42",61758,"Mr Souvlaki","Concord","ON","L4K 4X3",43.7964235,-79.4976744,"1","Restaurants, Greek"
"43",133869,"Cedar Land","Charlotte","NC","28205",35.211861,-80.761811,"1","Restaurants, Greek, Lebanese, Specialty Food, Middle Eastern, Ethnic Food, Food, Mediterranean, Grocery"
"44",138655,"Shish Kebab House","Glendale","AZ","85302",33.5674844,-112.1673493,"0","Persian/Iranian, Greek, Restaurants, Mediterranean"
"45",119880,"Showmars - Park Cedar","Charlotte","NC","28210",35.0939713,-80.8655831,"1","Greek, Restaurants, Fast Food, American (Traditional)"
"46",76294,"Greektown Grill","Laval","QC","H7W 1C5",45.540345,-73.76851,"1","Greek, Restaurants"
"47",53412,"Tuscany Mediterranean Grill","Fitchburg","WI","53711",43.0166386,-89.4234906,"1","Italian, Greek, Restaurants, Mediterranean"
"48",178950,"Angelos of Fort Mill","Fort Mill","SC","29715",35.075757,-80.9363545,"0","Seafood, Greek, Restaurants, Italian"
"49",153951,"Chuck's Grill","Charlotte","NC","28269",35.33005,-80.826374,"1","Mediterranean, Greek, Breakfast & Brunch, American (Traditional), Restaurants"
"50",75163,"Shawarma Boys","Toronto","ON","M4K 3S7",43.6793101098,-79.3448318169,"1","Lebanese, Greek, Middle Eastern, Restaurants"
"51",154709,"Louis Souvlaki & Grill","Toronto","ON","M1C 1B7",43.7834364,-79.169776,"1","Sandwiches, Greek, Pizza, Mediterranean, Restaurants, Italian"
"52",68863,"Restaurant Ellada","Montréal","QC","H4N 2Y8",45.5311417,-73.6511426,"1","Restaurants, Greek"
"53",190665,"Lindos Restaurant","Pittsburgh","PA","15233",40.4514362,-80.0183074,"1","Diners, Coffee & Tea, Breakfast & Brunch, Sandwiches, Greek, Burgers, Restaurants, Food"
"54",103129,"Amena Bakery & Deli","Las Vegas","NV","89102",36.148922,-115.209227,"1","Middle Eastern, Restaurants, Mediterranean, Bakeries, Food, Greek"
"55",6968,"Zorba the Greek","Scarborough","ON","M1R 4B7",43.7574406,-79.3125485,"1","Restaurants, Greek"
"56",110057,"Chicago Gyros","Glendale","AZ","85308",33.6704382,-112.1879299,"0","Restaurants, American (Traditional), Greek, Bakeries, Food"
"57",90684,"Grill Sélect","Kirkland","QC","H9H 3B6",45.4460023,-73.8524816,"1","Restaurants, Persian/Iranian, Greek"
"58",69848,"Hunter's on Danforth","Toronto","ON","M4J 1L1",43.6792065081,-79.3443701,"1","Pizza, Comfort Food, Restaurants, Greek, Breakfast & Brunch"
"59",82879,"Pita Jungle","Phoenix","AZ","85018",33.4957331182,-111.9884419374,"1","Mediterranean, Restaurants, American (New), Vegan, Vegetarian, Greek"
"60",154127,"Opa Restaurant","Las Vegas","NV","89146",36.14294,-115.242469,"0","Restaurants, Greek, Mediterranean"
"61",146570,"Greek Chef","Tempe","AZ","85281",33.3785598,-111.9286709,"0","Restaurants, Greek, Mediterranean"
"62",49514,"Ontario Restaurant","Toronto","ON","M5A 2A5",43.6590268,-79.3682246,"1","Greek, Restaurants, American (New), Breakfast & Brunch, Canadian (New)"
"63",135865,"Rosemary & Thyme Family Restaurant","Toronto","ON","M2J 4A8",43.7881447835,-79.329492,"1","Restaurants, Canadian (New), Greek"
"64",35233,"Arahova Souvlaki","Lasalle","QC","H8N 2N9",45.4356846,-73.6264053,"0","Restaurants, Greek, Mediterranean"
"65",167327,"Symposion Greek Cuisine","Brampton","ON","L6V 1B2",43.6915728,-79.7544654,"1","Restaurants, Mediterranean, Greek"
"66",38217,"Posidon Greek Restaurant & Market","Mesa","AZ","85201",33.4149317,-111.8501092,"0","Beer, Wine & Spirits, Delis, Food, Greek, Restaurants"
"67",7133,"La Porte Grecque Estiatorio","Dollard-des-Ormeaux","QC","H8Y 3C4",45.500731,-73.814934,"1","Mediterranean, Restaurants, Greek"
"68",165714,"The Greek Pita","Phoenix","AZ","85085",33.7110853771,-112.1114417402,"1","Restaurants, Food, Greek"
"69",130395,"Cleo","Las Vegas","NV","89109",36.1422486001,-115.156616047,"1","Restaurants, Mediterranean, American (New), Tapas/Small Plates, Greek, Middle Eastern"
"70",2096,"Atomic Restaurant","Laval","QC","H7W 1C5",45.5398504,-73.7681028,"0","Pizza, Mediterranean, Greek, Restaurants"
"71",55714,"My Big Fat Greek Restaurant","Phoenix","AZ","85048",33.3067372,-112.0537905,"0","Restaurants, Greek"
"72",79473,"My Big Fat Greek Restaurant","Chandler","AZ","85226",33.3047658,-111.8983877,"0","Restaurants, Mediterranean, Greek"
"73",123919,"Main Street Grill","Waxhaw","NC","28173",34.924376,-80.7447509,"0","Restaurants, Diners, Breakfast & Brunch, Greek"
"74",39126,"Mike & Tony's Gyros","Pittsburgh","PA","15203",40.4286542,-79.9835802,"1","Restaurants, Greek, Mediterranean"
"75",123728,"Cyprus Grill","Chandler","AZ","85248",33.2617999,-111.8602743,"0","Vegan, Sandwiches, Greek, Restaurants, Mediterranean"
"76",128368,"Mediterranean Hookah Lounge and Cafe","Madison","WI","53713",43.0389879,-89.3864891,"1","Lounges, Greek, Middle Eastern, Hookah Bars, Mediterranean, Restaurants, Food, Bars, Nightlife"
"77",114667,"OPA! of Greece","Calgary","AB","T2A 4Y7",51.0392526738,-113.9092637971,"1","Fast Food, Greek, Restaurants"
"78",53915,"Pylos","Laval","QC","H7T 1A2",45.555696,-73.752072,"0","Greek, Mediterranean, Restaurants"
"79",132963,"Ed's Grill & Gyros","Glendale","AZ","85302",33.5819400783,-112.1693768352,"0","Restaurants, Greek"
"80",66914,"My Big Fat Greek Restaurant","Phoenix","AZ","85004",33.4524340713,-112.0686974074,"0","Restaurants, Greek, Mediterranean, Pizza"
"81",26812,"Gyro Bar! Souvlaki Kitchen","Toronto","ON","M4C 3G5",43.6970097,-79.3295905,"1","Greek, Restaurants"
"82",6215,"Milano Foodworks","Markham","ON","L3R 1A3",43.8181704,-79.3497643,"1","Greek, Sandwiches, Italian, Restaurants"
"83",97739,"Grape Vegas","Las Vegas","NV","89119",36.0686142,-115.1776615,"0","Nightlife, Greek, Mediterranean, Wine Bars, Restaurants, Bars"
"84",52543,"Showmars - Rock Hill","Rock Hill","SC","29732",34.958024,-81.042969,"1","Southern, Greek, Restaurants, American (Traditional)"
"85",18191,"Showmars Third Street","Charlotte","NC","28202",35.2263469,-80.845804,"0","Greek, Mediterranean, Restaurants, American (Traditional)"
"86",24593,"AJ's Bar and Grill","Brampton","ON","L7A 1C1",43.6999143353,-79.7989779993,"1","Chicken Wings, Canadian (New), Restaurants, Breakfast & Brunch, American (Traditional), Greek"
"87",120854,"That's Greek Cuisine","Etobicoke","ON","M8Z 1R1",43.6228202,-79.5179787,"0","Greek, Mediterranean, Restaurants"
"88",107558,"The Greek Spot","Toronto","ON","M8Z 1T5",43.619572318,-79.5345478132,"1","Greek, Restaurants"
"89",27144,"701 Main","Waxhaw","NC","28173",34.9235888,-80.7501152,"1","Sandwiches, American (Traditional), Nightlife, Bars, Greek, Breakfast & Brunch, Restaurants"
"90",118314,"Penelope Restaurant","Toronto","ON","M5V 3C3",43.6466821,-79.3881743,"1","Restaurants, Mediterranean, Greek"
"91",165653,"Pita Jungle","Scottsdale","AZ","85260",33.583909,-111.922234,"1","Vegetarian, American (New), Middle Eastern, Mediterranean, Restaurants, Vegan, Greek"
"92",111872,"Estiatorio Milos","Las Vegas","NV","89109",36.1093921899,-115.1737730061,"1","Seafood, Greek, Restaurants"
"93",158117,"Kojax Souvlaki","Laval","QC","H7T 1A1",45.5566694143,-73.7476647645,"1","Greek, Mediterranean, Fast Food, Restaurants"
"94",162317,"MR GREEK","Toronto","ON","M9W 5E8",43.6847146,-79.594476,"0","Greek, Restaurants"
"95",154552,"Vasilis' Take Five: Vittles & Vices","Madison","WI","53703",43.0794866,-89.3693954,"0","Restaurants, Greek, Food, American (New)"
"96",71956,"Mr Greek Restaurant","Brampton","ON","L6R 2K7",43.7299559,-79.7653087,"1","Mediterranean, Greek, Restaurants"
"97",142029,"Plaka Taverna","Madison","WI","53774",43.0756691,-89.3772786,"1","Greek, Restaurants, Breakfast & Brunch, Mediterranean"
"98",69267,"Nikki's Akropolis Pizza","Henderson","NV","89014",36.0643468121,-115.0595177338,"0","Pizza, Restaurants, Greek, Salad, Italian, Sandwiches"
"99",107262,"EuroGyro","Kent","OH","44240",41.153443,-81.356145,"1","Food, Greek, Beer, Wine & Spirits, Pizza, Restaurants"
"100",51925,"Famous Gyro George","Cleveland","OH","44103",41.504402,-81.6374058,"1","Restaurants, Greek, Diners, American (Traditional)"
"101",113739,"Mr. Greek Express","Toronto","ON","M1L",43.7232876,-79.290478,"1","Restaurants, Mediterranean, Greek"
"102",24675,"EarlyBaker","Phoenix","AZ","85048",33.303165,-111.995226,"1","Custom Cakes, American (New), Breakfast & Brunch, Food, Greek, Mediterranean, Cafes, Bakeries, Patisserie/Cake Shop, Restaurants"
"103",189175,"Philly Steak & Gyro","Glendale","AZ","85303",33.5388332953,-112.2049490836,"1","Salad, Restaurants, Cheesesteaks, Burgers, Greek"
"104",171508,"Sun Valley Cafe","Indian Trail","NC","28079",35.0492092,-80.6455685,"1","Cafes, Greek, Restaurants"
"105",159737,"Souvlaki Hut","Toronto","ON","M6S 1M8",43.6517188,-79.4745649,"1","Food, Restaurants, Salad, Greek, Sandwiches, Soup"
"106",156703,"Marathon Souvlaki","Dollard-des-Ormeaux","QC","H9B 1Z6",45.4833359329,-73.793910809,"1","Greek, Restaurants"
"107",112729,"The Simple Greek","McMurray","PA","15317",40.2784258,-80.0832404,"0","Restaurants, Greek"
"108",5372,"Niko's","Lakewood","OH","44107",41.4849882,-81.8069232,"0","Mediterranean, Greek, Restaurants"
"109",83419,"Basha Restaurants","Montréal","QC","H3B 1E2",45.5013472,-73.5710996,"1","Restaurants, Greek, Middle Eastern"
"110",31351,"Beauregard Food","Peoria","AZ","85382",33.6302537,-112.2383046,"0","Cajun/Creole, Greek, Restaurants"
"111",175628,"Mr Nick's Food Service","Concord","ON","L4K 2T8",43.8218506,-79.4916791,"1","Greek, Restaurants, Mediterranean"
"112",149468,"Casa Grecque","Laval","QC","H7M 3Y8",45.5774269,-73.7102447,"1","Restaurants, Greek"
"113",37871,"OPA! of Greece 17th Ave","Calgary","AB","T2T 0A1",51.0376452,-114.081431,"0","Fast Food, Greek, Restaurants, Mediterranean"
"114",152159,"Mr Souvlaki","Toronto","ON","M5H 3M9",43.6511809,-79.3842377,"1","Restaurants, Greek"
"115",126862,"Rubin's Deli & Restaurant","Elyria","OH","44035",41.3990802553,-82.1204752475,"1","Delis, Sandwiches, American (Traditional), Greek, Restaurants, Burgers, Mediterranean"
"116",150547,"Greek & Co","Toronto","ON","M5S 1X2",43.6663524,-79.4058824,"0","Greek, Restaurants"
"117",160392,"Pita House","Scottsdale","AZ","85251",33.494262,-111.9256488,"1","Middle Eastern, Bars, Restaurants, Hookah Bars, Greek, Nightlife, Animal Shelters, Pets, Lounges"
"118",41448,"Ola Kala","Laval","QC","H7W 1C6",45.539738,-73.767749,"1","Greek, Mediterranean, Restaurants"
"119",36475,"P & M Restaurant","Toronto","ON","M9N 1W2",43.7005249,-79.5182103,"1","Restaurants, American (Traditional), Greek"
"120",173455,"Agora","Toronto","ON","M6J 1G5",43.645283333,-79.4126565009,"1","Greek, Restaurants"
"121",50665,"Nick's Diner II","Surprise","AZ","85379",33.6090953,-112.3601012,"1","American (New), American (Traditional), Greek, Italian, Restaurants, Breakfast & Brunch"
"122",132361,"Showmars - Arrowood Rd","Charlotte","NC","28217",35.1466312809,-80.9243124292,"1","Food, Southern, Greek, Restaurants, Sandwiches"
"123",150590,"Main Street Continental Grill","Kent","OH","44240",41.153988,-81.3460218,"1","Restaurants, Mediterranean, Greek"
"124",26638,"T&J Gyro and Burger","Phoenix","AZ","85027",33.6558818,-112.1339155,"0","Middle Eastern, Greek, Restaurants, American (New)"
"125",49846,"Restaurant Ella Grill","Montreal","QC","H2L 3K9",45.5170097,-73.5556793,"0","Restaurants, Greek"
"126",150767,"Royal Persis","Las Vegas","NV","89121",36.11543,-115.112467,"0","Middle Eastern, Persian/Iranian, Greek, Restaurants, Mediterranean"
"127",6904,"Showmars","Gastonia","NC","28056",35.2574089938,-81.1116733029,"1","Sandwiches, Salad, Restaurants, Greek"
"128",25676,"Big Pita","Toronto","ON","M5A 4S5",43.6494481,-79.3707486,"1","Halal, Food, Restaurants, Greek, Donairs, Mediterranean, Middle Eastern"
"129",87484,"Makkal Chon","Toronto","ON","M1R 2Z2",43.7446409,-79.296277,"1","Restaurants, Greek, Korean"
"130",24056,"Mika's Greek","Phoenix","AZ","85013",33.4800452046,-112.0807988113,"1","Greek, Mediterranean, Falafel, Restaurants, Vegetarian"
"131",19632,"Nostos","Montréal","QC","H4N 1L8",45.534296,-73.66139,"1","Salad, Bars, Wine Bars, Nightlife, Greek, Restaurants"
"132",30420,"Montreal Deli","Richmond Hill","ON","L4B 3M3",43.8474465215,-79.377844063,"0","Mediterranean, Sandwiches, Delis, Greek, Restaurants"
"133",53020,"Tzikii Pita Grill","Tempe","AZ","85283",33.3496363575,-111.9635375915,"1","Restaurants, Greek, Mediterranean, Vegan"
"134",103233,"Mike's Greek & Italian Cuisine","Surprise","AZ","85374",33.6403184,-112.3594317,"0","Italian, Mediterranean, Restaurants, Greek"
"135",102931,"Buffet Casa Corfu","Montréal","QC","H1Y 1Y2",45.5500926,-73.573907,"1","Greek, Restaurants, Mediterranean, Buffets"
"136",141741,"Arahova Souvlaki","Montréal","QC","H2Y 3Y7",45.5055629,-73.5553385,"1","Greek, Restaurants, Mediterranean"
"137",183192,"Mykonos Greek Cuisine","Las Vegas","NV","89134",36.2116995,-115.298321,"0","Food, Restaurants, Greek, Ethnic Food, Specialty Food"
"138",58571,"My Big Fat Greek Restaurant","Glendale","AZ","85305",33.535919,-112.2649116,"0","Greek, Restaurants"
"139",11639,"MR GREEK Express","Brampton","ON","L6T 5J1",43.7405718,-79.699056,"1","Restaurants, Greek"
"140",183177,"Creteus","Calgary","AB","T3E 0A5",51.0378511,-114.1223788,"0","Ethnic Food, Specialty Food, Gas Stations, Restaurants, Food, Greek, Automotive"
"141",34997,"Green Street Cafe","Champaign","IL","61820",40.1099022,-88.2410371,"1","Bars, Nightlife, Hookah Bars, Restaurants, Sports Bars, Pool Halls, Mediterranean, Greek, Dive Bars"
"142",5534,"My Greek Corner","Phoenix","AZ","85027",33.6686473,-112.1230677,"0","Restaurants, Greek"
"143",156223,"The Mad Greek Cafe","Las Vegas","NV","89109",36.1314439,-115.1648858,"0","Greek, Mediterranean, Restaurants"
"144",95574,"Greece Restaurant","Toronto","ON","M4S 2M9",43.70494,-79.3886077,"1","Greek, Restaurants"
"145",171778,"My Big Fat Greek Express","Tempe","AZ","85284",33.3350535,-111.9445749,"0","Greek, Restaurants"
"146",4147,"Ouzeri","Toronto","ON","M4K 1P6",43.6784089,-79.3489549,"0","Restaurants, Mediterranean, Greek"
"147",186361,"Maestro's Pizzeria","Las Vegas","NV","89121",36.1158035398,-115.1047113682,"0","Food, Italian, Pizza, Greek, Restaurants"
"148",134412,"JOEY Crowfoot","Calgary","AB","T3G 4C8",51.124715,-114.2023645341,"1","Lounges, Nightlife, Mediterranean, Bars, Greek, Restaurants, Canadian (New), American (New)"
"149",65630,"My Big Fat Greek","Glendale","AZ","85308",33.6383514,-112.2246093,"0","Food, Restaurants, Greek"
"150",89873,"Yiasou Greek Festival","Charlotte","NC","28203",35.207457,-80.8531308,"1","Art Galleries, Mediterranean, Greek, Arts & Entertainment, Shopping, Local Flavor, Restaurants, Arts & Crafts, Jewelry"
"151",19243,"The Greek Patio","Phoenix","AZ","85022",33.6380004883,-112.06615448,"0","Restaurants, Greek"
"152",164591,"Nostimo Greek Souvlaki Aurora","Aurora","ON","L4G 0K7",44.008107,-79.4452924,"0","Greek, Mediterranean, Restaurants"
"153",175048,"Folia Grill","Toronto","ON","M4K 3W1",43.6887967,-79.3483753,"1","Fast Food, Restaurants, Greek"
"154",22932,"Athenian Grill","Indian Trail","NC","28079",35.068953,-80.678809,"1","Specialty Food, American (Traditional), Mediterranean, Food, Greek, Sandwiches, Ethnic Food, Barbeque, Salad, Restaurants"
"155",32578,"Jay's Gyro's","Phoenix","AZ","85040",33.4077046,-111.9793334,"1","Restaurants, Sandwiches, Greek, Burgers"
"156",57400,"Jimmy the Greek","Mississauga","ON","L5M 4Z5",43.5586447,-79.7115912,"1","Fast Food, Greek, Restaurants"
"157",167429,"Broken Plate Kitchen & Bar","Calgary","AB","T3H 4A3",51.0398958,-114.2082964,"0","Greek, Mediterranean, Restaurants"
"158",82946,"Krystos","Richmond Hill","ON","L4C 7A2",43.8525621285,-79.4331351668,"0","Persian/Iranian, Mediterranean, Greek, Italian, Restaurants"
"159",164693,"Villa du Souvlaki","Montréal","QC","H4A 1V2",45.4738484,-73.6097774,"1","Greek, Restaurants"
"160",57931,"Gyro Express","Madison","WI","53719",43.0585410435,-89.5051780343,"1","Greek, Fast Food, Restaurants"
"161",10159,"Lezvos West","Montréal","QC","H4A 3K4",45.479166,-73.619128,"1","Greek, Restaurants"
"162",164127,"Blue Moon Sports Grill","Phoenix","AZ","85020",33.5523168,-112.056308,"0","Greek, Restaurants, Mediterranean"
"163",71362,"Showmars","Charlotte","NC","28203",35.1991855,-80.8417144,"1","Greek, Southern, Mediterranean, Sandwiches, Restaurants"
"164",25716,"A Taste of Greece Festival","Chandler","AZ","85224",33.346862,-111.8769336,"1","Specialty Food, Arts & Entertainment, Food, Restaurants, Ethnic Food, Festivals, Greek"
"165",110716,"Greek In the Village","Toronto","ON","M4Y",43.6644561,-79.380257,"0","Greek, Restaurants"
"166",44557,"Haji-Baba","Tempe","AZ","85281",33.4142711,-111.9134509,"1","Grocery, Mediterranean, Food, Restaurants, Greek, Middle Eastern"
"167",15429,"Mykonos Mediterranean Grill","Toronto","ON","M4W 2H2",43.6743209,-79.3880618,"1","Greek, Mediterranean, Restaurants"
"168",138516,"Royal Pita","Phoenix","AZ","85051",33.574974,-112.1210338,"0","Restaurants, Greek"
"169",188278,"Arahova Souvlaki","Montréal","QC","H2V 1X9",45.5226356,-73.6016593,"1","Greek, Restaurants, Mediterranean"
"170",185135,"Athenian Express","Phoenix","AZ","85004",33.4575099,-112.0741235,"0","Mediterranean, Restaurants, Burgers, Greek, Sandwiches"
"171",110175,"The Simple Greek","Mount Lebanon","PA","15228",40.381372311,-80.0441557914,"0","Greek, Restaurants"
"172",92026,"Olive Tree Market & Grill","Phoenix","AZ","85027",33.6988861,-112.1012447,"0","Food, Specialty Food, Coffee & Tea, Mediterranean, Greek, Restaurants, Ethnic Food"
"173",77702,"The Markham Station Restaurant","Toronto","ON","M1S 4N8",43.792597,-79.238907,"1","Greek, Breakfast & Brunch, Canadian (New), Restaurants"
"174",43320,"Pantheon Restaurant","Toronto","ON","M4K 1P1",43.6775523,-79.3513343,"1","Greek, Mediterranean, Restaurants"
"175",1587,"Main St Greek","Markham","ON","L3P 1X5",43.8759432609,-79.2604827692,"1","Restaurants, Greek"
"176",171053,"Zoes Kitchen","Chandler","AZ","85286",33.2623702,-111.857048,"1","Mediterranean, Restaurants, Greek, Kebab, Sandwiches"
"177",114983,"Restaurant Ammos","Laval","QC","H7T 2Z6",45.5615342489,-73.74520591,"0","Greek, Restaurants, Seafood, Mediterranean"
"178",162042,"Elie's Deli","Phoenix","AZ","85018",33.4804959,-111.9842703,"0","Delis, Restaurants, Sandwiches, Greek"
"179",150017,"Au Vieux Duluth","Dollard-Des-Ormeaux","QC","H9G 1X1",45.4712504388,-73.8337183753,"1","Restaurants, Greek"
"180",164513,"Pita Pit","Pittsburgh","PA","15222",40.4390325,-79.9994704,"0","Restaurants, Greek"
"181",163158,"Mosaic Mediterranean Grill","Brampton","ON","L6R 1H5",43.7603179,-79.7298334,"0","Greek, Restaurants, Mediterranean, Middle Eastern, African"
"182",59373,"Gyro Spot","Parma","OH","44129",41.4095978498,-81.734452797,"0","Nightlife, Mediterranean, Sports Bars, Restaurants, Sandwiches, Bars, Greek"
"183",133529,"Kojax Souvlaki","Saint-laurent","QC","H4R 1Y8",45.4964525157,-73.7063315728,"1","Comfort Food, Food Court, Restaurants, Greek"
"184",84290,"Greek Gyro Grill","Toronto","ON","M4B 1N5",43.7076125,-79.3023058,"0","Mediterranean, Greek, Restaurants"
"185",118009,"Gali's Gyro & Grill","Pleasant Hills","PA","15236",40.339546,-79.961537,"1","Greek, Sandwiches, Pizza, Mediterranean, Restaurants"
"186",72362,"Mr Greek","Mississauga","ON","L4W 5K1",43.6383115879,-79.6219116257,"1","Restaurants, Greek"
"187",174708,"Delicious Greek","Aurora","ON","L4G 6K9",44.002561,-79.4513583,"1","Canadian (New), Greek, Burgers, Fish & Chips, Restaurants"
"188",185416,"Olympia Grill","Mississauga","ON","L5T 2Z8",43.6470027,-79.7060249,"1","Breakfast & Brunch, Greek, American (Traditional), Restaurants, Food"
"189",62265,"Pan On the Danforth","Toronto","ON","M4K 1P6",43.6783585,-79.3486848,"0","Restaurants, Mediterranean, Greek"
"190",91344,"Paymons Mediterranean Cafe & Hookah Lounge","Las Vegas","NV","89117",36.1448066,-115.2739885,"1","Bars, Middle Eastern, Grocery, Vegetarian, Greek, Nightlife, Mediterranean, Restaurants, Food, Hookah Bars"
"191",97864,"Lafayette","Montréal","QC","H2K 2H5",45.5232784795,-73.5515689063,"1","Imported Food, Pizza, Restaurants, Food, Specialty Food, Breakfast & Brunch, Greek, Hot Dogs, Ethnic Food, Burgers"
"192",65505,"Greek Tycoon Restaurant","Whitby","ON","L1N 4M1",43.8695216,-78.9371773,"1","Restaurants, Mediterranean, Event Planning & Services, Greek, Caterers"
"193",3293,"Gyros Town","Peoria","AZ","85383",33.7114452,-112.2731482,"1","Restaurants, Greek, Mediterranean"
"194",5926,"Square-Boy Drive-In","Toronto","ON","M4J 1L8",43.6797799,-79.3394328,"1","Restaurants, Greek, Burgers"
"195",165520,"Greek American Grille","Las Vegas","NV","89103",36.175,-115.136389,"0","Mediterranean, Greek, Restaurants"
"196",102175,"Christo's Family Restaurant","Concord","NC","28025",35.4120106,-80.5687126,"1","Pizza, Greek, Chicken Wings, Restaurants"
"197",159784,"Meráki Greek Grill","Las Vegas","NV","89118",36.0985778,-115.2424401,"1","Greek, Restaurants, Mediterranean"
"198",73276,"Green Corner Restaurant","Mesa","AZ","85210",33.3944462,-111.8541105,"1","Restaurants, Greek, Mediterranean, Halal, Arabian, Salad, Sandwiches"
"199",191399,"Rôtisserie Panama","Dollard-des-Ormeaux","QC","H9B 2R8",45.4836770736,-73.801486309,"1","Restaurants, Greek"
"200",67790,"Alexandros Bar and Grill","Toronto","ON","M6G 1M2",43.662098,-79.4246715,"0","Greek, Restaurants"
"201",58426,"Pita Island","Mesa","AZ","85205",33.4346351975,-111.7196082921,"0","Greek, Pizza, Falafel, Restaurants, Breakfast & Brunch, Beer, Wine & Spirits, Mediterranean, Food"
"202",111510,"Adega","Cleveland","OH","44115",41.49989,-81.685944,"1","Hotels, Event Planning & Services, Mediterranean, Nightlife, Bars, Hotels & Travel, Food, Lounges, Beer, Wine & Spirits, Greek, Breakfast & Brunch, Restaurants"
"203",2453,"Mama Rosa","Mississauga","ON","L5A 1B2",43.5817587,-79.5862913,"1","Greek, American (Traditional), Bars, Restaurants, Nightlife"
"204",46443,"Souvlaki Hut","Toronto","ON","M9B 1B1",43.636386,-79.540239,"1","Salad, Restaurants, Greek"
"205",101168,"Taste Of Mediterranean","Richmond Hill","ON","L4B 3K4",43.8643608,-79.3834238,"1","Greek, Restaurants"
"206",87916,"E & N Family Table Restaurant","Las Vegas","NV","89147",36.1084634,-115.2781946,"0","Restaurants, American (New), Greek, Italian"
"207",105657,"Niko's Pizza & Deli","Montréal","QC","H4J 1E2",45.532736,-73.719283,"1","Restaurants, Pizza, Delis, Greek, Sandwiches"
"208",96034,"Saba's Mediterranean Cuisine","Carefree","AZ","85377",33.825638,-111.922982,"0","Mediterranean, Greek, Middle Eastern, Restaurants"
"209",96001,"Kuzina","Calgary","AB","T2T 0B8",51.0377027,-114.0892435,"0","Greek, Canadian (New), Restaurants"
"210",104914,"Pita Grill","Calgary","AB","T2C 4E4",50.9779302,-114.0142431,"1","Middle Eastern, Greek, Restaurants, Mediterranean"
"211",154560,"Greek Grill","Vaughan","ON","L4L 1A6",43.8276518534,-79.5507646004,"1","Greek, Restaurants"
"212",90208,"Super Gyro","Chateauguay","QC","J6J 2R3",45.3599279,-73.7254899,"1","Mediterranean, Greek, Restaurants"
"213",118221,"Souvlaki Kalamaki","Toronto","ON","M6K 1M3",43.6404536502,-79.4367266446,"1","Greek, Mediterranean, Restaurants"
"214",154854,"Sabuddy Israeli","Scottsdale","AZ","85254",33.581569,-111.931282,"0","Vegetarian, Middle Eastern, Restaurants, Mediterranean, Greek"
"215",148257,"Zoes Kitchen","Phoenix","AZ","85016",33.5087147,-112.0458725095,"1","Mediterranean, Kebab, Restaurants, Southern, Sandwiches, Greek"
"216",91688,"Troy Mediterranean Grill","Charlotte","NC","28273",35.145733,-80.936552,"0","Restaurants, Mediterranean, Turkish, Greek"
"217",84553,"Mr Souvlaki","Toronto","ON","M4W 1A8",43.6710978,-79.386063,"1","Restaurants, Greek"
"218",65622,"Mr. Greek Mediterranean Grill","Richmond Hill","ON","L4C 7A2",43.852438,-79.4331903,"0","Mediterranean, Restaurants, Greek"
"219",171411,"Greek Brothers","Vaughan","ON","L4L 9G7",43.8084206,-79.5484044,"1","Restaurants, Greek"
"220",4116,"Kabab House","Phoenix","AZ","85032",33.6412984,-112.0063922,"0","Lebanese, Restaurants, Mediterranean, Middle Eastern, Food, Arabian, Juice Bars & Smoothies, Halal, Turkish, Greek"
"221",122215,"Ouzeri","Montréal","QC","H2J 2L3",45.5249797,-73.5855488,"1","Restaurants, Greek"
"222",3916,"OPA! of Greece North York City Centre","Toronto","ON","M2N 6L6",43.7686976,-79.4131633,"1","Restaurants, Fast Food, Greek, Food Court"
"223",60120,"The 6 Burger Bar","Toronto","ON","M1K 2K5",43.7253560737,-79.2758500949,"1","Greek, Restaurants, Poutineries, Burgers"
"224",72728,"OPA! of Greece Canada Olympic Park","Calgary","AB","T3B 3Y6",51.0453246,-114.0581012,"1","Restaurants, Fast Food, Greek"
"225",854,"Yakamoz Grill","North York","ON","M3H 1T3",43.7365341,-79.4380507,"0","Greek, Restaurants"
"226",59171,"Showmars Eastway","Charlotte","NC","28205",35.2104796,-80.7818169,"1","Fast Food, Restaurants, Greek"
"227",152524,"Ron's Grilled Barbeque and Kabobs","Las Vegas","NV","89148",36.0782601,-115.2985593,"1","Restaurants, Mediterranean, Middle Eastern, Barbeque, Greek"
"228",186236,"Kosta and Vic's Family Restaurant","Parma","OH","44130",41.3511384,-81.7579791,"1","Greek, American (New), American (Traditional), Restaurants, Food"
"229",34907,"My Big Fat Greek Express","Glendale","AZ","85308",33.6420995,-112.225533,"1","Food, Restaurants, Greek"
"230",29724,"Bono's","Las Vegas","NV","89119",36.0577328,-115.1583224,"0","Fast Food, Restaurants, Sandwiches, Hot Dogs, Greek"
"231",56488,"Spartans Mediterranean Taverna & Grill","Concord","NC","28025",35.4465258,-80.6007229,"0","Restaurants, Greek"
"232",128146,"Sunset Gyros","Sun City","AZ","85351",33.6237493,-112.2707994,"1","Greek, Restaurants"
"233",162696,"Family Restaurant","Pittsburgh","PA","15227",40.3850657503,-79.9783793092,"0","Food, Pizza, Middle Eastern, Specialty Food, Greek, Ethnic Food, American (New), Restaurants"
"234",83340,"Athens Gyros","Madison","WI","53711",43.067141,-89.414181,"1","Greek, Restaurants"
"235",10909,"The Lemon Grill","Elizabeth","PA","15037",40.273228,-79.886663,"0","Greek, Restaurants"
"236",69391,"Famous Gyro George","Brunswick","OH","44211",41.2457925,-81.841711,"1","Restaurants, Greek"
"237",183989,"Kabob Palace","Las Vegas","NV","89103",36.1010205,-115.2443122,"0","Ethnic Food, Restaurants, Greek, Specialty Food, Food, Persian/Iranian, Mediterranean"
"238",15143,"Tony's Place","Henderson","NV","89014",36.0557242,-115.0559333,"0","Restaurants, Greek, Mediterranean"
"239",125848,"Zante","Saint-Laurent","QC","H4N",45.531230609,-73.6511881432,"1","Greek, Restaurants"
"240",33461,"Greek Town","Calgary","AB","T2S 0G8",51.0348858465,-114.0715220196,"0","Bars, Wine Bars, Nightlife, Restaurants, Greek"
"241",133218,"Ariana's Kabob & Gyros","Mesa","AZ","85206",33.394408,-111.718791,"0","Greek, Mediterranean, Restaurants"
"242",173488,"Estiatorio VOLOS","Toronto","ON","M5H 2L3",43.6500769,-79.3848314,"1","Vegetarian, Mediterranean, Greek, Restaurants, Seafood"
"243",112225,"Sultan's Grill- Henderson","Henderson","NV","89012",36.013265597,-114.9927299393,"0","Greek, Middle Eastern, Mediterranean, Restaurants"
"244",177795,"Its All Greek","Monona","WI","53716",43.0707675,-89.326424,"0","Mediterranean, Food, Restaurants, Greek"
"245",188819,"Souvlaki Vieux Grec","Laval","QC","H7W 1A8",45.5486856956,-73.7577429723,"1","Greek, Restaurants"
"246",128774,"My Big Fat Greek Gyro","Pittsburgh","PA","15222",40.4411343,-80.0026106,"0","Greek, Restaurants"
"247",152867,"My Big Fat Greek Restaurant","Tempe","AZ","85281",33.4246763733,-111.9398508957,"0","Mediterranean, Restaurants, Greek, American (Traditional)"
"248",78009,"Namos","Montréal","QC","H2T 2K4",45.5243876,-73.6049072,"0","Seafood, Restaurants, Greek"
"249",138513,"Simply Greek","Cleveland","OH","44106",41.5097011001,-81.603253988,"1","Caterers, Burgers, Greek, Mediterranean, Event Planning & Services, Restaurants"
"250",90396,"Omonia Restaurant","Toronto","ON","M4K 1P3",43.6779451384,-79.3509625965,"0","Restaurants, Seafood, Mediterranean, Greek"
"251",179825,"Green Corner Restaurant","Chandler","AZ","85248",33.2606034,-111.8598861,"1","Greek, Middle Eastern, Restaurants, Sandwiches, Mediterranean, Salad"
"252",76054,"Sparta","Westmount","QC","H3Z 1P2",45.488482,-73.585176,"1","Greek, Restaurants, Halal"
"253",170625,"Knossos Gyros & Sis-Kabob","Pittsburgh","PA","15216",40.395957,-80.035089,"1","Greek, Restaurants, Polish"
"254",149290,"Atlantis Taverna","Sun Prairie","WI","53590",43.1828511,-89.2115121,"0","Mediterranean, Greek, Restaurants"
"255",130946,"Santorini Greek Taverna","Cleveland","OH","44113",41.49815,-81.700249,"0","Restaurants, Mediterranean, Greek"
"256",174758,"Diamond Corner","East York","ON","M4C 3G1",43.6940627,-79.3277384,"1","Greek, Restaurants, Pizza, Salad, Burgers"
"257",172001,"Arahova Souvlaki Restaurants","Saint-Laurent","QC","H4L 2A6",45.5106631,-73.6871948,"0","Greek, Restaurants"
"258",72825,"Zante","Montréal","QC","H3A 1G9",45.50137,-73.5764855,"1","Restaurants, Greek"
"259",160577,"Potenza Pizza and Pasta","Pittsburgh","PA","15213",40.452781,-79.9493698,"1","Event Planning & Services, Caterers, Italian, Food, Greek, Restaurants, Pizza, Food Delivery Services, Sandwiches"
"260",92531,"Calypso's Taverna","Calgary","AB","T2E 2T2",51.0708451,-114.0630301,"1","Greek, Restaurants, Mediterranean"
"261",125699,"Gypsy Cafe","Pittsburgh","PA","15289",40.4294377,-79.9849665,"0","Greek, Middle Eastern, Mediterranean, Breakfast & Brunch, Restaurants"
"262",75626,"Tzatziki","Toronto","ON","M4K 3T9",43.683965,-79.346677,"1","Greek, Restaurants"
"263",8881,"Sammy's BBQ & Deli","Toronto","ON","M5R 3G1",43.6653686,-79.4115376,"0","Delis, Barbeque, Restaurants, Greek"
"264",187593,"La Shish Grill","Stow","OH","44224",41.1575098,-81.4442502,"0","Mediterranean, Restaurants, Greek"
"265",158516,"Sam's Grille","Indian Trail","NC","28079",35.0690262835,-80.6787309051,"0","American (New), Cajun/Creole, Greek, Restaurants"
"266",119689,"Lulu's Deli and Restaurant","Madison","WI","53774",43.072576,-89.42972,"0","Restaurants, Mediterranean, Moroccan, Greek, Vegetarian, Middle Eastern"
"267",38998,"Jimmy the Greek","North York","ON","M2M 3X4",43.7958435721,-79.4232619682,"1","Greek, Mediterranean, Restaurants"
"268",65378,"Pita Jungle","Mesa","AZ","85202",33.3935179,-111.8718101,"1","American (New), Vegetarian, Restaurants, Vegan, Mediterranean, Greek"
"269",11031,"Arahova Souvlaki","Brossard","QC","J4W 1M7",45.475127,-73.467219,"1","Restaurants, Greek"
"270",186883,"Miteras Pizzeria","Montréal","QC","H2G 1T8",45.5448352494,-73.5875844955,"1","Restaurants, Pizza, Greek"
"271",19148,"Yianni's Kitchen","Toronto","ON","M5E",43.6490516,-79.3717741,"1","Mediterranean, Restaurants, Greek"
"272",110255,"Island of Tinos","Toronto","ON","M4E 1H7",43.6734607,-79.2835275,"0","Restaurants, Greek"
"273",52656,"Esquire Restaurant","Toronto","ON","M1T 1A4",43.7743268,-79.322455,"1","Sandwiches, Mediterranean, Greek, Burgers, Food, Salad, Restaurants"
"274",142343,"Zorba's Home-Made Greek Food","Toronto","ON","M4J 1L2",43.6789584,-79.3440418,"0","Greek, Mediterranean, Restaurants"
"275",162582,"Istocki's Shish Kebob House","Akron","OH","44313",41.1088629,-81.5706896,"0","Greek, Restaurants"
"276",98209,"Vasileio's Italian Kitchen","Mount Holly","NC","28120",35.295445,-81.0169307,"1","Restaurants, Italian, Greek"
"277",89782,"Pitta Souvli","Chandler","AZ","85286",33.2770908,-111.8604023,"1","Mediterranean, Restaurants, Greek"
"278",133050,"PitaDale","Scottsdale","AZ","85255",33.6405155,-111.9245358,"1","Greek, Mediterranean, Salad, Restaurants"
"279",61825,"Phyllo Bar Melina's","Montréal","QC","H2V 4H2",45.5236777,-73.605135,"1","Greek, Restaurants"
"280",49804,"Zoes Kitchen","Charlotte","NC","28226",35.0862821193,-80.84903,"1","Restaurants, Sandwiches, Salad, Kebab, Mediterranean, Greek"
"281",6268,"Whiskey Barrel Lodge","Streetsboro","OH","44241",41.2545609,-81.3259579,"1","Seafood, American (New), Nightlife, Burgers, Greek, Bars, Restaurants"
"282",171589,"The Big Fat Greek Buffet","Mississauga","ON","L4W 4G1",43.6398192,-79.6253481,"0","Buffets, Restaurants, Greek"
"283",187709,"Famous Gyro George","North Olmsted","OH","44070",41.3963365,-81.9605446,"1","Middle Eastern, Breakfast & Brunch, Greek, Sandwiches, Restaurants, Food"
"284",179292,"The Ivy","Chandler","AZ","85286",33.2766511,-111.8740924,"1","Pizza, Mediterranean, Bars, Restaurants, Lounges, Cocktail Bars, Nightlife, Greek, Wine Bars"
"285",169202,"Showmars - Hearst Tower","Charlotte","NC","28202",35.2275832684,-80.8408048417,"1","Restaurants, Greek, Breakfast & Brunch"
"286",134378,"The Grille Restaurant & Bar","Etobicoke","ON","M8Z 1V1",43.6177085,-79.5428851,"1","Nightlife, American (Traditional), Greek, Bars, Diners, Barbeque, Breakfast & Brunch, Restaurants"
"287",26331,"Romeo's Euro Café","Gilbert","AZ","85233",33.3537251724,-111.7894525982,"1","Greek, Mediterranean, Italian, Restaurants"
"288",87886,"Village Grec","Montréal","QC","H3N 1R7",45.5274421,-73.623675,"1","Restaurants, Greek"
"289",142789,"Ouzo Greek Taverna","Calgary","AB","T2S 1W6",51.0353639,-114.071513,"0","Sports Bars, Greek, Restaurants, Mediterranean, Nightlife, Bars"
"290",154962,"Au Vieux Duluth Restaurants","Laval","QC","H7S 1P5",45.572428,-73.720667,"1","Greek, Steakhouses, Restaurants"
"291",25096,"Pita Pit","Mesa","AZ","85206",33.3828956,-111.7391875,"0","Fast Food, Mediterranean, Vegetarian, Greek, Restaurants, Sandwiches"
"292",99636,"Riley Tavern","Verona","WI","53593",43.0234656,-89.6236565,"1","Nightlife, Restaurants, Greek, Bars"
"293",188981,"OPA! of Greece Creekside","Calgary","AB","T3P 0A3",51.1635586,-114.1273439,"1","Greek, Fast Food, Restaurants"
"294",34272,"Epikourion Restaurant","Toronto","ON","M5X 1E1",43.64842,-79.3819,"0","Greek, Restaurants"
"295",25444,"Niko's Bar & Gyros","North Royalton","OH","44133",41.315156,-81.783512,"1","Nightlife, Restaurants, Sports Bars, Bars, Burgers, Diners, Greek, Sandwiches"
"296",14126,"The Original Phoenix Greek Festival","Phoenix","AZ","85016",33.530718,-112.03939,"1","Festivals, Religious Organizations, Arts & Entertainment, Churches, Restaurants, Greek"
"297",105699,"The GyroMan","Charlotte","NC","28202",35.2326781,-80.8460822,"1","Mediterranean, Restaurants, Greek, Food Stands, Halal, Afghan"
"298",139538,"Penelope's Bistro","Bedford","OH","44146",41.366317,-81.527265,"0","Restaurants, Greek"
"299",118661,"Spices Mediterranean Kitchen","Chandler","AZ","85226",33.3210148,-111.9132064,"0","Mediterranean, Greek, Restaurants"
"300",92460,"The Little Greek Souvlaki","Toronto","ON","M1V 1V2",43.8088942,-79.2698542,"1","Restaurants, Greek"
"301",125580,"Yanni's Gyros","Las Vegas","NV","89183",36.0119334,-115.136203,"1","Middle Eastern, Restaurants, Greek"
"302",12215,"Navayo Greek Bistro","Toronto","ON","M1N 1T9",43.7047794391,-79.2524506248,"1","Greek, Restaurants"
"303",75835,"King of Gyros","Tempe","AZ","85284",33.3350184,-111.9620302,"1","Restaurants, Mediterranean, Greek"
"304",73884,"Mr. Souvlaki","Toronto","ON","M5H 2N2",43.6512157635,-79.3832893079,"1","Greek, Restaurants"
"305",59874,"Mediterrano","Pittsburgh","PA","15209",40.510325,-79.993322,"0","Seafood, Restaurants, Greek, Food, Mediterranean"
"306",176812,"Mike's Rigatoni Bistro","Peoria","AZ","85382",33.636529,-112.23077,"0","Restaurants, Italian, Greek"
"307",47221,"Diamond Pizza","Toronto","ON","M4J 1N1",43.686133427,-79.328809,"1","Greek, Pizza, Restaurants"
"308",161805,"Shiraz Grill","Charlotte","NC","28204",35.2157732,-80.8282133,"0","Restaurants, Greek"
"309",8042,"Manna Mediterranean","Henderson","NV","89014",36.0393724,-115.0299636,"1","Mediterranean, Restaurants, Greek, Middle Eastern"
"310",157152,"Mr Greek Mediterranean Grill","Toronto","ON","M4K 1P8",43.6784329,-79.3481825,"0","Restaurants, Greek, Mediterranean"
"311",135,"Souvlaki Hut","Mississauga","ON","L5G 1C9",43.5522494,-79.5847278,"1","Restaurants, Chicken Shop, Salad, Greek"
"312",127357,"Gyro Twins","Charlotte","NC","28205",35.2263714,-80.7990185,"1","Food, Caterers, Food Trucks, Greek, Event Planning & Services, Restaurants"
"313",28597,"My Big Fat Greek Restaurant","Scottsdale","AZ","85250",33.4974247,-111.9262954,"0","Restaurants, Greek, Mediterranean"
"314",160490,"Zoes Kitchen","Huntersville","NC","28078",35.4456426,-80.8779735,"1","Restaurants, Salad, Southern, Kebab, Event Planning & Services, Sandwiches, Mediterranean, Caterers, Greek"
"315",28887,"Crossings Cafe","Aurora","OH","44202",41.31739,-81.3330024,"0","Food, Cafes, Greek, Restaurants"
"316",169258,"Greek & Co","Toronto","ON","M5V 1K4",43.6446473,-79.3982984,"0","Greek, Restaurants"
"317",87021,"Paymon's Mediterranean Cafe & Lounge","Las Vegas","NV","89119",36.1137051,-115.1382774,"1","Vegetarian, Restaurants, Food, Grocery, Greek, Mediterranean"
"318",118301,"Sana's Kitchen","Toronto","ON","M5T 2L8",43.6557771,-79.4026824,"0","Mediterranean, Restaurants, Middle Eastern, Greek"
"319",13595,"Souvlaki House","Toronto","ON","M5T",43.6537960804,-79.3910516426,"1","Mediterranean, Restaurants, Greek"
"320",30849,"Blue Restaurant & Bar","Charlotte","NC","28202",35.227392,-80.840592,"0","Greek, Bars, Wine Bars, American (New), Nightlife, Jazz & Blues, Restaurants, Arts & Entertainment, Mediterranean"
"321",20492,"Niro's Gyros","Urbana","IL","61801",40.1161419,-88.2216497,"1","Restaurants, Greek"
"322",134505,"Athens Pita & Greek Grill","Phoenix","AZ","85004",33.4470733,-112.0709775,"1","Greek, Restaurants, Cafes, Mediterranean"
"323",15655,"Katrina's Greek Village Grill","Maple","ON","L6A 3X5",43.845608,-79.535451,"0","Restaurants, Food, Greek"
"324",66396,"Philinos","Montréal","QC","H2V 4E7",45.5180936,-73.5928762,"1","Restaurants, Greek"
"325",4018,"Dooby's Grill Cafe","Mesa","AZ","85202",33.3624072,-111.8763611,"0","Mediterranean, Greek, Restaurants"
"326",9449,"Kabob Palace","Phoenix","AZ","85051",33.5516353,-112.1169966,"0","Mediterranean, Greek, Restaurants, Middle Eastern"
"327",3521,"Mr. Greek","Etobicoke","ON","M9W 6J1",43.735431,-79.6059591,"1","Greek, Restaurants"
"328",53846,"Christina's On the Danforth","Toronto","ON","M4K 1P6",43.678301,-79.349192,"1","Mediterranean, Seafood, Greek, Restaurants"
"329",120875,"The Original Gyro Grill","Toronto","ON","M5S 1X2",43.6665811534,-79.4058116738,"1","Restaurants, Fast Food, Food, Greek"
"330",23888,"Occasions Restaurant","Toronto","ON","M4L 2C3",43.6733853,-79.3182713,"1","Restaurants, Greek"
"331",70828,"Tree Huggers Cafe","Berea","OH","44017",41.3738834,-81.8918779,"0","Restaurants, American (New), Greek, Local Flavor, American (Traditional), Vegetarian, Mexican"
"332",55082,"Restaurant Salonica","Montréal","QC","H2J 2M1",45.5280837,-73.5915598,"1","Pizza, Restaurants, Greek, Mediterranean"
"333",54098,"Sparta Gyros","Pittsburgh","PA","15236",40.3273713,-79.986368,"1","Greek, Restaurants"
"334",154139,"Pita Kabob Grill","Glendale","AZ","85306",33.6130727273,-112.1853886172,"1","Desserts, Mediterranean, Sandwiches, Restaurants, Food, Greek"
"335",92768,"Zoes Kitchen","Charlotte","NC","28273",35.1025330187,-80.983982226,"1","Restaurants, Mediterranean, Sandwiches, Salad, Kebab, Greek"
"336",137726,"Windfield's Restaurant","North York","ON","M3B 1X7",43.7529135,-79.35826,"1","Restaurants, Greek, Breakfast & Brunch, American (Traditional)"
"337",178119,"Olympic Flame","Phoenix","AZ","85018",33.4797564,-111.9941067,"0","Greek, Mediterranean, Restaurants"
"338",105757,"Mike's Bistro","Surprise","AZ","85374",33.637069,-112.3560801,"0","Restaurants, Bistros, Italian, Greek"
"339",55408,"Paros Real Greek","Calgary","AB","T2R 1R7",51.03946,-114.081466,"1","Restaurants, Greek, Mediterranean"
"340",3,"BYTES Burgers n' Fries","Richmond Hill","ON","L4C 0W5",43.8771683,-79.4160414,"0","Fish & Chips, Fast Food, Restaurants, Burgers, Greek, Mediterranean"
"341",121872,"Souvlaki 7","Saint-Sauveur","QC","J0R 1R0",45.8943602,-74.1578834,"1","Mediterranean, Restaurants, Greek"
"342",151808,"Anestis Taverna","Toronto","ON","M4K 1P8",43.6785506,-79.348127,"1","Greek, Restaurants"
"343",188190,"Usine Grecque","Montréal","QC","H2L 1R8",45.5228459357,-73.5615095621,"1","Restaurants, Greek"
"344",114908,"Rodos Restaurant","Montréal","QC","H2V 4G9",45.522297,-73.6023832,"1","Festivals, Greek, Arts & Entertainment, Restaurants"
"345",159373,"24th Street Pizza & Gyros","Phoenix","AZ","85016",33.4880275,-112.0299544,"1","Greek, Italian, Restaurants, Pizza"
"346",163985,"Showmars","Monroe","NC","28110",35.0112279,-80.5646015,"1","Southern, Greek, Diners, Desserts, Food, Restaurants"
"347",189901,"Greek Isles","Charlotte","NC","28203",35.216576,-80.854651,"0","Greek, Restaurants, Mediterranean"
"348",58045,"My Big Fat Greek Restaurant","Phoenix","AZ","85016",33.507982,-112.035636,"0","Restaurants, Greek, Mediterranean"
"349",188717,"Coney Island Grill","Phoenix","AZ","85003",33.4493297,-112.0739934,"0","Hot Dogs, Mediterranean, American (Traditional), Burgers, Greek, Restaurants"
"350",129239,"Mr. Greek","Toronto","ON","M5V 3V3",43.6405349326,-79.3911673129,"1","Greek, Fast Food, Restaurants, Mediterranean"
"351",88659,"Cafe Greco","Tempe","AZ","85284",33.3350535,-111.9445749,"0","Greek, Mediterranean, Restaurants"
"352",123557,"The Eagle Twins Restaurant","Toronto","ON","M6E 1A1",43.6796994,-79.4359935,"1","Breakfast & Brunch, Food, Mediterranean, American (Traditional), Coffee & Tea, Restaurants, Greek"
"353",493,"Mr Greek Express","Mississauga","ON","L5N 8P7",43.5968995769,-79.7858462217,"1","Food, Argentine, Mediterranean, Restaurants, Greek"
"354",187366,"Athens Restaurant","Toronto","ON","M4J 1L2",43.6789721,-79.3434527,"1","Greek, Caterers, Event Planning & Services, Restaurants"
"355",3899,"Parthenon Gyros","Madison","WI","53703",43.0750962,-89.3906296,"1","Mediterranean, Restaurants, Greek"
"356",54240,"Yassou Greek Grill Cafe","Las Vegas","NV","89117",36.1586552,-115.2634772,"1","Restaurants, Mediterranean, Greek"
"357",83807,"Zorba's Greek Cafe","Chandler","AZ","85224",33.332531,-111.860304,"1","Mediterranean, Greek, Ethnic Food, Cafes, Specialty Food, Bars, Food, Restaurants, Nightlife"
"358",170932,"Original Gyros Express","Scottsdale","AZ","85254",33.583142,-111.926732,"1","Greek, Mediterranean, Restaurants, Sandwiches"
"359",74860,"OPA! of Greece County Hills Village","Calgary","AB","T3A 5K8",51.1384031,-114.1595793,"1","Greek, Fast Food, Restaurants"
"360",105424,"Z's Greek","Phoenix","AZ","85016",33.495396,-111.9940516,"1","Mediterranean, Greek, Restaurants, Food"
"361",93649,"Greek & Co","Toronto","ON","M6J 1E9",43.6460181812,-79.4103759328,"1","Greek, Restaurants"
"362",106221,"Pita Jungle","Chandler","AZ","85224",33.3194631349,-111.8742864129,"1","Restaurants, Mediterranean, Nightlife, Greek, Vegetarian, Bars, Middle Eastern, American (New), Vegan"
"363",6538,"Zet's Restaurant","Mississauga","ON","L4V 1Y4",43.6930603,-79.6273534,"1","Restaurants, Greek, Steakhouses, Diners"
"364",179748,"Khoury's Mediterranean Restaurant","Las Vegas","NV","89117",36.1475887978,-115.2991698263,"1","Restaurants, Sandwiches, Mediterranean, Lebanese, Middle Eastern, Greek"
"365",51805,"Petros","Montréal","QC","H3C 1L2",45.4903887,-73.5671022,"1","Greek, Restaurants"
"366",48813,"Pita Paradise","Phoenix","AZ","85073",33.4499,-112.0739,"0","Mediterranean, Restaurants, Greek"
"367",82016,"Texas Pit Restaurant & Bar","Woodbridge","ON","L4L 4Y9",43.7742187,-79.6121669,"1","Breakfast & Brunch, Nightlife, Burgers, Greek, Bars, Steakhouses, Restaurants"
"368",132587,"Showmars - Northlake Mall","Charlotte","NC","28216",35.35253,-80.851337,"1","Seafood, Food, American (New), Greek, Diners, Restaurants, Chinese"
"369",51836,"Baladie Café","Las Vegas","NV","89130",36.247788712,-115.209652705,"0","Restaurants, Mediterranean, Middle Eastern, Greek"
"370",29171,"Old Village Grill","Penn Hills","PA","15235",40.4841701066,-79.8151795914,"1","Restaurants, Greek, Mediterranean"
"371",72999,"Nick's Grill","Whitby","ON","L1N 1X2",43.8786264,-78.9421939,"1","Greek, Restaurants"
"372",92618,"Subs N Such","Charlotte","NC","28269",35.3509222,-80.8416534,"0","Salad, Restaurants, Sandwiches, Greek, Hot Dogs, Cheesesteaks, Fast Food, Caribbean"
"373",95647,"Mr. Greek Express","Toronto","ON","M2N 5N5",43.7641493,-79.4119378,"1","Greek, Restaurants"
"374",66017,"It's All Greek To Me","Tempe","AZ","85281",33.433482,-111.9019,"1","Restaurants, Greek"
"375",169137,"Hedary's Mediterranean Restaurant","Las Vegas","NV","89117",36.1430817,-115.2536257,"1","Middle Eastern, Greek, Mediterranean, Restaurants, Lebanese"
"376",112944,"Matador Restaurant","Phoenix","AZ","85004",33.4493093,-112.07194,"0","Greek, Mexican, Restaurants"
"377",76891,"DJ Hollywood's Pizza & Gyros","Las Vegas","NV","89103",36.1239576,-115.2079142,"0","Restaurants, Greek, Pizza"
"378",131317,"OPA! of Greece Deer Valley","Calgary","AB","T2J 6G2",50.9312527,-114.0302036,"1","Food, Restaurants, Greek, Fast Food, Canadian (New)"
"379",129422,"Taziki's Mediterranean Cafe","Charlotte","NC","28277",35.054206,-80.767771,"1","Salad, Greek, Restaurants, Mediterranean"
"380",186725,"Christos Mediterranean Grille","Pittsburgh","PA","15222",40.4432466658,-80.0022544159,"1","Restaurants, Greek, Mediterranean, Middle Eastern"
"381",113551,"The Great Greek","Henderson","NV","89014",36.0555174045,-115.0416518312,"1","Diners, Greek, Restaurants, Mediterranean"
"382",30027,"Gyro World","Cleveland","OH","44111",41.4506595928,-81.8146286532,"1","Greek, Ethnic Food, American (New), Food, Restaurants, Specialty Food"
"383",179756,"Billy's Souvlaki Place","Toronto","ON","M6H 1K5",43.6609798,-79.4292888,"1","Restaurants, Greek"
"384",68377,"Valley Fields Restaurant","North York","ON","M3A 1B9",43.7414488577,-79.3196643712,"1","Restaurants, Canadian (New), Breakfast & Brunch, American (Traditional), Greek"
"385",121216,"Apollo's Pizza","Las Vegas","NV","89102",36.1317079885,-115.1913886826,"0","Greek, Sandwiches, Restaurants, Pizza"
"386",125347,"The Simple Greek","Scottsdale","AZ","85260",33.6198065,-111.8922234,"1","Restaurants, Greek"
"387",90199,"Casbah","Pittsburgh","PA","15206",40.4581413,-79.9248403,"1","Restaurants, Bars, Cocktail Bars, Wine Bars, Diners, Mediterranean, Nightlife, Greek, Breakfast & Brunch"
"388",185403,"Hotdogeria Restaurant","Montréal","QC","H2H 1R1",45.532973,-73.56741,"1","Greek, Italian, Restaurants, American (Traditional), French"
"389",26489,"Olive & Citron","Montréal","QC","H4A 1C7",45.4764754,-73.621733,"1","Restaurants, Greek"
"390",156376,"Jimmy the Greek","Markham","ON","L3R 4M9",43.870088,-79.286953,"1","Greek, Mediterranean, Restaurants"
"391",158410,"Pita Jungle","Phoenix","AZ","85003",33.459014,-112.077468,"1","Vegan, American (New), Restaurants, Mediterranean, Greek, Vegetarian"
"392",11629,"Mr Gus","Charlotte","NC","28214",35.3194754,-80.9526951,"1","Chicken Wings, Greek, Salad, Restaurants"
"393",37091,"Jade Palace","Scottsdale","AZ","85255",33.7019406,-111.9252091,"0","Greek, Chinese, Food, Restaurants"
"394",24983,"Niro's Gyros","Champaign","IL","61821",40.1125121,-88.2804412,"1","Greek, Restaurants"
"395",168181,"Mr Greek Express","Toronto","ON","M1V 5P7",43.8355856,-79.253969,"1","Greek, Mediterranean, Restaurants"
"396",147428,"Neos","Montréal","QC","H2P 1T1",45.5398702183,-73.6309886024,"1","Greek, Restaurants"
"397",110689,"The Donair Place & Mediterranean Cuisine","Calgary","AB","T2Y 3H9",50.9013055,-114.0656278,"1","Mediterranean, Restaurants, Greek"
"398",92411,"Shako Mako Grill","Phoenix","AZ","85021",33.553457,-112.098337,"1","Restaurants, Mediterranean, American (New), Greek"
"399",51738,"IOS Greek Kitchen","Charlotte","NC","28202",35.2254368044,-80.8420207428,"0","Restaurants, Beer, Wine & Spirits, Food, Greek"
"400",31426,"Dino's Family Restaurant","Concord","NC","28027",35.4181532657,-80.6774139404,"0","Diners, Greek, Restaurants"
"401",44477,"Greek Delights","Las Vegas","NV","89130",36.2385878143,-115.2324361762,"1","Falafel, Food, Restaurants, Greek, Food Trucks, Mediterranean"
"402",57809,"Lachine Tasty","Lachine","QC","H8S 1L5",45.4421027,-73.6652287,"1","Seafood, Italian, Pizza, Delis, Greek, Sandwiches, Restaurants"
"403",103236,"Greek Stop","Mississauga","ON","L5T 2Y3",43.6372916,-79.6919234,"1","Greek, Restaurants"
"404",99832,"Niko's Sandwich Board","Akron","OH","44313",41.1142998,-81.5779365,"1","Food, Sandwiches, Internet Cafes, Restaurants, Vegetarian, Delis, Greek"
"405",96805,"Little Village Grill","Charlotte","NC","28202",35.2327134,-80.8487821,"1","Greek, Restaurants, Mediterranean"
"406",18781,"Big Bite Burgerz","Toronto","ON","M4B 2E8",43.7016147,-79.2971769,"1","Fast Food, Greek, Burgers, Restaurants"
"407",878,"Faros","Montréal","QC","H2V 2G4",45.5198944,-73.5977293,"1","Restaurants, Seafood, Greek, Mediterranean"
"408",190654,"Pizza & Gyro Express","Irwin","PA","15642",40.3166144,-79.7313186,"0","Restaurants, Pizza, Greek"
"409",9662,"FAT Lamb Kouzina","Toronto","ON","M4W 2J1",43.6725513514,-79.3878677361,"1","Mediterranean, Cooking Classes, Restaurants, Event Planning & Services, Shopping, Arts & Crafts, Greek, Fast Food, Caterers"
"410",112721,"Jimmy The Greek","Vaughan","ON","L4K 5W4",43.8274246809,-79.5379660254,"1","Greek, Food, Restaurants"
"411",30440,"Zorba's Restaurant","Champaign","IL","61820",40.1101284,-88.2292884,"1","Mediterranean, Salad, Restaurants, Greek"
"412",190194,"Dora's Kitchen","Phoenix","AZ","85034",33.423374,-112.047495,"1","Greek, Restaurants, Mexican"
"413",58667,"JJ's Gyros","Phoenix","AZ","85027",33.6831806,-112.0986365,"1","Greek, Mediterranean, Restaurants"
"414",33654,"Papa George","Champaign","IL","61820",40.1111456,-88.2441689,"0","Greek, Mediterranean, Restaurants"
"415",7912,"Christinas Cuisine","Laval","QC","H7W 1T3",45.5379409,-73.758556,"1","Greek, Restaurants"
"416",89359,"Astoria Shish Kebob House","Vaughan","ON","L4K 5Z2",43.830602,-79.540473,"1","Greek, Restaurants"
"417",147552,"Jimmy the Greek","Brampton","ON","L6T 3R5",43.7154187,-79.7215812,"1","Greek, Restaurants"
"418",137384,"Taverna 19","Pittsburgh","PA","15222",40.4507558,-79.9851419,"0","Greek, Restaurants"
"419",119860,"Souvlaki Authentique","L'Île-Perrot","QC","J7V 3E9",45.393922,-73.9559887,"1","Mediterranean, Greek, Restaurants"
"420",70371,"Mr Greek","Vaughan","ON","L6A",43.828279,-79.539392,"1","Greek, Restaurants"
"421",100300,"Big View Diner","Charlotte","NC","28277",35.0224366,-80.8484184,"1","Diners, Breakfast & Brunch, Restaurants, American (Traditional), Bakeries, Greek, Food, Beer, Wine & Spirits"
"422",82856,"Mike & Tony's Gyros","Bridgeville","PA","15017",40.3697685144,-80.1037700544,"1","Greek, Mediterranean, Sandwiches, Restaurants"
"423",125632,"Mykonos Greek Restaurant & Lounge","Calgary","AB","T2E 7K6",51.0624122,-114.0625628,"0","Pizza, Nightlife, Mediterranean, Greek, Restaurants"
"424",188078,"Red & White Mediterranean Food","Toronto","ON","M4Y 1Y3",43.6636716,-79.3838983,"0","Greek, Restaurants, Mediterranean, Middle Eastern"
"425",130403,"Jimmy the Greek","Mississauga","ON","L5B 2C9",43.5930784,-79.6424911,"1","Greek, Restaurants, Food Court"
"426",37034,"Just Greek Restaurant","Etobicoke","ON","M8X 1C2",43.647703,-79.510497,"1","Restaurants, Greek, Mediterranean"
"427",156072,"My Greek Corner Restaurant","Surprise","AZ","85374",33.641429,-112.354776,"0","Greek, Restaurants"
"428",161602,"Stella's Lunch and Grill","Vaughan","ON","L4K 2C8",43.8198647,-79.5001346,"1","Mediterranean, Restaurants, Greek"
"429",40735,"George's Bar & Grill","Vaughan","ON","L4K 2C8",43.819952,-79.5002545,"0","Restaurants, Greek"
"430",76716,"Molivos","Montréal","QC","H3H 2M2",45.49627,-73.581172,"1","Seafood, Greek, Restaurants, Mediterranean"
"431",175485,"Chicken King","Charlotte","NC","28270",35.1473152,-80.7457358,"1","Restaurants, Burgers, Seafood, Fast Food, Greek"
"432",106429,"OPA! of Greece Sunridge Mall","Calgary","AB","T1Y 5T4",51.0741671287,-113.9914798737,"1","Greek, Restaurants, Fast Food"
"433",86060,"Simply Greek","Bainbridge","OH","44023",41.4111229068,-81.3379609072,"0","Burgers, Restaurants, Ethnic Food, Salad, Food, Specialty Food, Greek"
"434",166234,"Zoes Kitchen","Charlotte","NC","28262",35.3363145137,-80.7555362945,"1","Mediterranean, Greek, Southern, Kebab, Restaurants, Sandwiches"
"435",183814,"Greek Patio","Phoenix","AZ","85073",33.637793,-112.068404,"0","Greek, Mediterranean, Restaurants"
"436",131748,"The Mad Greek Cafe","Las Vegas","NV","89117",36.1428,-115.278464,"0","Mediterranean, Restaurants, Greek"
"437",47527,"The Hummus Factory","Las Vegas","NV","89117",36.1432041,-115.262866,"1","Greek, Restaurants, Mediterranean, Caterers, Burgers, Middle Eastern, Lebanese, Event Planning & Services"
"438",23813,"Karbouzi","Toronto","ON","M5M 4A6",43.736206,-79.4203754,"1","Event Planning & Services, Restaurants, Caterers, Greek"
"439",153329,"Casa Grecque Restaurants","Lasalle","QC","H8N 1X2",45.442273,-73.615885,"1","Greek, Restaurants"
"440",84751,"Nico's Recovery Room","Pittsburgh","PA","15224",40.463683,-79.9490205,"1","Restaurants, Nightlife, Greek, American (Traditional), Bars"
"441",182476,"Ilios Noche","Charlotte","NC","28277",35.0532146127,-80.7704005293,"1","Greek, Restaurants, Mediterranean, Italian"
"442",127925,"Panama Restaurant","Montréal","QC","H3N 1S3",45.526458,-73.6247638,"1","Restaurants, Greek"
"443",140021,"Gyros Place","Mississauga","ON","L4W 4M1",43.6413062608,-79.6321875975,"1","Soup, Restaurants, Greek, Salad"
"444",81902,"Divan Restaurant Lounge & Bar","Richmond Hill","ON","L4C 7A2",43.8521135,-79.4336869,"1","Mediterranean, Greek, Persian/Iranian, Restaurants"
"445",12597,"Santorini Greek Taverna","Calgary","AB","T2E 2R9",51.065237,-114.062536,"1","Restaurants, Mediterranean, Greek"
"446",183308,"AlPita Mediterranean Cuisine","Rocky River","OH","44116",41.482014,-81.836444,"1","Mediterranean, Lebanese, Restaurants, Greek, Middle Eastern"
"447",156885,"Nate's Marathon","Amherst","OH","44001",41.4180056,-82.2093042,"1","Greek, Automotive, Restaurants, American (New), Food, Sandwiches, Gas Stations, Convenience Stores"
"448",26383,"Fergie's","Cleveland","OH","44129",41.3830913228,-81.7377,"0","Greek, Nightlife, Bars, Pubs, American (New), Restaurants"
"449",7572,"Grill Wrap Cafe","Phoenix","AZ","85048",33.305766,-111.979651,"0","Restaurants, Mediterranean, Greek"
"450",185822,"Rôtisserie Corfou","Montréal","QC","H2X 1C2",45.5125261,-73.5691995,"1","Barbeque, Restaurants, Chicken Shop, Greek"
"451",17595,"Souvlaki Guys","Toronto","ON","M5M 1S7",43.7307442883,-79.4041932479,"1","Restaurants, Greek"
"452",88832,"La Ligne Rouge","Montréal","QC","H2R",45.5385073,-73.614155,"1","Restaurants, Fast Food, Greek"
"453",94746,"Ammos Mediterranean Grill","Glendale","AZ","85310",33.7137834841,-112.2007063098,"1","Restaurants, Middle Eastern, Greek, Mediterranean"
"454",122777,"Bella Roma Restaurant","Calgary","AB","T3E 5R7",50.9969185967,-114.1188433564,"1","Greek, Italian, Restaurants, Pizza"
"455",168972,"Crazy Jim's","Phoenix","AZ","85015",33.4943622,-112.091132,"1","Sandwiches, Mediterranean, American (New), Greek, Veterinarians, Pets, Restaurants, Breakfast & Brunch"
"456",90056,"Cowboy Jack's Juicy Burgers","Toronto","ON","M1L",43.7393686,-79.2379823,"1","Burgers, Mediterranean, Restaurants, Greek"
"457",80711,"Chandelier Meditaranean Restaurant","Henderson","NV","89052",36.0053075,-115.1177757,"0","Nightlife, Lounges, Pakistani, Restaurants, Indian, Mediterranean, Greek, Bars, Middle Eastern"
"458",55497,"Gennaro's Pizza & Pub","Pittsburgh","PA","15203",40.4285784,-79.9810547,"1","Restaurants, Sandwiches, Food, Greek, Pizza, Italian, Desserts"
"459",36493,"JOEY Eau Claire","Calgary","AB","T2P 4R5",51.0521270868,-114.0693490952,"1","Mediterranean, Nightlife, Beer, Wine & Spirits, Food, Lounges, Canadian (New), Restaurants, Bars, American (New), Greek"
"460",39097,"Greekfest Restaurant","Phoenix","AZ","85016",33.5100445,-112.0390418,"1","Greek, Restaurants, Mediterranean"
"461",179467,"Olympos Gyros","Robinson Township","PA","15136",40.448273,-80.142902,"1","American (New), Greek, Restaurants, Event Planning & Services, Caterers"
"462",84260,"Mika's Greek","Scottsdale","AZ","85257",33.4633886,-111.9270953,"1","Greek, Vegetarian, Restaurants, Salad, Mediterranean"
"463",12719,"Thai Express","Toronto","ON","M5B 1S6",43.6587236,-79.3823022,"1","Restaurants, Greek, Thai, Food"
"464",133086,"Showmars","Charlotte","NC","28208",35.2368511,-80.8826155,"1","Restaurants, Greek, Sandwiches, American (New)"
"465",70683,"Eden's Grill Inn","Phoenix","AZ","85032",33.612935,-111.976905,"1","Mediterranean, Greek, Restaurants"
"466",93237,"Milos Greek Restaurant","Pickering","ON","L1V 1C1",43.841397,-79.083334,"1","Restaurants, Greek"
"467",178762,"It's Greek To You","Cleveland","OH","44113",41.4971659,-81.6940644,"1","Restaurants, Greek"
"468",146395,"Milos Restaurant","Montréal","QC","H2V 4G9",45.5217363,-73.6004138,"1","Restaurants, Greek"
"469",59264,"Le Greeka","Toronto","ON","M4M 1Z3",43.669220753,-79.3388803303,"1","Food Court, Restaurants, Greek, Mediterranean, Fast Food"
"470",151865,"Greystone Pub","Charlotte","NC","28209",35.19747,-80.868984,"1","Food, Nightlife, American (Traditional), Greek, Pubs, American (New), Burgers, Beer, Wine & Spirits, Bars, Southern, Restaurants"
"471",170771,"Alexandros","Toronto","ON","M5J 2H1",43.6414329,-79.3751714,"1","Restaurants, Greek"
"472",59441,"Byblos Cafe & Pastries","Las Vegas","NV","89103",36.1148713,-115.2066735,"0","Mediterranean, Greek, Food, Middle Eastern, Restaurants, Bakeries"
"473",88418,"La Pita Bar & Grill","Tempe","AZ","85281",33.4251775,-111.9397353,"0","Greek, Mediterranean, Restaurants"
"474",113771,"Kabob Korner","Las Vegas","NV","89101",36.168876,-115.1403955,"0","Halal, Mediterranean, Greek, Restaurants, Indian, Pakistani"
"475",57596,"Best Gyros","Northfield","OH","44067",41.3437239,-81.529073,"1","Sandwiches, Fast Food, Greek, Breakfast & Brunch, Restaurants"
"476",171143,"Kalimera","Montréal","QC","H3T 1W9",45.496198,-73.61994,"1","Restaurants, Greek"
"477",38165,"Gyros Plus","Scottsdale","AZ","85260",33.6236678,-111.8969834,"1","Mediterranean, Restaurants, Sandwiches, Greek"
"478",76752,"Le Mechant Grec","Montréal","QC","H3S 1Y7",45.4990743,-73.6277977,"0","Mediterranean, Restaurants, Greek"
"479",77558,"Super Mack","Mississauga","ON","L4W 1E9",43.6542094358,-79.6468348056,"1","Restaurants, Breakfast & Brunch, Burgers, Greek"
"480",9276,"Acropolis Cafe & Grill","Cornelius","NC","28031",35.4845965,-80.8721586,"0","Event Planning & Services, Restaurants, Party & Event Planning, Caterers, Greek"
"481",39120,"Astoria Shish Kebob House","Mississauga","ON","L4X 2W7",43.6210713,-79.5695629,"1","Greek, Mediterranean, Restaurants"
"482",71563,"The Golden Greek","Phoenix","AZ","85051",33.5414706,-112.1349853,"1","Mediterranean, Greek, Restaurants"
"483",169337,"Al's Gyro's","Glendale","AZ","85308",33.6403912,-112.1870284,"1","American (Traditional), Falafel, Greek, Mediterranean, Restaurants, American (New)"
"484",48783,"Golden Diner Family Restaurant","Toronto","ON","M5B 1M1",43.6621695,-79.3773938,"1","Mediterranean, Diners, Restaurants, Greek"
"485",44453,"E M Pizzeria","Brentwood","PA","15227",40.365021,-79.9847037,"1","Greek, Restaurants, Food, Pizza, Grocery"
"486",3736,"Gazi Mezebar","Toronto","ON","M4K 1P5",43.6778949824,-79.3485619668,"1","Lounges, Nightlife, Restaurants, Bars, Mediterranean, Greek"
"487",136773,"Crazy Jim's","Phoenix","AZ","85003",33.4481291,-112.0778758,"1","Breakfast & Brunch, Mediterranean, Pizza, Restaurants, Caterers, Event Planning & Services, Greek"
"488",21007,"Pita Heaven","Chandler","AZ","85224",33.307019,-111.88542,"1","Middle Eastern, Restaurants, Mediterranean, Greek"
"489",97375,"Arahova Souvlaki","Laval","QC","H7V 2V9",45.547717,-73.755269,"1","Restaurants, Greek"
"490",95680,"Gréco Fresh Grille","Wesley Chapel","NC","28104",35.0006165575,-80.6940740981,"1","Greek, Mediterranean, Restaurants"
"491",191221,"Pita Jungle","Tempe","AZ","85281",33.4152240101,-111.9178978785,"0","Mediterranean, Vegetarian, American (New), Restaurants, Greek, Vegan"
"492",95934,"House of Pizza","Charlotte","NC","28205",35.2154637,-80.7827041,"1","Pizza, Greek, Italian, Restaurants"
"493",156336,"Pape Village","Toronto","ON","M4K 3V5",43.6866783,-79.348088,"1","Greek, Restaurants"
"494",12130,"Athena Pizzeria","Pierrefonds","QC","H8Y 1W6",45.5111614,-73.8068442,"1","Greek, Pizza, Restaurants"
"495",73388,"Tripolis","Montréal","QC","H3N 2Y9",45.528888,-73.62999,"1","Mediterranean, Restaurants, Greek"
"496",111380,"Kosmos Restaurant","Newmarket","ON","L3Y 8Y4",44.0592863521,-79.4236629456,"1","Restaurants, Breakfast & Brunch, Greek"
"497",48798,"Neko's Gyros","Glendale","AZ","85302",33.581939,-112.1694648,"0","Greek, Restaurants"
"498",139102,"Greek Village Grille","Lakewood","OH","44107",41.4768122,-81.7902687,"1","Mediterranean, Restaurants, Sandwiches, Greek"
"499",81996,"Mama's Boys Burgers","Toronto","ON","M1K 1C7",43.7085701681,-79.267641125,"1","Burgers, Greek, Restaurants"
"500",41287,"Appetite","Toronto","ON","M4M 1H2",43.6590524,-79.3493884,"0","Italian, Soul Food, Sandwiches, Greek, Comfort Food, Restaurants"
"501",42975,"Showmars","Charlotte","NC","28244",35.225047,-80.84266,"1","Restaurants, Southern, Greek"
"502",44087,"Avli Restaurant","Toronto","ON","M4K 1P1",43.6775367,-79.3514621,"0","Mediterranean, Halal, Greek, Restaurants"
"503",2134,"Mythos Ouzeri","Montréal","QC","H2V 4G7",45.5209495,-73.6000111,"1","Greek, Restaurants"
"504",95445,"The Mediterranean Grill","Pittsburgh","PA","15217",40.438242,-79.921597,"1","Mediterranean, Greek, Middle Eastern, Restaurants, Lebanese"
"505",4040,"Mike & Tony's Gyros","Pittsburgh","PA","15222",40.443323,-79.9969921,"1","Restaurants, Mediterranean, Greek"
"506",106432,"Gyro House Mesa","Mesa","AZ","85206",33.3922454,-111.7530435,"1","Greek, Restaurants, Pizza, Mediterranean"
"507",103173,"Mr. Greek Mediterranean Grill","Newmarket","ON","L3Y 7C1",44.0595526,-79.4804518,"1","Mediterranean, Greek, Restaurants"
"508",141839,"Classic Greek","Stouffville","ON","L4A 8C1",43.9642313,-79.2752287,"1","Restaurants, Greek"
"509",167217,"Greco Fresh Grille","Charlotte","NC","28277",35.0346742,-80.805725,"1","Restaurants, Greek, Mediterranean"
"510",143237,"The Mad Greek of Charlotte - An Authentic Greek Cafe","Charlotte","NC","28217",35.1698647,-80.8756313,"1","Diners, Restaurants, American (Traditional), Greek, Cafes, Mediterranean, Breakfast & Brunch"
"511",152436,"Stephano's Greek & Mediterranean Grill","Las Vegas","NV","89119",36.1049744,-115.1359993,"1","Desserts, Bars, Mediterranean, Middle Eastern, Greek, Restaurants, Nightlife, Hookah Bars, Food, Beer, Wine & Spirits"
"512",152756,"Athena's Grill","Airdrie","AB","T4B 1R9",51.2929293,-114.0131477,"1","Greek, Breakfast & Brunch, Pizza, Restaurants"
"513",172106,"Sultan's Grill","Las Vegas","NV","89134",36.193109777,-115.3042087248,"1","Mediterranean, Middle Eastern, Restaurants, Greek"
"514",98363,"Marven's Restaurant","Montréal","QC","H3N 1J7",45.5281289,-73.6337901,"1","Greek, Canadian (New), Restaurants"
"515",112192,"Mr. Greek","Richmond Hill","ON","L4C 9W3",43.8488729946,-79.4584045294,"1","Restaurants, Greek"
"516",191604,"Cyprus Grill of Phoenix","Phoenix","AZ","85016",33.5062561,-112.0388468,"0","Restaurants, Mediterranean, Greek"
"517",26048,"MeVaMe kitchen Express","North York","ON","M3B 1Y4",43.7550076274,-79.3519333626,"1","Restaurants, Persian/Iranian, Mediterranean, Lebanese, Greek, Middle Eastern"
"518",157286,"Chicago Gyros","Glendale","AZ","85308",33.6403912,-112.1870284,"0","Greek, Restaurants, Mediterranean"
"519",61555,"Messini Authentic Gyros","Toronto","ON","M4K 1P2",43.6776906,-79.3505356,"1","Sandwiches, Mediterranean, Burgers, Restaurants, Greek"
"520",74388,"Best Gyros","Mentor","OH","44060",41.6531470846,-81.3769994795,"0","Specialty Food, Ethnic Food, Greek, Food, Sandwiches, Restaurants, Mediterranean"
"521",1616,"Greek Express","Cleveland","OH","44114",41.500157,-81.6904799,"0","Restaurants, Greek"
"522",83573,"Les Voltigeurs Restaurant","Laval","QC","H7L 1M5",45.6111972,-73.7925582,"1","Restaurants, Pizza, Steakhouses, Italian, Breakfast & Brunch, Sandwiches, Barbeque, Greek, Delicatessen, Food"
"523",179847,"Gyros Express","Scottsdale","AZ","85260",33.5809114,-111.8811427,"1","Greek, Restaurants, Falafel, Mediterranean"
"524",21877,"Jimmy the Greek","Toronto","ON","M4P 1E4",43.7072763,-79.3996009,"1","Fast Food, Restaurants, Greek"
"525",172906,"Estia's Kouzina","Belmont","NC","28012",35.253773,-81.043594,"1","Greek, Restaurants, Mediterranean"
"526",22018,"Mr Greek","Richmond Hill","ON","L4C 3C7",43.8849853867,-79.4409093271,"1","Restaurants, Greek"
"527",131189,"Steak Queen","Etobicoke","ON","M9W 1R6",43.7148897,-79.5863938,"0","Steakhouses, Restaurants, Greek"
"528",151277,"Stephano's Greek & Mediterranean Grill","Las Vegas","NV","89148",36.0771648,-115.2986213,"1","Lebanese, Restaurants, Middle Eastern, Greek, Mediterranean"
"529",58532,"Saffron Deli & Cafe","Scottsdale","AZ","85260",33.6272242,-111.895645,"0","Middle Eastern, Cafes, Delis, Restaurants, Greek, Persian/Iranian"
"530",114251,"Aladdin's Palace","North York","ON","M2H 3S3",43.805762,-79.3383451,"0","Restaurants, Mediterranean, Greek, Hotels & Travel"
"531",23659,"Super Niro Gyro","Champaign","IL","61822",40.1432102493,-88.2519266565,"1","Restaurants, Greek"
"532",130402,"The Grecian Place","Mississauga","ON","L5S 1S4",43.6886771352,-79.6714023737,"1","Food, Greek, Restaurants"
"533",101434,"Cafe Mediterranean","Calgary","AB","T2R 0T8",51.0429995,-114.0658191,"1","Mediterranean, Pizza, Hookah Bars, Greek, Bars, Nightlife, Restaurants"
"534",73811,"Taste of Greek","Scottsdale","AZ","85260",33.5801301473,-111.8797689099,"0","Restaurants, Greek"
"535",117740,"Kouzies","Toronto","ON","M3N 1H8",43.7468213,-79.5249691,"0","Italian, Restaurants, Greek, Breakfast & Brunch"
"536",45848,"Krystos Modern Greek Cuisine","Toronto","ON","M6A 3B2",43.7187157,-79.4563123,"1","Greek, Mediterranean, Restaurants"
"537",173378,"Pavillion Pastries Cafe","Toronto","ON","M4C 1L4",43.6881637573,-79.3016815186,"1","Greek, Cafes, Breakfast & Brunch, Coffee & Tea, Bakeries, Desserts, Restaurants, Food"
"538",148676,"Chicken King","Charlotte","NC","28262",35.2959951,-80.7976771,"1","Greek, Fast Food, Burgers, Restaurants"
"539",149925,"Chef H","Gilbert","AZ","85296",33.293754,-111.773654,"0","Mediterranean, Greek, Restaurants"
"540",88308,"Holy Trinity ""Taste of Greece"" Greek Festival","Pittsburgh","PA","15237",40.5713843,-80.0172483,"1","Festivals, Churches, Religious Organizations, Restaurants, Arts & Entertainment, Greek"
"541",87103,"Mediterranean Munchies","Scarborough","ON","M1N 1V1",43.7076051,-79.2503681,"0","Mediterranean, Middle Eastern, Lebanese, Greek, Restaurants"
"542",132409,"Pizza and Gyro Express","McKeesport","PA","15132",40.3512367,-79.8303308,"1","Restaurants, Greek, Pizza, Italian"
"543",151681,"Ottoman Authentic Doner Gyros","Toronto","ON","M6G 1L2",43.664216185,-79.4162929058,"0","Greek, Restaurants, Mediterranean"
"544",145933,"Brunswick Family Restaurant","Brunswick","OH","44212",41.2281456,-81.8397961,"1","Greek, Restaurants"
"545",134562,"Stephano's Greek & Mediterranean Grill","Henderson","NV","89052",35.9988269,-115.10386,"1","Restaurants, Middle Eastern, Lebanese, Salad, Breakfast & Brunch, Greek, Mediterranean"
"546",118360,"Old Vienna Restaurant","North Olmsted","OH","44070",41.4005770248,-81.9543844043,"0","Restaurants, American (New), Mediterranean, Greek"
"547",168326,"Kefi","Toronto","ON","M4K 1P5",43.677841,-79.3486747,"1","Lounges, Bars, Restaurants, Nightlife, Greek"
"548",114305,"Jimmy the Greek","North York","ON","M2J 5A7",43.7779901,-79.3440914,"1","Mediterranean, Greek, Restaurants"
"549",159536,"Kojax Souflaki","Montréal","QC","H3G 1R1",45.4969586,-73.5763537,"1","Greek, Restaurants"
"550",170239,"Yanni's Bistro","Henderson","NV","89052",36.0012878935,-115.109671105,"0","Greek, Mediterranean, Restaurants, Modern European, Middle Eastern, French, Brasseries"
"551",64444,"Alleycatz Restaurant Jazz Bar","Toronto","ON","M4P 2E7",43.7103811,-79.39851,"1","Nightlife, Canadian (New), Arts & Entertainment, American (New), Bars, Greek, Restaurants, Mediterranean, Music Venues"
"552",68733,"Evan's Old Town Grille","Boulder City","NV","89005",35.977963,-114.83545,"1","Greek, Restaurants, American (Traditional), American (New), Italian"
"553",98782,"King Rustic","Toronto","ON","M5V 1P5",43.6418019534,-79.4121160358,"1","Lounges, Comfort Food, Restaurants, Nightlife, Seafood, Greek, Bars"
"554",70427,"Skara","Brossard","QC","J4Y 0B3",45.446256,-73.437726,"1","Mediterranean, Restaurants, Seafood, Greek"
"555",12517,"M & D Gyros","Mesa","AZ","85202",33.3897632,-111.8605311,"0","Restaurants, Greek, Mediterranean"
"556",62143,"Greek Corner Ouzeri","Broadview Heights","OH","44147",41.314627,-81.682862,"0","Greek, Restaurants, Seafood"
"557",154419,"Astoria Richmond Hill","Richmond Hill","ON","L4S 0B2",43.8997087784,-79.3927925,"1","Mediterranean, Greek, Restaurants"
"558",54147,"Shawarma Station","Calgary","AB","T2N 1V5",51.0537677,-114.086365,"1","Mediterranean, Restaurants, Middle Eastern, Greek"
"559",188665,"Plaka Greek Taverna","Calgary","AB","T2Y 3H9",50.901135,-114.067945,"1","Greek, Nightlife, Restaurants"
"560",67347,"Acropolis Gyro House & Grille","Verona","PA","15147",40.5045703,-79.8431528,"0","Mediterranean, Greek, Restaurants"
"561",175364,"Paymon's Mediterranean Cafe & Lounge","Las Vegas","NV","89123",36.0265420632,-115.119278355,"1","Nightlife, Mediterranean, Bars, Restaurants, Vegetarian, Hookah Bars, Greek"
"562",51671,"Campus Grill","Elyria","OH","44035",41.4198896309,-82.0775645971,"0","Restaurants, Diners, Greek, American (Traditional)"
"563",105787,"Mamakas Taverna","Toronto","ON","M6J 2Y7",43.6458917,-79.4198642,"1","Restaurants, Greek, Mediterranean"
"564",4263,"Gyro Time Restaurant","Las Vegas","NV","89129",36.2191781,-115.2624712,"1","Mediterranean, Restaurants, Greek"
"565",132771,"The Chick Pea Mediterranean Cuisine","Calgary","AB","T2P 1H2",51.046040456,-114.0781302428,"1","Mediterranean, Greek, Restaurants"
"566",94251,"Zoes Kitchen","Phoenix","AZ","85018",33.4946565072,-111.9881548584,"1","Mediterranean, Salad, Steakhouses, Greek, Restaurants, Sandwiches, Kebab"
"567",142699,"OPA! of Greece Eagles Landing","Vaughan","ON","L6A 0A9",43.862818,-79.485634,"1","Greek, Restaurants, Fast Food"
"568",63091,"George the Greek","Etobicoke","ON","M8W 1P5",43.5941056,-79.5341088,"1","Greek, Mediterranean, Restaurants"
"569",168052,"Euro Gyro","Akron","OH","44313",41.1088629,-81.5706896,"0","Restaurants, Nightlife, Chicken Wings, Pizza, Greek, Bars"
"570",122402,"OPA! of Greece Shepard Plaza","Calgary","AB","T2Z",50.9329221,-113.963585,"1","Greek, Fast Food, Restaurants"
"571",176675,"Fellinis Pizzeria","Monroeville","PA","15146",40.4458205,-79.7646297,"1","Greek, Pizza, Salad, Restaurants"
"572",185676,"Loui's Kouzina","Markham","ON","L6C 1Y9",43.8694259,-79.3614299,"1","Cafes, Restaurants, Greek"
"573",90318,"Pizza Jarry & Restaurant","Montréal","QC","H3N 1G6",45.5301055,-73.6361651,"1","Indian, Pizza, Portuguese, Restaurants, Greek"
"574",168483,"Pita Wheel","Dallas","NC","28034",35.312618,-81.1609268188,"1","Food, Food Trucks, Restaurants, Greek"
"575",77903,"Niro's Gyros","Phoenix","AZ","85044",33.348020848,-111.980879001,"1","Restaurants, Greek, Mediterranean"
"576",47404,"Monkland Grill","Montréal","QC","H4V 1S4",45.4686102,-73.6378405,"1","Greek, Restaurants"
"577",168566,"Papa Gyros","Akron","OH","44313",41.1095981974,-81.5688033333,"1","Restaurants, Greek"
"578",189952,"Florida Greek Restaurant","East York","ON","M4K 3V2",43.6864995,-79.3478667,"1","Greek, Mediterranean, Restaurants"
"579",118147,"Gyros Express","Tempe","AZ","85284",33.3354969,-111.961996,"0","Restaurants, Greek"
"580",18205,"Rendezvous Wine & Dine","Las Vegas","NV","89102",36.1426633941,-115.2094890922,"1","Restaurants, Bars, Wine Bars, Greek, American (New), Nightlife, Sports Bars, Filipino"
"581",154523,"Shako Mako Grill","Glendale","AZ","85302",33.5690224,-112.1845146,"1","Fast Food, Mediterranean, Greek, Restaurants, Middle Eastern"
"582",106491,"Yalla Mediterranean Grill","Henderson","NV","89052",35.993777,-115.101582,"0","Food, Vegetarian, Mediterranean, Middle Eastern, Restaurants, Greek"
"583",120724,"Akwaba","Montréal","QC","H1T 1B7",45.569362,-73.583694,"1","Restaurants, Greek, African"
"584",101286,"Colossus Greek Taverna","Port Credit","ON","L5G 1H2",43.5607633,-79.5761079,"1","Specialty Food, Mediterranean, Food, Restaurants, Greek"
"585",32512,"Showmars - Little Rock","Charlotte","NC","28214",35.2448577,-80.9380331,"1","Fast Food, Restaurants, Greek"
"586",62189,"The Greeks Grill","Chandler","AZ","85224",33.3145142,-111.860306,"1","Restaurants, Mediterranean, Greek"
"587",45929,"President Subs","Las Vegas","NV","89102",36.1442964,-115.1626921,"1","Restaurants, Sandwiches, Greek"
"588",16581,"The Friendly Greek","North York","ON","M2N 5M3",43.758921,-79.4100436,"0","Mediterranean, Restaurants, Greek"
"589",144240,"Greek Island Cafe","Las Vegas","NV","89109",36.127754,-115.16775,"0","Greek, Restaurants"
"590",152233,"Greek Patio","Phoenix","AZ","85027",33.6831806,-112.0986832,"0","Restaurants, Greek"
"591",59381,"Kabob Grill","Charlotte","NC","28203",35.2030705,-80.8457795,"0","Greek, Mediterranean, Restaurants, Middle Eastern"
"592",94671,"Salonika Gyros","Pittsburgh","PA","15222",40.4432077,-80.0021285,"1","Restaurants, Greek, Mediterranean"
"593",100269,"Mr Souvlaki","Toronto","ON","M5V 3K2",43.6449355,-79.386151,"1","Restaurants, Fast Food, Greek"
"594",75735,"Phoenicia Cafe","Gilbert","AZ","85296",33.329291,-111.7903,"1","Restaurants, Halal, Greek, Mediterranean, Middle Eastern, Buffets, American (New)"
"595",33637,"Mashu Mashu Mediterranean Grill","Toronto","ON","M5P 2W1",43.6883404,-79.4124862,"1","Mediterranean, Restaurants, Greek"
"596",77915,"Mike's Kitchen","Surprise","AZ","85374",33.6410254,-112.3583862,"0","Greek, Restaurants, Italian, Mediterranean"
"597",88936,"Gyros on Central","Phoenix","AZ","85020",33.567452,-112.073536,"1","Cheesesteaks, Restaurants, Fast Food, Hot Dogs, Greek, Middle Eastern"
"598",37410,"Manna Hamburgers","Newmarket","ON","L3Y 2R2",44.062852,-79.4464807,"1","Restaurants, Greek, Hot Dogs, Burgers"
"599",131627,"Jimmy's Krazy Greek Restaurant","Fountain Hills","AZ","85268",33.6250147,-111.717985,"0","Restaurants, Greek, Mediterranean, Food, Specialty Food"
"600",36072,"Heavens Kaffee World Cuisine","Cave Creek","AZ","85331",33.8274273434,-111.9547444582,"0","Greek, German, Italian, Restaurants"
"601",90891,"Olympic Gyros","Phoenix","AZ","85016",33.4880275,-112.0299544,"0","Restaurants, Greek"
"602",34500,"Orange Table","Scottsdale","AZ","85251",33.492272,-111.923057,"0","Greek, Beer, Wine & Spirits, American (Traditional), Restaurants, Mediterranean, Coffee & Tea, Diners, Sandwiches, Breakfast & Brunch, Food, Burgers"
"603",183440,"Bâton Rouge Steakhouse & Bar","Vaudreuil-Dorion","QC","J7V 8W5",45.403071,-74.0500363,"1","Bars, Seafood, Greek, Nightlife, Restaurants, Steakhouses"
"604",69737,"Pangaea Dinosaur Grill","Scottsdale","AZ","85256",33.554647,-111.8759381,"1","Pizza, Restaurants, Mediterranean, American (Traditional), Greek"
"605",100306,"Mr Souvlaki","Toronto","ON","M8X 1E9",43.6454256,-79.5224399,"1","Greek, Restaurants, Food"
"606",46262,"Elounda","Saint-Laurent","QC","H4L 2A6",45.5105594,-73.6869484,"1","Greek, Seafood, Restaurants"
"607",3833,"OPA! of Greece Sierra Springs","Airdrie","AB","T4B 3G7",51.2672937,-114.0027993,"1","Greek, Fast Food, Restaurants"
"608",60525,"The Hellenik Grill","Toronto","ON","M5M 1S7",43.730937,-79.404098,"0","Restaurants, Greek"
"609",140879,"Christos Authentic Greek Cuisine","Calgary","AB","T3C 0M4",51.0434304,-114.0927899,"0","Food, Greek, Restaurants"
"610",150249,"Pitarifique","Montréal","QC","H2W 1Y8",45.5177823,-73.581721,"1","Poutineries, Restaurants, Canadian (New), Greek"
"611",26826,"Grillway Subs & Burgers","Toronto","ON","M6P 1S1",43.6599496025,-79.479805281,"1","Mediterranean, Greek, Sandwiches, Canadian (New), Burgers, Hot Dogs, Restaurants, Pizza"
"612",81514,"Kassab's","Pittsburgh","PA","15203",40.4288913,-79.9860781,"1","Lebanese, Mediterranean, Greek, Middle Eastern, Restaurants"
"613",135005,"Pastitsio","Pittsburgh","PA","15201",40.4666119,-79.9642428,"1","Food, Restaurants, Street Vendors, Mediterranean, Delis, Greek, Caterers, Event Planning & Services, American (New)"
"614",39357,"Gyros Palace","Peoria","AZ","85381",33.611424,-112.239249,"1","Greek, Mediterranean, Restaurants"
"615",166255,"Palms Restaurant and Market","Phoenix","AZ","85032",33.6401634,-112.0271725,"0","Restaurants, Greek, Mediterranean"
"616",81914,"Terrasse Lafayette","Montréal","QC","H2V 2R1",45.518667,-73.591585,"1","Seafood, Restaurants, Pizza, Modern European, Mediterranean, Greek"
"617",145410,"Parthenon","Montréal","QC","H3S 1R7",45.501326,-73.631999,"1","Mediterranean, Greek, Restaurants"
"618",174042,"Istanbul Sofra","Pittsburgh","PA","15221",40.4395831126,-79.897459209,"1","Greek, Mediterranean, Turkish, Restaurants, Middle Eastern, Food Delivery Services, Food"
"619",88864,"Restaurant Casa Venezia","Ormstown","QC","J0S 1K0",45.1253008,-73.9931891,"1","Greek, Mediterranean, Restaurants, Pizza"
"620",163565,"Greek Grill & Fry Co.","Chandler","AZ","85226",33.319526,-111.925763,"0","American (New), Greek, Restaurants, Mediterranean"
"621",153610,"Ikos Fresh Aegean Grill","Charlotte","NC","28277",35.05703,-80.85165,"0","Restaurants, Greek"
"622",58932,"Athena Greek Cuisine","Phoenix","AZ","85054",33.6556844,-111.9300279,"0","Food, Specialty Food, Greek, Ethnic Food, Middle Eastern, Mediterranean, Restaurants"
"623",70986,"Mezes","Toronto","ON","M4K 1P4",43.678004,-79.3502135,"1","Mediterranean, Greek, Restaurants"
"624",55502,"Spartan Pita & Gyro","Phoenix","AZ","85018",33.4804959,-111.9844634191,"1","Mediterranean, Restaurants, Greek, Hot Dogs"
"625",119636,"Pita Kouzina","Mesa","AZ","85206",33.3934441,-111.6927543,"0","Mediterranean, Italian, Greek, Restaurants"
"626",160048,"Corporate Cafe","Glendale","AZ","85301",33.5175547594,-112.168167487,"0","Breakfast & Brunch, American (Traditional), Greek, Restaurants, Mexican, Diners"
"627",90887,"Gyro Guys","Cleveland","OH","44109",41.4372193,-81.7085568,"1","Greek, Restaurants, Food, Sandwiches, Cafes"
"628",49027,"Souvlaki Hut","Oakville","ON","L6H 6P5",43.5107652,-79.6687515,"1","Greek, Restaurants"
"629",80229,"The Little Greek","Toronto","ON","M4H 1C3",43.7056898,-79.3460184,"0","Greek, Restaurants, Mediterranean"
"630",144483,"Pita Jungle","Glendale","AZ","85308",33.6398836,-112.220984,"1","Mediterranean, American (New), Greek, Restaurants, Vegan, Vegetarian"
"631",63415,"Souvlaki Express","Toronto","ON","M4S 2N4",43.7074599,-79.3894498,"1","Greek, Mediterranean, Restaurants"
"632",58428,"Athens Pastries","Toronto","ON","M1T 1A4",43.7739738,-79.3219328,"1","Restaurants, Food, Bakeries, Greek"
"633",100846,"Spiros On 17th","Calgary","AB","T3E 2S5",51.0376765,-114.135182,"1","Restaurants, Greek, Mediterranean, Pizza"
"634",9913,"Parthenon Restaurant","Calgary","AB","T2H 0Y8",50.979502,-114.0599268,"0","Restaurants, Mediterranean, Event Planning & Services, Caterers, Greek"
"635",105207,"OPA! of Greece Westhills","Calgary","AB","T3H",51.0170681,-114.1690425,"1","Restaurants, Fast Food, Greek"
"636",176540,"Friendly Greek","Toronto","ON","M4K 1P6",43.6782668,-79.3490736,"1","Greek, Restaurants"
"637",26592,"Michael's Restaurant & Bar","Rocky River","OH","44116",41.478853,-81.840272,"1","Bars, Greek, Nightlife, Restaurants, Diners, American (Traditional), Comfort Food, Mediterranean"
"638",100217,"Greek Stop","Markham","ON","L3P 3J3",43.8951816,-79.2652445,"1","Greek, Salad, Fast Food, Restaurants"
"639",144412,"Gyro Point","Peoria","AZ","85345",33.5814297,-112.2426835,"1","Greek, Restaurants, Mediterranean"
"640",152004,"Acropolis Ouzerie","Montréal","QC","H2X 2H5",45.5083635,-73.5715948,"0","Greek, Restaurants"
"641",57854,"Terry's Restaurant & Bar","Scarborough","ON","M1H 2V6",43.7746335,-79.2407744,"1","Restaurants, Canadian (New), Greek, Breakfast & Brunch"
"642",191660,"Jimmy The Greek","Toronto","ON","M5B 2L9",43.6546566,-79.3805941,"1","Food, Restaurants, Greek"
"643",103329,"Athens Bar and Grill","Phoenix","AZ","85014",33.4951617,-112.0633344,"0","Mediterranean, Restaurants, Greek, Food, Middle Eastern"
"644",79122,"Casa Grecque","Laval","QC","H7V 4C2",45.557428,-73.7433026,"1","Restaurants, Canadian (New), Greek"
"645",53838,"Rôtisserie Panama","Laval","QC","H7V 2V5",45.544551,-73.7527776,"1","Restaurants, Greek"
"646",109881,"Ilios Noche","Charlotte","NC","28210",35.1169019184,-80.8563333246,"1","Bars, Restaurants, Nightlife, Greek, Mediterranean"
"647",78583,"Pita Licious","Tempe","AZ","85282",33.383299,-111.925285,"0","Middle Eastern, Mediterranean, Greek, Restaurants"
"648",86890,"Panorama Restaurant","Bay Village","OH","44140",41.4791359,-81.920695,"0","American (Traditional), American (New), Restaurants, Turkish, Mediterranean, Greek, Italian"
"649",144363,"Greek Street","Toronto","ON","M5T 1S6",43.6573023,-79.4046137,"0","Restaurants, Greek"
"650",160025,"New Gyro House","Madison","WI","53704",43.10227,-89.347327,"0","Greek, Mediterranean, American (Traditional), Restaurants"
"651",120388,"Zorba's Gyros","Pittsburgh","PA","15222",40.438749,-79.999425,"1","Sandwiches, Salad, Restaurants, Greek"
"652",155701,"Kopper Kitchen","Pickering","ON","L1V 0C5",43.8216947,-79.1117537,"0","Greek, Restaurants, Burgers, Hot Dogs"
"653",33401,"My Big Fat Greek Restaurant","Avondale","AZ","85323",33.4646908,-112.2796661,"0","Greek, Mediterranean, Restaurants"
"654",25255,"Lourice Mediterranean","Oakville","ON","L6H 2R9",43.4700360023,-79.6938202016,"0","Restaurants, Greek"
"655",147354,"Otto's Restaurant & Bar","Madison","WI","53705",43.0600543,-89.4906724,"1","Bars, Steakhouses, Mediterranean, Restaurants, Nightlife, Greek, Seafood"
"656",70369,"Vila Algarve","Las Vegas","NV","89103",36.1016863464,-115.2255495006,"1","Steakhouses, French, Restaurants, Portuguese, Greek, Seafood"
"657",150199,"Broken Plate Kitchen & Bar","Calgary","AB","T2N 1V8",51.0541605,-114.0857115,"0","Nightlife, Mediterranean, Restaurants, Greek, Bars"
"658",46889,"Zorbas Grill","Tempe","AZ","85284",33.3351208,-111.9445965,"1","Mediterranean, Restaurants, Greek"
"659",160781,"Chicago Gyros","Phoenix","AZ","85018",33.4948197,-111.9798208,"1","Middle Eastern, Greek, Vegetarian, Restaurants, Mediterranean"
"660",42414,"Opa! Souvlaki","Phoenix","AZ","85073",33.6011167,-111.9834389,"0","Greek, Restaurants, Mediterranean"
"661",164637,"OPA! of Greece Upper Canada Mall","Newmarket","ON","L3Y 4Z1",44.056104,-79.4855044,"1","Fast Food, Restaurants, Greek"
"662",182479,"House of Athens","Charlotte","NC","28226",35.088675,-80.865605,"0","Soul Food, Restaurants, Greek, Mediterranean"
"663",89105,"Akropolis Cafe At Arboretum","Charlotte","NC","28277",35.0955459553,-80.7787530224,"1","Greek, Mediterranean, Restaurants"
"664",146793,"Mom's Deli & Grill","North Royalton","OH","44133",41.313309,-81.7564239,"1","Greek, Restaurants, American (Traditional), Delis"
"665",135520,"Goody's Restaurant","Brook Park","OH","44142",41.4034036283,-81.8131867,"1","American (Traditional), Burgers, Restaurants, Greek, Breakfast & Brunch"
"666",176488,"Mika's Greek","Tempe","AZ","85284",33.3495575156,-111.9497974589,"1","Restaurants, Greek, Mediterranean, Vegetarian"
"667",36491,"Gyro House","Elyria","OH","44035",41.3696848,-82.1180818,"1","American (New), Sandwiches, Restaurants, Modern European, Greek"
"668",134461,"Little Athens of Sewickley","Sewickley","PA","15143",40.5410118,-80.1803659,"0","Restaurants, Greek"
"669",96366,"John's Family Restaurant","Brampton","ON","L7A 2X9",43.7143068774,-79.7994807374,"1","Canadian (New), Restaurants, Italian, Breakfast & Brunch, Greek"
"670",133889,"Red Feather Gourmet","Las Vegas","NV","89130",36.218227,-115.208687,"0","Greek, Restaurants"
"671",129295,"Famous Gyro George","Euclid","OH","44117",41.5591571,-81.547317,"0","Restaurants, Greek"
"672",169493,"Laterna Dining Room","North York","ON","M2M 3X7",43.7957727,-79.4190902,"1","Restaurants, Greek"
"673",94520,"Akropolis Cafe","Gastonia","NC","28056",35.259473,-81.122464,"1","Restaurants, Greek"
"674",17387,"Le Plateau Grec","Lachute","QC","J8H 4A6",45.6384059,-74.3257453,"1","Restaurants, Greek"
"675",63237,"Casbah Restaurant","Madison","WI","53703",43.0749931,-89.3811037,"0","Greek, Restaurants, Mediterranean, Moroccan, Middle Eastern"
"676",83267,"Yafo Kitchen","Charlotte","NC","28211",35.1565581319,-80.8243272454,"1","Mediterranean, Food, Restaurants, Greek, Middle Eastern, Ethnic Food, Specialty Food"
"677",175709,"Jimmy The Greek","Toronto","ON","M9W 6K5",43.720006,-79.6005032,"1","Greek, Restaurants"
"678",34483,"Fresh Med Mediterranean Fusion Food Truck","Charlotte","NC","28204",35.2150714,-80.8294747,"1","Portuguese, Greek, Food Trucks, Mediterranean, Food, Restaurants"
"679",52814,"Husnu's","Madison","WI","53703",43.0748623,-89.3952974,"0","Middle Eastern, Restaurants, Greek, Mediterranean, Turkish"
"680",6258,"Zorba's Restaurant","Toronto","ON","M4B 2V7",43.7147522,-79.3052719,"0","Greek, Coffee & Tea, Food, Breakfast & Brunch, Mediterranean, Restaurants"
"681",26113,"Famous Gyro George","Cleveland","OH","44105",41.4477534,-81.6427777,"1","Restaurants, Greek"
"682",161926,"Gyro Bar!","Toronto","ON","M6R 1A9",43.6386876503,-79.4458197454,"1","Greek, Mediterranean, Restaurants"
"683",73985,"Bacchanal Ristorante","Phoenix","AZ","85016",33.4797994,-112.0166115,"0","Restaurants, Mediterranean, Greek"
"684",165357,"Gyro Express","Chandler","AZ","85224",33.30743,-111.873978,"1","Restaurants, Greek, Mediterranean"
"685",94092,"Mr G's","Charlotte","NC","28208",35.2137894,-80.9276213,"1","Barbeque, Restaurants, Greek"
"686",163479,"Opa! Greek-American Cuisine","Pittsburgh","PA","15234",40.365969,-80.013949,"0","Greek, American (Traditional), Restaurants"
"687",35009,"The Opera House Grill","Toronto","ON","M4M 1H1",43.6590622686,-79.3487558886,"1","Restaurants, Nightlife, Bars, Greek, Canadian (New)"
"688",45546,"Louis Meat Market","Toronto","ON","M4K 1P1",43.67767,-79.3504378,"1","Meat Shops, Restaurants, Food, Greek, Specialty Food"
"689",46619,"Pireas","Montréal","QC","H2Y 1H2",45.5092527,-73.5512401,"0","Greek, Nightlife, Mediterranean, Restaurants, Bars"
"690",41241,"Mediterranean Majik Food Truck","Phoenix","AZ","85040",33.4040693,-112.029752,"1","Food Trucks, Greek, Restaurants, Moroccan, Middle Eastern, Food, Lebanese, Vegan, Mediterranean"
"691",15741,"George's Greek Grill","Mississauga","ON","L5A 3V9",43.5988546,-79.612077,"1","Greek, Restaurants"
"692",148748,"Tick Tock Tavern","Cleveland","OH","44102",41.4873908,-81.7671191,"1","Chicken Wings, Barbeque, American (Traditional), Restaurants, Diners, Dive Bars, Pubs, Greek, Bars, Nightlife"
"693",137811,"The Friendly Greek","Scarborough","ON","M1E 2N5",43.7684166,-79.1903065,"0","Restaurants, Mediterranean, Greek"
"694",137308,"My Big Fat Greek Restaurant","Chandler","AZ","85286",33.2778106724,-111.7894116352,"0","Greek, Restaurants, Mediterranean"
"695",27908,"OPA! of Greece Peigan & Barlow","Calgary","AB","T2B 3R9",51.0135640092,-113.9998134158,"1","Mediterranean, Fast Food, Restaurants, Greek"
"696",66680,"Daphne's California Greek","Scottsdale","AZ","85254",33.6356670166,-111.9240653515,"0","Mediterranean, Greek, Restaurants"
"697",98587,"La Méditerranée","Montréal","QC","H3G 1Z2",45.4978283,-73.5742081,"0","Italian, Restaurants, Greek, Mediterranean"
"698",175184,"Saz","Madison","WI","53703",43.075141,-89.394958,"0","Mexican, Restaurants, Mediterranean, Greek"
"699",153071,"Friendly Greek","Toronto","ON","M4K 1P7",43.6783493,-79.3476023,"0","Greek, Mediterranean, Restaurants"
"700",72408,"Daphne's Greek Cafe","Chandler","AZ","85224",33.3203241,-111.8904425,"0","Restaurants, Mediterranean, Greek"
"701",45142,"Mr Greek Express","Aurora","ON","L4G 0G2",44.013444,-79.413833,"1","Greek, Restaurants"
"702",157104,"The Greek Spot","Toronto","ON","M6R",43.6508886846,-79.4506037235,"0","Diners, Greek, Restaurants"
"703",120994,"The Little Greek","North Las Vegas","NV","89031",36.2626058,-115.1794172,"0","Mediterranean, Event Planning & Services, Caterers, Greek, Restaurants, Breakfast & Brunch"
"704",181210,"Jimmy the Greek","Toronto","ON","M1P 4P5",43.7768747,-79.2566547,"1","Mediterranean, Restaurants, Greek"
"705",135534,"Atlas Kabob House","Concord","NC","28025",35.4113027,-80.5822461,"0","Restaurants, American (Traditional), Greek, Mediterranean"
"706",109399,"Cous Cous Restaurant","Las Vegas","NV","",36.1699325897,-115.1419623787,"1","Restaurants, Greek, Cafes"
"707",6937,"Paralia","Toronto","ON","M4L 3W6",43.6631182,-79.310548,"0","Food, Desserts, Greek, Restaurants"
"708",156010,"Market Grille Cafe","Las Vegas","NV","89128",36.195285,-115.24816,"1","Mediterranean, Greek, Restaurants, Gluten-Free, Vegan, Vegetarian, Italian, Breakfast & Brunch"
"709",77074,"OPA! of Greece Marda Loop","Calgary","AB","T2T 1Z9",51.0238202512,-114.1120996217,"1","Greek, Fast Food, Mediterranean, Restaurants"
"710",187466,"Zante","Montréal","QC","H2X 2T6",45.512987,-73.570126,"0","Greek, Restaurants"
"711",139876,"Jimmy the Greek","North York","ON","M2N 5X2",43.7625088,-79.4105316,"1","Mediterranean, Restaurants, Greek"
"712",127828,"Nostimo Greek Souvlaki","Bradford West Gwillimbury","ON","L0G 1C0",44.1143537865,-79.563305768,"1","Restaurants, Greek"
"713",188883,"Mr Souvlaki","Toronto","ON","M5T 1K5",43.7810883295,-79.4163576141,"1","Food Court, Restaurants, Greek"
"714",165220,"Pegasus Bar & Grill","York","ON","M6S 2S1",43.6658408,-79.4874483,"1","Bars, Nightlife, Restaurants, Greek, Salad, Dive Bars, American (Traditional)"
"715",37225,"Taste of Greek Cuisine","Toronto","ON","M1E 2N4",43.7684166,-79.1903065,"0","Greek, Restaurants"
"716",65033,"Roman Zaman","Mississauga","ON","L5B 3X9",43.5831178,-79.6383911,"1","Middle Eastern, Mediterranean, Greek, Restaurants"
"717",70277,"Akropolis Pastries","Toronto","ON","M4J 1L1",43.6794873,-79.3434874,"1","Greek, Restaurants"
"718",127331,"Sparta","Montréal","QC","H2L 1J9",45.517123,-73.567689,"1","Restaurants, Greek"
"719",97297,"Souvlaki Port Credit","Mississauga","ON","L5G 1C9",43.5527079,-79.5839387,"0","Greek, Restaurants"
"720",112122,"Restaurant de la Place","Chateauguay","QC","J6J 3H6",45.3631075,-73.7138553,"1","Pizza, Italian, Barbeque, Restaurants, Seafood, Greek"
"721",169264,"Bowl of Greens Fine Salads","Phoenix","AZ","85004",33.4538205,-112.0731359,"1","Food, Mediterranean, Cafes, Gluten-Free, Breakfast & Brunch, Juice Bars & Smoothies, Sandwiches, Greek, Restaurants"
"722",190028,"Yanni's Greek Grill","Las Vegas","NV","89123",36.0148375673,-115.1712629619,"1","Ethnic Food, Restaurants, Greek, Specialty Food, Food"
"723",64681,"Greek Wraps","Peoria","AZ","85382",33.637659,-112.217436,"1","Mediterranean, Greek, Restaurants"
"724",162515,"OPA! of Greece Dundas Street","Toronto","ON","M5B",43.6567475,-79.3804815,"0","Mediterranean, Greek, Fast Food, Restaurants"
"725",3900,"Mr Gyros","Glendale","AZ","85308",33.6408201,-112.1348263,"0","Mediterranean, Greek, Restaurants"
"726",87144,"OPA! of Greece 5th Ave Place","Calgary","AB","T2P 3L8",51.0503968,-114.0654719,"1","Greek, Fast Food, Restaurants, Mediterranean"
"727",37917,"Showmars Fort Mill-Hwy 521","Fort Mill","SC","29707",35.0029435694,-80.8561164206,"1","American (New), Restaurants, Greek"
"728",137515,"Souv Like","Toronto","ON","M4K 3S7",43.6795087,-79.3452468,"1","Greek, Restaurants, Mediterranean"
"729",8056,"My Big Fat Greek Gyro","Wexford","PA","15090",40.6315862,-80.0595931,"1","Mexican, Greek, Restaurants"
"730",151929,"Gyros Place","Mesa","AZ","85205",33.4490014,-111.6827944,"1","Greek, Restaurants"
"731",180401,"Taste of Greek Cuisine","Toronto","ON","M1K 1L6",43.7158124,-79.2621725,"1","Restaurants, Greek"
"732",6679,"Gyro Time","Las Vegas","NV","89119",36.0855002336,-115.1194322506,"0","Greek, Restaurants"
"733",189024,"Filfila Mediterranean Cafe","Las Vegas","NV","89121",36.1144544,-115.0917302,"0","Middle Eastern, Greek, Mediterranean, Restaurants"
"734",31765,"Palms Restaurant","Phoenix","AZ","85053",33.6256157,-112.1339898,"1","Food, Greek, Bakeries, Restaurants, Mediterranean"
"735",115863,"St. Clair Diner","East York","ON","M4B 1N4",43.7073034,-79.3036354,"0","Diners, American (Traditional), Restaurants, Greek"
"736",30158,"Sudwest Gyros & Co.","Montréal","QC","H4C 1P3",45.480768,-73.579095,"1","Greek, Restaurants, Event Planning & Services, Bars, Mediterranean, Nightlife, Caterers"
"737",58847,"Leena's Food","Murrysville","PA","15668",40.4277228,-79.6865852,"1","Restaurants, Middle Eastern, Mediterranean, Falafel, Salad, Greek"
"738",162451,"ZK Grill","Gilbert","AZ","85324",33.3647082996,-111.7892521159,"0","Desserts, Middle Eastern, Halal, Restaurants, Mediterranean, Salad, Persian/Iranian, Greek, Food"
"739",60777,"Ikanos","Montréal","QC","H2Y 2E5",45.4995006,-73.555499,"1","Seafood, Greek, Restaurants, Mediterranean"
"740",74806,"Aladdin Mediterranean Deli & Cafe","Scottsdale","AZ","85260",33.6286467735,-111.892045796,"0","Mediterranean, Turkish, Restaurants, Greek"
"741",103526,"Pizza Ephesus","Bellevue","PA","15202",40.4975344,-80.0586395,"1","American (Traditional), Fast Food, Restaurants, Salad, Mediterranean, Turkish, Pizza, Greek, Italian"
"742",63219,"Jimmy the Greek","Rocky View No. 44","AB","T0M 0E0",51.2032209,-113.9930715,"1","Fast Food, Greek, Restaurants"
"743",145261,"Palace Restaurant","Toronto","ON","M4K 3S7",43.6798345,-79.3454776,"1","Greek, Mediterranean, Restaurants, Caterers, Event Planning & Services"
"744",173234,"George's Gyros","Mesa","AZ","85201",33.4198912,-111.8394617,"1","Greek, Mediterranean, Restaurants, Middle Eastern, Burgers, Salad, Sandwiches"
"745",42129,"Little Athens Catering","Ambridge","PA","15003",40.5850165172,-80.2263106406,"1","Caterers, Greek, Restaurants, Event Planning & Services"
"746",182516,"The Gateway To Athens","Concord","NC","28027",35.415732,-80.669103,"1","Restaurants, Greek"
"747",125704,"Asteria Souvlaki Place","Toronto","ON","M4K 1N6",43.6773763,-79.3542519,"1","Mediterranean, Fast Food, Greek, Restaurants"
"748",81264,"Kojax Souflaki","Montréal","QC","H3B 4G5",45.502466,-73.5713041,"1","Restaurants, Greek"
"749",66623,"Greektown","Phoenix","AZ","85020",33.5617148,-112.0649024,"1","Restaurants, Mediterranean, Greek"
"750",21861,"Rodos Greek Cafe","White Oak","PA","15131",40.3487066,-79.8171332,"1","Greek, Restaurants"
"751",65103,"Hana's Cafe","Scottsdale","AZ","85259",33.584274,-111.8342047,"0","Cafes, Greek, Mediterranean, Restaurants"
"752",152803,"Maza Mediterranean & Turkish Grill","Las Vegas","NV","89146",36.1425573259,-115.2423816439,"1","Bars, Greek, Lounges, Restaurants, Nightlife, Beer, Wine & Spirits, Halal, Food, Middle Eastern, Turkish, Mediterranean"
"753",7925,"Village Pie","Toronto","ON","M4K 1N7",43.6771258,-79.3532848,"0","Restaurants, Greek"
"754",64644,"Carefree Bistro","Carefree","AZ","85377",33.8258111,-111.9226727,"0","Food, Salad, American (New), American (Traditional), Greek, Restaurants, Cafes, Mediterranean"
"755",144955,"G&M Grill","Glendale","AZ","85301",33.5172261,-112.1680821,"0","Restaurants, Mexican, Greek, Mediterranean"
"756",33994,"Pita Cafe","Scottsdale","AZ","85255",33.7000670674,-111.9248488062,"1","Mediterranean, Food, Greek, Food Delivery Services, Restaurants"
"757",149457,"La Caverne Grecque","Montréal","QC","H2X 1B6",45.5149305,-73.5718127,"0","Mediterranean, Greek, Restaurants"
"758",152386,"John le Grec II","Sainte-Adèle","QC","J8B 1S5",45.9505766,-74.1334242,"1","Restaurants, Pizza, Greek"
"759",78690,"Pappas Grill","Toronto","ON","M4K 1P4",43.6777938,-79.3506751,"1","Restaurants, Mediterranean, Greek"
"760",24681,"Mika's Greek","Tempe","AZ","85282",33.394867,-111.9406085,"1","Restaurants, Vegetarian, Mediterranean, Greek"
"761",63972,"Pete's Corner Grill","Toronto","ON","M6R 1A6",43.6398877784,-79.4407945201,"1","Restaurants, Breakfast & Brunch, Canadian (New), Greek"
"762",75153,"The Great Greek","Las Vegas","NV","89139",36.0321712219,-115.2100866138,"1","Mediterranean, Greek, Restaurants, Salad"
"763",139431,"Nick's Gyros and Seafood","Rock Hill","SC","29730",34.9694304,-80.9916995,"0","Seafood, Restaurants, Greek, Sandwiches"
"764",38770,"Mykonos Grill - Taste of Greece","Concord","NC","28025",35.4465397,-80.6002538,"1","Greek, Restaurants"
"765",130418,"The Munchies Cafe","Tempe","AZ","85281",33.424165115,-111.9394583892,"1","Specialty Food, Ethnic Food, Restaurants, Food, Mediterranean, Greek"
"766",125333,"Athens Pastries","Toronto","ON","M4K 1P5",43.6779323,-79.3488237,"1","Greek, Food, Bakeries, Restaurants, Mediterranean"
"767",152147,"Tripolis Restaurant","Laval","QC","H7W 2J1",45.5264735,-73.7668973,"1","Restaurants, Greek"
"768",142298,"Showmars - Gastonia","Gastonia","NC","28052",35.2858357,-81.1885326,"1","American (Traditional), Greek, Restaurants"
"769",106404,"Desert Pita & Grill","Calgary","AB","T2B 1N1",51.0365297,-113.9575581,"0","Greek, Restaurants, Middle Eastern"
"770",49410,"Greek Sneek","Las Vegas","NV","89109",36.1022507,-115.1699679,"1","Greek, Restaurants, Mediterranean"
"771",132707,"Pegasus","Calgary","AB","T2T 4J5",51.0107864,-114.0999154,"1","Greek, Restaurants, Mediterranean"
"772",12905,"Stavro's Greek Restaurant & Lounge","Mississauga","ON","L5M 1X1",43.580777,-79.713129,"1","Greek, Bars, Breakfast & Brunch, Nightlife, Lounges, Restaurants"
"773",65699,"Pita Q Restaurant","Toronto","ON","M5S 2J2",43.6665221519,-79.4042044104,"1","Greek, Restaurants, Middle Eastern, Mediterranean"
"774",90346,"Kritamos Greek Fish House And Rotisserie","Toronto","ON","M4K 1P1",43.6777003,-79.3505865,"0","Seafood, Mediterranean, Food, Restaurants, Greek"
"775",49513,"The Dardanelles","Madison","WI","53711",43.064708,-89.416916,"0","Restaurants, Greek, Vegetarian, Mediterranean, Turkish"
"776",85739,"Spartan Pita & Grill","Brampton","ON","L6X 5C4",43.6898726,-79.801508,"1","Greek, Mediterranean, Restaurants"
"777",926,"Romen's Gyros","Sun City","AZ","85351",33.6396113,-112.276124,"1","Restaurants, Greek"
"778",53485,"Greek Bistro","Henderson","NV","89014",36.0622895,-115.0369326,"1","Mediterranean, Restaurants, Greek, Middle Eastern"
"779",56458,"Pop-Up On River","Toronto","ON","M5A 3P5",43.6609004,-79.3577872,"0","Diners, Caribbean, Greek, Restaurants"
"780",173822,"Reva Zy","Montréal","QC","H2Y 2C7",45.503767,-73.554012,"1","Sandwiches, Greek, Lebanese, Comfort Food, Breakfast & Brunch, Restaurants, Middle Eastern"
"781",130153,"Paros On Main","Airdrie","AB","T4B 0R2",51.2917030718,-114.0136795258,"1","Greek, Restaurants"
"782",84189,"Olive Branch Restaurant","Tempe","AZ","85282",33.393515,-111.939206,"0","Mediterranean, Restaurants, Greek"
"783",127070,"Greek Gyro","Akron","OH","44310",41.1172367246,-81.484780313,"0","Greek, Restaurants, Mediterranean"
"784",117833,"Santorini Grill","Thornhill","ON","L3T 6M8",43.8199335,-79.3990083,"1","Greek, Restaurants"
"785",21123,"The Gyro Place","Canonsburg","PA","15317",40.2585811,-80.190412,"1","Food, Greek, American (Traditional), Restaurants"
"786",73060,"Mr Puffs","Montréal","QC","H3S 1Y7",45.499056,-73.627758,"1","Desserts, Food, Coffee & Tea, Greek, Restaurants, Soul Food"
"787",160614,"New York Cafe","Toronto","ON","M4K 2P6",43.6760186,-79.3585359,"1","Burgers, Restaurants, Greek, Breakfast & Brunch, Pizza"
"788",166929,"Famous Gyro George","Cleveland","OH","44144",41.4535579,-81.7371007,"1","Chicken Wings, Restaurants, Greek, Sandwiches"
"789",29947,"The Original Grill","Toronto","ON","M4K 1P7",43.6782051,-79.3476558,"1","Greek, Restaurants"
"790",91269,"Yo Pauly's NY Pizza","Scottsdale","AZ","85258",33.5690799263,-111.8899171802,"1","Mediterranean, Pizza, Greek, Salad, Restaurants, Italian, Sandwiches"
"791",50355,"Greedy Girl","Cleveland Heights","OH","44118",41.501095,-81.5564,"0","Mediterranean, Restaurants, Breakfast & Brunch, Indian, Greek"
"792",112674,"Gyro Time Restaurant","Las Vegas","NV","89146",36.1588619155,-115.2125563105,"1","Restaurants, Greek, Mediterranean"
"793",13090,"King Gyros","Phoenix","AZ","85053",33.610383,-112.149143,"1","Greek, Mediterranean, Restaurants, Salad"
"794",113664,"Clucker's Greek Cuisine","Charlotte","NC","28226",35.2270869,-80.8431267,"0","Restaurants, Mediterranean, Greek"
"795",71665,"Aioli Kitchen Bar","Calgary","AB","T3G 2A7",51.12316,-114.1974292,"0","Greek, Tapas/Small Plates, Modern European, Restaurants, Mediterranean"
"796",170064,"Pasha Mediterranean Cuisine","Champaign","IL","61822",40.0816364,-88.2963618,"0","Mediterranean, Restaurants, Greek"
"797",185579,"Souvlaki Hut Greek Taverna","Toronto","ON","M8X 1C8",43.6469190192,-79.5143068582,"1","Greek, Restaurants"
"798",100995,"Akropolis Cafe","Charlotte","NC","28213",35.2953493,-80.7400475,"0","Restaurants, Cafes, Greek, Mediterranean"
"799",34462,"Kokkino Lounge","Toronto","ON","M4K 1P3",43.6778545,-79.3512354,"0","Restaurants, Greek, Nightlife, Lounges, Mediterranean, Bars"
"800",30988,"Kabob Cafe","Henderson","NV","89014",36.0705121,-115.0765779,"1","Restaurants, Middle Eastern, Lebanese, Greek, Vegetarian, Wraps, Food, Desserts, Mediterranean"
"801",131155,"Ithaca Restaurant","Markham","ON","L3P",43.8685812,-79.2823755,"1","Greek, Mediterranean, Restaurants"
"802",186216,"Arahova","Montréal","QC","H4N 2W2",45.5354393,-73.6638579,"0","Greek, Restaurants, Mediterranean"
"803",150878,"Monkland Grill","Montréal","QC","H4B 1G3",45.4698126,-73.6283138,"0","Restaurants, Greek"
"804",131902,"My Big Fat Greek Restaurant","Mesa","AZ","85206",33.3934441,-111.6927543,"0","Restaurants, Mediterranean, Greek"
"805",144026,"Park Place Restaurant","Charlotte","NC","28210",35.093283,-80.867821,"1","Diners, Restaurants, Breakfast & Brunch, Greek, American (New)"
"806",148487,"The Nile Cafe","Phoenix","AZ","85004",33.4588994,-112.0662616,"0","Greek, Restaurants, Mediterranean"
"807",186588,"Pita Pit","Oakville","ON","L6H 7P3",43.483779,-79.7170751019,"1","Sandwiches, Restaurants, Greek, Fast Food"
"808",93372,"Chicken'licious","Toronto","ON","M4C 1M1",43.6892937,-79.2963155,"0","Greek, Restaurants, Comfort Food"
"809",175992,"Marathon Souvlaki Restaurant","Laval","QC","H7W 1S7",45.5404381,-73.7491339,"1","Mediterranean, Restaurants, Greek"
"810",171126,"OPA! of Greece Royal Bank Plaza","Toronto","ON","M5J",43.6465162,-79.379998,"1","Greek, Fast Food, Restaurants"
"811",174999,"Good Morning Toronto Restaurant","Toronto","ON","M4C 1L7",43.688689,-79.300222,"0","Restaurants, Greek"
"812",70906,"Jimmy the Greek","Toronto","ON","M5H 3Y2",43.648958,-79.379996,"1","Greek, Mediterranean, Restaurants"
"813",38152,"Picasso","Las Vegas","NV","89109",36.113808,-115.174438,"1","Bars, Mediterranean, Chinese, Spanish, Nightlife, Greek, French, Event Planning & Services, Restaurants, Hotels & Travel, Hotels"
"814",95216,"Opa Life Greek Cafe","Glendale","AZ","85305",33.534484,-112.2619851,"1","Restaurants, Mediterranean, Greek, Cafes"
"815",11921,"Pita Pit","Fairlawn","OH","44333",41.1354344895,-81.6323070539,"0","Mediterranean, Fast Food, Sandwiches, Greek, American (New), Food Delivery Services, Restaurants, Food"
"816",162899,"The Greek Toronto","Toronto","ON","M5V 1M1",43.6444399,-79.3994402,"0","Restaurants, Greek, Food"
"817",125271,"Broken Plate","Calgary","AB","T2J 5N8",50.9572302542,-114.0708541561,"1","Bars, Shopping Centers, Nightlife, Mediterranean, Restaurants, Shopping, Greek"
"818",75792,"Greek Gourmet","North York","ON","M5M 3X5",43.7233924,-79.416226,"0","Greek, Mediterranean, Restaurants"
"819",155130,"George's Kitchen","Phoenix","AZ","85016",33.525617,-112.047756,"1","Salad, Pizza, Restaurants, Greek, Mediterranean"
"820",129817,"Greek Stop","Whitchurch-Stouffville","ON","L4A 2S8",43.9683818,-79.2622496,"1","Restaurants, Greek"
"821",34384,"FEZ","Phoenix","AZ","85012",33.4916953,-112.0734977,"0","Mediterranean, American (New), Restaurants, Greek, Lounges, Nightlife, Bars, Middle Eastern"
"822",18752,"Greek In The Village","Toronto","ON","M6G 1L2",43.6642153,-79.4161222,"1","Greek, Restaurants"
"823",67976,"Pappou Cafe","Parma","OH","44129",41.405087,-81.7426833,"1","American (Traditional), Diners, Greek, Restaurants, Italian"
"824",122497,"Broken Plate Kitchen & Bar","Calgary","AB","T3G 2A7",51.1233722696,-114.1983614307,"0","Restaurants, Mediterranean, Greek"
"825",123946,"Marathon Souvlaki","Montréal","QC","H4P 2T8",45.4949159364,-73.6552644192,"1","Mediterranean, Restaurants, Greek"
"826",9861,"The Friendly Greek Restaurant","Pickering","ON","L1V 1C1",43.8417711,-79.0840136,"1","Greek, Event Planning & Services, Caterers, Mediterranean, Restaurants"
"827",64619,"The Solarium Cafe Bar & Grill","Toronto","ON","M9W",43.7133953052,-79.5601252809,"1","Restaurants, Breakfast & Brunch, American (Traditional), Greek, Diners"
"828",1962,"Almellass Cafe","Lakewood","OH","44107",41.483315,-81.770577,"0","Food, Specialty Food, Restaurants, Egyptian, Arabian, Lebanese, Ethnic Food, Middle Eastern, Greek"
"829",92193,"My Big Fat Greek Gyro","White Oak","PA","15131",40.335357,-79.804008,"0","Restaurants, Greek"
"830",104625,"Maison Grecque La","Montréal","QC","H2L 1A5",45.5213732,-73.5751546,"1","Restaurants, Greek, Mediterranean"
"831",182305,"Greek Delights","Las Vegas","NV","89106",36.170901,-115.1606348,"1","Restaurants, Food Trucks, Pizza, Food, Mediterranean, Greek"
"832",51580,"Mr Greek Restaurants","Scarborough","ON","M1P 5B7",43.7731107,-79.2812963,"0","Mediterranean, Greek, Restaurants"
"833",23418,"Boston Pizza","Las Vegas","NV","89104",36.1530812,-115.1509664,"1","Pizza, Italian, Greek, Caterers, Restaurants, Chicken Wings, Event Planning & Services"
"834",178912,"Best Gyros","Cleveland","OH","44118",41.4984255,-81.5650903,"1","Restaurants, Sandwiches, Greek, Mediterranean, Fast Food"
"835",128708,"JT Gyros","Phoenix","AZ","85053",33.626027,-112.131875,"1","Greek, Restaurants, Mediterranean"
"836",12897,"Restaurant Alexandre","Montréal","QC","H2L 1A7",45.521986,-73.5745451,"0","Italian, Mediterranean, Seafood, Greek, Restaurants"
"837",168252,"Casa Grecque","Montréal","QC","H2X 1B9",45.5157617429,-73.5707231004,"1","Restaurants, Mediterranean, Greek"
"838",116003,"Zoes Kitchen","Phoenix","AZ","85003",33.4655102024,-112.0816370845,"1","Restaurants, Delis, Southern, Mediterranean, Steakhouses, Kebab, Sandwiches, Greek"
"839",79321,"Zoes Kitchen","Matthews","NC","28105",35.1281681,-80.7010482,"1","Restaurants, Mediterranean, Kebab, Greek, Sandwiches"
"840",159369,"Mr Greek Mediterranean Grill","Richmond Hill","ON","L4B 3B4",43.8481737,-79.3750356,"0","Automotive, Greek, Body Shops, Mediterranean, Restaurants"
"841",22230,"Ziz Greek Kitchen","Markham","ON","L3R 2N7",43.832866707,-79.3543177843,"1","Greek, Restaurants, Ethnic Food, Food, Specialty Food"
"842",64187,"Alpha Omega Grill & Pizzeria","Charlotte","NC","28262",35.3339833432,-80.7136163861,"1","Italian, Restaurants, Greek, Mediterranean, Pizza"
"843",54316,"The Village Taverna","Whitby","ON","L1N 4K2",43.8781118,-78.9411326,"1","Bars, Restaurants, Greek, Nightlife, Venues & Event Spaces, Event Planning & Services, Caterers, Mediterranean"
"844",60307,"The Original Gyro","Pittsburgh","PA","15234",40.3649005,-80.017896,"1","Greek, Restaurants"
"845",178954,"AJ Family Restaurant","Monroe","NC","28110",35.0425556733,-80.6375140697,"1","Greek, Restaurants, American (Traditional)"
"846",36030,"Niro's Gyros","Tempe","AZ","85281",33.4218916,-111.9092417,"0","Greek, Restaurants"
"847",30667,"My Big Fat Greek Gyro","McMurray","PA","15317",40.2778478,-80.0839431,"0","Greek, Food, Specialty Food, Restaurants, Ethnic Food"
"848",36244,"Big Bite'z Grill - Cornelius","Cornelius","NC","28031",35.4816437,-80.8767389,"1","Restaurants, Mediterranean, Chicken Wings, American (New), Greek, Sandwiches"
"849",27928,"Kabob Grill","Las Vegas","NV","89123",36.0145972,-115.1171168,"1","Mediterranean, Middle Eastern, Persian/Iranian, Greek, Restaurants"
"850",22481,"Sunny's Diner","Tempe","AZ","85281",33.4217185459,-111.9087256722,"1","American (Traditional), Greek, Breakfast & Brunch, Restaurants"
"851",172016,"Showmars Gastonia","Gastonia","NC","28054",35.2622271,-81.155015,"0","Greek, Restaurants, Fast Food"
"852",44317,"Gyrosology","Phoenix","AZ","85022",33.6263076134,-112.0662461618,"0","Restaurants, Mediterranean, Food, Greek"
"853",189121,"Village Mini Market","Mesa","AZ","85203",33.437863,-111.788255,"0","Greek, Restaurants"
"854",8532,"Chicago Gyros","Phoenix","AZ","85027",33.654353214,-112.0835799116,"1","Restaurants, Greek, Mediterranean"
"855",42944,"Pita Palms","Goodyear","AZ","85338",33.456514238,-112.3944282532,"1","Steakhouses, Falafel, Mediterranean, Salad, Greek, Restaurants"
"856",185504,"Pita Kitchen - Avondale","Avondale","AZ","85392",33.4641425,-112.2730569,"1","Greek, Restaurants, Middle Eastern, Mediterranean, Vegetarian, Lebanese"
"857",1632,"Famous Gyro George","Cleveland","OH","44134",41.3998117,-81.6888448,"0","Restaurants, Greek, Middle Eastern, Sandwiches"
"858",11043,"Souvlaki Express","Toronto","ON","M5A 1T1",43.655765,-79.3643432,"1","Greek, Restaurants"
"859",69160,"Market Grille Cafe","Las Vegas","NV","89149",36.2892014,-115.2873343,"1","Mediterranean, Caterers, Event Planning & Services, Restaurants, Italian, Greek"
