"","business_id","name","city","state","postal_code","latitude","longitude","is_open","categories"
"1",106451,"Tandoori Xpress","Laval","QC","H7G 2E1",45.576182,-73.683505,"1","Restaurants, Vegetarian, Pakistani, Middle Eastern, Indian"
"2",63916,"Wong's Asian Cuisine","Scarborough","ON","M1P 2P5",43.7472771,-79.2838487,"1","Hakka, Indian, Asian Fusion, Restaurants, Chinese"
"3",118317,"Sree's Foods","Pittsburgh","PA","15213",40.4407672,-79.9587973,"1","Pakistani, Indian, Restaurants, Food"
"4",4231,"Shalom India","Vaughan","ON","L4J 7Y3",43.8097134,-79.4515772,"1","Restaurants, Indian, Kosher"
"5",76638,"Canbe Foods","Ajax","ON","L1Z 0L9",43.8836886954,-79.0172266692,"1","Indian, Restaurants, Sri Lankan"
"6",151767,"Tandori Indian Cuisine","Calgary","AB","",51.0453246,-114.0581012,"1","Indian, Restaurants, Food"
"7",159217,"Bombay Bhel","Mississauga","ON","L4Z 3X7",43.6085327517,-79.6535760451,"1","Indian, Halal, Vegetarian, Restaurants"
"8",9957,"Madras Cafe","Calgary","AB","T2A 5H8",51.0526207189,-113.95613131,"1","Indian, Vegetarian, Restaurants"
"9",91649,"Tangerine Asian Cuisine","Mississauga","ON","L5N",43.5862087814,-79.74122344,"0","Chinese, Asian Fusion, Indian, Restaurants"
"10",112712,"Marigold Maison- Paradise Valley","Phoenix","AZ","85032",33.5986308836,-111.978371822,"1","Indian, Restaurants"
"11",134388,"Punjabi Haveli","Etobicoke","ON","M9V 5E2",43.7358832,-79.6023923,"1","Restaurants, Indian"
"12",127546,"Taj Mahal","Montréal","QC","H4A 3V4",45.4766352,-73.6056252,"1","Restaurants, Indian"
"13",93709,"Taj","Calgary","AB","T3M 0J5",50.8802869,-113.9781836,"0","Restaurants, Indian"
"14",83826,"Mirchi Restaurant","Calgary","AB","T2R 0J2",51.0417258,-114.0804603,"1","Pakistani, Halal, Restaurants, Indian"
"15",135329,"The Kolkata Club","Mississauga","ON","L5R 0G2",43.5969908,-79.6621831,"1","Indian, Restaurants"
"16",109692,"Biryani and Bites","Glendale","AZ","85306",33.6238198,-112.1860294,"1","Vegetarian, Halal, Indian, Restaurants"
"17",103150,"The Spices","Calgary","AB","T2E 2T4",51.0719639,-114.0630136,"0","Specialty Food, Restaurants, Food, Indian"
"18",188165,"Roti Time","Toronto","ON","M6N 1L7",43.6682846,-79.487228,"1","Indian, Restaurants"
"19",53198,"Apalla","Toronto","ON","M6J",43.6460848,-79.4090059,"0","Restaurants, Indian"
"20",151765,"Chimney Fresh","Mississauga","ON","L5W 1Z3",43.643199,-79.7082653,"1","Restaurants, Indian"
"21",158915,"Mint Indian Bistro","Brampton","ON","L6T 4S3",43.725624,-79.716002,"0","Indian, Restaurants"
"22",173823,"Biryani King","Brampton","ON","L6X 4X7",43.702387,-79.7866815,"1","Pakistani, Restaurants, Indian"
"23",39702,"Bombay Buffet Indian Cuisine","Scarborough","ON","M1H 2Y1",43.7670713,-79.2280617,"0","Event Planning & Services, Caterers, Restaurants, Pakistani, Indian"
"24",52272,"Curry Bowl","Chandler","AZ","85248",33.2324025,-111.8569985,"1","Vegetarian, Indian, Buffets, Pan Asian, Restaurants, Food, Desserts"
"25",174055,"Godavari","Charlotte","NC","28262",35.3092300995,-80.7558631088,"1","Indian, Restaurants"
"26",138057,"Taj Mahal Indian Cuisine","Tempe","AZ","85281",33.4502544,-111.9255745,"0","Asian Fusion, Restaurants, Pakistani, Buffets, Indian"
"27",88085,"Tandori","Toronto","ON","M5G 2B3",43.6604836,-79.3844582,"0","Indian, Restaurants"
"28",138933,"Jalsa Ice Cream and Bakery","Tempe","AZ","85284",33.3477919604,-111.9105679541,"0","Ice Cream & Frozen Yogurt, Custom Cakes, Food, Patisserie/Cake Shop, Desserts, Indian, Cupcakes, Coffee & Tea, Restaurants"
"29",42229,"Indian Paradise","Scottsdale","AZ","85260",33.6222859533,-111.9041715755,"0","Indian, Restaurants, Gluten-Free, Pakistani, Halal, Buffets"
"30",166181,"Biryani House","Tempe","AZ","85281",33.4153283,-111.9182786,"0","Halal, Indian, Restaurants, Pakistani"
"31",170110,"Ram Sweet Shop","Montréal","QC","H3N 1T2",45.5245064,-73.6256918,"1","Food, Restaurants, Desserts, Indian"
"32",102851,"Empire Grill","Toronto","ON","M6C 2E2",43.699788833,-79.4318662615,"1","Nightlife, Wine Bars, Thai, Restaurants, Portuguese, Seafood, Chicken Shop, Barbeque, Bars, Indian"
"33",141007,"Ocean Palate","Markham","ON","L3T 0C7",43.8035434,-79.4195738,"1","Ethnic Food, Indian, Breakfast & Brunch, Food, Specialty Food, Halal, Hot Dogs, Restaurants, Vegetarian, Seafood"
"34",136801,"India Gate Exclusive Indian Cuisine","Newmarket","ON","L3Y 2N1",44.0550795,-79.474812,"1","Pakistani, Middle Eastern, Indian, Restaurants"
"35",154096,"Restaurant Bombay","Montréal","QC","H2X 3K4",45.5156828,-73.5641955,"0","French, Restaurants, Indian"
"36",131883,"South India Cuisine","Mayfield Heights","OH","44124",41.519728,-81.459214,"1","Food, Indian, Vegetarian, Restaurants"
"37",4783,"Mirchi","Calgary","AB","T2P 0E4",51.0515752,-114.0781162,"0","Indian, Restaurants, Pakistani"
"38",162448,"Apna Bazaar Indian Groceries","Phoenix","AZ","85032",33.6400875,-112.0042568,"1","Fashion, Shopping, Food, Indian, Restaurants, Department Stores, Imported Food, Fruits & Veggies, Grocery, Specialty Food"
"39",51567,"Woodlands","Charlotte","NC","28227",35.2034511,-80.7216123,"0","Vegetarian, Restaurants, Indian"
"40",154215,"Masala Mahal","Markham","ON","L3R 3P9",43.84985,-79.3476695,"0","Indian, Restaurants, Canadian (New)"
"41",36270,"Anondo Restaurant","Toronto","ON","M4C 1M3",43.6897032,-79.2942628,"0","Restaurants, Bangladeshi, Pakistani, Indian"
"42",81190,"Paradise India","Las Vegas","NV","89118",36.0844883,-115.2410644,"1","Restaurants, Indian"
"43",35446,"Curry n Cake","Charlotte","NC","28262",35.33702,-80.756294,"1","Bakeries, Indian, Restaurants, Food"
"44",28091,"Mother India","Toronto","ON","M6K 1M2",43.6408144,-79.4362132,"1","Middle Eastern, Indian, Pakistani, Restaurants"
"45",176683,"Cuisine of India","Toronto","ON","M3J 2C4",43.7825218,-79.4749587,"1","Caterers, Event Planning & Services, Restaurants, Food, Indian"
"46",107782,"Curry Pot","Las Vegas","NV","89109",36.1226902,-115.1701939,"1","Restaurants, Indian, Vegetarian, Fast Food"
"47",22463,"Zeera By The Bay","Pickering","ON","L1W 1G4",43.8213025,-79.0833698,"1","Restaurants, Indian"
"48",89584,"Zauq","Mississauga","ON","L4W 4L9",43.635445,-79.622726,"1","Restaurants, Food, Pakistani, Indian"
"49",171308,"Everest Restaurant","Cuyahoga Falls","OH","44223",41.1352013,-81.5081128,"1","Indian, Himalayan/Nepalese, Restaurants"
"50",171319,"Nouvelle Lumière de l'Inde","Montréal","QC","H2T 1R9",45.5237087,-73.5939654,"1","Restaurants, Indian"
"51",42612,"Tamarind Savoring India","Pittsburgh","PA","15220",40.3905324708,-80.0717178281,"1","Food, Pakistani, Indian, Restaurants, Bakeries"
"52",136503,"Bombay Bhel","Oakville","ON","L6H 6C8",43.5200070984,-79.6828806748,"1","Specialty Food, Food, Indian, Restaurants"
"53",94587,"Taj Mahal Restaurant","Calgary","AB","T2G 0A8",51.0098859,-114.0668856,"1","Restaurants, Indian, Event Planning & Services, Caterers, Middle Eastern, Pakistani"
"54",124026,"Yuva India Kitchen + Bar","Pittsburgh","PA","15213",40.444838,-79.9488538,"1","Food, Halal, Food Delivery Services, Wineries, Bars, Restaurants, Nightlife, Arts & Entertainment, Indian, Pakistani"
"55",190009,"Amantra Food Fusion","Mississauga","ON","L5M 1L3",43.5811858,-79.7136573,"1","Indian, Restaurants"
"56",105108,"Anokhi Inspired Indian Dining","Brampton","ON","L6W 4L2",43.6590881,-79.721787,"1","Halal, Food, Patisserie/Cake Shop, Caterers, Event Planning & Services, Indian, Restaurants, Vegetarian"
"57",145128,"Jaipur Tandoori","Montréal","QC","H2J 1Y2",45.5291084,-73.5783431,"1","Indian, Restaurants"
"58",179000,"Baba Dhaba","Brampton","ON","L6W 4N7",43.6880071,-79.7292085,"1","Restaurants, Indian, Italian"
"59",48490,"Konkan Delite","Mississauga","ON","L5C 1W1",43.5665509,-79.641102,"1","Indian, Restaurants"
"60",89081,"Spicy Aroma","Toronto","ON","M6H 3Y9",43.6586937,-79.4426326,"1","Indian, Restaurants, Food, Mediterranean, Halal"
"61",82446,"New India Bazaar","Phoenix","AZ","85006",33.4760486,-112.0654671,"1","Indian, Food, Specialty Food, Restaurants, Buffets, Grocery, Ethnic Food"
"62",50031,"Cafe De Khan","Mississauga","ON","L5N 6A3",43.5895002,-79.7388544,"1","Pakistani, Restaurants, Indian"
"63",19017,"Indian Punjabi Bazaar","Brampton","ON","L6Y 0N2",43.6516201,-79.7355858,"1","Indian, Grocery, Food, Restaurants"
"64",92404,"Agra Fine Indian Cuisine","Toronto","ON","M5V 1K1",43.6458616,-79.3925945,"0","Food, Food Delivery Services, Indian, Bangladeshi, Event Planning & Services, Buffets, Restaurants, Caterers"
"65",158103,"Chef of India","Toronto","ON","M4P 1A6",43.7070001967,-79.3971258402,"0","Indian, Middle Eastern, Buffets, Restaurants, Pakistani"
"66",9613,"Chaat Cafe","Madison","WI","53719",43.0496478,-89.5028208,"1","Pakistani, Halal, Indian, Restaurants"
"67",20400,"India Delight","Gilbert","AZ","85234",33.381279,-111.724168,"0","Specialty Food, Pakistani, Food, Restaurants, Indian"
"68",61911,"Thanjai","Montréal","QC","H3W 1H8",45.4948656,-73.6374224,"1","Vegan, Indian, Restaurants, Halal"
"69",174254,"Abbirami Catering","Scarborough","ON","M1K 2S2",43.7352784,-79.2522809,"1","Event Planning & Services, Caterers, Restaurants, Indian"
"70",30867,"Desi Moorgi","Pittsburgh","PA","15213",40.454852,-79.946573,"0","Restaurants, Indian, Caterers, Event Planning & Services"
"71",188561,"Delhi Palace Cuisine of India","Tempe","AZ","85281",33.4212886,-111.9246995,"1","Pakistani, Indian, Buffets, Restaurants"
"72",14110,"Choolaah Indian BBQ","Orange Village","OH","44122",41.4615664,-81.4870631,"1","Fast Food, Vegetarian, Restaurants, Vegan, Indian"
"73",73070,"Kabob N More","Las Vegas","NV","89109",36.1317540411,-115.1642730431,"1","Arabian, Indian, Restaurants, Pakistani, Halal"
"74",177348,"Madras Palace","Richmond Hill","ON","L4B 3H7",43.8444089,-79.3854153,"0","Restaurants, Indian, Middle Eastern, Pakistani"
"75",110960,"Indian Maharaja Palace","Glendale","AZ","85308",33.6367211,-112.1836222,"0","Pakistani, Indian, Buffets, Restaurants"
"76",59951,"Cleveland Tiffin- Punjabi Dhaba","North Randall","OH","44128",41.434184,-81.5366821,"1","Ethnic Food, Restaurants, Indian, Specialty Food, Food"
"77",164586,"Saffron Fine Indian Cuisine","Coraopolis","PA","15108",40.504712,-80.22208,"0","Indian, Restaurants"
"78",126297,"Chaska","Toronto","ON","M5E 1Z6",43.6487051,-79.3708845,"0","Indian, Food, Coffee & Tea, Restaurants, Grocery"
"79",36216,"Royal Indian Bistro","Las Vegas","NV","89103",36.1168022203,-115.1856471948,"1","Ethnic Food, Indian, Food, Vegan, Bars, Vegetarian, Specialty Food, Nightlife, Restaurants, Soup"
"80",37367,"East of York Gourmet Food","Toronto","ON","M4C 1J4",43.6850116,-79.3165863,"1","Restaurants, Food, Indian, Cafes, Vegetarian, Sandwiches, Specialty Food"
"81",182328,"Bistro Guru","Montréal","QC","H2X 3L3",45.517312,-73.568622,"1","Indian, Restaurants"
"82",83899,"Jewel of the Crown","Scottsdale","AZ","85251",33.4922108,-111.9231385,"1","Restaurants, Indian, Pakistani, Vegetarian"
"83",78254,"Paranthe Wali Gali","Brampton","ON","L6W 1T2",43.6885222,-79.7418715,"1","Indian, Restaurants"
"84",330,"Al Mustafa Catering","Mississauga","ON","L5G 1H9",43.567352,-79.5684689,"1","Halal, Pakistani, Indian, Restaurants"
"85",176,"Namaste India Garden","Lakewood","OH","44107",41.4855287,-81.7951881,"1","Indian, Restaurants"
"86",1589,"Mirsung","Champaign","IL","61820",40.1097873,-88.2404819,"1","Grocery, Indian, Food, Restaurants"
"87",112646,"Patna Kabab House","Scarborough","ON","M1R 2Y3",43.743447,-79.3015134,"1","Restaurants, Indian, Desserts, Middle Eastern, Food, Pakistani"
"88",125658,"WeDeshi Foods","Toronto","ON","M1T 3K7",43.7803245,-79.2989987,"1","Halal, Food, Restaurants, Caterers, Event Planning & Services, Indian, Specialty Food"
"89",64280,"Tandoori Mezban","Mississauga","ON","L5A 1W7",43.582646,-79.6136875,"0","Pakistani, Indian, Halal, Restaurants"
"90",49582,"Pushap Restaurant","Pierrefonds","QC","H8Y 3C6",45.5038683,-73.8166027,"1","Vegetarian, Indian, Restaurants"
"91",80685,"Bombay Express","Toronto","ON","M4Y 2C5",43.6644546,-79.3802563,"0","Restaurants, Indian"
"92",111931,"Chef Akbar","Montréal","QC","H9H 3P6",45.4792898,-73.8663273,"1","Indian, Restaurants"
"93",39050,"Pariwar Restaurant","Toronto","ON","M1R 2Y1",43.7426604262,-79.3086605519,"1","Restaurants, Indian"
"94",62700,"Hyderabad House","Brampton","ON","L6Y 6A1",43.633225808,-79.7698939541,"1","Indian, Restaurants"
"95",80687,"Mirch Masala","Cleveland","OH","44115",41.4987911,-81.6926961,"0","Restaurants, Indian"
"96",145260,"Taj Mahal","Scottsdale","AZ","85251",33.4970635,-111.9275168,"1","Restaurants, Indian, Vegetarian, Wine Bars, Bars, Nightlife"
"97",86973,"Bollywood Cafe","Coraopolis","PA","15108",40.5048587,-80.2228125,"0","Restaurants, Indian"
"98",46103,"Tadka Restaurant","North Olmsted","OH","44070",41.414628,-81.911773,"1","Restaurants, Indian"
"99",9263,"Tabaq Restaurant","Mississauga","ON","L5A 4K3",43.5803645,-79.6146305,"1","Indian, Restaurants"
"100",138032,"Tavva Indian Bistro","Mississauga","ON","L5S 1W7",43.6807285,-79.6808595,"0","Indian, Restaurants"
"101",14424,"Biryani Indian Restaurant","Monroeville","PA","15146",40.4401032774,-79.7698711489,"0","Restaurants, Indian"
"102",8,"India Oven","Las Vegas","NV","89119",36.1446996,-115.1551759,"0","Restaurants, Indian, Pakistani"
"103",177331,"Regency Restaurant","Toronto","ON","M4L 1Z7",43.6720151,-79.3224204,"1","Restaurants, Indian"
"104",97516,"Shahi Nan Kabab","Mississauga","ON","L4W 4L9",43.6348703,-79.6229265,"1","Indian, Restaurants, Pakistani"
"105",114104,"Shaan Tandoori","Brossard","QC","J4Z 1R9",45.468588,-73.462447,"1","Indian, Restaurants"
"106",165637,"Le Roi de L'Inde","Montréal","QC","H2L 4S9",45.5173178,-73.568639,"1","Indian, Restaurants"
"107",190158,"Mt Everest Restaurant","Toronto","ON","M4G 2L1",43.7134141,-79.3666414,"1","Himalayan/Nepalese, Restaurants, Indian"
"108",176525,"Copper Kettle","Chandler","AZ","85224",33.3336727,-111.8608534,"0","Indian, Restaurants, Pakistani"
"109",83428,"Mantra Indian Cuisine","Phoenix","AZ","85022",33.6400311,-112.0466139,"1","Indian, Restaurants"
"110",163504,"The Pie Guyz","Brampton","ON","L6S 0C9",43.7507998,-79.7267107,"1","Restaurants, British, Indian, African, South African"
"111",4421,"Little India Restaurant","Toronto","ON","M5V 1Z4",43.6502008,-79.3888945,"1","Pakistani, Vegetarian, Caterers, Indian, Event Planning & Services, Buffets, Food Delivery Services, Middle Eastern, Food, Restaurants"
"112",144742,"SpiceBros","Dollard-des-Ormeaux","QC","H9B 1Z8",45.4849992047,-73.7963562459,"1","Fast Food, Restaurants, Indian"
"113",120996,"Curry Kitchen","Toronto","ON","M5B 1E1",43.6564779,-79.3765837,"0","Restaurants, Indian"
"114",142278,"Peppers","North York","ON","M9L 2K9",43.7596488584,-79.5703868608,"1","Indian, Restaurants, Caribbean"
"115",169955,"Amaya Food Courts","Mississauga","ON","L5B 2C9",43.592098,-79.639562,"1","Imported Food, Ethnic Food, Specialty Food, Indian, Food, Restaurants"
"116",89522,"Zaika Biryani House","Calgary","AB","T2A 5N1",51.0574537,-113.9872883,"1","Restaurants, Indian, Pakistani"
"117",13161,"Chung Moi","Scarborough","ON","M1K 2P3",43.732389,-79.2693472,"1","Chinese, Restaurants, Indian, Asian Fusion, Hakka"
"118",77080,"Kwality Sweets & Restaurants","Brampton","ON","L6T 1A7",43.7134039,-79.6818281,"1","Indian, Buffets, Caterers, Event Planning & Services, Food, Restaurants"
"119",183756,"Makkah Restaurant","Toronto","ON","M4J 1M2",43.6806999,-79.3366548,"1","Restaurants, Pakistani, Indian"
"120",176010,"Buffet Palace","Toronto","ON","M5B 1S1",43.6582055,-79.3814852,"1","Indian, Pakistani, Restaurants, Buffets"
"121",112267,"OM Indian Bistro","Phoenix","AZ","85027",33.6552729091,-112.0982157728,"1","Restaurants, Indian"
"122",112711,"Zest of India","Phoenix","AZ","85032",33.6275895,-112.0113666,"1","Restaurants, Indian, Pakistani"
"123",88079,"Yarl Dosa Corner","Brampton","ON","L6W",43.6884192,-79.7407323,"1","Restaurants, Indian"
"124",75646,"The Bar-Lounge At Urban Turban","Las Vegas","NV","89169",36.1181114,-115.1542209,"1","Asian Fusion, Indian, Tapas Bars, Nightlife, Lounges, Bars, Restaurants"
"125",44657,"Mirch Indian Cuisine","Toronto","ON","M6H 4E7",43.6560634502,-79.4353473067,"1","Restaurants, Food Court, Indian"
"126",36406,"Tamarind","Pittsburgh","PA","15213",40.4511441,-79.9519468,"1","Indian, Restaurants, Pakistani"
"127",32445,"Chennai Curries","Charlotte","NC","28202",35.2326781,-80.8460822,"0","Food, Food Trucks, Indian, Food Delivery Services, Restaurants"
"128",111518,"Marina Dosa & Tandoori Grill","Calgary","AB","T3J 5H3",51.1084542,-113.9698874,"1","Indian, Restaurants"
"129",190483,"Desi101","Cleveland","OH","44115",41.498901,-81.6925012,"1","Halal, Restaurants, Indian"
"130",127082,"Copper Kettle-Salads Balti & Taandoori Grill","Tempe","AZ","85281",33.4167677,-111.9222221,"0","Buffets, Pakistani, Indian, Restaurants"
"131",85044,"Sree's Foods","Pittsburgh","PA","15222",40.4430443,-79.9969144,"1","Pakistani, Indian, Restaurants"
"132",90860,"Ashiana North India Cuisine","Henderson","NV","89052",35.9933695205,-115.0997391343,"1","Restaurants, Indian"
"133",187985,"Tiffin Curry & Roti House","Calgary","AB","T2A 6J9",51.0509659,-113.9928818,"1","Pakistani, Restaurants, Indian, Middle Eastern"
"134",73067,"Royal India","Montréal","QC","H9H 2S6",45.4829223,-73.8661972,"1","Restaurants, Indian"
"135",8075,"Bombay Chaat Dosa","Mississauga","ON","L5A 4K3",43.580842,-79.61453,"1","Indian, Restaurants"
"136",31238,"Cafe Delhi","Carnegie","PA","15106",40.4080431671,-80.0873225927,"1","Coffee & Tea, Cafes, Indian, Food, Restaurants"
"137",40984,"Bangal Kabab House and Restaurant","Pittsburgh","PA","15213",40.439047,-79.9554689,"1","Indian, Halal, Restaurants, Bangladeshi"
"138",26076,"Kasturi Restaurant & Banquet Hall","Toronto","ON","M1H 2Y2",43.767107,-79.2276811,"1","Indian, Restaurants"
"139",131436,"Rio All Suites Hotel & Casino","Las Vegas","NV","89103",36.1172377683,-115.1876179899,"1","Shopping, Arts & Entertainment, Food, Indian, Casinos, Restaurants, Hotels & Travel, Event Planning & Services, Hotels"
"140",95256,"Masala Mantra","Calgary","AB","T3C 0M5",51.042866,-114.0892996,"0","Indian, Restaurants, Bars, Buffets, Nightlife"
"141",191484,"Banjara Indian Cuisine","Toronto","ON","M4P 1G4",43.7079784,-79.3934083,"1","Restaurants, Indian"
"142",146725,"India Rosa","Montréal","QC","H2J 1Y2",45.5294525042,-73.5784870015,"1","Nightlife, Bars, Restaurants, Indian, Cocktail Bars"
"143",70779,"Priya Indian Restaurant","Parma","OH","44130",41.4058147,-81.7668844,"0","Indian, Buffets, Restaurants"
"144",48020,"Bar-Be-Que Hut","Toronto","ON","M4L 1Z9",43.6722484,-79.3212267,"0","Restaurants, Pakistani, Middle Eastern, Indian, Barbeque"
"145",144422,"Buffet Maharani","Montréal","QC","H3N 1S4",45.526017,-73.624529,"1","Indian, Restaurants, Pakistani, Buffets"
"146",146326,"Tandoori Time","Vaughan","ON","L6A 0A5",43.8450361401,-79.5348143907,"1","Restaurants, Indian, Pakistani"
"147",38456,"Southern Spice Cuisine","Calgary","AB","T2C 2L9",51.102051,-113.967793,"0","Pakistani, Indian, Restaurants"
"148",47700,"Michael's West Indian Flavor","Toronto","ON","M8V 4C9",43.5995201976,-79.5102864872,"1","Restaurants, Canadian (New), Indian, Caribbean, Ethnic Food, Food, Specialty Food, Imported Food"
"149",119989,"Bacchus Roti Shop","Toronto","ON","M6K 1L7",43.6414885,-79.4332219,"1","Restaurants, Indian, Caribbean"
"150",72287,"Pepper Walk","Mississauga","ON","L5V 0B7",43.6089211,-79.6966007,"1","Restaurants, Steakhouses, Burgers, Halal, Indian"
"151",107778,"Copper Kettle-Salads Balti & Taandoori Grill","Mesa","AZ","85202",33.362719,-111.8761389,"0","Pakistani, Restaurants, Indian, Buffets"
"152",48819,"Fahim Kebab House","Markham","ON","L3S 2E4",43.8332344918,-79.2689282391,"0","Indian, Restaurants, Halal, Pakistani"
"153",140592,"Basha - Des Sources","Dollard-des-Ormeaux","QC","H9B 1Z8",45.4840219594,-73.7955109456,"1","Indian, Lebanese, Middle Eastern, Restaurants, Pakistani"
"154",43232,"6ixTriangles","Toronto","ON","M6K 3E4",43.639513,-79.4218402,"1","Pop-Up Restaurants, Caterers, Event Planning & Services, Restaurants, Indian"
"155",132454,"Sahana's Srilankan and South Indian Fusion","Calgary","AB","T1Y 6Z1",51.0798067,-113.9979131,"0","Indian, Sri Lankan, Restaurants"
"156",127337,"Royal Paan Rexdale","Toronto","ON","M9V 2X5",43.7381272,-79.5657932,"1","Indian, Desserts, Restaurants, Food"
"157",174539,"Z Bar & Grille","York","ON","M6M 1T2",43.690807,-79.4712894,"1","Caterers, Caribbean, Southern, Indian, Nightlife, Bars, Event Planning & Services, Restaurants"
"158",191262,"Masala","Montréal","QC","H3K 1H9",45.4824699,-73.5625264,"1","Ethnic Food, Specialty Food, Restaurants, Indian, Food"
"159",63812,"Sahib","Pointe-Claire","QC","H9R 1G4",45.459327,-73.82374,"1","Indian, Restaurants"
"160",143190,"Gasa Resturant","Markham","ON","L3X 0B5",43.848985,-79.251394,"1","Sri Lankan, Indian, Restaurants"
"161",79860,"Kabuto Indian Biryani & Grill","Charlotte","NC","28217",35.162092,-80.886217,"1","Restaurants, Indian"
"162",119966,"Where the River Narrows","Toronto","ON","M4L 1V3",43.6771221,-79.3040319,"1","Indian, Restaurants, French"
"163",86276,"Warraich Meats","Toronto","ON","M1V 5J6",43.8204887662,-79.2614896175,"1","Restaurants, Indian, Halal, Food, Specialty Food, Meat Shops"
"164",10783,"La Porte de l'Inde","Montréal","QC","H2T 1R9",45.5239867,-73.594378,"1","Restaurants, Indian"
"165",163631,"Kangchen Indian Cuisine","Madison","WI","53717",43.0595765608,-89.5121106963,"0","Nightlife, Bars, Restaurants, Indian"
"166",39987,"Noor Makkah","Toronto","ON","M9V 1A8",43.7379957,-79.5675513,"1","Pakistani, Halal, Restaurants, Indian"
"167",41882,"Ceylon Flavor","Toronto","ON","M1X 0A5",43.8363841,-79.2510473,"0","Asian Fusion, Ethnic Food, Health Markets, Specialty Food, Restaurants, Caribbean, Indian, Sri Lankan, Southern, Food"
"168",48633,"Desi Grill","Calgary","AB","T1Y 2G1",51.0798105,-113.9965945,"0","Restaurants, Gluten-Free, Indian, Buffets"
"169",20419,"Khaana Khazana","Chandler","AZ","85226",33.304861,-111.927065,"1","Event Planning & Services, Vegetarian, Caterers, Party & Event Planning, Restaurants, Indian"
"170",77354,"Sutra Fine Indian Cuisine","Goodyear","AZ","85395",33.465357,-112.35646,"0","Restaurants, Indian"
"171",83209,"Swad","Monona","WI","53716",43.0540864,-89.3261056,"1","Indian, Restaurants"
"172",82810,"Little Tibet restaurant","Toronto","ON","M6R 1A1",43.6400958,-79.4381103,"1","Indian, Hakka, Himalayan/Nepalese, Chinese, Donuts, Food, Restaurants"
"173",183380,"Mount Everest India's Cuisine","Las Vegas","NV","89102",36.1439911,-115.1898654,"1","Event Planning & Services, Caterers, Indian, Restaurants"
"174",102558,"The Street Eatery","Calgary","AB","T2P 0K4",51.0501231,-114.0807025,"1","Nightlife, Burgers, Comfort Food, Mexican, Food, Canadian (New), Vegan, Indian, Vietnamese, Korean, Sandwiches, Street Vendors, Cocktail Bars, Bars, Beer Bar, Restaurants, Barbeque, Thai"
"175",45360,"Lazeez","Las Vegas","NV","89117",36.1300414,-115.2777854,"1","Halal, Indian, Restaurants, Mediterranean"
"176",101695,"Faley Restaurant","Rexdale","ON","M9W 5Z3",43.7140262,-79.5587579,"1","Thai, Indian, Chinese, Restaurants"
"177",70794,"Maharana Indian Restaurant","Madison","WI","53704",43.1224002,-89.3108083,"1","Soup, Restaurants, Seafood, Indian"
"178",143796,"Tantra Lounge - Bar & Grill","Toronto","ON","M6E 1B2",43.6780115,-79.4423813,"0","Bars, Restaurants, Canadian (New), Nightlife, Indian, Lounges"
"179",85548,"Indian Taste Restaurant","Twinsburg","OH","44087",41.3120077,-81.4382935,"0","Ethnic Food, Imported Food, Indian, Vegetarian, Food, Restaurants, Buffets, Specialty Food, Desserts"
"180",2257,"Al Madina Halal Meat","Vaughan","ON","L6A 3X5",43.8453259068,-79.5349125566,"1","Butcher, Food, Restaurants, Indian, Halal"
"181",119028,"Sitara","Urbana","IL","61801",40.111959,-88.208652,"0","Pakistani, Indian, Vegetarian, Restaurants"
"182",2590,"Flavors of India","Charlotte","NC","28202",35.2253544,-80.8461468,"1","Pakistani, Indian, Restaurants"
"183",87390,"Indus Tavern","Toronto","ON","M6C 2C5",43.7000638,-79.4292892,"0","Restaurants, Indian"
"184",122358,"Cari Masala","Montréal","QC","H1L 1E5",45.6091153,-73.5267267,"1","Restaurants, Indian"
"185",47340,"Campus Biryani & Gyros","Madison","WI","53711",43.0676175,-89.4106017,"1","Indian, Mediterranean, Restaurants, Pakistani, Buffets"
"186",23221,"Choolaah Indian BBQ","Pittsburgh","PA","15206",40.460266,-79.923461,"1","Restaurants, Indian, Gluten-Free, Vegan, Vegetarian"
"187",118182,"Royal India Sweets & Restaurant","Brampton","ON","L6W 3E7",43.6868446,-79.7364299,"1","Restaurants, Indian, Pakistani, Middle Eastern"
"188",20826,"Zeerah","Mississauga","ON","L5M 7P5",43.5453573,-79.7146617,"1","Pakistani, Indian, Food, Restaurants"
"189",56297,"Global Kitchen","Tallmadge","OH","44278",41.1003534,-81.4401005,"1","Restaurants, Asian Fusion, Indian, Himalayan/Nepalese"
"190",107048,"Drupati's Doubles and Roti Shop","Toronto","ON","M1H 3C7",43.7754964,-79.2419031,"1","Caribbean, Restaurants, Indian"
"191",66828,"Khalsa Pizza","Brampton","ON","L6S 5Z5",43.7480137573,-79.7146242857,"1","Indian, Restaurants, Pizza, Vegan, Vegetarian"
"192",35828,"Kwality Grand Indian Buffet","Mississauga","ON","L5T 2Y3",43.6372782121,-79.6932041645,"1","Indian, Buffets, Restaurants"
"193",32275,"Subiksha Foods","Toronto","ON","M1K 2S2",43.7353973,-79.2516124,"1","Vegetarian, Indian, Restaurants"
"194",113188,"Bombay Grill","Fairlawn","OH","44333",41.1328698,-81.6124113,"1","Restaurants, Indian"
"195",169639,"Star of India","Phoenix","AZ","85048",33.3033358617,-111.9944411895,"1","Indian, Pakistani, Buffets, Restaurants"
"196",159690,"Tandoor Plus","Saint-Laurent","QC","H4L 1B6",45.5214496,-73.7019511,"1","Indian, Restaurants, Pakistani, Middle Eastern"
"197",29294,"Shaheen Food Centre","Mississauga","ON","L5C 2V6",43.5736286,-79.6520087,"1","Ethical Grocery, Food, Restaurants, Indian, Pakistani"
"198",21232,"Suksi Biryani House","Toronto","ON","M4Y 2P2",43.6694267,-79.3858593,"1","Indian, Pakistani, Restaurants"
"199",23180,"Sammy's Kebab House","Monroeville","PA","15146",40.4389758,-79.7651547,"0","Halal, Pakistani, Indian, Restaurants"
"200",98426,"Feast of Dilli","Toronto","ON","M8W 3T7",43.6006537,-79.5449851,"1","Indian, Pakistani, Restaurants"
"201",22890,"Chennai Spices","Calgary","AB","T3J 3Z4",51.101701,-113.9676751,"0","Indian, Restaurants"
"202",171745,"Mirch Masala","Brampton","ON","L6W 3J3",43.7005487,-79.7425979,"1","Indian, Restaurants"
"203",85797,"Amaya Express","Toronto","ON","M5B 2L7",43.6540667,-79.3800815,"1","Fast Food, Indian, Restaurants"
"204",2345,"Fook Hing Restaurant","Brampton","ON","L6Y 0N2",43.6516201,-79.7355858,"1","Chinese, Indian, Restaurants"
"205",180379,"Paradise Biryani Pointe","Montréal","QC","H3H 2M4",45.4945138,-73.5798829,"1","Indian, Restaurants"
"206",175009,"Kabab & Tikah House","Toronto","ON","M5A 2K3",43.6635456,-79.3726222,"1","Indian, Halal, Pakistani, Restaurants"
"207",52828,"KAMA - Classical Indian Cuisine","Toronto","ON","M5H 3S6",43.6473416272,-79.3868535619,"0","Indian, Restaurants, Middle Eastern, Pakistani"
"208",8583,"Basmati Indian Cuisine","Champaign","IL","61820",40.114132,-88.238369,"0","Vegetarian, Indian, Pakistani, Restaurants"
"209",177443,"Spice Kitchen","Toronto","ON","M1C 5K4",43.7794384,-79.1375755,"0","Halal, Chinese, Restaurants, Indian"
"210",187996,"Moti Mehal","Montréal","QC","H3N 1T1",45.5242476,-73.6255383,"1","Restaurants, Indian, Pakistani"
"211",117294,"Sankalp","Brampton","ON","L6W 2B5",43.696252,-79.748016,"0","Indian, Restaurants"
"212",180649,"Alima's Roti and Pastry","Brampton","ON","L6T 5K9",43.7357084,-79.6490702,"1","Restaurants, Caribbean, Specialty Food, Food, Indian"
"213",165037,"Amaya Express","Toronto","ON","M5A 1K2",43.6512362,-79.36759,"1","Indian, Restaurants"
"214",2731,"Brampton Tandoori Restaurant","Brampton","ON","L6V 1X4",43.697276,-79.749027,"0","Pakistani, Middle Eastern, Restaurants, Indian"
"215",61122,"Indian Spice Kitchen","Toronto","ON","M1H",43.764895,-79.2272949,"0","Indian, Restaurants, Vegetarian"
"216",86764,"Saffron Fine Indian Takeout","Calgary","AB","T2L 1V9",51.101729,-114.1390548,"1","Indian, Restaurants"
"217",111151,"Tandoori Palace","Laval","QC","H7V 1K2",45.5390679,-73.7330499,"1","Indian, Restaurants"
"218",162564,"Curry House","Chandler","AZ","85224",33.3223,-111.8767,"0","Restaurants, Indian, Pakistani"
"219",164915,"Avani Asian Indian bistro","Mississauga","ON","L5V 2N6",43.6062430955,-79.6919154006,"1","Indian, Asian Fusion, Restaurants"
"220",84598,"Bihari Kabab House","Pickering","ON","L1V 6M5",43.8317003,-79.0939147,"0","Indian, Restaurants, Pakistani"
"221",96581,"Le Rajput Authentic Fusion Indian","Montréal","QC","H2X 1B4",45.5143194,-73.572116,"0","Indian, Restaurants"
"222",127539,"Restaurant Jolee","Montréal","QC","H3W 2P9",45.4918169,-73.6312684,"1","Indian, Sri Lankan, Restaurants"
"223",98347,"Bombay Touch","Vaughan","ON","L4J 7Y3",43.809947,-79.451534,"1","Middle Eastern, Restaurants, Kebab, Indian"
"224",130401,"OM Restaurant","Las Vegas","NV","89123",36.0181306467,-115.118054364,"0","Indian, Himalayan/Nepalese, Restaurants"
"225",48156,"Bombay Cuisine","Charlotte","NC","28262",35.303872,-80.749548,"0","Pakistani, Vegan, Restaurants, Breakfast & Brunch, Vegetarian, Indian, Buffets"
"226",53169,"Tandoori Dhaba","Brampton","ON","L6S 5R7",43.7452395408,-79.7196936607,"1","Restaurants, Indian"
"227",128070,"Raj Palace","Calgary","AB","T3K 5P3",51.1419620511,-114.0704852506,"1","Indian, Restaurants"
"228",57160,"Restaurant Mumbai","Montréal","QC","H4C 1P2",45.4805863,-73.5791672,"0","Restaurants, Indian"
"229",190799,"Spice 9 Indian Cuisine","Concord","NC","28027",35.3747002,-80.725971,"0","Indian, Restaurants"
"230",160452,"Urban Turban","Las Vegas","NV","89169",36.1189093605,-115.1543320479,"0","Bars, Halal, Vegetarian, Cocktail Bars, Indian, Restaurants, Nightlife, Tapas Bars, Buffets, Vegan, Food, Desserts"
"231",60360,"Colaba Junction","Toronto","ON","M5S 1Y9",43.6611321,-79.3857011,"1","Sandwiches, Restaurants, Indian"
"232",125672,"Ghareeb Nawaz","Toronto","ON","M1J 1E4",43.7352584188,-79.2467836663,"1","Indian, Restaurants, Pakistani"
"233",68636,"The Indian Cuisine","Thornhill","ON","L4J 6X3",43.795326847,-79.4348332467,"1","Indian, Restaurants"
"234",41035,"Peshawari Tikka","Montréal","QC","H4K 1M9",45.5272053,-73.7188586,"1","Indian, Afghan, Pakistani, Restaurants"
"235",88792,"Tangerine Asian Cuisine","Scarborough","ON","M1H 2V6",43.775922,-79.234273,"0","Chinese, Indian, Restaurants"
"236",123991,"Shalimar Foods","Chandler","AZ","85224",33.3188945913,-111.8605493009,"0","Restaurants, Ethnic Food, Indian, Specialty Food, Food"
"237",98946,"Lal Kella Tandoori","Chatauguay","QC","J6K 3A6",45.360652,-73.714577,"1","Indian, Restaurants"
"238",32444,"Karahi Point","Toronto","ON","M9V",43.7379956,-79.5662524,"1","Restaurants, Halal, Pakistani, Indian"
"239",40931,"Doaba Sweets & Restaurant","Brampton","ON","L6Y 2R2",43.6599240748,-79.7504425049,"1","Indian, Restaurants, Caterers, Vegetarian, Event Planning & Services"
"240",117443,"The Famous Indian Cuisine","Toronto","ON","M4L 1Z4",43.6721178034,-79.3232195824,"1","Indian, Pakistani, Middle Eastern, Restaurants"
"241",53484,"Taj Mahal","Montréal","QC","H2Y 1Z3",45.5037137,-73.554885,"1","Indian, Restaurants"
"242",132932,"Raj Palace","Calgary","AB","T3R 0R5",51.152608,-114.210276,"1","Restaurants, Indian"
"243",34037,"Guru India Restaurant","Calgary","AB","T2Y 1X7",50.920755,-114.075762,"1","Restaurants, Indian"
"244",19039,"Kwality Indian Tiffin Service","Henderson","NV","89074",36.0376448,-115.0762536,"1","Event Planning & Services, Caterers, Pakistani, Food Delivery Services, Indian, Food, Restaurants"
"245",58085,"Poorani Vilaas","Toronto","ON","M1X 0A7",43.8365383,-79.2496081,"1","Restaurants, Indian, Sri Lankan"
"246",73423,"Babu","Markham","ON","L3T 8N1",43.8932490509,-79.2913914844,"0","Caterers, Event Planning & Services, Restaurants, Indian"
"247",97625,"Cari Mela","Montréal","QC","H3K 1J8",45.478639,-73.568839,"1","Indian, Restaurants"
"248",58731,"Restaurant India's Oven","Montréal","QC","H3N 1R3",45.528812,-73.622855,"1","Asian Fusion, Indian, Pakistani, Restaurants"
"249",181512,"Mount Everest Nepalese Restaurant","Calgary","AB","T2E 1J5",51.067135,-114.0611891,"0","Restaurants, Indian, Himalayan/Nepalese"
"250",74084,"India Sweets Restaurant","Markham","ON","L3S 3L1",43.8407284,-79.2529118,"1","Restaurants, Shopping, Indian, Arts & Crafts, Pakistani, Middle Eastern"
"251",190306,"Mysore","Montréal","QC","H2W 2R2",45.5179042,-73.5822958,"1","Restaurants, Middle Eastern, Indian, Pakistani"
"252",134993,"Mint Indian Cuisine","Scottsdale","AZ","85260",33.583,-111.892905,"1","Restaurants, Vegetarian, Halal, Buffets, Indian"
"253",85742,"Shef's Fiery Kitchen","Calgary","AB","T2H 1C3",50.9847373962,-114.0511627197,"1","Education, Specialty Schools, Event Planning & Services, Cooking Schools, Party & Event Planning, Thai, Restaurants, Indian, Food, Farmers Market"
"254",164908,"VEDA - Healthy Indian Takeout","Toronto","ON","M5S 1C1",43.6610444,-79.4011647,"1","Indian, Restaurants"
"255",13727,"Chandni Chowk Restaurant","Toronto","ON","M4L 1Z6",43.6724944,-79.3223943,"1","Indian, Restaurants"
"256",73589,"Moghel Tandoori","Saint-Lambert","QC","J4P",45.501282,-73.5104808,"1","Indian, Vegetarian, Restaurants"
"257",112061,"Himalayan Kitchen","Toronto","ON","M6R 1A1",43.6403049,-79.4388278,"1","Himalayan/Nepalese, Indian, Restaurants"
"258",58100,"Amaravati Grill","Charlotte","NC","28277",35.039035,-80.7935942,"1","Food, Seafood, Restaurants, Barbeque, Indian, Desserts"
"259",36680,"D' License to Grill","Toronto","ON","M4L 1Z8",43.6723558,-79.3218342,"0","Specialty Food, Halal, Food, Indian, Ethnic Food, Restaurants"
"260",125599,"Prince of India","Pittsburgh","PA","15213",40.4416275024,-79.9585952759,"1","Indian, Food, Food Delivery Services, Restaurants"
"261",109097,"Omega Coney Island","Indian Trail","NC","28079",35.0739843,-80.6840979,"1","Diners, Hot Dogs, Breakfast & Brunch, Restaurants, Indian"
"262",122133,"Restaurant Dev","L'Île-Perrot","QC","J7V 4X3",45.39229,-73.960507,"1","Restaurants, Indian"
"263",159041,"Al Madina Halal Family Restaurant","Las Vegas","NV","89102",36.1313155,-115.2071536,"1","Restaurants, Halal, Indian, Vegetarian"
"264",81,"Apni Havelly Restaurant & Banquet Hall","Mississauga","ON","L4X 1L4",43.610212,-79.58142,"1","Buffets, Restaurants, Indian, Middle Eastern"
"265",85848,"Adrak","Richmond Hill","ON","L4B 3H7",43.8444574,-79.3853592,"1","Restaurants, Nightlife, Indian, Food, Bars"
"266",182703,"Saino Indian Nepali Kitchen","Las Vegas","NV","89102",36.1316910159,-115.2073291981,"0","Pakistani, Indian, Buffets, Restaurants, Himalayan/Nepalese"
"267",1271,"The Tasty Bowl Subs N Such","Charlotte","NC","28273",35.1328203,-80.9529974,"1","Thai, Caribbean, Restaurants, Indian, Fast Food, Mexican, Sandwiches, Italian"
"268",70608,"Tandori","Montréal","QC","H3B 4G5",45.50361,-73.571405,"1","Fast Food, Indian, Restaurants"
"269",65848,"HaveMore","Toronto","ON","M1V 1V2",43.8092547,-79.2696046,"1","Food Court, Caterers, Indian, Event Planning & Services, Restaurants, Food, Halal, Coffee & Tea"
"270",173553,"Pakwanchi Restaurant","Scarborough","ON","M1T 3G8",43.7826533,-79.2872632,"1","Restaurants, Indian, Pakistani"
"271",118710,"Bombay Curry House","Pittsburgh","PA","15213",40.43855,-79.9547383,"0","Indian, Restaurants"
"272",118168,"Thulasi Kitchen","Madison","WI","53717",43.0715593,-89.5245488,"0","Desserts, Food, Indian, Seafood, Halal, Restaurants"
"273",115551,"Garam Masala","Mississauga","ON","L4Z 3K8",43.6137412,-79.6618322,"1","Food, Indian, Specialty Food, Restaurants, Ethnic Food, Buffets"
"274",6691,"2nd Annual Asian Food Festival","Las Vegas","NV","89139",36.041673,-115.184999,"1","Food, Restaurants, Indian, Arts & Entertainment, Festivals, Asian Fusion"
"275",40839,"Aishwarya Garden","Brampton","ON","L6X 1R3",43.6862471,-79.762538,"0","Ethnic Food, Food Delivery Services, Indian, Restaurants, Specialty Food, Food"
"276",86872,"TKRE - The Kathi Roll Express","Toronto","ON","M4Y 2A6",43.6676511,-79.3859029,"0","Restaurants, Indian, Food, Asian Fusion, Juice Bars & Smoothies"
"277",73618,"Spicy Grille","Dollard-des-Ormeaux","QC","H8Y 3C7",45.5047907125,-73.8185478966,"1","Indian, Restaurants, Pakistani"
"278",78962,"Curry in the Box","Fitchburg","WI","53711",43.023349,-89.418612,"1","Pakistani, Thai, Indian, Restaurants"
"279",31281,"Tandoor et Grille","Dollard-des-Ormeaux","QC","H8Y 3C4",45.5013325568,-73.8154966965,"0","Indian, Restaurants, Pakistani"
"280",116621,"Lovely Sweets and restaurant","Calgary","AB","T3J 0HB",51.1237181,-113.9477214,"1","Indian, Restaurants"
"281",166519,"TYC - The Yellow Chilli - By Sanjeev Kapoor","Toronto","ON","M4P 1G8",43.7068418,-79.3959794,"1","Indian, Restaurants"
"282",1959,"Mantra Masala","Las Vegas","NV","89113",36.0563357,-115.2773223,"1","Restaurants, Pakistani, Indian"
"283",183929,"Lahori's Dhaba","Chandler","AZ","85224",33.3195331,-111.8592616,"1","Pakistani, Food Stands, Barbeque, Halal, Indian, Restaurants"
"284",125960,"Seneca Pub","Toronto","ON","M2J 3C1",43.7857036,-79.3520143,"1","Nightlife, Arts & Entertainment, Indian, Sports Bars, Music Venues, Pubs, Dance Clubs, Bars, Restaurants"
"285",178614,"The Mintt","Pittsburgh","PA","15216",40.4012123,-80.0423887,"1","Chinese, Restaurants, Indian"
"286",110132,"Lin Garden Restaurant","Scarborough","ON","M1T 1H6",43.7758970083,-79.3174695969,"1","Indian, Chinese, Restaurants"
"287",4540,"Indus Junction","Toronto","ON","M6J 1G1",43.6460908,-79.4090062,"0","Indian, Restaurants"
"288",190865,"Salt and Pepper","Mississauga","ON","L4Z 3E8",43.6260010086,-79.6771665435,"1","Restaurants, Halal, Chinese, Indian"
"289",143639,"Mirch Masala","Madison","WI","53703",43.074475,-89.393396,"1","Himalayan/Nepalese, Indian, Restaurants"
"290",168554,"Restaurant Atma","Montréal","QC","H2W 1Y3",45.5166568,-73.579113,"1","Restaurants, Indian"
"291",86800,"Namaste India","Charlotte","NC","28288",35.194894,-80.767442,"0","Pakistani, Indian, Restaurants"
"292",97474,"Indian Curry Bowl","Las Vegas","NV","89149",36.2638103,-115.256869,"0","Indian, Restaurants"
"293",84114,"Brar's-Grand","Brampton","ON","L6T 4N2",43.690611,-79.6941458,"1","Restaurants, Buffets, Indian, Food, Desserts"
"294",98052,"Suruthi's Take Out & Catering","Toronto","ON","M4X 1P9",43.667422,-79.369103,"1","Indian, Restaurants"
"295",154112,"Matagali Restaurant","Toronto","ON","M5G 1H2",43.6570524,-79.3848414,"1","Pakistani, Restaurants, Thai, Event Planning & Services, Indian, Caterers"
"296",65935,"Simply Delicious","Markham","ON","L3R 4S1",43.83379,-79.3550921,"1","Pakistani, Indian, Halal, Restaurants, Diners"
"297",71416,"Amaya","Toronto","ON","M5V 3K2",43.6450483,-79.3856971,"1","Indian, Fast Food, Restaurants"
"298",165154,"Subba","Pittsburgh","PA","15212",40.4534380276,-80.0016119968,"1","Indian, Himalayan/Nepalese, Restaurants, Asian Fusion"
"299",181957,"Mughal Mahal Restaurant","Mississauga","ON","L4T 4J3",43.7053348,-79.6425886,"1","Indian, Restaurants"
"300",187888,"DaiKo Indian Kitchen & Nepali Street Food","Toronto","ON","M6R 1A6",43.6399626,-79.4403278,"1","Indian, Restaurants, Beer, Wine & Spirits, Arts & Entertainment, Plumbing, Canadian (New), Asian Fusion, Himalayan/Nepalese, Bars, Home Services, Jazz & Blues, Comfort Food, Dive Bars, Food, Nightlife"
"301",37887,"Tom's Restaurant","Markham","ON","L3R 1H3",43.8247141,-79.3368225,"1","Diners, Indian, Breakfast & Brunch, Restaurants, Sandwiches"
"302",166718,"The Siddhartha","Toronto","ON","M4L 1Z7",43.6725531,-79.3213648,"0","Indian, Restaurants, Pakistani, Vegetarian"
"303",159896,"Spicy Garden","Scarborough","ON","M1S 4N6",43.7919977,-79.2504891,"1","Indian, Restaurants, Chinese"
"304",180607,"Bombay Indian Grill","Champaign","IL","61820",40.114132,-88.238369,"0","Restaurants, Indian, Pakistani"
"305",60504,"Spice Hut","Calgary","AB","T2K 6H2",51.111641,-114.0559329,"1","Indian, Restaurants, Pakistani"
"306",100758,"Étoile des Indes","Montréal","QC","H4A 1X5",45.469124,-73.618074,"1","Middle Eastern, Indian, Pakistani, Restaurants"
"307",160808,"India Gate","Chandler","AZ","85226",33.3048389,-111.9490143,"0","Restaurants, Indian, Pakistani"
"308",36186,"Nirvana the Flavours of India","Mississauga","ON","L4Z 3E8",43.6261329523,-79.6770085984,"1","Indian, Chinese, Restaurants, Pakistani, Halal, Hakka, Vegetarian, Middle Eastern"
"309",36326,"Maa Sagar","Mississauga","ON","L5R 0C2",43.6138458252,-79.6619796753,"1","Indian, Restaurants"
"310",28027,"Siddartha","Toronto","ON","M4M 1H2",43.6592752,-79.3490257,"1","Indian, Restaurants"
"311",24651,"Pak Sweets","Mississauga","ON","L5V 3A4",43.5906318,-79.6796271,"1","Indian, Desserts, Pakistani, Food, Restaurants"
"312",126773,"Puspa Restaurant","Calgary","AB","T2K 0G2",51.088836,-114.08551,"1","Pakistani, Middle Eastern, Indian, Restaurants"
"313",179433,"Apna Punjab Sweets & Restaurant","Calgary","AB","T3J 3K9",51.0970375,-113.9629524,"0","Indian, Middle Eastern, Pakistani, Restaurants"
"314",62596,"Adisil","Charlotte","NC","28262",35.337406,-80.7570662,"0","Food, Coffee & Tea, Indian, Fast Food, Restaurants, Specialty Food, Ethnic Food"
"315",80220,"Fast Biryani","Madison","WI","53704",43.1331746,-89.3025996,"0","Restaurants, Pakistani, Indian"
"316",151941,"J Ali Baba Restaurant","Pickering","ON","L1V 6M5",43.8317156,-79.0939147,"1","Indian, Restaurants, Pakistani, Halal"
"317",125944,"Biryani House Kabab And Grill","Monroeville","PA","15146",40.4396998,-79.7686518,"1","Halal, Indian, Pakistani, Restaurants, Soup"
"318",27594,"Warriach Bar and Grill","Brampton","ON","L6S 0E1",43.7596151914,-79.715867697,"0","Nightlife, Restaurants, American (Traditional), Indian, Bars"
"319",16737,"Dosa House","Markham","ON","L3S 0B6",43.8498729144,-79.2528220324,"1","Restaurants, Indian, Fondue"
"320",53140,"Mahar Restaurant Incorp","Toronto","ON","M4L 1Z4",43.6721982,-79.3232577,"0","Indian, Restaurants"
"321",66283,"Mirchi Indian Cuisine","Chandler","AZ","85248",33.2324404,-111.8569985,"0","Indian, Restaurants"
"322",100606,"Coriander India Grill","Pittsburgh","PA","15217",40.432695,-79.922756,"1","Indian, Restaurants"
"323",111814,"The Host Fine Indian Cuisine","Richmond Hill","ON","L4B 3P2",43.8460012775,-79.3792334035,"1","Indian, Restaurants, Event Planning & Services, Caterers"
"324",48624,"Masala Express","Las Vegas","NV","89109",36.1056074136,-115.172388219,"1","Indian, Fast Food, Vegetarian, Restaurants"
"325",107741,"Skylark Restaurant","Toronto","ON","M4L 1Z7",43.672042,-79.322108,"0","Restaurants, Indian, Pakistani"
"326",41159,"Taj Indian Restaurant","Madison","WI","53715",43.053124,-89.39625,"1","Indian, Vegetarian, Pakistani, Restaurants"
"327",15838,"Cholan","Mississauga","ON","L5V 0A7",43.61172,-79.695943,"0","Restaurants, Vegetarian, Indian"
"328",58110,"Bombay's Chutney","Mississauga","ON","L5N 0A1",43.6103859114,-79.7501280415,"1","Restaurants, Indian"
"329",53157,"DownTown Mumbai","Mississauga","ON","L5T 2Y3",43.527287,-79.660698,"0","Restaurants, Indian"
"330",28829,"Rasoï","Montréal","QC","H4C 1P2",45.4802688,-73.5797791,"1","Indian, Restaurants"
"331",72579,"Tabla Indian Restaurant","Charlotte","NC","28277",35.041879,-80.8624702,"1","Restaurants, Indian, Halal, Buffets"
"332",29978,"Arizona Frybread","Avondale","AZ","85323",33.4536972046,-112.3402633667,"1","Indian, Restaurants"
"333",64651,"China Cottage","Scarborough","ON","M1R 4C2",43.7594029804,-79.3107333461,"1","Indian, Fish & Chips, Restaurants, Chinese, Seafood"
"334",80767,"Tandoori Times 2 Indian Bistro","Glendale","AZ","85308",33.6394247,-112.179954,"1","Restaurants, Pakistani, Indian"
"335",178212,"Tibet Cafe","Toronto","ON","M5T 2J8",43.6539061,-79.4001153,"1","Breakfast & Brunch, Bars, Indian, Juice Bars & Smoothies, Restaurants, Himalayan/Nepalese, Food, Burgers, Nightlife"
"336",181810,"Shagun Sweets and Restaurant","Brampton","ON","L6R 1W4",43.7590139,-79.7293181,"1","Restaurants, Vegetarian, Indian"
"337",108441,"Vindaloo Indian Cuisine","Toronto","ON","M1M 1N3",43.7223687,-79.2351807,"1","Restaurants, Indian"
"338",100616,"Fiesta India","Toronto","ON","M5T 3K5",43.6537457,-79.3910348,"0","Restaurants, Indian"
"339",71274,"Tandoori Village","Vaughan","ON","L4H 0A7",43.7865725,-79.6249893,"0","Indian, Restaurants"
"340",176492,"Needle and Pin","Pittsburgh","PA","15216",40.3894540925,-80.0419438716,"1","Burgers, British, Restaurants, Tapas/Small Plates, Indian, Breakfast & Brunch, Bars, Cocktail Bars, Nightlife"
"341",65449,"Punjabi Chulha Restaurant & Sweet Shop","Calgary","AB","T3J 3M7",51.1138267,-113.9517734,"1","Indian, Restaurants"
"342",180766,"Bombay Spice Restaurant","Calgary","AB","T2G 2M1",51.0470164,-114.0580266,"1","Buffets, Indian, Bars, Pakistani, Restaurants, Nightlife"
"343",14922,"Fry Bread House East","Mesa","AZ","85202",33.3796635,-111.8756759,"0","Bakeries, American (Traditional), Restaurants, Food, Indian"
"344",171401,"Saravanaa Bhavan","Brampton","ON","L6T 0E2",43.7146818,-79.7262343,"0","Indian, Restaurants"
"345",143760,"Azuba","Mississauga","ON","L5S 1W7",43.6807285,-79.6808595,"0","Restaurants, Indian"
"346",155412,"The Mumbai House","Toronto","ON","M4L 1G5",43.6672561,-79.3128805,"0","Indian, Restaurants"
"347",123530,"Masala Palace","Montréal","QC","H3W 1X4",45.486384,-73.627071,"1","Indian, Restaurants"
"348",39164,"Les Casseroles de MoMo","Montréal","QC","H3N 2B2",45.5273040538,-73.619914338,"1","Restaurants, Indian, Breakfast & Brunch, Bangladeshi, Asian Fusion"
"349",12082,"Jannat Indian Cuisine","Las Vegas","NV","89103",36.0998469,-115.220449,"0","Restaurants, Indian"
"350",80682,"Namasté Montréal","Montréal","QC","H2X 1X3",45.5111567,-73.5696279,"0","Restaurants, Indian"
"351",186377,"Kohinoor Indian Restaurant and Lounge","Champaign","IL","61820",40.12125533,-88.2427998586,"1","Indian, Nightlife, Restaurants, Bars"
"352",77251,"India Masala","Las Vegas","NV","89109",36.1253966874,-115.1700210571,"0","Indian, Restaurants"
"353",128242,"Butterchick","Toronto","ON","M2N 5X2",43.7625088,-79.4105316,"1","Indian, Restaurants"
"354",86717,"786 Halal Biryani House","Toronto","ON","M5A 3X2",43.658087,-79.3710422,"1","Pakistani, Indian, Restaurants"
"355",146683,"Zafran Kabab Palace","Pineville","NC","28134",35.0873529,-80.8863258,"1","Restaurants, Indian, Halal, Pakistani, Afghan"
"356",64666,"Great Canadian Pizza and Chicken","Calgary","AB","T2Z 0Z7",50.9238722364,-113.9320243523,"1","Pizza, Restaurants, Canadian (New), Indian"
"357",79945,"Curry & Co","Toronto","ON","M5B 2G9",43.6567455,-79.380484,"0","Indian, Halal, Pakistani, Restaurants"
"358",29064,"India Beau Village","Montréal","QC","H3N 1G6",45.5308768,-73.6355917,"1","Restaurants, Indian"
"359",12868,"Mango Shiva","Calgary","AB","T2P 1B5",51.0456412,-114.0665623,"0","Bars, Pakistani, Nightlife, Buffets, Indian, Restaurants"
"360",139149,"Taste of Kerala","Beachwood","OH","44122",41.4632003,-81.4844269,"1","Indian, Restaurants, Vegan"
"361",20574,"Tandul","Cleveland","OH","44113",41.477919,-81.6825795,"1","Restaurants, Buffets, Bars, Indian, Nightlife"
"362",164938,"Usmania Grill","Pickering","ON","L1V 6M5",43.8314133777,-79.0938092396,"1","Indian, Seafood, Halal, Pakistani, Restaurants"
"363",71704,"Umami Hakka","Toronto","ON","M9W 2P1",43.7248778,-79.5509265,"1","Restaurants, Indian, Hakka, Chinese, Halal, Asian Fusion"
"364",183150,"Feast of India","Calgary","AB","T2C 4X6",50.9895114,-113.9599143,"1","Vegetarian, Buffets, Indian, Restaurants"
"365",176089,"Cuisine of India","Parma Heights","OH","44130",41.3778401,-81.7837226,"1","Indian, Vegan, Halal, Restaurants, Vegetarian"
"366",1309,"Karaikudi","Toronto","ON","M1P 4Y1",43.7561791,-79.2751536,"1","Restaurants, Indian"
"367",15090,"Royal Taj","Tempe","AZ","85282",33.406601,-111.9075196,"0","Restaurants, Indian, Buffets, Pakistani"
"368",57820,"Namaste Tandoori Restaurant & Fish and Chips","Mississauga","ON","L5V 2P3",43.5871633,-79.6957058,"1","Indian, Restaurants, Fish & Chips"
"369",162951,"Peg N Tikka","Montréal","QC","H2X 1C2",45.5125503,-73.5692529,"0","Indian, Pakistani, Nightlife, Bars, Restaurants"
"370",50698,"Saffron Spice Kitchen","Toronto","ON","M5V 2A9",43.6485506,-79.3972173,"1","Restaurants, Indian, Soup, Sandwiches"
"371",181961,"Bombay Bites","Toronto","ON","M1H 2Y2",43.7675222,-79.2289379,"1","Restaurants, Vegetarian, Indian, Fast Food"
"372",168695,"Tabla Village","Montréal","QC","H2L 2H4",45.519817,-73.555131,"1","Restaurants, Indian"
"373",75562,"Indian Cuisine By The Lake","Mississauga","ON","L5G 1E1",43.5524956,-79.5849714,"1","Restaurants, Indian"
"374",64137,"Mirchi","Montréal","QC","H2Y 2B7",45.500781,-73.556162,"1","Ethnic Food, Food, Restaurants, Specialty Food, Indian"
"375",191014,"Hakka Bro's","North York","ON","M3J 3H6",43.7544332083,-79.4877773766,"1","Hakka, Caribbean, Halal, Chinese, Restaurants, Indian"
"376",122226,"Chand Palace","Montréal","QC","H3N 1S6",45.5249141,-73.6256631,"1","Restaurants, Indian"
"377",178515,"Federick","Scarborough","ON","M1H 2V6",43.7748649843,-79.2409900948,"1","Restaurants, Chinese, Indian"
"378",21718,"Mumbai Sapphire","Markham","ON","L3R",43.8359655,-79.3545948,"0","Indian, Restaurants, Buffets"
"379",121764,"Himalayan Restaurant","Cleveland","OH","44111",41.4581877985,-81.78093642,"1","Restaurants, Indian, Himalayan/Nepalese"
"380",18546,"Flavors of India","Phoenix","AZ","85016",33.5028106,-112.0472423,"1","Restaurants, Pakistani, Indian, Seafood, Buffets"
"381",50320,"Bukhara Grill","Mississauga","ON","L5C 4E6",43.5688057392,-79.6630470827,"0","Restaurants, Indian, Buffets"
"382",65921,"Copper Kettle","Tempe","AZ","85281",33.4153283,-111.9182786,"0","Indian, Buffets, Restaurants, Pakistani"
"383",109726,"Paranthe Wali Gali","Brampton","ON","L6S 5X9",43.738023,-79.7033796,"1","Restaurants, Indian"
"384",72838,"Saravanaa Bhavan","Scarborough","ON","M1V 1V2",43.8092547,-79.2696046,"1","Restaurants, Indian, Vegetarian"
"385",3059,"Le Kochi Cuisine Restaurant","Brampton","ON","L6R 3Y3",43.7565665,-79.7622914,"1","Indian, Restaurants"
"386",128704,"Restaurant Rajastan","Montréal","QC","H2X 3L7",45.5181326,-73.5705522,"0","Indian, Restaurants"
"387",34343,"Tandoori Masson","Montréal","QC","H1Y 1X6",45.5487526987,-73.5743796453,"1","Restaurants, Indian"
"388",129380,"HAKKA KING","Markham","ON","L3S 0B6",43.8503529,-79.2541844,"0","Indian, Halal, Hakka, Restaurants, Chinese"
"389",116796,"The Great Maratha","Woodbridge","ON","L4H 2Z7",43.838357307,-79.5597981289,"1","Indian, Restaurants, Halal"
"390",1335,"Punjabi Tadka","Brampton","ON","L6R",43.7645426989,-79.749285295,"1","Indian, Food Delivery Services, Ethnic Food, Food, Restaurants, Specialty Food, Desserts"
"391",117218,"Udupi","Tempe","AZ","85281",33.4480887488,-111.9268833664,"1","Restaurants, Vegetarian, Pakistani, Vegan, Indian"
"392",3946,"Chauhans India Grill House & Banquet","Markham","ON","L3R 0E4",43.8309686,-79.3574533,"1","Venues & Event Spaces, Event Planning & Services, Food, Indian, Restaurants, Buffets"
"393",158084,"Bhelwala Indian Street Food","Strongsville","OH","44136",41.3061105414,-81.8360112235,"0","Indian, Pakistani, Restaurants"
"394",71747,"Aachi Southindian Kitchen","Tempe","AZ","85284",33.348750911,-111.944757559,"0","Indian, Shopping, Restaurants, Food"
"395",139901,"Premium Sweets","Toronto","ON","M1L 4W1",43.7224684256,-79.2889939299,"1","Bangladeshi, Indian, Restaurants, Halal"
"396",134722,"Golden Taste of Asia","Bradford West Gwillimbury","ON","L3Z 1J2",44.111527,-79.576007,"1","Indian, Restaurants, Sri Lankan, Southern"
"397",150606,"Etoile des Indes","Montréal","QC","H3H 1M1",45.4935844193,-73.5792593558,"1","Middle Eastern, Restaurants, Indian, Pakistani"
"398",171940,"Traiteur Guru","Montréal","QC","H2W 1Y8",45.517253,-73.5803639,"1","Street Vendors, Indian, Caterers, Restaurants, Event Planning & Services, Food, Food Trucks"
"399",13102,"Gagan Sweets","Vaughan","ON","L4K 5Y6",43.828134,-79.538466,"1","Food, Restaurants, Indian, Desserts, Vegetarian"
"400",43772,"Bawarchi Biryanis -Toronto","Toronto","ON","M1L 4C5",43.73104,-79.2883761,"1","Restaurants, Indian"
"401",37378,"Red Hot Tandoori","East York","ON","M4C 1N2",43.6909559,-79.2900668,"1","Restaurants, Pakistani, Indian"
"402",89491,"Nirvana","Calgary","AB","T3J 3K9",51.097389,-113.9613353,"1","Restaurants, Middle Eastern, Venues & Event Spaces, Pakistani, Caterers, Nightlife, Indian, Event Planning & Services"
"403",149637,"Cafe Tandoor","Aurora","OH","44202",41.320026,-81.348688,"1","Indian, Restaurants, Pakistani"
"404",45450,"Himalaya","Longueuil","QC","J4J 3X5",45.5304032,-73.4843722,"0","Indian, Restaurants"
"405",103143,"Mr India Haveli","Mississauga","ON","L5B 2C4",43.579985,-79.648637,"1","Restaurants, Indian, Food, Grocery"
"406",184306,"Thai Tamarind","Matthews","NC","28105",35.1262416,-80.7090576,"1","Restaurants, Thai, Indian"
"407",113794,"White Gold Sweets","Mississauga","ON","L5L 5S6",43.5209208542,-79.6951675415,"1","Food, Vegetarian, Indian, Farmers Market, Grocery, Restaurants, Desserts"
"408",50654,"Fritou Chicken Skyview","Calgary","AB","T3N",51.1648766037,-113.9676131142,"1","Chicken Wings, Indian, Restaurants, Halal, Pakistani"
"409",149644,"The Host","Mississauga","ON","L5B 2N5",43.5949731,-79.6391348,"1","Middle Eastern, Restaurants, Indian, Pakistani"
"410",163316,"Tamarind","Charlotte","NC","28226",35.0894934,-80.8448416,"0","Pakistani, Indian, Restaurants"
"411",166343,"Persis Biryani Indian Grill","Charlotte","NC","28202",35.2253544,-80.8461559,"1","Indian, Restaurants"
"412",83380,"Urban Hakka","Toronto","ON","M4N 2L8",43.7301910396,-79.4033391774,"1","Hakka, Chinese, Asian Fusion, Indian, Restaurants"
"413",79514,"Nirvana Indian Cuisine","Scottsdale","AZ","85260",33.6205227,-111.8962794,"1","Indian, Halal, Buffets, Vegan, Restaurants, Gluten-Free"
"414",65772,"Biryani Kabab and More","Mississauga","ON","L5C 1V8",43.5718893,-79.6481763,"0","Meat Shops, Food, Indian, Specialty Food, Pakistani, Restaurants"
"415",163744,"Leela's Roti & Doubles","Mississauga","ON","L5C 4L3",43.5777434993,-79.6619912502,"1","Halal, Vegetarian, Caribbean, Indian, Restaurants, Food"
"416",76901,"Little Spice","Calgary","AB","T2J 0P6",50.968128,-114.073171,"1","Pakistani, Halal, Indian, Restaurants"
"417",188288,"Copper Kettle Curry House","Phoenix","AZ","85008",33.4659236,-111.9722278,"0","Indian, Pakistani, Buffets, Restaurants"
"418",137685,"Brar's -Bovaird","Brampton","ON","L6S 0C6",43.7606619018,-79.7245049246,"1","Fast Food, Restaurants, Vegetarian, Event Planning & Services, Indian, Caterers"
"419",59081,"Everest Hakka House","Etobicoke","ON","M8V 1B6",43.6163384,-79.4881324,"1","Chinese, Indian, Middle Eastern, Restaurants, Pakistani"
"420",99027,"Biryani Culture","Brampton","ON","L7A 0P8",43.6757898,-79.8226489,"1","Halal, Restaurants, Pakistani, Indian, Caterers, Event Planning & Services"
"421",142604,"Punjabi By Nature","Brampton","ON","L6P 0B7",43.7705896805,-79.6600848621,"1","Indian, Restaurants, Buffets, Vegetarian"
"422",33435,"Khana Khazana","Calgary","AB","T2Y 1M7",50.9239288,-114.0728593,"1","Restaurants, Indian"
"423",181523,"Mayuri Palace","Phoenix","AZ","85023",33.6401217,-112.1116606,"0","Restaurants, Indian, Buffets, Diners"
"424",108328,"Indian Flavour","Toronto","ON","M5G 1C4",43.6555572,-79.384515,"0","Indian, Pakistani, Restaurants, Middle Eastern"
"425",95817,"Ambiance of India","Mississauga","ON","L5J 1K5",43.5091132,-79.6335025,"1","Indian, Restaurants"
"426",26395,"Gandhi India's Cuisine","Las Vegas","NV","89169",36.1152085,-115.153111,"1","Vegetarian, Pakistani, Restaurants, Vegan, Indian"
"427",129238,"Laari Adda","Mississauga","ON","L5M 0R4",43.5596282,-79.7336693,"1","Halal, Restaurants, Pakistani, Indian"
"428",171088,"Nawab Restaurant","Calgary","AB","T3H 5X8",51.0339263,-114.2127674,"1","Indian, Restaurants"
"429",37489,"Porteree","Toronto","ON","M6G 1B2",43.6552566,-79.4132866,"0","Italian, Nightlife, Pubs, Bars, Indian, Restaurants"
"430",95746,"Copacabana & Jay's  Scratch Kitchen","Montréal","QC","H2W 1Y2",45.5163158,-73.5782519,"1","Restaurants, Indian, Nightlife, Asian Fusion, Pakistani"
"431",39298,"Haldi Masala","Madison","WI","53717",43.0596478,-89.5122868,"1","Indian, Restaurants"
"432",160096,"Hakka No.1","Brampton","ON","L6T 4K9",43.710523,-79.683989,"1","Indian, Thai, Chinese, Asian Fusion, Restaurants"
"433",87018,"Kwality Ice Cream","Phoenix","AZ","85022",33.6395712525,-112.0472933849,"0","Ice Cream & Frozen Yogurt, Specialty Food, Desserts, Food, Restaurants, Indian"
"434",98192,"Motimahal","Toronto","ON","M4L 1Z6",43.6723554,-79.3226598,"1","Indian, Restaurants, Pakistani"
"435",133440,"Bismillah Sweets","Mississauga","ON","L5V 2W1",43.6094809334,-79.6963443607,"1","Restaurants, Vegetarian, Pakistani, Indian"
"436",39976,"Desi Spice","Toronto","ON","M9W 6J1",43.7356008358,-79.6047169852,"1","Indian, Buffets, Restaurants"
"437",162056,"Shalimar Bistro","Brampton","ON","L6W 2E2",43.6761398,-79.7459899,"1","Restaurants, Soup, Nightlife, Bars, Bistros, Indian"
"438",97629,"Amma Roti House","Toronto","ON","M4L 1J3",43.6703357,-79.2991562,"1","Breakfast & Brunch, Asian Fusion, Himalayan/Nepalese, Restaurants, Food, Indian"
"439",160748,"Guru's Classic Indian & Chinese Cuisine","Mississauga","ON","L5V 0B7",43.6086159759,-79.6982041374,"1","Restaurants, Halal, Indian, Chinese, Food"
"440",38894,"Tikka Boulevard","Ajax","ON","L1T 0J9",43.8979921997,-79.0284620264,"0","Indian, Halal, Vegetarian, Restaurants"
"441",64726,"Chennai Chettinaad Palace","Phoenix","AZ","85053",33.6415616,-112.1195269,"1","Indian, Restaurants"
"442",182974,"Bao-Shin To Go","Mississauga","ON","L5C 2S3",43.574341,-79.6567671,"1","Restaurants, Indian, Pakistani, Chinese, Hakka, Halal"
"443",172214,"Villa's Mexican Food","Laveen","AZ","85339",33.3775851,-112.1733455,"0","Indian, Food, Mexican, Restaurants, Ice Cream & Frozen Yogurt"
"444",160274,"Curry Twist Restaurant","Toronto","ON","M6P 1Z3",43.6656754,-79.470539,"1","Restaurants, Indian"
"445",1625,"Mumbay Grill","Ajax","ON","L1S 6B8",43.8537738,-79.0564998,"1","Indian, Restaurants"
"446",22094,"Bhogi - House of Biryani & Pulao","Mississauga","ON","L4W 1E8",43.6552386,-79.6465839,"1","Bangladeshi, Pakistani, Restaurants, Indian"
"447",168769,"Tandoori Bellevue","Sainte-Anne-de-Bellevue","QC","H9X 1L5",45.4033354,-73.9501345,"1","Indian, Restaurants"
"448",39638,"Serena Grill","Whitby","ON","L1P 0A8",43.8741212633,-78.9622703567,"1","Pakistani, Halal, Restaurants, Indian"
"449",79567,"Green Chili","Calgary","AB","T3C 2E8",51.0454796618,-114.1430293839,"0","Food, Restaurants, Indian"
"450",14795,"Chutney Swamy","Mississauga","ON","L5V 1N3",43.5513491,-79.7156353,"1","Indian, Restaurants"
"451",7641,"Ambar India","Champaign","IL","61820",40.1113654,-88.228907,"1","Indian, Restaurants"
"452",188367,"Masala Bhavan","Calgary","AB","T3E 3C9",51.0130118841,-114.1401257646,"1","Vegetarian, Restaurants, Chinese, Hakka, Bars, Nightlife, Pakistani, Indian, Sri Lankan"
"453",84717,"Moghel Tandoori","Longueuil","QC","J4N 1P8",45.565704,-73.450201,"1","Indian, Restaurants"
"454",28276,"Taj Mahal Inde","Verdun","QC","H4G 1W8",45.4581598,-73.567417,"1","Restaurants, Indian"
"455",32643,"Mooon Rice","Mississauga","ON","L5B 3Z6",43.5779732,-79.6214787,"1","Restaurants, Sri Lankan, Indian"
"456",153730,"Aroma Curry House","Champaign","IL","61822",40.0820233,-88.2959126,"0","Indian, American (New), Restaurants, Food"
"457",55540,"Tangra Villa Hakka Chinese Cuisine","Markham","ON","L3P",43.8811125834,-79.288773708,"1","Chinese, Indian, Restaurants"
"458",10212,"Pastries N Chaat","Phoenix","AZ","85085",33.7122821,-112.1019899,"0","Food, Restaurants, Indian, Halal, Bakeries, Vegetarian"
"459",128411,"Paradise Biryani Pointe","Gates Mills","OH","44040",41.5396569,-81.4377129,"1","Restaurants, Indian"
"460",169287,"Dev Restaurant","Montréal","QC","H3W 2R9",45.4938661,-73.6361892,"0","Indian, Restaurants"
"461",124687,"Cloves the Spice","Toronto","ON","M6C 2C5",43.7001553,-79.4293631,"0","Indian, Restaurants"
"462",94884,"Bazaar Global Food Bar","Toronto","ON","M4S 2N2",43.705919,-79.3891807,"0","Restaurants, Specialty Food, Food, Canadian (New), Ethnic Food, Indian"
"463",51963,"Bombay Mahal","Montréal","QC","H3H 1L8",45.4945119,-73.5784807,"1","Restaurants, Indian"
"464",71947,"Surahi Restaurant","Calgary","AB","T2H 0M4",50.973706,-114.0700362,"1","Restaurants, Middle Eastern, Indian, Pakistani"
"465",156277,"Tandori","Toronto","ON","M4W 3T3",43.6706237,-79.3863045,"1","Indian, Restaurants"
"466",101421,"Chapati Indian Grill","Cleveland","OH","44114",41.5038381619,-81.6755432775,"1","Restaurants, Indian"
"467",157193,"New Spiceland Restaurant","Toronto","ON","M1X 0B1",43.8365904448,-79.2486990988,"1","Indian, Sri Lankan, Restaurants"
"468",185889,"Priya Indian Cuisine","Tempe","AZ","85284",33.333854,-111.9123807,"0","Indian, Restaurants, Pakistani, Buffets"
"469",85683,"Kalpataru Dosa Hub","Brampton","ON","L6Y 0L8",43.6443642,-79.7564164,"1","Vegetarian, Vegan, Indian, Restaurants"
"470",25987,"Las Vegas Mela - Indian Food and Cultural Festival","Las Vegas","NV","89155",36.165905,-115.1534146,"1","Restaurants, Indian, Food Stands, Arts & Entertainment, Cultural Center, Festivals, Vegetarian"
"471",25237,"Bombay Sweet House & Restaurant","Calgary","AB","T3J 3J8",51.0986737,-113.9621716,"1","Restaurants, Pakistani, Indian, Middle Eastern"
"472",19070,"Brar Sweets & Restaurant","Etobicoke","ON","M9V 2X5",43.7381023,-79.5661306,"1","Indian, Restaurants"
"473",128563,"Indilicious","Toronto","ON","M6P 2A4",43.6657228137,-79.4820073619,"1","Indian, Restaurants"
"474",102879,"Tandoori Style Restaurant","Brampton","ON","L6T 4L4",43.712228,-79.681188,"1","Pakistani, Middle Eastern, Restaurants, Indian"
"475",88562,"Madras Dosa Hut","Etobicoke","ON","M9V 1A9",43.7370465,-79.5662705,"1","Restaurants, Indian"
"476",152928,"Ambiyan","Unionville","ON","L3R 2G8",43.8663305,-79.3111036,"1","Restaurants, Gastropubs, Indian"
"477",104191,"Le Taj","Montréal","QC","H3A 1R7",45.501105,-73.5766574,"1","Vegan, Pakistani, Restaurants, Indian, Middle Eastern, Vegetarian"
"478",149418,"Tartares du Marché 27 Express","Montréal","QC","H3B 3G1",45.5039996,-73.56843,"0","Restaurants, Thai, Fast Food, Bars, Italian, Nightlife, Indian"
"479",31882,"Tandoori Flame","Brampton","ON","L6T 5N9",43.7016685627,-79.7115981546,"1","Food, Beer, Wine & Spirits, Indian, Restaurants, Buffets"
"480",75084,"India Grill","Tempe","AZ","85284",33.3487388761,-111.9447575882,"0","Restaurants, Buffets, Indian"
"481",15611,"Nantha Caters","Scarborough","ON","M1W 3P7",43.7965339,-79.3167447,"1","Sri Lankan, Restaurants, Indian"
"482",164371,"Amaravati Indian Cuisine","Tempe","AZ","85284",33.3496649,-111.9475449,"1","Food Delivery Services, Food, Halal, Restaurants, Indian"
"483",68175,"The Spice Hut","Toronto","ON","M9V 2X5",43.7377597,-79.5656479,"0","Restaurants, Indian"
"484",3435,"The Indian Hut","Toronto","ON","M4Y 2G3",43.6697695,-79.3829273,"0","Middle Eastern, Indian, Restaurants, Pakistani, Buffets"
"485",35545,"The Tiffin Box","Toronto","ON","M5R 3G5",43.669175,-79.412958,"0","Indian, Restaurants"
"486",58618,"Oh Bombay","Oakville","ON","L6H 7E3",43.4872388,-79.7166125,"0","Indian, Restaurants"
"487",89498,"The Nilgiris","Scarborough","ON","M1X 1L8",43.829176,-79.2486831,"1","Event Planning & Services, Caterers, Restaurants, Indian"
"488",89712,"Signature Grill","Champaign","IL","61820",40.1099808,-88.2314369,"1","Mexican, Restaurants, Asian Fusion, Mediterranean, Indian"
"489",89161,"Billoo's Indian Cuisine","Calgary","AB","T3R 0S4",51.16997,-114.146485,"1","Halal, Indian, Restaurants, Beer, Wine & Spirits, Food, Buffets"
"490",33311,"Hot Wok","Toronto","ON","M1P 2M1",43.7693281,-79.2816269,"1","Thai, Restaurants, Chinese, Indian"
"491",112406,"Real Taste of India","Toronto","ON","M4L 1G6",43.6673241,-79.3128881,"0","Indian, Restaurants, Middle Eastern, Pakistani"
"492",115116,"Rajdhani Sweets","Brampton","ON","L6R 3J5",43.75144,-79.7386292,"1","Restaurants, Indian, Vegetarian"
"493",32498,"Sandhu","Montréal","QC","H2H 1V3",45.533192,-73.575491,"1","Restaurants, Italian, Indian, Pizza"
"494",59628,"Amaya Express","Toronto","ON","M6A",43.725686467,-79.4504406158,"1","Indian, Restaurants"
"495",180352,"Haldi Indian Cuisine","Phoenix","AZ","85032",33.6399077,-112.0193629,"1","Restaurants, Indian, Asian Fusion"
"496",64823,"Lucky Lin's Restaurant","Toronto","ON","M1B 5K9",43.8137598,-79.2380223,"1","Restaurants, Indian, Chinese"
"497",143645,"Zam Zam World Foods","Phoenix","AZ","85008",33.4669617,-111.9959631,"0","Restaurants, Food, Halal, Imported Food, Grocery, Specialty Food, Indian, Ethnic Food"
"498",66728,"Karma","Pierrefonds","QC","H9H 4B2",45.4882053,-73.8497836,"0","Indian, Restaurants"
"499",188587,"Royal Biryani","Charlotte","NC","28270",35.140798,-80.740587,"1","Restaurants, Himalayan/Nepalese, Indian, Vegan, Kebab, Vegetarian, Pakistani, Halal"
"500",83709,"Hakka Khazana","Mississauga","ON","L5W 1X1",43.637772539,-79.7282177815,"1","Himalayan/Nepalese, Indian, Restaurants, Chinese"
"501",146714,"Butter Chicken Roti","Toronto","ON","M6J 1H8",43.6436772,-79.4215955,"1","Indian, Restaurants"
"502",160345,"Pukka","Toronto","ON","M6C 1B6",43.681191,-79.429274,"1","Indian, Restaurants"
"503",156359,"Udipi Cafe","Monroeville","PA","15146",40.443403,-79.790422,"1","Pakistani, Indian, Restaurants"
"504",16027,"Aachi South Indian Kitchen","Tempe","AZ","85284",33.349118,-111.944979,"0","Indian, Buffets, Restaurants, Vegetarian, Seafood, Soup"
"505",18580,"Kebobchi","Brampton","ON","L7A",43.7065925368,-79.7890599445,"0","Restaurants, Halal, Indian, Pakistani"
"506",118113,"All India","Pittsburgh","PA","15213",40.4521894,-79.9525714,"1","Restaurants, Indian"
"507",138432,"Desi Hut Takeout & Catering","Toronto","ON","M1P 2G7",43.758688,-79.2889502,"0","Pakistani, Indian, Restaurants, Halal"
"508",46820,"Guru Palace","Mesa","AZ","85204",33.3813133,-111.787321,"1","Indian, Buffets, Pakistani, Restaurants"
"509",116000,"Sunny Asian Food","solon","OH","44139",41.386254,-81.4410019,"1","International Grocery, Pan Asian, Food, Grocery, Food Court, Restaurants, Herbs & Spices, Specialty Food, Indian, Farmers Market"
"510",156517,"Hurry 4 Curry","Phoenix","AZ","85004",33.4516878,-112.0686337,"0","Indian, Restaurants"
"511",182423,"Trimurti Indian Cuisine","Toronto","ON","M5V 1Z4",43.6502113,-79.389349,"0","Middle Eastern, Pakistani, Buffets, Indian, Restaurants"
"512",37931,"Chawla's","Brampton","ON","L6Y 0C7",43.663263,-79.731724,"1","Restaurants, Indian"
"513",38400,"Lena's Roti & Doubles","Brampton","ON","L6S",43.7473961,-79.6946371,"1","Indian, Restaurants, Caribbean"
"514",44048,"Tandori Indian Cuisine","Laval","QC","H7T 1C8",45.5684777,-73.7497193,"1","Restaurants, Indian, Fast Food"
"515",131153,"Mumbai Masala","Montréal","QC","H2X 2V5",45.5146614638,-73.5738730431,"1","Restaurants, Indian"
"516",139595,"Curry Leaf Indian Bistro","Pittsburgh","PA","15222",40.43766,-80.000574,"0","Restaurants, Indian"
"517",91905,"Sholay","Las Vegas","NV","89146",36.159256,-115.211245,"0","Restaurants, Indian, Cafes"
"518",191539,"Gujran Wala Tikka House","Toronto","ON","M4L 1Z8",43.6722484,-79.3212267,"0","Restaurants, Halal, Indian, Pakistani"
"519",111236,"Restaurant Biryani","Montréal","QC","H3H 2N3",45.4951307089,-73.5799684699,"1","Halal, Restaurants, Indian, Pakistani, Food"
"520",107041,"Masala World","Fairlawn","OH","44333",41.1341588,-81.6178206,"0","Restaurants, Indian"
"521",135959,"Waterfalls Indian Tapas Bar & Grill","Toronto","ON","M5T",43.6565412,-79.4027114,"0","Restaurants, Indian"
"522",65964,"Baba Ka Dhaba","Calgary","AB","T2A 0R7",51.0378994,-113.9845258,"0","Pakistani, Indian, Pizza, Restaurants"
"523",135093,"Spice Indian Bistro","Toronto","ON","M5A 2R3",43.6539239201,-79.3692006916,"1","Indian, Restaurants"
"524",152659,"Nirvana II","Charlotte","NC","28202",35.2246432,-80.846515,"1","Indian, Restaurants"
"525",145411,"Canada Dosa Corner","Calgary","AB","T2A 4L7",51.0454764,-113.9570195,"0","Middle Eastern, Ethnic Food, Indian, Food, Specialty Food, Restaurants"
"526",27921,"Earth Indian","Toronto","ON","M2M 3V7",43.7877245,-79.417175,"0","Restaurants, Indian"
"527",26077,"Dev's Urban Cabana","Calgary","AB","T2R 0J3",51.0413065,-114.0813729,"0","Restaurants, Asian Fusion, Vegetarian, Indian, Specialty Food, Food, Ethnic Food"
"528",4090,"Spice 7","Calgary","AB","T2P 0E4",51.0515752,-114.0781162,"0","Pakistani, Indian, Restaurants"
"529",105872,"Maharajah East Indian Restaurant","Calgary","AB","T2G 2M2",51.0463561,-114.0580907,"0","Restaurants, Food, Middle Eastern, Ethnic Food, Indian, Specialty Food"
"530",167507,"Guru Lukshmi","Mississauga","ON","L5M 5H1",43.562979,-79.710145,"0","Food, American (Traditional), Restaurants, Indian"
"531",11038,"King of Spicy","Charlotte","NC","28227",35.1995464,-80.7252868,"1","Restaurants, Indian, Bars, Himalayan/Nepalese, Diners, Nightlife"
"532",157160,"Maison Indian Curry","Montréal","QC","H3N 1S8",45.524759,-73.625261,"1","Restaurants, Indian"
"533",152042,"The Khana Sutra","Brampton","ON","L6S 5X9",43.737619,-79.702792,"0","Indian, Restaurants"
"534",125655,"Pizza Italiano","Calgary","AB","T2R 0G6",51.0424444,-114.0656027,"1","Pizza, Restaurants, Indian, Halal"
"535",154502,"Indian Flavour Restaurant","North York","ON","M3J 1P3",43.7741539595,-79.5016729832,"1","Indian, Middle Eastern, Pakistani, Restaurants"
"536",40690,"Indian Sweet Master","Brampton","ON","L6Y 3T8",43.6503484296,-79.7365305573,"1","Desserts, Delicatessen, Indian, Restaurants, Food"
"537",121699,"Kuljit India","Montréal","QC","H4K 1L4",45.524798831,-73.7126626829,"1","Restaurants, Indian"
"538",126447,"Dosa Darbar","Etobicoke","ON","M9V 1A8",43.7379483,-79.5672735,"1","Restaurants, Indian"
"539",65710,"Colaba Cuisine","Concord","ON","L4K 5Y6",43.8280828012,-79.5382307698,"1","Indian, Diners, Restaurants"
"540",131474,"White Castle Banquet & Event Centre","Vaughan","ON","L1K 1Z2",43.8094025,-79.5014078,"1","Venues & Event Spaces, Buffets, Music Venues, Event Planning & Services, Restaurants, Nightlife, Afghan, Indian, American (Traditional), Arts & Entertainment"
"541",177300,"Moksha Restaurant","Toronto","ON","M6B 3B6",43.7180697,-79.42968,"0","Indian, Restaurants"
"542",120542,"Nasha Lounge and Bar","Chandler","AZ","85224",33.3336827,-111.8775741,"0","Restaurants, Indian, Nightlife, Bars"
"543",93510,"Shahi Masala Paan","Calgary","AB","T3K 5P4",51.1425454,-114.0755962,"1","Food, Restaurants, Indian, Food Delivery Services, Specialty Food, Middle Eastern"
"544",57357,"Spadina Garden Restaurant","Toronto","ON","M5G 1C3",43.6557306,-79.3843604,"0","Asian Fusion, Indian, Chinese, Food, Ethnic Food, Restaurants, Specialty Food"
"545",30235,"Aromas at Island Restaurant","Gilbert","AZ","85233",33.3359514,-111.821208,"0","Indian, Pakistani, Restaurants"
"546",125051,"Chutney's Indian Cuisine","Tempe","AZ","85283",33.3774032593,-111.9086227417,"1","Indian, Buffets, Restaurants"
"547",158439,"Clove Indian Cuisine","Charlotte","NC","28262",35.3037392,-80.7493303,"0","Indian, Restaurants"
"548",32867,"The Mount Everest","Ajax","ON","L1S 6L9",43.8543716,-79.0559305,"1","Indian, Event Planning & Services, Restaurants, Pakistani, Vegetarian, Caterers, Middle Eastern, Seafood"
"549",13500,"Curry Leaf Flavors of India","Las Vegas","NV","89148",36.0979515,-115.2977879,"1","Desserts, Food, Beer, Wine & Spirits, Vegetarian, Indian, Vegan, Bars, Restaurants, Nightlife"
"550",61598,"Bombay Indian Grill","Champaign","IL","61820",40.110474,-88.233544,"1","Indian, Pakistani, Restaurants"
"551",146188,"Caribu West Indian Cuisine","Toronto","ON","M9M",43.7485766,-79.5417171,"1","Bars, Nightlife, Indian, Caribbean, Restaurants"
"552",160735,"Shish Mahal Indian Cuisine","Mississauga","ON","L5L 5S6",43.5174493,-79.6945132,"1","Middle Eastern, Pakistani, Restaurants, Indian"
"553",92356,"Charkha Exotic Indian Cuisine","Cleveland","OH","44113",41.499746,-81.700714,"0","Restaurants, Indian"
"554",53132,"Pure Indian Cuisine","Las Vegas","NV","89119",36.0712104,-115.1341184,"1","Restaurants, Indian"
"555",107452,"Kobe Sizzlers","Mississauga","ON","L5V 0A6",43.6100337,-79.6969952,"1","Restaurants, International, Indian, Steakhouses, Halal"
"556",42659,"Indique Unique Indian Flavors","Calgary","AB","T3C 2E8",51.045538,-114.143208,"1","Indian, Restaurants"
"557",27525,"Cafe Tandoor","Westlake","OH","44145",41.4651277,-81.9536932,"1","Restaurants, Indian"
"558",115381,"Raja Foods","Calgary","AB","T2A 2Z5",51.0598204317,-113.974613373,"1","Indian, Hookah Bars, Pakistani, Nightlife, Restaurants, Mediterranean, Bars"
"559",88286,"Paradise Biryani Pointe","Glendale","AZ","85308",33.6377067324,-112.153850378,"1","Indian, Restaurants"
"560",156465,"Janani","Montréal","QC","H3W 2S9",45.4953579,-73.6402061,"1","Restaurants, Halal, Vegetarian, Indian"
"561",137714,"Durbar Indian Cuisine","Toronto","ON","M6S 1P7",43.6489129,-79.484799,"1","Restaurants, Indian"
"562",70187,"India's Flame","Tempe","AZ","85282",33.383383,-111.925297,"1","Nightlife, Buffets, Bars, Restaurants, Indian"
"563",183992,"Namaste India","Pittsburgh","PA","15216",40.4192508775,-80.0303107024,"0","Restaurants, Indian"
"564",105456,"Maezo - Modern Indian Cuisine","Toronto","ON","M5H 1W2",43.650911,-79.3819568,"1","Asian Fusion, Pakistani, Halal, Bars, Canadian (New), Indian, International, Nightlife, Cocktail Bars, Restaurants"
"565",177704,"Pastries N Chaat","Phoenix","AZ","85032",33.6417906,-111.9945872,"1","Indian, Food, Bakeries, Restaurants, Ethnic Food, Specialty Food"
"566",176784,"Hakka No 1 Restaurant","Scarborough","ON","M1K 2B5",43.7271088,-79.2665972,"1","Chinese, Indian, Restaurants, Hakka, Thai"
"567",124213,"India Garden","Avondale","AZ","85392",33.468306,-112.340335,"1","Buffets, Indian, Restaurants"
"568",186635,"Bombay's Chutney","Richmond Hill","ON","L4S 1P3",43.8769218534,-79.4150503958,"1","Indian, Restaurants"
"569",85861,"Tang Lin","Gastonia","NC","28052",35.2397827,-81.1946503,"0","Indian, Restaurants, Asian Fusion, Chinese"
"570",115589,"Delhi Kabab","Brossard","QC","J4Z 1A6",45.4745253366,-73.4658628268,"1","Restaurants, Indian"
"571",181687,"Indian Paradise","Chandler","AZ","85224",33.3350308,-111.877431,"0","Restaurants, Indian"
"572",166967,"Kitchen King West Indian Restaurant & Catering","Scarborough","ON","M1H 3G3",43.7809998,-79.2358636,"1","Soul Food, Caribbean, Event Planning & Services, Restaurants, Caterers, Indian"
"573",108916,"Dum Pukht","Markham","ON","L3R 1B7",43.8219667212,-79.3491505086,"1","Indian, Restaurants"
"574",138639,"Hopper Hut","Scarborough","ON","M1P 2W6",43.7660006,-79.2820232,"1","Salad, Indian, Pakistani, Restaurants, Sri Lankan"
"575",124551,"Indian Grill","Toronto","ON","M6J 2Z4",43.6465679,-79.4199105,"1","Restaurants, Food, Indian"
"576",142693,"New India Gate","Chandler","AZ","85226",33.31923,-111.925813,"1","Restaurants, Buffets, Bars, Vegan, Halal, Nightlife, Beer Bar, Indian"
"577",23157,"Truly India","Toronto","ON","M4B 2T1",43.708466,-79.310248,"1","Vegetarian, Restaurants, Indian"
"578",87028,"A 1 Sweets Restaurant","Scarborough","ON","M1V 5J6",43.8206785,-79.2618972,"1","Desserts, Restaurants, Indian, Food, Vegetarian"
"579",42764,"Jodhpore Club Indian Restaurant","Toronto","ON","M5T 1L1",43.6559229,-79.393421,"0","Middle Eastern, Indian, Pakistani, Restaurants"
"580",70938,"Twisted Curry","Phoenix","AZ","85054",33.6581015288,-111.9328180707,"1","Indian, Fast Food, Restaurants"
"581",157798,"309 Dhaba Indian Excellence","Toronto","ON","M5V 1J5",43.6462487,-79.3904529,"1","Indian, Restaurants, Venues & Event Spaces, Event Planning & Services, Pakistani, Food, Food Delivery Services"
"582",117530,"Tadka Sizzles","Phoenix","AZ","85032",33.6417888,-111.9947311,"0","Fast Food, Event Planning & Services, Indian, Restaurants, Party & Event Planning"
"583",46360,"Bombay Spice Grill","Phoenix","AZ","85032",33.5984581,-111.9794097,"0","Restaurants, Indian"
"584",9048,"Inchin Bamboo Garden","Paradise Valley","AZ","85253",33.5779039806,-111.9277206144,"1","Szechuan, Asian Fusion, Restaurants, Chinese, Indian"
"585",10232,"Kesar Sweet & Restaurant","Brampton","ON","L6R 1W4",43.7602735194,-79.7282296465,"1","Restaurants, Bakeries, Food, Indian"
"586",69260,"Swades Indian Cuisine","Toronto","ON","M5J 2Y5",43.6399547,-79.382025,"1","Restaurants, Indian"
"587",2416,"Matka Indian Cuisine","Chandler","AZ","85224",33.3350307,-111.877439,"0","Indian, Restaurants, Buffets"
"588",168108,"Green Chili","Calgary","AB","T2T",51.0380188,-114.0958838,"1","Indian, Restaurants"
"589",87921,"Naan Bros","Mississauga","ON","L5M 2G6",43.5832516,-79.72934,"1","Pakistani, Restaurants, Indian, Halal, Middle Eastern"
"590",17951,"Food Time","Pickering","ON","L1V 5R2",43.8473019,-79.0758908,"1","Pakistani, Indian, Restaurants"
"591",29959,"India Palace Cuisine","Pittsburgh","PA","15222",40.443060334,-80.0022347105,"1","Restaurants, Indian"
"592",56136,"Curry Corner","Tempe","AZ","85281",33.4153043,-111.9199712,"1","Pakistani, Halal, Restaurants, Indian"
"593",56608,"Palm Palace","Brampton","ON","L6W 3E7",43.6895996,-79.7384316,"1","Caribbean, Food, Indian, Chinese, Restaurants"
"594",81591,"Mayura","Brampton","ON","L6W 4K7",43.6595068,-79.7223165,"0","Restaurants, Indian"
"595",155462,"Bombay Tandoori","Montréal","QC","H3K 1J8",45.478845,-73.568458,"1","Indian, Restaurants"
"596",44586,"Touch","Toronto","ON","M5C 1J4",43.6505593,-79.3776407,"1","Indian, Restaurants"
"597",76602,"Kohinoor Kabob House","Richmond Hill","ON","L4C 3E3",43.8904304,-79.4403617,"1","Restaurants, Pakistani, Afghan, Indian"
"598",71010,"Lingam Cream House","Toronto","ON","M1V 5P6",43.8357500424,-79.2503499985,"1","Restaurants, Ice Cream & Frozen Yogurt, Indian, Desserts, Food"
"599",46633,"Sai India Curry","Las Vegas","NV","89119",36.0987077,-115.136795,"0","Restaurants, Fast Food, Pakistani, Buffets, Indian"
"600",187365,"Passage To India","Tempe","AZ","85284",33.348671,-111.9277127,"1","Indian, Food, Buffets, Restaurants"
"601",109013,"Royal Kabab Hut","Charlotte","NC","28227",35.2001351,-80.7256529,"0","Vegetarian, Restaurants, Indian, Pakistani"
"602",116432,"Mystik Takeout & Catering","Scarborough","ON","M1T 3K8",43.7807494,-79.2994501,"0","Indian, Restaurants"
"603",90497,"Basha - Drummond","Montréal","QC","H3B 1K1",45.4986777,-73.5740546,"1","Restaurants, Fast Food, Middle Eastern, Lebanese, Indian"
"604",184108,"Poonam Delite","Toronto","ON","M4C 1L4",43.6888991,-79.2995013,"1","Restaurants, Food, Indian"
"605",87500,"Al's Pizza","Charlotte","NC","28209",35.1716158285,-80.8487534523,"0","Pizza, Indian, Italian, Restaurants"
"606",175541,"Pudina","Charlotte","NC","28217",35.1834691,-80.9035767,"1","Restaurants, Salad, Pizza, Indian"
"607",119271,"India Oven","Mesa","AZ","85204",33.391635,-111.787783,"1","Restaurants, Buffets, Indian"
"608",13663,"Lahore Tikka House","Toronto","ON","M4L 1Z3",43.6714591,-79.3246451,"1","Indian, Halal, Barbeque, Pakistani, Restaurants"
"609",117531,"Sizzler Kabab","Toronto","ON","M5T 2G6",43.6562259585,-79.3992109224,"1","Halal, Restaurants, Indian, Pakistani"
"610",52316,"India Garden","Monroeville","PA","15146",40.4377341,-79.7828414,"1","Restaurants, Indian, Pakistani"
"611",141278,"The Maharaja","Mississauga","ON","L5R 1Y3",43.5985631,-79.6606921,"1","Lounges, Indian, Nightlife, Caterers, Restaurants, Event Planning & Services, Bars, Beer, Wine & Spirits, Pakistani, Food, Diners, Halal, Cocktail Bars, Wine Bars"
"612",10640,"Soma Grill","Matthews","NC","28105",35.126389,-80.708036,"0","Indian, Restaurants, Food"
"613",154059,"India Masala","Las Vegas","NV","89109",36.127575,-115.169262,"1","Restaurants, Fast Food, Indian, Pakistani"
"614",187799,"Madras Palace","Scarborough","ON","M1P 2X8",43.7689233,-79.2666135,"0","Middle Eastern, Restaurants, Indian, Pakistani"
"615",75682,"Kailash Parbat","Toronto","ON","L5T 1B6",43.668634,-79.680563,"1","Restaurants, Indian"
"616",69832,"Bombay Palace","Toronto","ON","M5C 2H2",43.6511338416,-79.3720099007,"1","Pakistani, Middle Eastern, Restaurants, Buffets, Event Planning & Services, Party & Event Planning, Indian, Caterers"
"617",49424,"Tazah Taste","Mississauga","ON","L5A 2G9",43.5813651,-79.6172841,"1","Indian, Restaurants"
"618",165047,"Tandoori Flavour","Toronto","ON","M5S 2G8",43.6582095,-79.3996927,"1","Indian, Pakistani, Restaurants, Middle Eastern"
"619",52192,"Kabab Masala","Fairlawn","OH","44333",41.133684083,-81.6178286076,"0","Mediterranean, Restaurants, Indian"
"620",92373,"Tandoori Hut","Calgary","AB","T2N 1V5",51.0532669,-114.0861096,"0","Indian, Pakistani, Middle Eastern, Restaurants"
"621",129268,"Thakker Ni Thali Gujarati Food In Las Vegas","Las Vegas","NV","89149",36.2684007,-115.2956118,"1","Food Delivery Services, Food, Indian, Restaurants"
"622",142020,"Indian Curry House","Las Vegas","NV","89146",36.1256933,-115.2112778,"0","Indian, Pakistani, Halal, Himalayan/Nepalese, Vegetarian, Vegan, Restaurants"
"623",90914,"Chola's","Concord","NC","28027",35.363335,-80.711935,"0","Desserts, Restaurants, Food, Indian"
"624",138063,"Mezbaan Indian Cuisine","Pittsburgh","PA","15222",40.4376498,-80.0005841,"1","Restaurants, Indian"
"625",50045,"Daal Roti","Mississauga","ON","L5N 8J4",43.61111,-79.749405,"1","Indian, Restaurants"
"626",80711,"Chandelier Meditaranean Restaurant","Henderson","NV","89052",36.0053075,-115.1177757,"0","Nightlife, Lounges, Pakistani, Restaurants, Indian, Mediterranean, Greek, Bars, Middle Eastern"
"627",31866,"Bombay Palace","Brampton","ON","L6T 4V4",43.6912646,-79.6952513,"1","Buffets, Restaurants, Indian"
"628",19156,"Wangs Kitchen","Mississauga","ON","L4Z 3L9",43.6077945,-79.6499474,"1","Asian Fusion, Restaurants, Indian, Chinese"
"629",10835,"Debu's Nouvelle Indian Cuisine","Toronto","ON","M4S 2M6",43.7028289,-79.3880698,"0","Restaurants, Indian"
"630",91275,"Rajin's West Indian Take Out","Scarborough","ON","M1B 2G5",43.8147082,-79.2351342,"1","Indian, Pakistani, Middle Eastern, Restaurants"
"631",101756,"Tandoori Mahal","Montréal","QC","H2S 1J1",45.5426035,-73.6071175,"1","Indian, Restaurants, Italian"
"632",105082,"Kabob n Kurry Restaurant","Gilbert","AZ","85233",33.3362723,-111.8219235,"0","Restaurants, Buffets, Indian, Pakistani"
"633",77473,"Skylark Restaurant","Calgary","AB","T2A 0W2",51.037354,-113.9567202,"1","Indian, Caterers, Event Planning & Services, Middle Eastern, Pakistani, Restaurants"
"634",63002,"Eat At Will","Calgary","AB","T2A 6X1",51.0472569,-113.9900006,"1","Caterers, Restaurants, Event Planning & Services, Indian"
"635",88950,"Bombay Bhel","North York","ON","M2N 5P1",43.7661187,-79.412012,"0","Restaurants, Indian"
"636",116727,"Eastern Twist","Toronto","ON","M6C 1A1",43.6829397,-79.418491,"1","Indian, Pakistani, Restaurants"
"637",14551,"Nawab Indian Cuisine","Mississauga","ON","L5M 1L2",43.5818544,-79.7144975,"0","Indian, Restaurants, Venues & Event Spaces, Event Planning & Services"
"638",47266,"Tiffany's Restaurant","Vaughan","ON","L4K 1W5",43.8027928274,-79.4902310148,"0","Restaurants, Thai, Indian, Chinese"
"639",139270,"Everest Ethnic Restaurant","Pittsburgh","PA","15227",40.367849,-79.984075,"0","Indian, Himalayan/Nepalese, Restaurants, Noodles"
"640",77335,"Restaurant Shezan","Montréal","QC","H2X 3K8",45.5165066,-73.5660817,"1","Middle Eastern, Restaurants, Indian, Pakistani"
"641",169830,"Cuisine of India","North York","ON","M2N 5P6",43.7712763,-79.4139128,"0","Event Planning & Services, Middle Eastern, Pakistani, Restaurants, Caterers, Indian"
"642",177490,"Anjappar Chettinad Restaurants","Brampton","ON","L6W 3T7",43.667904,-79.7345417,"1","Restaurants, Indian, Buffets"
"643",169393,"Maurya East Indian Roti","Etobicoke","ON","M8V 1C5",43.6133237,-79.489239,"1","Restaurants, Indian"
"644",128143,"Jaipur Indian Restaurant","Charlotte","NC","28217",35.155407,-80.875309,"1","Restaurants, Pakistani, Indian"
"645",9931,"Banjara Indian Cuisine","Toronto","ON","M6G 1L7",43.6631596,-79.4219229,"1","Restaurants, Indian, Pakistani, Middle Eastern"
"646",126737,"Saffron Tree Fine Indian Cuisine","Toronto","ON","M5G 1Z6",43.6563289,-79.380885,"0","Pakistani, Indian, Restaurants, Middle Eastern"
"647",41871,"Mirch Masala","Calgary","AB","T1Y 2K1",51.0709531,-113.9433342,"0","Restaurants, Indian"
"648",113771,"Kabob Korner","Las Vegas","NV","89101",36.168876,-115.1403955,"0","Halal, Mediterranean, Greek, Restaurants, Indian, Pakistani"
"649",64833,"Thali","Montréal","QC","H2X 1H5",45.5131123,-73.5663086,"0","Indian, Restaurants"
"650",106542,"Red Chillez","Charlotte","NC","28277",35.0562588,-80.8540821,"1","Indian, Restaurants"
"651",149436,"Mainsha Restaurant","York","ON","M6E 2G9",43.6972637,-79.4420615,"1","Caribbean, Indian, Restaurants"
"652",94902,"Gautama","Toronto","ON","M4L 1Z6",43.6723771,-79.3228637,"1","Restaurants, Indian"
"653",133100,"Masala","Las Vegas","NV","89109",36.1320924,-115.1644134,"1","Fast Food, Pakistani, Indian, Restaurants"
"654",134761,"The Great Maratha","Toronto","ON","M6C 2C4",43.7000376,-79.4292572,"1","Chinese, Desserts, Food, Restaurants, Indian"
"655",50362,"A1 Sweets & Restaurant","Oakville","ON","L6H 6N9",43.483749,-79.713028,"1","Desserts, Caterers, Event Planning & Services, Food, Restaurants, Indian, Vegetarian"
"656",142254,"Village of India","Brampton","ON","L6W 3E7",43.6870865,-79.7367014,"1","Vegetarian, Restaurants, Indian"
"657",78223,"Silver Spoon","Brampton","ON","L6W 2B8",43.6995577,-79.7450717,"1","Restaurants, Indian"
"658",157670,"Sangam Indian Cuisine","Cornelius","NC","28031",35.4878317,-80.874741,"1","Food, Seafood, Specialty Food, Restaurants, Pakistani, Indian, Ethnic Food, Halal"
"659",109051,"Karma's Kitchen","Toronto","ON","M4L 1Z5",43.6718417,-79.3230939,"1","Himalayan/Nepalese, Indian, Restaurants"
"660",161481,"Zyggyz","Champaign","IL","61820",40.110554,-88.232373,"0","Restaurants, Indian"
"661",133267,"Student Biryani","Mississauga","ON","L5V 3A4",43.5907646634,-79.6792731516,"1","Restaurants, Pakistani, Indian"
"662",142711,"Restaurant Gaj","Vaudreuil-Dorion","QC","J7V 8P5",45.413567,-74.0418983,"1","Restaurants, Indian"
"663",75408,"Restaurant Makkah","Montréal","QC","H2R 1T3",45.5376102,-73.6147675,"1","Restaurants, Afghan, Halal, Indian"
"664",105094,"Maharani Restaurant","Madison","WI","53703",43.0717428,-89.3889447,"1","Restaurants, Pakistani, Indian"
"665",166745,"Pasand","Tempe","AZ","85283",33.3773276,-111.9086062,"0","Buffets, Indian, Restaurants, Pakistani"
"666",28292,"India Darbar","Madison","WI","53774",43.0529395,-89.4861846,"0","Indian, Restaurants, Pakistani"
"667",88099,"Spice It Up","Scottsdale","AZ","85255",33.6785862174,-111.8323239545,"1","Food Trucks, Food, Restaurants, Food Stands, Street Vendors, Indian"
"668",18654,"New China Garden","Brampton","ON","L6W 4L2",43.6590881,-79.721787,"1","Chinese, Indian, Food, Restaurants"
"669",28131,"My Roti Place","Toronto","ON","M5V 3H5",43.6418651,-79.4112192,"1","Restaurants, Indian"
"670",33178,"King Tandoori","Brampton","ON","L6W 3G3",43.6861584237,-79.737806459,"1","Restaurants, Indian"
"671",41516,"The Host","Toronto","ON","M5R 1A9",43.6700458,-79.3958276,"1","Event Planning & Services, Pakistani, Restaurants, Caterers, Indian, Middle Eastern"
"672",55963,"Fritou Chicken","Calgary","AB","T2W 3P5",50.936799,-114.080121,"1","Donairs, Halal, Restaurants, Pakistani, American (Traditional), Chicken Shop, Food, Indian, Fast Food"
"673",173934,"Tandoori Flame","Mississauga","ON","L5R 3T7",43.6117589433,-79.694459103,"1","Indian, Restaurants"
"674",189169,"Roti Palace","North York","ON","M3N 2V2",43.7571756,-79.514247,"1","Indian, Restaurants"
"675",79809,"Spicy Dragon","Pickering","ON","L1V 6P7",43.838487,-79.088718,"1","Indian, Restaurants, Chinese, American (New)"
"676",21062,"Tamarind East Indian Restaurant","Calgary","AB","T3K 0G6",51.1668185878,-114.0908995358,"1","Indian, Restaurants"
"677",40619,"Saffron Mantra","Calgary","AB","T2K 0V2",51.1079572,-114.0627098,"0","French, Indian, Restaurants"
"678",164744,"Crown of India","Strongsville","OH","44136",41.3114006,-81.8361247,"1","Buffets, Restaurants, Seafood, Soup, Indian"
"679",78010,"Signature Indian Cuisine","Whitby","ON","L1N 2K4",43.8839022095,-78.9233587147,"1","Indian, Restaurants, Specialty Food, Food, Halal, Ethnic Food"
"680",34636,"Restaurant Ganges","Montréal","QC","H4A 1Y2",45.467936,-73.621392,"1","Restaurants, Indian"
"681",143119,"Dosa Palace","Mississauga","ON","L5A 1V9",43.58125,-79.616055,"0","Indian, Restaurants"
"682",122569,"Red Onion Biryani & Kabob House","Ajax","ON","L1S 0C9",43.868462,-79.039013,"1","Restaurants, Pakistani, Indian"
"683",123622,"Bombay Choupati","Pierrefonds","QC","H8Y 3E3",45.5083916318,-73.8202876634,"1","Restaurants, Indian"
"684",106652,"Roti Roll Caribbean Cuisine","Toronto","ON","M5B",43.6582489,-79.3812866,"1","Restaurants, Indian, Caribbean"
"685",94674,"Tandoori Flames","Calgary","AB","T3B 0N1",51.071895,-114.1631689,"0","Food, Specialty Food, Restaurants, Indian, Ethnic Food"
"686",36888,"Kitchen 28","Plum","PA","15239",40.4625581,-79.7066262,"0","Vegetarian, Soul Food, Restaurants, Indian"
"687",61921,"Casablanca Kabab House","Champaign","IL","61820",40.1102799,-88.2298014,"0","Restaurants, Vegetarian, Middle Eastern, Food, Ethnic Food, Indian, Moroccan, Specialty Food"
"688",179006,"Curry Mahal","Montréal","QC","H2W 1X6",45.5155666,-73.5765115,"1","Restaurants, Indian"
"689",184912,"The Tasty Touch","Phoenix","AZ","85032",33.6382915146,-111.9811101912,"1","Vegetarian, Restaurants, Gluten-Free, Indian"
"690",187634,"Green Chili","Calgary","AB","T2X 0R2",50.8757992,-114.036755,"1","Food, Indian, Restaurants, Himalayan/Nepalese"
"691",75615,"Al Hamra","Scottsdale","AZ","85255",33.6997534,-111.8884849,"1","Halal, Pakistani, Restaurants, Indian"
"692",68785,"Bhoj Indian Cuisine","Toronto","ON","M5R 1H2",43.6727919,-79.3890967,"1","Caterers, Indian, Event Planning & Services, Restaurants, Food Delivery Services, Food"
"693",99392,"Hot Million Indian Cuisine","Calgary","AB","T1Y 5S3",51.0720653,-113.9828214,"1","Beer, Wine & Spirits, Food, Indian, Restaurants, Buffets"
"694",117295,"Udupi Madras Cafe","Mississauga","ON","L5B 3Y7",43.5911498,-79.6356066,"1","Restaurants, Indian"
"695",112912,"Ruchi Vegetarian South Indian Cuisine","Chandler","AZ","85224",33.334688,-111.877793,"1","Restaurants, Vegetarian, Indian, Vegan"
"696",106225,"Aahara Foods","Markham","ON","L3S 0B6",43.8493570793,-79.2528812397,"0","Vegetarian, Indian, Halal, Mediterranean, Restaurants"
"697",146361,"Chat Hut","Mississauga","ON","L4T 2G8",43.7056786,-79.6455479,"1","Indian, Restaurants"
"698",173459,"Star of India","Pittsburgh","PA","15213",40.4448167,-79.9489713,"0","Indian, Pakistani, Restaurants"
"699",122992,"Safa Tikka & Kebab House","Toronto","ON","M1V 4C3",43.8214476,-79.2468456,"0","Pakistani, Restaurants, Indian"
"700",54417,"Nawab Fusion Grill","Toronto","ON","M2N",43.7661188,-79.4120121,"0","Restaurants, Indian, Gastropubs"
"701",101404,"Madinah Grill","Toronto","ON","M1P 4Y4",43.7524465,-79.2622936,"1","Indian, Halal, Restaurants"
"702",102754,"Alnoor Kebob & Sweets Restaurant","Ajax","ON","L1S 2H6",43.8508961338,-79.0219862769,"1","African, Pakistani, Restaurants, Indian"
"703",17055,"Kohinoor Indo-Pak Cuisine","Monroeville","PA","15146",40.4393243374,-79.7647570159,"0","Halal, Indian, Pakistani, Restaurants"
"704",173237,"Africana Bbq Curries Drinks","Calgary","AB","T2E 6T1",51.0882152,-114.0523647,"1","Indian, Restaurants, African, Vegetarian, Pakistani"
"705",188925,"Shalimar Restaurant","Las Vegas","NV","89103",36.117707,-115.209897,"1","Restaurants, Indian, Pakistani, Food, Vegetarian"
"706",27556,"Pizza2Go","Brampton","ON","L7A 3E5",43.7102481,-79.8158697,"1","Restaurants, Indian, Pizza, Pakistani, Fast Food"
"707",23595,"Lotus Fine Indian Cuisine","Calgary","AB","T2L 2B3",51.0873249374,-114.1097423854,"1","Restaurants, Indian"
"708",88074,"Nepali Asian Restaurant","Pittsburgh","PA","15210",40.392438,-79.987222,"1","Himalayan/Nepalese, Restaurants, Indian"
"709",99008,"Saffron Patch in the Valley","Akron","OH","44313",41.1360863,-81.5533299,"1","Vegetarian, Halal, Indian, Restaurants"
"710",155341,"The Bombay Grill","Markham","ON","L3P 1B4",43.87212,-79.268287,"1","Indian, Food, Restaurants"
"711",48555,"Indian Tandoori House","Toronto","ON","M2N 5N2",43.7629282,-79.4115105,"0","Indian, Restaurants"
"712",33287,"Peacock Indian Cuisine","Charlotte","NC","28277",35.03901,-80.7936564,"0","Pakistani, Restaurants, Indian"
"713",31057,"Gandhi Cuisine","Toronto","ON","M5V 1V2",43.6475091,-79.4030906,"1","Pakistani, Indian, Restaurants"
"714",75342,"Glory of India","Calgary","AB","T1Y 5S4",51.0721116,-113.9827264,"0","Indian, Buffets, Restaurants"
"715",126249,"Marathi","Mississauga","ON","L5P 1B2",43.6777176,-79.6248197,"1","Indian, Restaurants"
"716",142390,"Indies","Cleveland","OH","44114",41.4997444996,-81.6898298052,"1","Pakistani, Indian, Restaurants"
"717",131004,"Madras Restaurant","Brampton","ON","L6R 3J5",43.7495928,-79.7392707,"1","Indian, Restaurants"
"718",23450,"Royal Paan","Mississauga","ON","L4T 2H1",43.7061742,-79.646225,"1","Food, Restaurants, Indian, Fast Food, Specialty Food"
"719",150914,"Canton Chilli Restaurant","Toronto","ON","M5T 1N8",43.6562928,-79.3997793,"1","Indian, Chinese, Restaurants"
"720",137,"Pushap","Montréal","QC","H4P 1P4",45.4975343,-73.6538838,"1","Indian, Restaurants, Vegetarian"
"721",88688,"Cafe Krishna","Chandler","AZ","85226",33.304861,-111.927065,"0","Vegetarian, Restaurants, Indian, Desserts, Food"
"722",139898,"Safari Grill","Calgary","AB","T2A 5K4",51.049975,-113.993003,"1","American (Traditional), Indian, Restaurants, African"
"723",28224,"Debu's Biryani House","Toronto","ON","M5V 1K1",43.6458616,-79.3925945,"0","Restaurants, Buffets, Indian"
"724",183567,"The Spice Village","Toronto","ON","M4Y 3B2",43.6650383,-79.3832001,"0","Restaurants, Indian"
"725",135932,"Persis Biryani Indian Grill","Charlotte","NC","28202",35.2334513,-80.848997,"0","Buffets, Bars, Indian, Nightlife, Restaurants"
"726",152881,"Bajra Indian & Hakka Chinese Cuisine","Toronto","ON","M9M 2Y9",43.7523676,-79.5368973,"1","Restaurants, Indian, Chinese"
"727",14381,"Al-Karam Sweets","Scarborough","ON","M1X 1L6",43.8285786,-79.2491479,"1","Local Flavor, Desserts, Restaurants, Food, Pakistani, Indian"
"728",174659,"Livraison Bombay Mahal Express","Montréal","QC","H2X 2V5",45.5146320966,-73.5740839317,"1","Restaurants, Indian"
"729",106599,"Drupati's Doubles & Roti Shop","Etobicoke","ON","M9V 1A6",43.7361133,-79.5636279,"0","Caribbean, Restaurants, Indian, Food, Grocery"
"730",79959,"The Blue Taj","Charlotte","NC","28277",35.0535664,-80.851867,"1","Indian, Asian Fusion, Restaurants, Breakfast & Brunch, Seafood"
"731",50626,"Delicious Shawarma and Falafel","Toronto","ON","M1W 3G5",43.7993396,-79.3066353,"1","Falafel, Halal, Middle Eastern, Lebanese, Salad, Mediterranean, Indian, Restaurants"
"732",25205,"Pizza Buddha","Henderson","NV","89052",36.0070475466,-115.0966041816,"0","Pizza, Restaurants, Comfort Food, Indian"
"733",301,"The Copper Chimney","Toronto","ON","M5M 4A6",43.7362589,-79.4203952,"1","Restaurants, Indian"
"734",131386,"Darbar","Montréal","QC","H2X 1G3",45.5117008,-73.5673345,"1","Restaurants, Middle Eastern, Indian"
"735",43258,"Flavors of India","North Olmsted","OH","44070",41.419077,-81.920427,"0","Restaurants, Indian, Himalayan/Nepalese, Buffets"
"736",176396,"Araliya Take-out & Catering","Toronto","ON","M1S 5E8",43.8122294,-79.2495952,"0","Caterers, Sri Lankan, Indian, Restaurants, Event Planning & Services"
"737",4719,"Rajbhog Indian Food Market & Cafe","Charlotte","NC","28262",35.3286761286,-80.7389116287,"1","Food, Indian, Imported Food, Specialty Food, Restaurants, Ethnic Food"
"738",109474,"Soaltee Restaurants","Mississauga","ON","L5M 1A1",43.6377303,-79.7281454,"0","Chinese, Restaurants, Indian, Food, Fast Food, Specialty Food, Ethnic Food"
"739",94214,"Gateway of India","Toronto","ON","M5T 1L1",43.6560543,-79.3929696,"0","Restaurants, Pakistani, Middle Eastern, Indian"
"740",70552,"Taste of India","Phoenix","AZ","85022",33.6398283,-112.0472243,"0","Restaurants, Indian, Pakistani"
"741",61450,"Billu's Indian Grill","Pittsburgh","PA","15216",40.4192308,-80.0303476,"0","Indian, Restaurants"
"742",105346,"Indian Express","Phoenix","AZ","85027",33.6555731287,-112.1343329515,"0","Indian, Restaurants"
"743",9800,"Five Rivers Indian Cuisine","Calgary","AB","T3J",51.0995970748,-113.9589991718,"1","Buffets, Restaurants, Indian"
"744",145927,"Godavari","Phoenix","AZ","85023",33.6107116,-112.1006458,"1","Pakistani, Bars, Indian, Halal, Restaurants, Nightlife"
"745",43653,"Exotic Indian Cuisine","Etobicoke","ON","M9W 6J9",43.7462518,-79.6155679,"1","Pakistani, Restaurants, Middle Eastern, Indian"
"746",182015,"Student Pizza & Curry","North York","ON","M3J 1K7",43.7637498024,-79.4981665992,"0","Restaurants, Indian, Pizza"
"747",119505,"Dosa Rama","Scarborough","ON","M1X 0B7",43.8243767,-79.2474937,"1","Indian, Vegetarian, Pakistani, Restaurants"
"748",155704,"Pastries N Chaat","Phoenix","AZ","85053",33.6382898,-112.1356862,"1","Pakistani, Indian, Halal, Food, Bakeries, Restaurants"
"749",32372,"Standard Sweets & Restaurant","Brampton","ON","L6W 4K7",43.6590881,-79.721787,"1","Food, Desserts, Indian, Caterers, Restaurants, Event Planning & Services"
"750",132670,"Indian Street Food Company","Toronto","ON","M4G 3C1",43.708002,-79.375814,"1","Indian, Bars, Nightlife, Wine Bars, Restaurants"
"751",184063,"Pyaar India Restaurant","Las Vegas","NV","89117",36.1445054,-115.2991358,"0","Restaurants, Indian"
"752",92347,"Chennai Express","Montréal","QC","H3B 1B2",45.504585,-73.568611,"1","Indian, Restaurants"
"753",41556,"Maroli Indian Restaurant","Toronto","ON","M6G 1K7",43.6646432,-79.4145453,"1","Restaurants, Diners, Indian, Halal, Middle Eastern, Pakistani, Food Delivery Services, Event Planning & Services, Caterers, Food"
"754",128923,"JPs Indian Bistro","Calgary","AB","T3P 0M9",51.1748692635,-114.1099410542,"1","Indian, Restaurants"
"755",182210,"Spice 7","Calgary","AB","T3G 5T5",51.1391842,-114.233515,"0","Pakistani, Halal, Restaurants, Indian"
"756",24184,"Kabana","Mississauga","ON","L5M",43.5433491,-79.7239522,"1","Indian, Pakistani, Restaurants"
"757",126229,"Dindigul Thalappakattu Biriyani","Toronto","ON","M1T 3T6",43.8006155,-79.30056,"1","Pakistani, Restaurants, Indian"
"758",28082,"Buffet Maharaja","Montréal","QC","H3G 1T8",45.4944659,-73.5747893,"0","Buffets, Restaurants, Middle Eastern, Indian, Pakistani"
"759",137643,"Curry Kitchen By the Grange","Toronto","ON","M5T 2W7",43.6537184,-79.3909035,"0","Food Delivery Services, Indian, Restaurants, Afghan, Food"
"760",81932,"Bengali Sweets & Restaurant","Toronto","ON","M9V 2X6",43.7381565603,-79.5652479742,"1","Restaurants, Indian"
"761",160445,"The Indian Kitchen","Toronto","ON","M5R",43.6661139,-79.4072292,"0","Restaurants, Indian"
"762",120828,"Dostana Indian Cuisine","Calgary","AB","T3G 0E2",51.1508119,-114.2100611,"0","Fast Food, Restaurants, Indian"
"763",71444,"Taj Palace","Las Vegas","NV","89123",36.015472516,-115.1171127611,"1","Specialty Food, Restaurants, Indian, Food, Beer, Wine & Spirits, Ethnic Food, Buffets, Halal"
"764",44148,"Chennai Express","Tempe","AZ","85281",33.4212886,-111.9246995,"1","Indian, Restaurants, Vegetarian"
"765",119916,"Armaan Taste of India","Las Vegas","NV","89183",36.0101659,-115.1351604,"1","Pizza, Pakistani, Indian, Restaurants, Asian Fusion, Soul Food"
"766",87477,"People's Indian Restaurant","Pittsburgh","PA","15224",40.4649397,-79.941217,"1","Restaurants, Indian"
"767",115023,"SLS Eazy Carry","Mississauga","ON","L5M 2G6",43.5832516317,-79.7294022515,"1","Indian, Sri Lankan, Restaurants"
"768",17779,"Brar's-Trinity Common","Brampton","ON","L6R 2K7",43.7299559,-79.7653087,"1","Event Planning & Services, Restaurants, Fast Food, Buffets, Vegetarian, Caterers, Indian"
"769",48052,"Haweli Indian Grill & Bar","Scottsdale","AZ","85254",33.5825378,-111.9290887,"0","Buffets, Restaurants, Indian"
"770",49052,"Taste Of Punjab","Brampton","ON","L6T",43.6927553,-79.6970993,"1","Restaurants, Indian"
"771",38757,"Indian Paradise","Phoenix","AZ","85023",33.640558,-112.093723,"0","Indian, Restaurants"
"772",170572,"Kabob Express","Vaughan","ON","L6A",43.8285899915,-79.5410596423,"1","Restaurants, Halal, Indian, Afghan"
"773",159007,"Tandoori Grill","Calgary","AB","T3C 1C2",51.0432634,-114.0948274,"1","Specialty Food, Restaurants, Ethnic Food, Indian, Food"
"774",168158,"Raj Palace Restaurant","Calgary","AB","T2P 0T9",51.0478816,-114.0779007,"0","Restaurants, Indian, Pakistani, Buffets, Middle Eastern"
"775",137810,"India Palace","Phoenix","AZ","85053",33.638853,-112.123114,"1","Restaurants, Indian, Pakistani, Buffets, Vegetarian"
"776",179830,"Hakka Town","Brampton","ON","L6P 0W4",43.7972478,-79.6666424,"0","Indian, Restaurants, Food, Chinese"
"777",12118,"Duke Dragon","Mississauga","ON","L4X 1M1",43.6196105874,-79.5734913074,"0","Specialty Food, Indian, Chinese, Asian Fusion, Restaurants, Food, Ethnic Food, Thai"
"778",56878,"Yuga East Indian Take Out & Sweet House","Calgary","AB","T2P 1B3",51.0459269,-114.0763241,"0","Ethnic Food, Food, Specialty Food, Restaurants, Imported Food, Indian"
"779",9248,"Bombay Bakers","Brampton","ON","L6V 4S6",43.7182235,-79.744193,"1","Food, Indian, Bakeries, Restaurants"
"780",11057,"Anantha Bhavan Takeout & Catering","Mississauga","ON","L5R 1Y4",43.5985631,-79.6606921,"1","Indian, Restaurants"
"781",9202,"Jalsa Indian Fast Food","Brampton","ON","L6Y 3B2",43.6758476,-79.7686375,"1","Restaurants, Pizza, Indian, Fast Food"
"782",179388,"Spicy Dragon","Toronto","ON","M1P",43.7488671,-79.2754683,"1","Restaurants, Chinese, Food, Food Delivery Services, Indian"
"783",11017,"Clay Oven Restaurant","Calgary","AB","T1Y 7L5",51.0803707,-113.9973368,"1","Indian, Caterers, Middle Eastern, Restaurants, Pakistani, Event Planning & Services"
"784",61164,"Biryani Depot","Toronto","ON","M1X 0A6",43.8363519,-79.2504694,"0","Food, Ethnic Food, Specialty Food, Restaurants, Indian"
"785",185128,"Le Mantra","Longueuil","QC","J4K 1V9",45.5203103,-73.4970113,"1","Indian, Restaurants"
"786",90318,"Pizza Jarry & Restaurant","Montréal","QC","H3N 1G6",45.5301055,-73.6361651,"1","Indian, Pizza, Portuguese, Restaurants, Greek"
"787",124017,"Punjabi Sweet House & Restaurant","Calgary","AB","T3J 0C9",51.1245408,-113.947871,"1","Restaurants, Indian"
"788",51217,"The Samosa Shop","Ajax","ON","L1S 3K3",43.8412025,-79.0266058,"1","Restaurants, Indian, Food"
"789",63314,"Woodlands Vegetarian South Indian Kitchen","Chandler","AZ","85226",33.3216596996,-111.9277120136,"1","Indian, Vegetarian, Pakistani, Restaurants"
"790",40514,"Tandoori Host","Vaughan","ON","L6A 0A4",43.8453167889,-79.5354198142,"1","Pakistani, Restaurants, Indian"
"791",57664,"Sana","Montréal","QC","H3N 1G3",45.5309914,-73.6359432,"1","Bangladeshi, Pakistani, Indian, Asian Fusion, Restaurants"
"792",130585,"Namaste Cuisine","Kent","OH","44240",41.1396841,-81.3592442,"1","Indian, Buffets, Himalayan/Nepalese, Restaurants, Halal"
"793",155219,"Bombay Chopsticks","Mississauga","ON","L4Z 3K8",43.6145715,-79.662797,"0","Hakka, Indian, Asian Fusion, Restaurants, Chinese"
"794",148871,"Ali's Tandoori Curry House","Toronto","ON","M4E 1G8",43.673606,-79.2837656,"1","Middle Eastern, Pakistani, Indian, Restaurants"
"795",37236,"Shalimar Grill","Toronto","ON","M1L 3W4",43.6952493,-79.2763375,"1","Restaurants, Pakistani, Indian"
"796",63250,"Indian Delight","Cleveland","OH","44102",41.4852245,-81.7249993,"1","Indian, Restaurants"
"797",154047,"Chai Pani - Indian Street Food","Calgary","AB","T2E 7X9",51.04988,-114.0399462,"1","Indian, Restaurants"
"798",102343,"Kottu Kadai","Toronto","ON","M1X 0A6",43.8363264,-79.2504891,"1","Restaurants, Indian, Specialty Food, Food, Sri Lankan"
"799",181340,"Desi Bar & Grill","Mississauga","ON","L4W 4C3",43.6167794,-79.6174349,"1","Halal, Bars, Sports Bars, DJs, Indian, Restaurants, Chinese, Seafood, Pubs, Event Planning & Services, Canadian (New), Nightlife, Delis, Pakistani"
"800",108494,"Green Chili","Calgary","AB","T3G 3T2",51.1267873,-114.1969241,"1","Restaurants, Indian"
"801",158153,"Bombay Street Food","Toronto","ON","M5S 1Z7",43.661837693,-79.3862882182,"1","Vegetarian, Halal, Restaurants, Salad, Indian"
"802",13044,"Utsav","Toronto","ON","M5R 1B8",43.6710536,-79.3909546,"1","Restaurants, Food, Food Delivery Services, Indian"
"803",84401,"Bikaner Sweets House & Restaurant","Calgary","AB","T3J 4L4",51.1002598,-113.9632335,"1","Restaurants, Indian"
"804",121063,"Chaupaati","Pineville","NC","28134",35.0869866,-80.8717654,"1","Food, American (New), Pakistani, Event Planning & Services, Food Delivery Services, Restaurants, Caterers, Himalayan/Nepalese, Indian"
"805",57649,"Bayleaf Indian Cusine","Pittsburgh","PA","15213",40.4366975,-79.9545605,"0","Restaurants, Indian"
"806",99012,"Punjabi Chaat Palace","Toronto","ON","",43.6708992,-79.3280776,"1","Restaurants, Indian"
"807",140198,"Delhi Darbar","Calgary","AB","T2E 1J5",51.0672367831,-114.0612602234,"0","Pakistani, Restaurants, Buffets, Middle Eastern, Indian"
"808",134748,"Sahara Restaurant","Mississauga","ON","L4Z 3E8",43.6257742,-79.6777064,"0","Indian, Venues & Event Spaces, Event Planning & Services, Middle Eastern, Halal, Pakistani, Restaurants"
"809",22882,"Curry Kitchen Toronto Indian Home Cooking","Toronto","ON","M6H 3Y9",43.6586937,-79.4426326,"0","Restaurants, Halal, Indian"
"810",144866,"Canbe Foods","Scarborough","ON","M1H 2V5",43.7738866,-79.2462162,"1","Food, Indian, Grocery, Restaurants, Sri Lankan"
"811",118469,"La Maison Samosa","Montréal","QC","H2J 1X7",45.5284345091,-73.5788347808,"0","Indian, Restaurants"
"812",164515,"Desi Masala","Leeds","XWY","LS27 8EB",43.6528212,-79.3763454,"1","Indian, Pakistani, Restaurants"
"813",83169,"Krishna Sweet","Montréal","QC","H3S 1B3",45.5121607,-73.6327862,"1","Restaurants, Indian"
"814",55699,"Kathmandu Restaurant","Toronto","ON","M4W 1J5",43.671054,-79.3879436,"1","Buffets, Himalayan/Nepalese, Indian, Restaurants, Halal"
"815",165445,"Nepali Kitchen","Akron","OH","44310",41.111712,-81.5037159,"1","Indian, Restaurants, Himalayan/Nepalese"
"816",122335,"Cakes N Flakes","Charlotte","NC","28262",35.33702,-80.756294,"0","Indian, Restaurants, Bakeries, Food"
"817",127690,"Bombay To Go","Mississauga","ON","L5C 3B6",43.5641645092,-79.6359658241,"1","Indian, Restaurants"
"818",158825,"Manpasand","Toronto","ON","M1V 5H5",43.8197999,-79.2615326,"0","Restaurants, Indian"
"819",84205,"Persis Biryani Indian Grill","Charlotte","NC","28277",35.0561027527,-80.8541183472,"0","Desserts, Restaurants, Salad, Food, Indian"
"820",127267,"Dosa Pointe","Montréal","QC","H3N 1S2",45.5264045056,-73.6243830365,"1","Indian, Restaurants"
"821",7964,"Mirchi Dhaba","Toronto","ON","M1H 2Y2",43.7673886,-79.228919,"1","Restaurants, Imported Food, Specialty Food, Ethnic Food, Food, Indian, Do-It-Yourself Food"
"822",126779,"Bombay Grille","Charlotte","NC","28226",35.0890517,-80.867053,"1","Indian, Salad, Restaurants, Desserts, Seafood, Food"
"823",54014,"Mt Everest Restaurant","Toronto","ON","M5S 1X9",43.6659752,-79.4067809,"0","Restaurants, Himalayan/Nepalese, Indian"
"824",174021,"Kohinoor Cuisine of India","Tempe","AZ","85281",33.4167343,-111.9220042,"0","Restaurants, Buffets, Indian"
"825",177889,"Indian Biriyani House","Toronto","ON","M5G 1C7",43.6549815,-79.3865237,"1","Halal, Indian, Bangladeshi, Restaurants"
"826",109995,"New India Sweets & Restaurant","Mississauga","ON","L5V 1N2",43.603448,-79.7070768,"1","Pakistani, Middle Eastern, Restaurants, Indian"
"827",130399,"Spice Affair","Pittsburgh","PA","15215",40.4890868,-79.900682,"1","Restaurants, Indian"
"828",43873,"Kothur Indian Cuisine","Toronto","ON","M8V 1P7",43.6145493,-79.4888952,"1","Indian, Restaurants"
"829",81872,"India on Wheels","Pittsburgh","PA","15213",40.4444668,-79.9548644,"1","Indian, Restaurants, Food Trucks, Food Stands, Caterers, Event Planning & Services, Food"
"830",183076,"Zaaffran Kitchen","Mississauga","ON","L5M 7L9",43.5591162038,-79.7426949441,"1","Indian, Pakistani, Restaurants"
"831",107303,"Bombay Buzz","Etobicoke","ON","M9V 5H7",43.73508,-79.60193,"0","Restaurants, Indian"
"832",108959,"Quality Indian Express","Calgary","AB","T3R 0J4",51.1727778439,-114.1580245015,"0","Restaurants, Indian"
"833",103651,"Haveli Restaurant","Fitchburg","WI","53719",43.0149577177,-89.458248397,"1","Restaurants, Indian"
"834",59224,"Lotus Garden Hakka Indian Style Chinese","Toronto","ON","M1L 1E3",43.6942717578,-79.2760401964,"1","Restaurants, Chinese, Indian"
"835",7842,"Sree's Indian Truck","Pittsburgh","PA","15213",40.4417051054,-79.9416196346,"0","Restaurants, Indian, Food Stands, Food"
"836",75244,"India Bazaar Sweets","Brampton","ON","L6Z 4N7",43.7242668,-79.7872826,"1","Restaurants, Buffets, Indian"
"837",180365,"Fusion Bar And Grill","Cheswick","PA","15024",40.5412532107,-79.8187949136,"0","Indian, American (Traditional), Restaurants"
"838",28439,"Nouveau Delhi Express","Verdun","QC","H4G 1V2",45.4652684,-73.5667564,"1","Restaurants, Indian"
"839",59192,"Udipi Indian Cuisine","Charlotte","NC","28263",35.22711,-80.84351,"0","Vegetarian, Restaurants, Indian, Pakistani"
"840",24276,"North of Bombay","Toronto","ON","M6P 1Z3",43.6655769,-79.4693212,"1","Vegan, Indian, Vegetarian, Restaurants"
"841",38309,"Bar B Q Tonite","Mississauga","ON","L5B 4M4",43.5794595,-79.6175073,"1","Barbeque, Food, Restaurants, Indian, Pakistani"
"842",99536,"Les Délices de l'Île Maurice","Verdun","QC","H4G 2J6",45.4648042,-73.5674475,"1","Restaurants, Indian, Mauritius, French"
"843",152122,"The Nilgiris","Brampton","ON","L6P 2K8",43.7725018898,-79.6615832672,"1","Indian, Restaurants"
"844",25035,"Noor Makkah","Toronto","ON","M9V 1A8",43.7378353,-79.5685489,"1","Indian, Restaurants"
"845",131409,"Wicked Chili","Calgary","AB","T3P 0A3",51.1614545,-114.1254633,"0","Indian, Pakistani, Restaurants, Buffets"
"846",115924,"Babu Catering & Take Out","Scarborough","ON","M1S 4N5",43.7916879,-79.2518987,"1","Restaurants, Event Planning & Services, Indian, Caterers"
"847",62230,"Firangi","Brampton","ON","L6S 6H4",43.7426366,-79.6987486,"1","Restaurants, Gastropubs, Indian"
"848",89615,"King Tandoori","Brampton","ON","L6W 3K7",43.6861770903,-79.7378824247,"1","Vegetarian, Indian, Restaurants"
"849",134439,"Bombay Spice Grill","Phoenix","AZ","85028",33.5839404,-111.9787698,"0","Gluten-Free, Pakistani, Restaurants, Vegetarian, Indian"
"850",177083,"Ji","Toronto","ON","M6C 1B5",43.6813532,-79.4284205,"0","Bars, Gastropubs, Restaurants, Indian, Nightlife"
"851",121116,"Desi Village","Toronto","ON","M3J 3T8",43.7733453,-79.4930155,"0","Indian, Food, Restaurants"
"852",42642,"Kabab N Curry","Pittsburgh","PA","15216",40.4041523,-80.0406133,"1","Restaurants, Indian, Pakistani"
"853",31517,"King Tandoori","Mississauga","ON","L4T 2H3",43.709727714,-79.6534125879,"1","Indian, Nightlife, Restaurants, Barbeque"
"854",146631,"Dhaba Express","Brampton","ON","L6Z 2S1",43.7147061914,-79.7795759887,"1","Indian, Restaurants"
"855",11085,"Amaya Express","Toronto","ON","M4G",43.7055588,-79.375283,"1","Indian, Restaurants"
"856",166218,"Vaigai","Glendale","AZ","85308",33.6368740353,-112.183147673,"1","Restaurants, Food, Seafood, Indian, Buffets, Desserts"
"857",143599,"A Perfect Pizza","Calgary","AB","T2G 2N8",51.0376487461,-114.0589139611,"1","Pizza, Restaurants, Indian"
"858",27500,"Nawab Restaurant","Calgary","AB","T2G 0E3",51.0483216,-114.0608955,"0","Indian, Restaurants"
"859",22089,"Palais Shahi","Pierrefonds","QC","H8Y 3C6",45.5037044,-73.8164769,"1","Restaurants, Indian, Pets, Pakistani"
"860",92679,"Bukhara Grill","Toronto","ON","M6S 1N7",43.6508421,-79.477041,"1","Restaurants, Indian"
"861",124024,"Earth Indian","Toronto","ON","M2M 3W5",43.7898425,-79.4180592,"0","Indian, Restaurants, Wine Bars, Bars, Nightlife"
"862",182524,"New York Subs & Burritos","Toronto","ON","M5V 2B3",43.6477808,-79.4018524,"1","Sandwiches, Ethnic Food, Indian, Mexican, Specialty Food, Kebab, Food, Restaurants"
"863",60562,"Oh! Bombay","Mississauga","ON","L5L 2V7",43.5247563,-79.6851138,"0","Indian, Restaurants"
"864",20320,"Tasty Kabob","Tempe","AZ","85281",33.4155418,-111.9183888,"1","Vegetarian, Middle Eastern, Indian, Restaurants, Persian/Iranian"
"865",165918,"Bhai's Indian Canteen","Richmond Hill","ON","L4B 3B4",43.8470893822,-79.3782470196,"1","Restaurants, Vegan, Indian, Vegetarian"
"866",150975,"Indian Roti House","Toronto","ON","M4Y 2C5",43.6644362,-79.380259,"1","Food, Restaurants, Ethnic Food, Specialty Food, Indian"
"867",167835,"Restaurant Ambala","Montréal","QC","H2W 2M4",45.5200251,-73.5737945,"1","Pakistani, Indian, Restaurants"
"868",121847,"Pastries N Chaat","Scottsdale","AZ","85260",33.6227399,-111.8970551,"1","Bakeries, Pizza, Restaurants, Indian, Food"
"869",372,"Moti Mahal ","Calgary","AB","T2T 3T1",51.0373851524,-114.0953077077,"1","Indian, Pakistani, Middle Eastern, Restaurants"
"870",84055,"Restaurant Salateen","Montréal","QC","H3N 1S2",45.5272345834,-73.624022853,"0","Restaurants, Pakistani, Chinese, Indian"
"871",24692,"Guddu's Chilli Chicken","Brampton","ON","L7A 1N7",43.710073,-79.810767,"1","Restaurants, Indian"
"872",28123,"Pak Centre Halal Restaurant","Scarborough","ON","M1P 2S2",43.7517056,-79.2615008,"1","Halal, Indian, Pakistani, Restaurants"
"873",25758,"Airport Bukhara","Mississauga","ON","L4T 2H2",43.706867,-79.647283,"1","Restaurants, Buffets, Indian"
"874",115544,"K2 Grill and Wine","Calgary","AB","T3E 3C9",51.0129381262,-114.140121527,"0","Burgers, Asian Fusion, Italian, Restaurants, Sandwiches, American (Traditional), Indian"
"875",182420,"Raj Mahal","Cuyahoga Falls","OH","44223",41.1349485,-81.5085101,"0","Restaurants, Indian"
"876",24307,"Thinusha","Brampton","ON","L6W 3G2",43.6860989,-79.7376215,"1","Imported Food, Indian, Specialty Food, Sri Lankan, Restaurants, Food, Ethnic Food"
"877",3350,"Indian Spices","Pittsburgh","PA","15222",40.443358,-80.002168,"1","Indian, Restaurants"
"878",7157,"Indian Flame Restaurant","Cleveland","OH","44106",41.511437,-81.602844,"1","Buffets, Indian, Restaurants"
"879",168377,"Delhi Bistro","Toronto","ON","M4E 1E9",43.6725772,-79.2885159,"1","Restaurants, Indian"
"880",82473,"Veggie Planet","Mississauga","ON","L5T1Y7",43.6731807,-79.6757568,"1","Vegetarian, Pizza, Indian, Restaurants, Vegan, Burgers"
"881",112706,"Swagat Banquet Hall","Mississauga","ON","L5N 6B9",43.5980973,-79.7587148,"1","Event Planning & Services, Venues & Event Spaces, Caterers, Restaurants, Indian"
"882",126603,"Samosa Grill","Calgary","AB","T1Y 6L4",51.0770984,-113.9857008,"0","African, Indian, Restaurants"
"883",29762,"The Curry Leaf","Calgary","AB","T3J 3J8",51.0986737,-113.9621716,"1","Indian, Restaurants"
"884",166673,"Restaurant Gandhi","Montréal","QC","H2Y 1Z9",45.502148,-73.555503,"1","Indian, Restaurants"
"885",12346,"Madras Cafe","Charlotte","NC","28269",35.3424757,-80.7706758,"1","Restaurants, Indian, Vegetarian, Vegan, Buffets"
"886",28234,"Chef Of India","Toronto","ON","M4T 1Y7",43.6874009,-79.3937044,"0","Restaurants, Halal, Indian"
"887",156081,"Hyderabadi Biryani Corner","Parma Heights","OH","44130",41.3912879,-81.7586283,"0","Restaurants, Halal, Buffets, Indian"
"888",119410,"Curry Garden","Gilbert","AZ","85233",33.3492371,-111.8223441,"1","Restaurants, Indian, Buffets"
"889",59926,"Hakka Spice","Mississauga","ON","L5L 1P5",43.5255116723,-79.6835883305,"1","Chinese, Indian, Hakka, Restaurants"
"890",14589,"Chakh Le India","Pittsburgh","PA","15213",40.4452102456,-79.955705317,"1","Indian, Restaurants, Food, Food Trucks"
"891",21486,"Annapoorna","Mississauga","ON","L5V 0A5",43.5948478,-79.6851588,"1","Restaurants, Indian, Asian Fusion, Sri Lankan"
"892",170579,"Karachi Kitchen","Mississauga","ON","L5N 4B7",43.5800879914,-79.758184227,"1","Pakistani, Food, Restaurants, Ethnic Food, Specialty Food, Indian"
"893",165186,"Maharaja Restaurant","Madison","WI","53719",43.055999,-89.4977688,"0","Restaurants, Pakistani, Indian"
"894",90256,"Warraich Meats","Markham","ON","L6E 0N1",43.8952564905,-79.2653532777,"1","Restaurants, Butcher, Meat Shops, Specialty Food, Indian, Halal, Food, Pakistani"
"895",102114,"Bombay Bhel","Mississauga","ON","L5N",43.5862093853,-79.7411409739,"1","Indian, Restaurants"
"896",133590,"Anjappar Chettinad Restaurant","Scarborough","ON","M1J 2H1",43.741728,-79.2268902,"1","Indian, Restaurants"
"897",173065,"Patio Indian Restaurant","North York","ON","M3C 1Y8",43.7218871322,-79.3358998139,"1","Indian, Restaurants"
"898",29928,"Saffron Patch","Beachwood","OH","44122",41.4638308,-81.5343715,"1","Indian, Vegetarian, Buffets, Restaurants"
"899",118831,"Chutney Rolls","Cleveland","OH","44106",41.5034904266,-81.6013281482,"0","Indian, Restaurants"
"900",40480,"Chatkhara","Mississauga","ON","L5V 0A6",43.6089759,-79.6959068,"0","Restaurants, Pakistani, Indian"
"901",39946,"New Haandi 2000","Toronto","ON","M4L 1Z5",43.6717553,-79.3234769,"1","Indian, Pakistani, Restaurants"
"902",140586,"Ambrosia Fine Indian Cuisine","Calgary","AB","T2C 2N5",50.9841114,-114.0142002,"0","Pakistani, Indian, Halal, Restaurants"
"903",62281,"Mayur Fine Indian Cuisine","Toronto","ON","M1R 4C2",43.7592680028,-79.3109345755,"1","Restaurants, Indian"
"904",102182,"Annapurna Indian Restaurant","Parma","OH","44129",41.3633557299,-81.7353438959,"1","Indian, Vegetarian, Restaurants"
"905",184050,"Fresh Tandoori","Brampton","ON","L6V 1E7",43.696093,-79.7507871,"1","Indian, Restaurants, Asian Fusion, Halal"
"906",44278,"Buffet Sultan","Montréal","QC","H2X 3L7",45.5181326,-73.5705522,"1","Restaurants, Halal, Buffets, Indian"
"907",160481,"Taste Of Tandooree And Sweets","Toronto","ON","M4L 1Z1",43.6718561,-79.3252723,"1","Restaurants, Indian, Halal, Pakistani"
"908",85850,"Veda Healthy Indian Takeout","Toronto","ON","M4W 2J1",43.6725134,-79.3878261,"0","Indian, Restaurants, Pakistani, Food, Food Delivery Services, Middle Eastern, Fast Food"
"909",75267,"The Curry N Kabob House","Cornelius","NC","28031",35.481995,-80.884625,"0","Indian, Restaurants"
"910",20200,"Tandoor Express","Mississauga","ON","L5R 3V2",43.5933446,-79.6677782,"1","Indian, Restaurants"
"911",44502,"Desi Corner","Mississauga","ON","L5A 1W2",43.5809349,-79.615335,"1","Ethnic Food, Restaurants, Indian, Specialty Food, Food, Halal, Grocery"
"912",8656,"Stratengers","Toronto","ON","M4M 1L1",43.6625454,-79.3348208,"1","Pubs, Nightlife, Bars, Canadian (New), Restaurants, American (New), Dive Bars, Pizza, Indian"
"913",84967,"Stella","Toronto","ON","M6H 1N7",43.6584486,-79.4416846,"0","Nightlife, Gluten-Free, Bars, Bangladeshi, Indian, Middle Eastern, Restaurants"
"914",144200,"NASHA Indian Cuisine","Chandler","AZ","85224",33.3287709,-111.8690996,"0","Buffets, Indian, Restaurants"
"915",102680,"Underground Kitchen 16","Toronto","ON","M5T 1T3",43.6566643,-79.4067039,"0","Indian, Bars, Restaurants, Nightlife"
"916",168503,"Bihari Kabab and Biryani House","Scarborough","ON","M1B 0A7",43.7926586695,-79.1959762573,"1","Indian, Pakistani, Restaurants"
"917",165009,"Charcoal Kebab House","Toronto","ON","M1H 1A4",43.7574863314,-79.2389628579,"1","Restaurants, Indian, Asian Fusion, Chinese, Kebab, Halal"
"918",61151,"OM Restaurant and Bar","Toronto","ON","M6R 1A1",43.6402292,-79.4376215,"1","Indian, Himalayan/Nepalese, Restaurants"
"919",98142,"Tamba","Las Vegas","NV","89109",36.106542,-115.17204,"1","Gluten-Free, Pakistani, Restaurants, Halal, Indian, Nightlife, Bars"
"920",64411,"Les Délices du Punjab","Lasalle","QC","H8N 1T7",45.428589,-73.629951,"1","Restaurants, Indian"
"921",106277,"Gaylord India Restaurant","Las Vegas","NV","89103",36.1175838,-115.1884813,"0","Pakistani, Hotels, Hotels & Travel, Event Planning & Services, Indian, Restaurants"
"922",141564,"Arun Bakery","Maple","ON","L6A 3X5",43.8443897,-79.5355452,"1","Food, Restaurants, Indian, Bakeries"
"923",147442,"Tiffin Restaurant","Pickering","ON","L1V 1B5",43.8322611,-79.0949049,"0","Restaurants, Indian"
"924",144939,"East India","Montréal","QC","H2X 1B7",45.5117854,-73.5744624,"0","Indian, Restaurants"
"925",3722,"Mirchi","Las Vegas","NV","89119",36.0901919,-115.1721025,"1","Indian, Restaurants"
"926",17795,"RK Sweets Restaurant","Mississauga","ON","L5C 3B6",43.5643335,-79.6356581,"1","Restaurants, Indian"
"927",124464,"Pastries N Chaat","Tempe","AZ","85281",33.422391,-111.9255942,"1","Indian, Bakeries, Restaurants, Food"
"928",191960,"Biryani & Bites","Phoenix","AZ","85050",33.6558285151,-112.015407,"1","Restaurants, Indian"
"929",72774,"King Tandoori","Vaughan","ON","L4H 0P8",43.7711356707,-79.6219527913,"1","Indian, Restaurants"
"930",101287,"Mela Indian Cuisine","Toronto","ON","M5M 4A2",43.733814,-79.419445,"0","Indian, Restaurants"
"931",94396,"Indian Delhi Palace","Phoenix","AZ","85008",33.4657562,-111.9718284,"1","Venues & Event Spaces, Indian, Event Planning & Services, Party & Event Planning, Pakistani, Restaurants, Buffets"
"932",79021,"Soca Palace Restaurant and Bar","Markham","ON","L3S 3H8",43.8407484,-79.2787018,"0","Halal, Chinese, Restaurants, Indian"
"933",38931,"Baigs Grill","Brampton","ON","L6W 3E7",43.6865406,-79.7363688,"1","Halal, Restaurants, Indian, Pakistani"
"934",34065,"Yuga Traditional Indian Kitchen and Bar","Calgary","AB","T2P 0T9",51.0477779857,-114.0782592664,"0","Indian, Restaurants, Pakistani"
"935",91318,"Malaysian Garam Masala","Toronto","ON","M1S 4K4",43.8089509523,-79.2636310418,"1","Restaurants, Malaysian, Food, Indian"
"936",18177,"Cloves Indian Groceries and Kitchen","Chandler","AZ","85224",33.3045692,-111.8736732,"1","Grocery, International Grocery, Indian, Food, Restaurants"
"937",116617,"Karaikudi Palace","Scottsdale","AZ","85260",33.582486,-111.8923957,"0","Indian, Restaurants, Buffets"
"938",68128,"Mint Indian Bistro","Las Vegas","NV","89147",36.1127048,-115.2781558,"1","Vegan, Restaurants, Nightlife, Bars, Event Planning & Services, Sports Bars, Halal, Indian, Caterers"
"939",51553,"Tulips Indian Cuisine","Charlotte","NC","28262",35.311359,-80.746403,"0","Restaurants, Indian, Pakistani, Buffets, Halal"
"940",181190,"Nitya Restaurant","Toronto","ON","M4L 1Z6",43.672085,-79.3220862,"1","Indian, Food, Restaurants"
"941",158290,"Billu's Indian Grill On Wheels","Pittsburgh","PA","15219",40.440368,-79.9836108,"1","Indian, Food, Food Trucks, Restaurants"
"942",186874,"Shahi Mahal","Toronto","ON","M9W 6J1",43.7356120236,-79.6047321098,"0","Bars, Indian, Restaurants, Nightlife"
"943",22547,"Didar","Montréal","QC","H3W 2R9",45.4939865,-73.6362656,"1","Indian, Restaurants"
"944",158627,"Restaurant Raja","Montréal","QC","H4L 3M8",45.515713,-73.6841334,"1","Restaurants, Indian, Halal, Vegetarian"
"945",63301,"Kamasutra Indian Restaurant & Wine Bar","Toronto","ON","M4G 3B4",43.7039983,-79.3748365,"1","Middle Eastern, Asian Fusion, Bars, Event Planning & Services, Restaurants, Indian, Caterers, Wine Bars, Pakistani, Nightlife"
"946",8086,"La Fusion Indienne","Montréal","QC","H3N 1S4",45.5257496,-73.6245777,"1","Restaurants, Indian"
"947",184688,"Taste of Tandooree","Toronto","ON","M6J",43.6422286,-79.4286861,"0","Indian, Restaurants, Pakistani"
"948",32491,"Copper Modern Indian Cuisine","Charlotte","NC","28203",35.2107515,-80.8558333,"1","Pakistani, Bars, Indian, Restaurants, Wine Bars, Nightlife"
"949",61217,"Halal Shamiana Restaurant","Mississauga","ON","L5V 0A6",43.6081494011,-79.6967617667,"1","Restaurants, Indian, Halal, Pakistani"
"950",185752,"Vatica","Toronto","ON","M2J 5B3",43.7753337,-79.3305596,"1","Caterers, Indian, Restaurants, Event Planning & Services"
"951",79069,"Hakka No 1 Restaurant 2","Toronto","ON","M6M 4A2",43.7079638335,-79.4774818048,"1","Chinese, Indian, Restaurants"
"952",64868,"Maharaja Vegetarian Street Food","Markham","ON","L3S 0A2",43.8553051,-79.2569666,"1","Restaurants, Indian, Vegetarian"
"953",27628,"Prime Tandoori House","Calgary","AB","T2E 3J6",51.0587413,-114.0541284,"0","Middle Eastern, Indian, Pakistani, Pizza, Restaurants"
"954",51753,"Prem Sweets & Restaurant","Brampton","ON","L6P 1H4",43.7732969,-79.6630601,"1","Restaurants, Indian"
"955",33972,"Kairali - Taste of Kerala","Toronto","ON","M1P 2L1",43.7548373372,-79.2772015929,"1","Food, Restaurants, Indian"
"956",27191,"Hakka Delight","Brampton","ON","L6Y 4M3",43.6599058,-79.7253479,"1","Indian, Restaurants, Asian Fusion, Chinese"
"957",144529,"Shala-Mar Restaurant","Toronto","ON","M6R 2N1",43.6506902,-79.4505673,"0","Restaurants, Indian"
"958",143632,"Royal Taj","Chandler","AZ","85226",33.3048389,-111.9490143,"0","Restaurants, Indian"
"959",45713,"Bombay Indian Cuisine","Las Vegas","NV","89109",36.131484904,-115.1644624097,"1","Halal, Indian, Salad, Restaurants, Pakistani"
"960",92101,"Hyderabad Biryani Hut","Toronto","ON","M1P 2Y3",43.7714931,-79.2528947,"1","Restaurants, Halal, Indian"
"961",183895,"Spice South","Charlotte","NC","28277",35.03901,-80.7936564,"0","Indian, Restaurants"
"962",177751,"Indi Express","Châteauguay","QC","J6K 4Y7",45.3615229,-73.7125311,"1","Indian, Restaurants"
"963",21723,"Amaya Bread Bar","Toronto","ON","M4N 2L8",43.7303108,-79.4030348,"0","Restaurants, Indian"
"964",41240,"Surya Restaurant","Calgary","AB","T3C 0M5",51.042866,-114.0892996,"0","Pakistani, Specialty Food, Indian, Food, Restaurants, Middle Eastern, Ethnic Food, Event Planning & Services, Caterers"
"965",111325,"Zam Zam Tikka and Kabab","Toronto","ON","M1K 1N8",43.7072508,-79.2695536,"1","Barbeque, Pakistani, Indian, Restaurants"
"966",113579,"Udupi Palace","Toronto","ON","M4L 2A3",43.672609,-79.3211209,"1","Vegetarian, Pakistani, Gluten-Free, Indian, Restaurants"
"967",160668,"Khau Gully","Toronto","ON","M4S 1Z8",43.7005444,-79.3968713,"1","Restaurants, Indian"
"968",15950,"Indian Kiss","Toronto","ON","M6P 2K9",43.6661321,-79.4644767,"0","Restaurants, Indian, Food"
"969",146261,"Delicacy","Toronto","ON","M6K 2S1",43.6409651209,-79.4351384416,"0","Vegetarian, Restaurants, Indian"
"970",61737,"Swagat Indian Restaurant","Madison","WI","53717",43.0753376,-89.5174848,"1","Restaurants, Pakistani, Indian"
"971",103424,"Gazebo","Mississauga","ON","L5A 3V9",43.5992403,-79.6123261,"1","Halal, Restaurants, Indian, Pakistani"
"972",64306,"Wok With Yu","Scarborough","ON","M1L 4C2",43.7260106,-79.2862866,"0","Restaurants, Indian, Chinese"
"973",119065,"Hakka No. 1 Restaurant","Scarborough","ON","M1E 2P1",43.7721158,-79.1849733,"1","Restaurants, Chinese, Indian, Asian Fusion, Caribbean"
"974",113973,"Taste of Jaffna","Scarborough","ON","M1H 2Y2",43.7669769,-79.2287758,"1","Sri Lankan, Restaurants, Indian, Caterers, Event Planning & Services"
"975",118518,"Asha","Montréal","QC","H2X 2H7",45.5093768,-73.5734476,"1","Restaurants, Indian"
"976",143414,"Bengali Sweets and Restaurant","Toronto","ON","M1V 5J6",43.8206741177,-79.2618854858,"1","Restaurants, Indian"
"977",149062,"Lahori Taste","Toronto","ON","M1R 3A3",43.7465705872,-79.287940979,"0","Pakistani, Restaurants, Halal, Indian"
"978",26677,"Chennai Delicacy","Parma Heights","OH","44130",41.3886269109,-81.7640690133,"1","Indian, Restaurants"
"979",24607,"Gasa Restaurant","Scarborough","ON","M1V 1T1",43.8045622,-79.2988167,"0","Restaurants, Indian"
"980",73045,"Le Tandoor","Brossard","QC","J4W 1Z3",45.4730269943,-73.4749850258,"1","Indian, Pakistani, Restaurants, Middle Eastern"
"981",156627,"Al Muneer Restaurant","Calgary","AB","T2E 6S8",51.085942,-114.011751,"1","Halal, Restaurants, Indian, Pakistani"
"982",101126,"Spice Shack","Toronto","ON","M1G 2M3",43.768278115,-79.2276818963,"0","Indian, Restaurants"
"983",80637,"Bombay Roti","Toronto","ON","M3J 3N3",43.7863770358,-79.472809384,"0","Restaurants, Indian"
"984",188152,"Sana","Montréal","QC","H3G 2B1",45.496328,-73.5738047,"1","Bangladeshi, Indian, Pakistani, Restaurants"
"985",173848,"Blue Water Curry & Roti Restaurant","North York","ON","M1R 1P7",43.7309491,-79.3057989,"1","Indian, Restaurants, Nightlife, Caribbean, Bars"
"986",138281,"Tamarind - The Indian Kitchen","Toronto","ON","M5J 2S1",43.6464036,-79.3786608,"0","Fast Food, Vegetarian, Indian, Restaurants"
"987",108719,"India Garden","Lakewood","OH","44107",41.482634,-81.825452,"1","Vegan, Vegetarian, Pakistani, Restaurants, Indian"
"988",60462,"Jaipur Junction","North Royalton","OH","44133",41.350037,-81.75726,"1","Indian, Restaurants"
"989",10294,"Kabob Place","Westlake","OH","44145",41.4510113,-81.914599,"0","Indian, Middle Eastern, Afghan, Restaurants, Food, American (New)"
"990",191991,"Chutneys Fine Indian Cuisine","Etobicoke","ON","M8X 1C7",43.6465726,-79.5139399,"1","Restaurants, Indian, Pakistani, Middle Eastern"
"991",130321,"Kabab Palace","Tempe","AZ","85284",33.349623236,-111.9473032708,"0","Restaurants, Buffets, Indian, Afghan"
"992",65434,"Angara India Spice Grill","Las Vegas","NV","89147",36.1140628006,-115.3086518821,"1","Middle Eastern, Indian, Restaurants, Vegetarian"
"993",70500,"Nirala Sweets & Restaurant","Scarborough","ON","M1X 1E6",43.8229066,-79.2475051,"1","Halal, Restaurants, Pakistani, Indian"
"994",2273,"5th Elementt","Toronto","ON","M5S 3A5",43.6478645,-79.4014681,"0","Indian, Restaurants, Italian"
"995",8680,"Bollywood Grill Indian Cusine","Las Vegas","NV","89146",36.1442339,-115.2418447,"0","Pakistani, Restaurants, Indian"
"996",117896,"Indian Street House","Calgary","AB","T2Y 1W1",50.9112236,-114.0746764,"1","Indian, Pakistani, Restaurants"
"997",133672,"Biryani","Toronto","ON","M1P 4P5",43.7752348978,-79.2579922825,"1","Indian, Restaurants, Pakistani"
"998",61505,"Allo Inde","Montréal","QC","H3A 1P7",45.499605,-73.5743533,"0","Pakistani, Restaurants, Indian, Middle Eastern"
"999",129958,"Sultan of Samosas","Toronto","ON","M5A 0A1",43.6606731,-79.3660416,"1","Indian, Restaurants"
"1000",145471,"Dakshin Indian Bistro","Cleveland","OH","44130",41.3912879,-81.7586283,"0","Restaurants, Halal, Buffets, Indian"
"1001",185155,"Trini Gardens Restaurant","Etobicoke","ON","M8Z 1P4",43.6243308,-79.5126995,"1","Indian, Caribbean, Chinese, Restaurants"
"1002",8792,"Dawat","Dollard-des Ormeaux","QC","H9B 2X3",45.5021565,-73.7879418,"1","Caterers, Event Planning & Services, Indian, Restaurants, Halal"
"1003",151443,"Sairam Om","Champaign","IL","61822",40.081896,-88.295835,"0","Indian, Restaurants"
"1004",150125,"Pak Afghan Halal Restaurant & Catering","Phoenix","AZ","85008",33.467014,-111.995926,"0","Pakistani, Afghan, Restaurants, Indian"
"1005",38208,"Om","Montréal","QC","H2W 1Z5",45.5192651,-73.5847417,"1","Restaurants, Indian, Himalayan/Nepalese"
"1006",58471,"Yogi Flames","Brampton","ON","L6X 3B9",43.6748948,-79.8059521,"0","Restaurants, Indian, Vegetarian"
"1007",12307,"Papa Kebob Restaurant","Brampton","ON","L6R 3X1",43.7634325,-79.7699258,"1","Pakistani, Middle Eastern, Restaurants, Indian, Mediterranean, Kebab"
"1008",43380,"Eastern Foods International","Mississauga","ON","L5A 2G9",43.5818559,-79.6178939,"1","Indian, Restaurants, Halal, Grocery, Pakistani, Food"
"1009",163287,"La Jawab","Calgary","AB","T3J 3J8",51.0977305037,-113.9621605429,"1","Restaurants, Food, Indian, Ethnic Food, Imported Food, Specialty Food"
"1010",181612,"Szechuan Gourmet","North York","ON","M2R 2S9",43.7913196306,-79.4480131435,"1","Restaurants, Indian, Chinese"
"1011",140166,"Situl Indian Restaurant","Charlotte","NC","28209",35.1748509,-80.847318,"0","Indian, Pakistani, Restaurants"
"1012",93315,"India's Taste","Markham","ON","L3R 1C1",43.8247265,-79.3395006,"1","Restaurants, Indian, Buffets"
"1013",21109,"Apalla","Toronto","ON","M4L 1Z7",43.672247,-79.3221576,"0","Indian, Restaurants"
"1014",161689,"Urban Turban Express","Las Vegas","NV","89109",36.1177189,-115.1679438,"0","Vegetarian, Indian, Halal, Restaurants"
"1015",150489,"Ruchi Taste Of India","Aurora","OH","44202",41.3521591524,-81.3846842728,"1","Buffets, Indian, Restaurants"
"1016",76848,"Calcutta Cricket Club","Calgary","AB","T2S 0A8",51.0380406,-114.0708656,"1","Indian, Restaurants"
"1017",39459,"Tandoori Village","Phoenix","AZ","85053",33.6390426,-112.1516293,"0","Pakistani, Herbs & Spices, Restaurants, Food, Indian, Specialty Food"
"1018",29125,"Rashnaa Restaurant","Toronto","ON","M4X 1H2",43.668096,-79.368979,"0","Pakistani, Restaurants, Sri Lankan, Indian"
"1019",102774,"Lally's Sweets & Tandoori Restaurant","Brampton","ON","L6Y 4E6",43.6511795,-79.7353431,"1","Pakistani, Restaurants, Middle Eastern, Indian"
"1020",48075,"Kathmandu Restaurant","Toronto","ON","M4Y 1Y3",43.6636282,-79.3838715,"0","Restaurants, Himalayan/Nepalese, Indian"
"1021",123098,"Butter Chicken Factory","Toronto","ON","M4X 1P6",43.6670275015,-79.369179998,"1","Indian, Restaurants, Food, Buffets, Food Delivery Services"
"1022",28895,"Punjab Palace","Montreal","QC","H3N 1S6",45.5252861,-73.6250819,"1","Restaurants, Pakistani, Indian"
"1023",131047,"Thavas Boite à Curry","Montréal","QC","H3G 2E2",45.4962872,-73.57578,"0","Sri Lankan, Indian, Restaurants"
"1024",164007,"Istar Restaurant","Etobicoke","ON","M9P 2M5",43.697141,-79.5439671,"1","Restaurants, Donuts, Coffee & Tea, Food, Halal, African, Indian, Event Planning & Services, Party Supplies"
"1025",171706,"Filmi Dhaba","Brampton","ON","L6S",43.7457396,-79.6986096,"0","Indian, Restaurants"
"1026",17203,"Royal India Cuisine","Calgary","AB","T2P 0H3",51.0496976,-114.0643161,"1","Halal, Middle Eastern, Indian, Restaurants, Pakistani"
"1027",112740,"Amaya Express","Toronto","ON","M6J 2Y7",43.6465443,-79.4197141,"0","Indian, Restaurants"
"1028",147749,"Daawat Indian Cuisine","Phoenix","AZ","85027",33.6558818,-112.133956,"1","Desserts, Seafood, Restaurants, Pakistani, Indian, Food, Vegetarian, Halal"
"1029",36947,"Danforth Dragon","Toronto","ON","M4J 1L8",43.6797052,-79.3397512,"1","Indian, Chinese, Food, Specialty Food, Restaurants, Ethnic Food"
"1030",137022,"Mississauga Grill","Mississauga","ON","L5N 6S3",43.578982,-79.771073,"0","Pakistani, Restaurants, Indian, Halal"
"1031",157485,"Manchurian Madurai","Mississauga","ON","L4X 1M1",43.622113,-79.570399,"0","Restaurants, Chinese, Halal, Asian Fusion, Indian"
"1032",72547,"Restaurant Salateen","Montréal","QC","H3N 1S2",45.5265199277,-73.6243438624,"1","Restaurants, Pakistani, Halal, Indian"
"1033",73852,"Madras Ananda Bhavan","Phoenix","AZ","85032",33.6391935,-112.0121148,"0","Indian, Restaurants, Vegetarian, Buffets"
"1034",62360,"Paradise India","Las Vegas","NV","89117",36.1426711,-115.2686949,"0","Coffee & Tea, Pakistani, Food, Restaurants, Indian"
"1035",170558,"Amaya","Toronto","ON","M5X 2A2",43.6486231154,-79.3816485246,"1","Indian, Restaurants, Specialty Food, Imported Food, Ethnic Food, Food"
"1036",97846,"Street Foods - Food Trucks","Las Vegas","NV","89109",36.1342764789,-115.1632377229,"0","Indian, Food, Food Trucks, Fast Food, Mexican, Restaurants"
"1037",139570,"India's Taste","Brampton","ON","L6Y 5H7",43.6429174,-79.7469265,"1","Indian, Buffets, Restaurants"
"1038",155962,"Delhi Express","Chestermere","AB","T1X 0P7",51.0296303,-113.8405409,"1","Indian, Restaurants"
"1039",13796,"Hyderabad Palace","Toronto","ON","M1S 4N6",43.7915877271,-79.2509166151,"1","Restaurants, Halal, Indian"
"1040",146979,"The Bristol and Bombay","Toronto","ON","M6J 1H3",43.6433600769,-79.4221586663,"0","Tapas Bars, Breakfast & Brunch, Bars, Indian, Gastropubs, Restaurants, Nightlife, Vegetarian, Pubs, British"
"1041",165537,"Gau Indian Village","Toronto","ON","M5S 1Y3",43.6653067,-79.4108916,"0","Indian, Restaurants"
"1042",182483,"Gau Indian Village","Toronto","ON","M6G 1M2",43.6626004,-79.4237255,"0","Indian, Restaurants"
"1043",97163,"Flavor of India","Madison","WI","53703",43.075319,-89.386145,"0","Restaurants, Pakistani, Indian"
"1044",152962,"Kabob Express","Laveen Village","AZ","85339",33.391115624,-112.1678662241,"0","Desserts, Restaurants, Food, Indian, Kebab, Pakistani"
"1045",109721,"Guru Sweets & Restaurant","Brampton","ON","L7A 2G6",43.6903806,-79.8155286,"1","Restaurants, Indian"
"1046",189088,"39 Spices","Markham","ON","L3P 1X3",43.8754868,-79.2597565,"1","Indian, Bars, Lounges, Nightlife, Restaurants"
"1047",14539,"Spice 9 Xpress Indian Cuisine","Charlotte","NC","28202",35.2284099,-80.8426239,"0","Restaurants, Indian"
"1048",158584,"Gate of India","Calgary","AB","T3K 5H2",51.1554214655,-114.0567956521,"1","Buffets, Restaurants, Indian"
"1049",170167,"Veda","Toronto","ON","M4Y 2C8",43.6641966,-79.3804539,"0","Indian, Restaurants, Pakistani"
"1050",101454,"Butter Chicken Roti","Toronto","ON","M5T 1S8",43.6569793,-79.4059395,"0","Indian, Restaurants"
"1051",31134,"Z India","Las Vegas","NV","89146",36.1584920322,-115.2427459584,"0","Restaurants, Caterers, Event Planning & Services, Indian, Asian Fusion"
"1052",58760,"Tasty Corner Restaurant","Toronto","ON","M5T 2L7",43.6552968,-79.4023797,"0","Indian, Restaurants, Sandwiches"
"1053",23495,"Annalakshmi","Brampton","ON","L6P 0A1",43.7073327722,-79.7897509783,"1","Restaurants, Indian, Vegetarian"
"1054",96108,"Saffron Flavors of India","Las Vegas","NV","89129",36.24172,-115.250134,"1","Vegetarian, Indian, Restaurants, Diners"
"1055",50075,"Chaats n' Dosa","Brampton","ON","L7A 3V4",43.7102099478,-79.8106422943,"1","Fast Food, Indian, Restaurants"
"1056",192190,"Karibu Restaurant","Scarborough","ON","M1R 4C2",43.7592772,-79.3104222,"1","African, Restaurants, Indian"
"1057",46108,"Saffron Indian Cuisine","Charlotte","NC","28273",35.1375056,-80.9336475,"1","Indian, Restaurants, Pakistani"
"1058",58353,"Spice House Indian Bistro","Markham","ON","L3R 3H4",43.82551,-79.33477,"0","Restaurants, Indian"
"1059",10991,"Wok Inter Cuisine","Chandler","AZ","85226",33.3181866,-111.9275715,"1","Pan Asian, Indian, Asian Fusion, Chinese, Halal, Noodles, Restaurants"
"1060",140849,"Savera Indian Cuisine","Toronto","ON","M6C 1B9",43.680456,-79.4308274,"1","Indian, Restaurants"
"1061",100738,"High Park Spicy House","Toronto","ON","M6P 1Z3",43.6657071,-79.4700525,"1","Restaurants, Indian"
"1062",81964,"Sithara","Charlotte","NC","28262",35.3171887,-80.7391541,"1","Event Planning & Services, Buffets, Caterers, Vegetarian, Indian, Restaurants"
"1063",10723,"Simba Grill","East York","ON","M4J 3S2",43.693387,-79.3422652,"1","Halal, Restaurants, African, Indian"
"1064",17706,"Restaurant Indian Kwality","Pierrefonds","QC","H8Y 3C6",45.5036665,-73.8164521,"1","Pakistani, Restaurants, Middle Eastern, Indian"
"1065",22279,"Maroli","Brampton","ON","L6X 1R3",43.6860073,-79.7624286,"0","Indian, Food, Restaurants, Caterers, Event Planning & Services, Food Delivery Services"
"1066",188410,"Ali's West Indian Roti Shop","Toronto","ON","M6K 1M2",43.6408507,-79.4359336,"1","Seafood, Middle Eastern, Pakistani, Caribbean, Indian, Restaurants"
"1067",19146,"Delivery Dine","Phoenix","AZ","85020",33.5403639,-112.0466822,"1","Food Delivery Services, Indian, Food, Restaurants, Thai"
"1068",21034,"Toddy Shop","Las Vegas","NV","89145",36.1714234,-115.2452456,"0","Nightlife, Asian Fusion, Indian, Bars, Restaurants, Dive Bars, American (Traditional), Bar Crawl"
"1069",177858,"Havelly Grill","Mississauga","ON","L5S 1W7",43.6807285,-79.6808595,"1","Halal, Pakistani, Restaurants, Buffets, Indian"
"1070",6157,"Tinnels West Indian Take-Out","Brampton","ON","L6V 1X6",43.697012,-79.751873,"1","Caribbean, Middle Eastern, Pakistani, Indian, Restaurants"
"1071",31113,"Sutra Indian Asian Fusion","Toronto","ON","M6R 2L2",43.6431268,-79.4477936,"0","Asian Fusion, Thai, Indian, Restaurants"
"1072",112327,"China Cottage Restaurant","Scarborough","ON","M1V 5P6",43.8351749646,-79.2533680632,"1","Restaurants, Indian, Halal, Thai, Hakka, Pakistani, Chinese"
"1073",191593,"Haveli","Dollard-des-Ormeaux","QC","H8Y 3C4",45.5011144,-73.8153787,"1","Restaurants, Indian, Pakistani"
"1074",49423,"Bara's Hut Doubles & Roti","Mississauga","ON","L5A 1W7",43.5833286,-79.6135156,"1","Restaurants, Indian"
"1075",184481,"Billu's Indian Grill","Monroeville","PA","15146",40.4370649,-79.777604,"0","Restaurants, Indian"
"1076",74255,"Veda Healthy IndianTakeout","Toronto","ON","M5S",43.6600106,-79.3948345,"1","Restaurants, Indian"
"1077",2421,"Amaya Express","Markham","ON","L3R",43.8657885,-79.2914195,"1","Indian, Fast Food, Restaurants"
"1078",61449,"Mantra Masala","Las Vegas","NV","89131",36.3025753864,-115.2823130786,"0","Restaurants, Indian"
"1079",16386,"India Grill","Cleveland","OH","44130",41.3912879,-81.7586283,"0","Halal, Restaurants, Indian"
"1080",121730,"Karahi Point","Toronto","ON","M9M 2Y9",43.7527437253,-79.5369017869,"1","Restaurants, Halal, Indian, Pakistani"
"1081",159547,"Du Pain De l'Inde","Montréal","QC","H2X 1G3",45.5115786,-73.5673976,"0","French, Restaurants, Indian"
"1082",85513,"Avsar","Mississauga","ON","L4W 1B6",43.6376095,-79.6350343,"1","Restaurants, Vegetarian, Indian"
"1083",43271,"The Fry Bread House","Phoenix","AZ","85013",33.5036703503,-112.0822003483,"1","American (Traditional), Cafes, Restaurants, Indian, Mexican"
"1084",50355,"Greedy Girl","Cleveland Heights","OH","44118",41.501095,-81.5564,"0","Mediterranean, Restaurants, Breakfast & Brunch, Indian, Greek"
"1085",62422,"Chef Of India","Toronto","ON","M4N 2K9",43.727571,-79.4025787,"1","Restaurants, Indian"
"1086",51194,"Chef Sanjeev Kapoor's Khazana","Brampton","ON","L6S 0B8",43.7466116,-79.6984856,"1","Restaurants, Indian"
"1087",50898,"Rickshaw Bar","Toronto","ON","M6J 1E6",43.6468732,-79.4049438,"1","Thai, Restaurants, Tapas Bars, Tapas/Small Plates, Indian"
"1088",174439,"India Palace","Las Vegas","NV","89169",36.121237,-115.151852,"1","Herbs & Spices, Food, Pakistani, Specialty Food, Indian, Halal, Restaurants"
"1089",112049,"Drupati's Roti & Doubles","Toronto","ON","M9W 6N5",43.7362209023,-79.6055138272,"1","Restaurants, Indian"
"1090",55164,"Madras Masala","Toronto","ON","M6G 1L7",43.6631596,-79.4219229,"1","Restaurants, Southern, Gluten-Free, Vegan, Pakistani, Indian"
"1091",1048,"Karachi Kitchen","Toronto","ON","M1P 2R7",43.7493799,-79.2764504,"0","Indian, Restaurants, Pakistani"
"1092",169270,"Royal Punjab","Montréal","QC","H2L 1S7",45.5251258,-73.5596716,"1","Indian, Restaurants"
"1093",28572,"Punjabi By Nature","Brampton","ON","L6S 0C5",43.7616699,-79.7203305,"1","Indian, Restaurants, Food"
"1094",135818,"Tandoori Chaska","Brampton","ON","L6P 2A1",43.7724037,-79.6884723,"0","Restaurants, Indian"
"1095",27947,"Mantra","Toronto","ON","M1R 3C7",43.733599,-79.345104,"1","Restaurants, Indian"
"1096",14924,"Lobby Bar","Montréal","QC","H2H 1V3",45.5331208,-73.575493,"1","Bars, Nightlife, Canadian (New), Restaurants, Indian"
"1097",59861,"Brampton Punjabi Food- Dhaba Express","Brampton","ON","L7A 0C9",43.7102481,-79.8158697,"1","Indian, Pakistani, Restaurants"
"1098",157427,"Amber Indian Cuisine","Middleton","WI","53562",43.0965982657,-89.5009513583,"1","Restaurants, Indian, Buffets"
"1099",282,"Desi Flavors","Brampton","ON","L6Z 1Y4",43.727604,-79.794508,"0","Halal, Restaurants, Indian, Pakistani"
"1100",167708,"Sweet India Restaurant","Mississauga","ON","L4T 2H1",43.7060983,-79.6461043,"1","Middle Eastern, Indian, Restaurants, Pakistani"
"1101",42151,"Spice Heaven","Toronto","ON","M4J 1N5",43.6828108943,-79.325876981,"0","Indian, Pakistani, Restaurants"
"1102",124185,"Inchin's Bamboo Garden","North Olmsted","OH","44070",41.4164702649,-81.9236755371,"1","Indian, Chinese, Restaurants, Asian Fusion"
"1103",24997,"Bombay On the Lake","Etobicoke","ON","M8V 1K2",43.5999294,-79.507932,"1","Restaurants, Vegan, Halal, Indian"
"1104",86941,"Madras Pantry","Toronto","ON","M6J",43.645553,-79.4114018,"0","Indian, Restaurants, Food"
"1105",34709,"Pari Authentic Indian Cuisine","Chesterland","OH","44026",41.5213653,-81.3372118,"1","Restaurants, Indian"
"1106",112314,"Maison Samosa Express","Montréal","QC","H4L 2H1",45.5122823,-73.6774524865,"1","Restaurants, Pakistani, Indian"
"1107",189752,"Le Sitar","Saint-Jean-sur-Richelieu","QC","J3B 6X4",45.3046519145,-73.2509407184,"1","Indian, Restaurants"
"1108",112755,"Madras Curry House","Montréal","QC","H3G 2H4",45.4952338,-73.5763171,"1","Indian, Halal, Restaurants"
"1109",36487,"Hindusthali","Montréal","QC","H2W 2M7",45.521695,-73.5773971,"1","Restaurants, Indian, Vegetarian"
"1110",113644,"Notre Endroit","Montréal","QC","H3A 1N7",45.5067103,-73.5680663,"1","Restaurants, Indian"
"1111",36489,"India 360","Stouffville","ON","L4A 8C1",43.9643541,-79.2752231,"1","Restaurants, Indian"
"1112",43661,"Coconut Grove","Toronto","ON","M5G 1C7",43.6549701,-79.3865744,"0","Indian, Restaurants, Caribbean"
"1113",186986,"Mintt Indian Cuisine","Monroeville","PA","15146",40.4376629505,-79.7856972859,"1","Indian, Restaurants"
"1114",123481,"Bombay Grill","Fairlawn","OH","44333",41.13303,-81.633357,"0","Restaurants, Indian"
"1115",8686,"Bienvenue en Inde","Montréal","QC","H2J 2L6",45.5256338,-73.5858824,"0","Restaurants, Indian"
"1116",106151,"Bindia Indian Bistro","Toronto","ON","M5E",43.6486948,-79.3719955,"1","Restaurants, Indian, Canadian (New)"
"1117",138020,"Taj Mahal","Pittsburgh","PA","15237",40.5474493,-80.0184494,"1","Restaurants, Indian, Pakistani"
"1118",151328,"Tandoor Indian Grill","Pittsburgh","PA","15213",40.4517965,-79.9527148,"0","Indian, Restaurants, Pakistani"
"1119",125838,"Taza Indian Kitchen","Las Vegas","NV","89123",36.0165803,-115.1187014,"0","Pakistani, Restaurants, Indian"
"1120",182837,"Sweet Mahal","Toronto","ON","M9W 0B5",43.7210775,-79.6137669,"1","Food, Indian, Restaurants"
"1121",5094,"Doaba Sweets & Restaurant","Mississauga","ON","L5V 1Z4",43.5949363708,-79.6852035522,"1","Indian, Vegetarian, Restaurants"
"1122",178728,"Chapati Indian Grill","Cleveland","OH","44106",41.5095423,-81.6040633,"1","Indian, Halal, Restaurants, Vegan"
"1123",34851,"The Samosa Factory","Calgary","AB","T3J 5H2",51.107055606,-113.9694111511,"1","Specialty Food, Restaurants, Indian, Food, American (New), Ethnic Food"
"1124",52676,"Nantha Caters","Toronto","ON","M1V",43.8271892,-79.2909971,"1","Indian, Sri Lankan, Restaurants"
"1125",122898,"The Veggie Thali","Toronto","ON","M4A 2L8",43.7194176,-79.3010177,"1","Vegetarian, Himalayan/Nepalese, Indian, Restaurants, Vegan"
"1126",18038,"Brar Sweets Restaurant","Mississauga","ON","L5C 3B6",43.56393,-79.6352315,"0","Indian, Restaurants"
"1127",120105,"259 Host","Toronto","ON","M5V",43.6447079,-79.3906704,"0","Restaurants, Indian"
"1128",23772,"Sithara","Charlotte","NC","28202",35.2253544,-80.8461468,"1","Restaurants, Indian"
"1129",157110,"Bistro Malabar","Mississauga","ON","L5V 2A8",43.5994406,-79.7132567,"0","Restaurants, Southern, Indian"
"1130",76802,"Lovely Sweets & Restaurant","Calgary","AB","T3J 0L7",51.1008219,-113.965317,"1","Restaurants, Indian"
"1131",159881,"The Spice Room","Concord","ON","L4K 2N1",43.822123,-79.504007,"1","Indian, Buffets, Restaurants"
"1132",121130,"Maharani Indian Cuisine","Charlotte","NC","28204",35.206798,-80.8351239,"1","Food, Desserts, Seafood, Pakistani, Restaurants, Indian"
"1133",79117,"Bombay BBQ Hut","Richmond Hill","ON","L4B 2N2",43.8486496,-79.3776941,"0","Himalayan/Nepalese, Restaurants, Indian, Buffets"
"1134",20538,"Bollywood Restaurant and Sweets","Brampton","ON","L6P 2K8",43.772674,-79.661182,"0","Indian, Restaurants"
"1135",183823,"Royal Paan - Brampton","Brampton","ON","L6R 3J5",43.7515688972,-79.7382381186,"1","Food, Coffee & Tea, Books, Mags, Music & Video, Indian, Convenience Stores, Restaurants, Desserts, Music & DVDs, Shopping"
"1136",130258,"Rangoli Restaurant","Toronto","ON","M4T 1Y5",43.6865086,-79.3935329,"0","Indian, Restaurants"
"1137",130658,"Aravind","Toronto","ON","M4K 1P7",43.678763,-79.3465684,"0","Indian, Restaurants"
"1138",69587,"Daal Roti","Mississauga","ON","L4Z 2Z1",43.6217351,-79.6725755,"1","Buffets, Indian, Restaurants"
"1139",156673,"Maharajah East Indian Restaurant","Calgary","AB","T3H 5X2",51.0155664,-114.2130823,"1","Food, Event Planning & Services, Caterers, Restaurants, Indian, Food Delivery Services"
"1140",123969,"Maya Ice Cream Rolls","Glendale","AZ","85308",33.6420995,-112.225533,"1","Desserts, Food, Ice Cream & Frozen Yogurt, Restaurants, Indian"
"1141",75773,"Spice House Indian Cuisine","Toronto","ON","M4X 1P9",43.6674568,-79.3692285,"0","Indian, Food, Restaurants"
"1142",25033,"Bawarchi Indian Cuisine","Chandler","AZ","85224",33.3350307,-111.877439,"0","Indian, Buffets, Restaurants"
"1143",147821,"Maurya East Indian Roti","Toronto","ON","M6K 3R5",43.6387639,-79.4162418,"1","Indian, Restaurants"
"1144",102273,"Spices East Indian Dining","Calgary","AB","T2X 0G2",50.8792333669,-114.0733259939,"1","Indian, Restaurants"
"1145",99679,"Friends Sweet Restaurant","Brampton","ON","L6S 4N5",43.7298336,-79.7495824,"1","Restaurants, Indian, Diners, Breakfast & Brunch"
"1146",185632,"Ancila's Indian Cuisine","Mississauga","ON","L5N 6A3",43.5957825,-79.7567888,"1","Pakistani, Indian, Middle Eastern, Restaurants"
"1147",9273,"India Market & Cafe","Las Vegas","NV","89119",36.1003364,-115.1338405,"1","Food, Indian, Vegetarian, International Grocery, Restaurants"
"1148",69791,"OM Indian Fusion Cuisine","Madison","WI","53704",43.1154886,-89.3249625,"1","Restaurants, Indian, Vegetarian, Asian Fusion"
"1149",81463,"Tivoli Garden","Markham","ON","L3R 0A3",43.8482455457,-79.3641457334,"1","American (Traditional), Italian, Hotels & Travel, Indian, Event Planning & Services, Restaurants, Hotels"
"1150",11669,"Zykaa","Montréal","QC","H1L 2M9",45.602382,-73.5191209,"1","Restaurants, Indian"
"1151",30898,"Masala Express","Calgary","AB","T3G 3A9",51.1160439,-114.1800245,"1","Pakistani, Middle Eastern, Restaurants, Indian"
"1152",189583,"Shiraz","Las Vegas","NV","89102",36.143133,-115.2085074,"1","Restaurants, Indian, Pakistani, Persian/Iranian"
"1153",136123,"Chennai Fusion Grill","Chandler","AZ","85226",33.3047369,-111.927051,"1","Restaurants, Buffets, Indian"
"1154",83073,"Amaya Express","Toronto","ON","M5R 3M3",43.6728809,-79.3889885,"0","Restaurants, Indian"
"1155",98329,"Taste - Homestyle Indian Kitchen","Las Vegas","NV","89119",36.1086528051,-115.1371104679,"1","Vegetarian, Fast Food, Food, Asian Fusion, Specialty Food, Restaurants, Indian"
"1156",114448,"Paradise Biryani Pointe","Chandler","AZ","85226",33.3215866,-111.9130778,"1","Restaurants, Indian"
"1157",56374,"Tinnel's West Indian Take-Out","York","ON","M6M 1T2",43.69095,-79.4709651,"1","Middle Eastern, Pakistani, Restaurants, Indian, Caribbean"
"1158",103881,"Glory of India","Calgary","AB","T2P 0J7",51.0496906,-114.0750213,"0","Pakistani, Middle Eastern, Event Planning & Services, Indian, Restaurants, Caterers"
"1159",111896,"Dakshin Indian Grill","Charlotte","NC","28277",35.0226574,-80.8472311,"1","Restaurants, Indian"
"1160",23029,"Zaiaka","Plum","PA","15239",40.462932,-79.706651,"0","Indian, Restaurants, Pakistani"
"1161",84593,"Indian Crown","Toronto","ON","M2N 5M6",43.7603425738,-79.4119870991,"1","Indian, Restaurants"
"1162",118426,"Flavor Chalet","Phoenix","AZ","85004",33.4555863531,-112.073546222,"1","Restaurants, Indian, Food, Local Flavor, Food Trucks"
"1163",30437,"Saffron Indian Bistro","Glendale","AZ","85308",33.6557032,-112.1529084,"1","Restaurants, Indian"
"1164",134601,"Incredible India","Brampton","ON","L6R 3P4",43.756018,-79.7590425,"1","Indian, Restaurants, Pakistani"
"1165",53754,"India 360","Toronto","ON","M1X 0A4",43.8238258,-79.2476563,"1","Restaurants, Indian"
"1166",49270,"Express Indien","Montréal","QC","H4V 1T1",45.4670806648,-73.6391973595,"1","Restaurants, Indian"
"1167",133647,"Taste of India","Las Vegas","NV","89119",36.099142,-115.136192,"0","Restaurants, Indian, Vegetarian"
"1168",16734,"Moti Mahal Restaurant","Calgary","AB","T2X 1N4",50.9133932,-114.063158,"0","Pakistani, Indian, Middle Eastern, Restaurants"
"1169",179481,"5 Spice Dining","Toronto","ON","M1X 1E6",43.8233758093,-79.248042294,"1","Indian, Pan Asian, Restaurants, Sri Lankan"
"1170",40928,"Tanjore Catering","Scarborough","ON","M1H 1A9",43.7599521,-79.227442,"1","Indian, Restaurants"
"1171",40392,"Samosa King - Embassy Restaurant","Scarborough","ON","M1S 4Z8",43.810376,-79.257055,"1","Pakistani, Indian, Restaurants"
"1172",11116,"Rangoli Cafe","Coraopolis","PA","15108",40.504712,-80.22208,"0","Restaurants, Indian"
"1173",81135,"Mezbaan Restaurant","Scarborough","ON","M1R 2V8",43.7618506,-79.3166412,"0","Indian, Restaurants"
"1174",108428,"Taste of India","Calgary","AB","T3P 0A3",51.162273,-114.1243356,"0","Caterers, Indian, Event Planning & Services, Restaurants"
"1175",55633,"Roti Palace of India","Toronto","ON","M8X 1E7",43.6450643,-79.5205382,"1","Restaurants, Indian"
"1176",18543,"Indian Hero","Brampton","ON","L6P 3A3",43.7750885,-79.6538068,"1","Restaurants, Indian"
