"","business_id","name","city","state","postal_code","latitude","longitude","is_open","categories"
"1",63384,"La Flor De Calabaza","Phoenix","AZ","85004",33.4559491,-112.072089,"1","Breakfast & Brunch, Lounges, Nightlife, Latin American, Mexican, Bars, Restaurants"
"2",80781,"Bomberos Cafe & Wine Bar","Phoenix","AZ","85020",33.5650982,-112.0737503,"0","Nightlife, Latin American, Wine Bars, Restaurants, Bars, Lounges"
"3",184443,"Tacos Chiwas","Phoenix","AZ","85006",33.465551,-112.0401151,"1","Restaurants, Latin American, Mexican, Tacos"
"4",156595,"Bahía Centroamerica Restaurant","Las Vegas","NV","89146",36.159578,-115.208656,"1","Honduran, Salvadoran, Nicaraguan, Mexican, Latin American, Restaurants"
"5",187969,"Mi Peru South American Grill","Henderson","NV","89012",36.0230899638,-115.0489987523,"1","Restaurants, American (Traditional), Spanish, Latin American, Peruvian"
"6",8890,"Sabor Latin Street Grill - Davidson","Davidson","NC","28036",35.5017212,-80.8610002,"1","Mexican, Restaurants, Venezuelan, Latin American"
"7",65464,"The Boulevard Cafe","Toronto","ON","M5S 1H1",43.6619075,-79.4068878,"0","Breakfast & Brunch, Cafes, Latin American, Event Planning & Services, Restaurants, Peruvian, Caterers"
"8",166485,"Fuego Tacos","Phoenix","AZ","85016",33.5085330166,-112.0290667251,"0","Restaurants, Latin American"
"9",120506,"Makers & Finders Coffee","Las Vegas","NV","89135",36.1486981,-115.3331133,"1","Food, Coffee & Tea, Breakfast & Brunch, Latin American, Restaurants"
"10",81596,"Arepa Market","Toronto","ON","M5T 2L6",43.654787,-79.4021369,"0","Gluten-Free, Latin American, Sandwiches, Restaurants"
"11",160663,"El Buen Gusto","Las Vegas","NV","89101",36.1882094,-115.1165816,"1","Latin American, Restaurants, Salvadoran, Mexican"
"12",65908,"El Carbonero","Phoenix","AZ","85017",33.4951679345,-112.1182567355,"1","Salvadoran, Latin American, Restaurants"
"13",176626,"Lula Lounge","Toronto","ON","M6K 1T9",43.6497277,-79.4345802,"1","Event Planning & Services, Breakfast & Brunch, Dance Clubs, Restaurants, Music Venues, Nightlife, Latin American, Arts & Entertainment, Venues & Event Spaces"
"14",144230,"Rincon De Buenos Aires","Las Vegas","NV","89146",36.126315,-115.214259,"1","Argentine, Delis, Specialty Food, Ethnic Food, Italian, Restaurants, Food, Latin American, Grocery, Steakhouses"
"15",188504,"Arepiando","North York","ON","M6B 3S7",43.7078094,-79.4536285,"0","Latin American, Restaurants"
"16",25817,"Kage Restobar","Mississauga","ON","L5B 3B9",43.5809503862,-79.617787999,"1","Japanese, Restaurants, Asian Fusion, Bars, Nightlife, Tapas Bars, Latin American, Cocktail Bars"
"17",124083,"Tumi Fine Peruvian Cuisine","Chandler","AZ","85225",33.3200036,-111.8583025,"1","Peruvian, Restaurants, Latin American"
"18",97837,"Chica","Las Vegas","NV","89109",36.1226902,-115.1701939,"1","Latin American, Mexican, Wine Bars, Bars, Restaurants, Nightlife"
"19",52598,"Cantina 1511","Charlotte","NC","28209",35.173501,-80.849964,"1","Nightlife, Breakfast & Brunch, Bars, Latin American, Mexican, Gluten-Free, Restaurants, Tex-Mex"
"20",153449,"La Guanaquita","Montréal","QC","H8N 1T7",45.4285793,-73.629909,"1","Restaurants, Salvadoran, Latin American, Food"
"21",135828,"Fuego Cantina","Phoenix","AZ","85022",33.6379062,-112.0626763,"0","Nightlife, Diners, Sports Bars, Restaurants, Bars, Latin American"
"22",115055,"La Catracha","Charlotte","NC","28217",35.1357549,-80.8776375,"1","Honduran, Breakfast & Brunch, Restaurants, Latin American"
"23",70726,"Made in Argentina","Las Vegas","NV","89118",36.0958261,-115.1892402,"1","Latin American, Argentine, Restaurants"
"24",172488,"Fuego CityScape","Phoenix","AZ","85004",33.4480003,-112.0730318,"0","Restaurants, Mexican, Latin American"
"25",113429,"Nonna Urban Eatery","Scottsdale","AZ","85251",33.4932738,-111.9249317,"1","Nightlife, Bars, Italian, Asian Fusion, Tapas/Small Plates, French, Restaurants, Gastropubs, Latin American, Wine Bars"
"26",169671,"Pollo Campero","North Las Vegas","NV","89032",36.2388966082,-115.1560762525,"1","Chicken Shop, Latin American, Restaurants, Fast Food"
"27",20588,"Café Tranquilo","Phoenix","AZ","85013",33.4912529237,-112.0792379331,"1","Restaurants, Nightlife, Latin American, Breakfast & Brunch, Bars, Mexican"
"28",11002,"Rincon Latino","Scarborough","ON","M1P 2L7",43.7615197,-79.2795202,"0","Latin American, Restaurants"
"29",1537,"Blue Agave","Madison","WI","53703",43.0756163,-89.3793937,"1","Nightlife, Cocktail Bars, Bars, Restaurants, Seafood, Mexican, Latin American"
"30",131957,"La Carreta","Montréal","QC","H2S 1L7",45.5348518,-73.6088861,"1","Salvadoran, Latin American, Canadian (New), Restaurants"
"31",168105,"Aquarela Restaurant","Toronto","ON","M3M 1H5",43.722994,-79.4980982,"1","Restaurants, Latin American, Caribbean"
"32",111439,"El Taco Macho","Painesville","OH","44077",41.6963743383,-81.2779645622,"1","Fast Food, Latin American, Tacos, Food, Street Vendors, New Mexican Cuisine, Restaurants, Mexican"
"33",184798,"Mango Tango Nightclub","Las Vegas","NV","89102",36.1486301,-115.2093281,"1","Bars, Restaurants, Dance Clubs, Latin American, Cocktail Bars, Nightlife"
"34",157908,"New Granada","Las Vegas","NV","89146",36.1586808,-115.2367199,"1","Restaurants, Latin American, American (New), Colombian, Fast Food"
"35",83806,"Rubicon Club & Grill","Las Vegas","NV","89123",36.022737,-115.175131,"0","Dance Clubs, Nightlife, Latin American, Sports Bars, Restaurants, Bars, Country Dance Halls, American (New)"
"36",15575,"Brasa Roja","Las Vegas","NV","89104",36.1436636,-115.1418906,"1","Latin American, Food, Colombian, Empanadas, Restaurants, Juice Bars & Smoothies, Seafood"
"37",168172,"El Meson","Lachine","QC","H8S 2N1",45.4327,-73.679468,"1","Restaurants, Latin American, Mexican"
"38",31582,"Pinatas","Scottsdale","AZ","85255",33.6700284,-111.904477,"0","Latin American, Restaurants, Mexican"
"39",167015,"La Rosa Chilena","North York","ON","M3K 1E2",43.7313356,-79.4650661,"1","Food, Sandwiches, Bakeries, Restaurants, Latin American"
"40",130937,"Luna Restaurant and Lounge","Charlotte","NC","28206",35.2536124,-80.805372,"0","Caribbean, Dominican, Restaurants, Salad, Latin American"
"41",141848,"Kaya","Pittsburgh","PA","15222",40.4516553,-79.9844699,"1","Restaurants, Nightlife, Bars, Latin American, Caribbean"
"42",164811,"Las Famosas De Jose","Las Vegas","NV","89169",36.1210015543,-115.1507929713,"1","Mexican, Restaurants, Latin American"
"43",72815,"Fruit Palace","Henderson","NV","89015",36.032499,-114.972222,"1","Salvadoran, Desserts, Food, Fast Food, Latin American, Restaurants, Mexican"
"44",123267,"Pabellon","Pittsburgh","PA","15216",40.4021,-80.0414641,"1","Latin American, Venezuelan, Mexican, Restaurants"
"45",174524,"La Providencia","Montréal","QC","H2R 1X1",45.5378306929,-73.6270617426,"1","Bakeries, Restaurants, Latin American, Salvadoran, Food"
"46",120524,"La Taguara Johnson","Madison","WI","53703",43.0837417,-89.3769002,"1","Caribbean, Colombian, Latin American, Restaurants, Brazilian, Cuban, Venezuelan"
"47",92481,"MexiCados Burritos & Bowls","Brampton","ON","L6T 4L6",43.7146603903,-79.678613618,"1","Mexican, Restaurants, Latin American"
"48",141738,"Bear Den Restaurant","Cleveland","OH","44109",41.4248199,-81.721553,"0","Restaurants, Polish, American (Traditional), Latin American"
"49",68729,"Miramar","Cleveland","OH","44111",41.4637757,-81.7588813,"0","Restaurants, Latin American, Salvadoran"
"50",94307,"Cisco's Grill","Phoenix","AZ","85007",33.451613,-112.085554,"0","Latin American, Restaurants"
"51",10648,"El-Tipico Ecuatoriano","North York","ON","M6M 3Z8",43.7034935,-79.477234,"1","Restaurants, Latin American"
"52",121098,"Vaqueros Carne Asada","Phoenix","AZ","85041",33.3919648,-112.0973091,"1","Seafood, Latin American, Restaurants, Mexican"
"53",40343,"Barroco","Lakewood","OH","44107",41.4770749,-81.7783377,"1","Colombian, Gluten-Free, Sandwiches, Nightlife, Latin American, American (Traditional), Restaurants, Bars"
"54",23844,"Arepas Grill","Charlotte","NC","28217",35.1763731,-80.8800294,"1","Restaurants, Latin American, Basque, Bakeries, Food, Spanish, Venezuelan, Vegetarian"
"55",108969,"Ajo Al's Mexican Cafe","Glendale","AZ","85308",33.6389993,-112.2197265,"1","Mexican, Bars, Restaurants, Nightlife, Latin American, Cocktail Bars"
"56",172507,"Dilla Libre Gourmet Quesadillas Food Truck","Phoenix","AZ","85016",33.5106684,-112.029752,"1","Mexican, Food Trucks, Desserts, Caterers, Fast Food, Event Planning & Services, Tacos, Food, Street Vendors, Restaurants, Asian Fusion, Latin American"
"57",24116,"Colombia Mia","Mississauga","ON","L5B 3B9",43.5810637,-79.6176228,"0","Latin American, Restaurants"
"58",99222,"Mariscos Camaron Pela'o","Phoenix","AZ","85008",33.4652069,-112.0109667,"0","Tacos, Restaurants, Latin American, Mexican, Seafood"
"59",103508,"La Taqueria","Montréal","QC","H1W 1R9",45.5456713696,-73.5440193031,"1","Restaurants, Vegan, Tex-Mex, Latin American, Mexican"
"60",175506,"El Tropico","Charlotte","NC","28213",35.2590665,-80.7934148,"1","Restaurants, Mexican, Latin American"
"61",116939,"Me-A-More Cafe","Rock Hill","SC","29732",34.9709283,-81.0291828,"0","Latin American, Restaurants"
"62",65173,"La Chilenita","Montréal","QC","H2W 1B8",45.5177350286,-73.5851814124,"0","Latin American, Restaurants, Event Planning & Services, Mexican, Caterers"
"63",168832,"Pollo Campero","Las Vegas","NV","89104",36.1585466,-115.076611,"1","Restaurants, Chicken Shop, Mexican, Latin American, Tacos"
"64",130669,"La Casona Bar & Grill","Las Vegas","NV","89121",36.1153932,-115.1140608,"1","Dance Clubs, Latin American, Mexican, Bars, Nightlife, Restaurants, Salvadoran, Seafood"
"65",30971,"Las Margaritas","Mississauga","ON","L5B",43.5809737568,-79.6177482605,"0","Restaurants, Latin American"
"66",122277,"El Nopal","Montréal","QC","H2J 2L5",45.5253392744,-73.5856445879,"0","Latin American, Restaurants, Mexican"
"67",66149,"FrinGo's Kitchen","Chandler","AZ","85224",33.3375314,-111.8596545,"0","Restaurants, Latin American, Puerto Rican, Caribbean"
"68",47195,"Mercado","Montréal","QC","H2S 3E1",45.5332903,-73.6149493,"0","Breakfast & Brunch, Mexican, Latin American, Restaurants"
"69",132172,"Toro Latin Restaurant and Rum Bar","Scottsdale","AZ","85255",33.6405853,-111.9088644,"1","Seafood, Restaurants, Latin American"
"70",140483,"Sabor Latin Street Grill - Pineville","Pineville","NC","28134",35.0884141,-80.8721544,"1","Mexican, Latin American, Venezuelan, Restaurants"
"71",17561,"Gaucho Parrilla Argentina","Pittsburgh","PA","15222",40.449043,-79.987573,"1","Argentine, Latin American, Restaurants, Seafood"
"72",20940,"Cabo Fish Taco","Charlotte","NC","28205",35.2471884,-80.8058116,"1","Latin American, Mexican, Seafood, Restaurants, Tex-Mex"
"73",150942,"El Rancherito","Toronto","ON","M6N 1H8",43.6748467,-79.4578909,"1","Latin American, Restaurants"
"74",115227,"The Canal Club","Scottsdale","AZ","85251",33.5088053,-111.9252515,"1","American (New), Latin American, Caribbean, Restaurants, Cuban"
"75",124136,"Concord Cafe","Toronto","ON","M6H 1L5",43.6615397,-79.4276564,"0","Food, Casinos, Pool Halls, Arts & Entertainment, Restaurants, Coffee & Tea, Nightlife, Latin American"
"76",91366,"Parthenon Bakery","Calgary","AB","T3E 3B3",51.0292542,-114.1421267,"1","Latin American, Venezuelan, Restaurants, Food, Bakeries, Grocery"
"77",53044,"Antigua Guatemala Restaurant","Las Vegas","NV","89119",36.1049744,-115.1359993,"1","Restaurants, Mexican, Latin American"
"78",134792,"El Salvador 503","Las Vegas","NV","89146",36.1519891821,-115.243704021,"0","Restaurants, Spanish, Latin American, Salvadoran, Mexican"
"79",149652,"La Pupusa Loka","Toronto","ON","M3K 1E6",43.7303069,-79.466719,"1","Bars, Pubs, Restaurants, Nightlife, Latin American, Salvadoran"
"80",38467,"Mangoland","Rocky View County","AB","T4A 0G3",51.2032209,-113.9930715,"1","Food Stands, Food, Latin American, Ice Cream & Frozen Yogurt, Restaurants, Colombian, Specialty Food"
"81",146350,"Rincon Catracho","Las Vegas","NV","89119",36.113966,-115.136829,"1","Restaurants, Honduran, Mexican, Latin American, Chinese"
"82",93659,"Ardor Bistro","Toronto","ON","M6J 2Y9",43.6455388,-79.419174,"0","Latin American, Restaurants, Canadian (New), Peruvian, Tapas/Small Plates"
"83",186543,"Iris","Montréal","QC","H2P 1T1",45.5395725,-73.6308094,"1","Restaurants, Salvadoran, Irish, Latin American"
"84",183794,"La Sala Tequila Cantina","Chandler","AZ","85248",33.2610904597,-111.8841627985,"0","Latin American, Bars, Nightlife, Mexican, Restaurants"
"85",22100,"Jerk Hut Jamaican Grille","Phoenix","AZ","85015",33.4956607,-112.0997467,"0","Caribbean, Latin American, Breakfast & Brunch, Food, Restaurants"
"86",60577,"Las Americas","Bedford","OH","44146",41.408098,-81.497417,"1","Grocery, Mexican, Beauty & Spas, Hair Salons, Restaurants, Latin American, Food, Peruvian"
"87",7833,"Sabroso Restaurant","Calgary","AB","T3C 0Z9",51.0386194,-114.0950908,"0","Food, Arts & Entertainment, Tapas/Small Plates, Latin American, Spanish, Music Venues, Nightlife, Restaurants"
"88",123902,"Fonda La Taquiza","Charlotte","NC","28205",35.2017571022,-80.7619229704,"1","Restaurants, Mexican, Latin American"
"89",174120,"Caribbean Delights","Charlotte","NC","28212",35.1522187,-80.745499,"0","Latin American, Restaurants"
"90",180733,"Antojitos","Mississauga","ON","L5E 1W8",43.572276,-79.5640995,"1","Food, Bakeries, Breakfast & Brunch, Colombian, Restaurants, Latin American"
"91",82217,"Pupuseria La Bendicion","Cleveland","OH","44111",41.4521182,-81.7589193,"1","Latin American, Colombian, Delis, Sandwiches, Imported Food, Food, Salvadoran, Ethnic Food, Restaurants, Specialty Food"
"92",92334,"Quisqueya La Bella","Cleveland","OH","44102",41.4698021,-81.7189132,"1","Dominican, Caribbean, Restaurants, Latin American"
"93",159488,"El Varaderito","Las Vegas","NV","89107",36.1688488707,-115.2081237151,"1","Desserts, Sandwiches, Restaurants, Food, Cuban, Pizza, Latin American"
"94",178520,"Latorre's Restaurant","Charlotte","NC","28202",35.2286689,-80.84241,"0","Mexican, Latin American, Nightlife, Dance Clubs, Restaurants"
"95",138943,"Sabor Latino","Concord","NC","28025",35.4164253,-80.6003373,"0","Restaurants, Latin American"
"96",167479,"Fuego Del Mar","Phoenix","AZ","85016",33.5080183,-112.0270172,"0","Restaurants, Latin American, Seafood"
"97",52852,"Colombian Flavor","Calgary","AB","T2C 2E6",50.979621,-113.9973183,"0","Latin American, Restaurants"
"98",101043,"L & J Deli Store","Madison","WI","53703",43.0736131,-89.3947782,"1","Latin American, Restaurants, Delis, Sandwiches"
"99",132937,"El New Yorican Puerto Rican","Phoenix","AZ","85017",33.4810607,-112.1189212,"0","Caribbean, Puerto Rican, Restaurants, Latin American"
"100",58968,"Las Brassas Asados y Mariscos","Las Vegas","NV","89115",36.1908675,-115.0625934,"0","Restaurants, Mexican, Latin American, Seafood, Steakhouses"
"101",141320,"Cuscatlan Latin American Cuisine","Toronto","ON","M3H 5T8",43.7751395352,-79.5258289434,"1","Salvadoran, Restaurants, Latin American"
"102",186841,"Las Pupusas","North Las Vegas","NV","89032",36.238924079,-115.1546943434,"1","Latin American, Restaurants"
"103",159397,"Once","Las Vegas","NV","89109",36.1249493045,-115.1679912955,"1","Japanese, Restaurants, Latin American, Asian Fusion, Peruvian"
"104",61341,"Cafe Costa Rica","Madison","WI","53703",43.0825782,-89.3649184,"0","Caribbean, Latin American, Restaurants"
"105",85961,"Las Pupusas","Las Vegas","NV","89129",36.2189866677,-115.2589684505,"1","Mexican, Spanish, Restaurants, Latin American"
"106",75398,"Jumbo Empanadas","Toronto","ON","M5T 1M5",43.6548489,-79.4019624,"1","Restaurants, Food, Latin American"
"107",42853,"Rika Arepa Express","Las Vegas","NV","89121",36.115773504,-115.0957367136,"1","Venezuelan, Food Trucks, Vegan, Gluten-Free, Latin American, Food, Restaurants, Street Vendors"
"108",161349,"Ricky's Tacos & Beer","Scottsdale","AZ","85251",33.500515,-111.923177,"0","Latin American, Nightlife, Bars, Restaurants, Mexican"
"109",57429,"Smiley's II","Madison","WI","53715",43.0530365434,-89.396169743,"0","Restaurants, Latin American"
"110",169729,"Bomba Tacos & Rum","Beachwood","OH","44122",41.5010649564,-81.4956113758,"1","Mexican, Restaurants, Latin American, Nightlife, Bars, Tacos"
"111",10957,"Mariscos Acapulco","Phoenix","AZ","85008",33.4646362,-112.0307414,"1","Restaurants, Seafood, Mexican, Latin American"
"112",74435,"Goat Post Tropical Grill","Las Vegas","NV","89147",36.1135597,-115.2610867,"0","Restaurants, Caribbean, Latin American"
"113",50077,"Sea Salt Brazilian Grill","Monroe","NC","28110",35.0035317,-80.5536603,"0","Latin American, Restaurants, Salad, Steakhouses, Brazilian"
"114",68380,"Delicious by Aldu Dominican Cuisine","Gilbert","AZ","85296",33.3346675,-111.7844293,"1","Burgers, Beer, Wine & Spirits, Sandwiches, Latin American, Nightlife, Salad, Breakfast & Brunch, Dominican, Soup, Restaurants, Caribbean, Food, Bars"
"115",54035,"Rivas Nicaraguan Restaurant","Pittsburgh","PA","15203",40.4286724,-79.9934064,"0","Restaurants, Latin American"
"116",29159,"Moncho's Bar & Grill","Cleveland","OH","44109",41.4504863,-81.6997559,"0","Colombian, Tapas Bars, Seafood, Latin American, Restaurants"
"117",36042,"La Catrina","Brampton","ON","L6Y 1L9",43.685232,-79.760379,"0","Latin American, Mexican, Beer, Wine & Spirits, Restaurants, Food"
"118",26289,"Craft City","Charlotte","NC","28204",35.2168687,-80.8385574,"1","Nightlife, Cocktail Bars, Bars, Latin American, Beer Bar, Social Clubs, Arts & Entertainment, Restaurants, Sports Bars"
"119",177422,"Menas Grill","Matthews","NC","28105",35.11896,-80.696549,"0","Mediterranean, Mexican, Latin American, Restaurants"
"120",63484,"El Tacazo","Phoenix","AZ","85040",33.3982397,-112.0729273,"1","Restaurants, Latin American, Mexican"
"121",5816,"Nazca Bar & Grill","Eastlake","OH","44095",41.434188,-81.498748,"0","Latin American, Peruvian, Restaurants, Nightlife, Bars"
"122",40467,"Kai","Phoenix","AZ","85226",33.2665198,-111.99188,"1","Day Spas, Event Planning & Services, Hotels & Travel, Restaurants, Beauty & Spas, Breakfast & Brunch, Hotels, Latin American, American (New), Sandwiches"
"123",31838,"Gringo Street","Calgary","AB","T2S 0B2",51.0380697,-114.0728779,"1","Latin American, Restaurants"
"124",62415,"Santa Ana Cafe","Las Vegas","NV","89110",36.1729211,-115.061751,"1","Salvadoran, Latin American, Restaurants, Soul Food, Mexican"
"125",128881,"Inka Heritage","Madison","WI","53715",43.0608425,-89.4009947,"0","Peruvian, Restaurants, Latin American, Seafood"
"126",68348,"Buraka Restaurant","Madison","WI","53703",43.083644,-89.3642676,"1","Restaurants, Vegetarian, African, Vegan, Ethiopian, Latin American"
"127",188835,"BBQ CLE","Cleveland","OH","44135",41.4338855,-81.7917346,"1","Barbeque, Latin American, Restaurants, Event Planning & Services, Caterers"
"128",22949,"Arepazo Express","Toronto","ON","M5T 2L6",43.6533779,-79.4012455,"0","Canadian (New), Venezuelan, Gluten-Free, Restaurants, Latin American, Sandwiches, Colombian"
"129",5724,"Dona Norma Restaurant","Las Vegas","NV","89104",36.1577649,-115.1371441,"0","Restaurants, Latin American"
"130",145849,"Cartel","Montréal","QC","H2T 2M4",45.5226496925,-73.5957384109,"0","Cocktail Bars, Mexican, Tapas/Small Plates, Bars, Latin American, Restaurants, Nightlife"
"131",69198,"Coaltrane's Char Grill","Charlotte","NC","28202",35.2253792,-80.8419644,"0","Empanadas, Latin American, Restaurants, Food, Salad"
"132",81519,"La Casa Latina Restaurant","Calgary","AB","T2A 0R5",51.0377607,-113.9842465,"0","Latin American, Restaurants"
"133",179200,"La Unica Supercenter Internacional","Charlotte","NC","28212",35.187315,-80.75685,"1","Imported Food, Restaurants, Food, Grocery, Butcher, Latin American, Specialty Food, Bakeries, Ethnic Food"
"134",104294,"Morazan Restaurant","Charlotte","NC","28217",35.160745,-80.875748,"1","Salvadoran, Latin American, Restaurants, Spanish, Mexican"
"135",105749,"Laurita's Taco shop","Las Vegas","NV","89121",36.1207660049,-115.0743433228,"1","Tacos, Fast Food, Latin American, Restaurants, Mexican, Caterers, Event Planning & Services"
"136",15911,"Tacos El Jefe's","Las Vegas","NV","89146",36.1586808,-115.2367146,"1","Food, Mexican, Restaurants, Chicken Wings, Latin American, Pizza"
"137",185819,"De Mi Tierra Restaurant","Scottsdale","AZ","85257",33.4666298,-111.9000416,"0","Caribbean, Restaurants, Peruvian, Latin American, Puerto Rican, Dominican"
"138",182310,"Bakery Restaurant Las Palmas","Gastonia","NC","28056",35.2403825,-81.1207496,"1","Specialty Food, Bakeries, Latin American, Mexican, Food, Restaurants"
"139",169387,"La Taguara","Madison","WI","53704",43.1146792,-89.3285605,"1","Restaurants, Colombian, Venezuelan, Latin American, Caribbean"
"140",79914,"Sofrita","Fountain Hills","AZ","85268",33.6040137,-111.7166851,"1","Food, Tapas Bars, Mexican, Latin American, Coffee & Tea, Cocktail Bars, Nightlife, Caterers, Bars, Event Planning & Services, Restaurants"
"141",79702,"Nobu Las Vegas","Las Vegas","NV","89169",36.1091636136,-115.1534932852,"1","Restaurants, Japanese, Sushi Bars, Latin American, Asian Fusion"
"142",8734,"Tilt","Toronto","ON","M5S 2M7",43.6655491,-79.4074684,"0","Bars, Arts & Entertainment, Latin American, Lounges, Arcades, Restaurants, Nightlife"
"143",103283,"El Pulgarcito","Toronto","ON","M1S 3A7",43.7926683,-79.2591224,"1","Latin American, Restaurants, Salvadoran"
"144",101412,"Cookie Martinez","Toronto","ON","M5T 2W6",43.6514248,-79.4041234,"1","Colombian, Food, Latin American, Restaurants, Bakeries, Street Vendors, Food Delivery Services"
"145",71608,"Salsa Restaurant & Bar","Calgary","AB","T2A",51.0374175,-113.9841626,"1","Mexican, Bars, Nightlife, Salvadoran, Latin American, Restaurants"
"146",47862,"Helvetica Juice Bar & Cafe","Lakewood","OH","44107",41.483309,-81.770892,"0","Latin American, Food, Cafes, Specialty Food, Restaurants, Ethnic Food, Juice Bars & Smoothies"
"147",174849,"Cleveland Mofongo Latin Grill","Cleveland","OH","44111",41.4617422,-81.7683554,"1","Food, Latin American, Caribbean, Restaurants, Desserts"
"148",12462,"Arepa Xpress","Las Vegas","NV","89146",36.143203,-115.2344,"0","Restaurants, Food Stands, Street Vendors, Colombian, Food, Latin American"
"149",183155,"Fuego Bistro","Phoenix","AZ","85014",33.521715,-112.0641236,"1","Restaurants, Mexican, Latin American"
"150",72365,"Mary's Restaurant","Phoenix","AZ","85009",33.4396524,-112.1128617,"1","Latin American, Mexican, Restaurants, Salvadoran"
"151",40797,"Bistro Araucaria","Montréal","QC","H2V 4H4",45.5226532,-73.6031816,"1","Latin American, Restaurants"
"152",95654,"Cuzcatlan Restaurant","Charlotte","NC","28205",35.2117687,-80.7625127,"1","Latin American, Seafood, Spanish, Restaurants, Mexican, Salvadoran"
"153",73815,"El Rey del Taco","Montréal","QC","H2R 1S7",45.5364466,-73.6159998,"1","Restaurants, Latin American, Specialty Food, Mexican, Ethnic Food, Food"
"154",84304,"Gordo EX Cafe","Toronto","ON","M5R 3G7",43.6722312,-79.4143193,"1","Venezuelan, Restaurants, Latin American"
"155",15206,"MEXITACO","Toronto","ON","M4B 2K2",43.7086181,-79.2956833,"1","Restaurants, Nightlife, Cocktail Bars, Mexican, Bars, Latin American"
"156",57096,"El Pollo Correteado","Phoenix","AZ","85009",33.4659515,-112.1215774,"1","Mexican, Latin American, Chicken Shop, Restaurants, Fast Food"
"157",126118,"El Chalateco","Montréal","QC","H2S 1S5",45.5348774,-73.6037492,"1","Latin American, Salvadoran, Restaurants"
"158",28237,"Sofrito Rico Authentic Puerto Rican Cuisine","Las Vegas","NV","89146",36.1588302,-115.2111651,"1","Restaurants, Caribbean, Food, Latin American, Farmers Market, Puerto Rican"
"159",98092,"Mama Mia Place","Toronto","ON","M9L 1E8",43.7587687,-79.5697837,"0","Mexican, Restaurants, Food, Specialty Food, Latin American"
"160",40747,"Carvalho's Brazilian Kitchen","Scottsdale","AZ","85255",33.7006985225,-111.923719424,"0","Sandwiches, Restaurants, Latin American, Brazilian, Salad, Steakhouses"
"161",7309,"Batuqui","Cleveland","OH","44120",41.4874525269,-81.5941883093,"1","Tapas Bars, Brazilian, Latin American, Restaurants, Tapas/Small Plates, Salad"
"162",77204,"MAS","Tempe","AZ","85281",33.4508727,-111.9250589,"0","Peruvian, Seafood, Nightlife, Restaurants, Breakfast & Brunch, Cocktail Bars, Bars, Latin American, Sandwiches"
"163",97779,"Ajo Al's Mexican Cafe","Phoenix","AZ","85016",33.5113014,-112.0471247,"1","Restaurants, Latin American, Nightlife, Tacos, Cocktail Bars, Tex-Mex, Mexican, Bars"
"164",107243,"Havana Cafe","Scottsdale","AZ","85254",33.6397015,-111.9443831,"0","Restaurants, Nightlife, Bars, Cuban, Latin American"
"165",77772,"Mambo's Dominican Kitchen","Chandler","AZ","85225",33.3345013,-111.842792,"1","Latin American, Bars, Restaurants, Nightlife, Dominican, Caribbean"
"166",141593,"Oliver's Chicken","Concord","NC","28027",35.3692223588,-80.7221260294,"1","American (Traditional), Latin American, American (New), Restaurants"
"167",124890,"Makers & Finders Coffee","Las Vegas","NV","89104",36.157897,-115.153959,"1","Cafes, Breakfast & Brunch, Coffee & Tea, Food, Restaurants, Latin American"
"168",96991,"Luchita's Mexican Restaurant","Cleveland","OH","44111",41.4587829,-81.7690699,"1","Mexican, Restaurants, Latin American"
"169",90211,"Restaurant Qué Querés","Montréal","QC","H2R 2N2",45.5414642,-73.6146105,"0","Restaurants, Latin American, Salvadoran"
"170",79643,"Fuzion 99","Toronto","ON","M6C 1B6",43.681016,-79.4303768,"0","Arts & Entertainment, Music Venues, Nightlife, Beauty & Spas, Mexican, Italian, Latin American, Dance Clubs, Restaurants"
"171",177317,"La Favorita","Brampton","ON","L6X 1A1",43.685653,-79.7604659,"1","Food, Latin American, Restaurants"
"172",13116,"Cachitos","Montréal","QC","H2X 1K8",45.5113482855,-73.5626724735,"0","Food, Latin American, Restaurants, Bakeries, Cafes"
"173",175936,"Delicias Restaurante Latino","Charlotte","NC","28212",35.203509042,-80.7366089188,"1","Restaurants, Latin American, Mexican"
"174",34493,"La Tiendita Colombian Restaurant","Mesa","AZ","85201",33.4154777,-111.8425801,"1","Food, Colombian, Arts & Crafts, Latin American, Couriers & Delivery Services, Restaurants, Cafes, Ethnic Food, Local Services, Shopping, Specialty Food"
"175",27934,"Sabor Latin Street Grill - Indian Trail","Indian Trail","NC","28079",35.078671,-80.653514,"1","Mexican, Restaurants, Caribbean, Latin American, Food, Desserts"
"176",43426,"Mamma's Bakery","Aurora","ON","L4G 2N9",43.998056,-79.474905,"0","Colombian, Coffee & Tea, Food, Restaurants, Bakeries, Latin American"
"177",132257,"Maizal","Toronto","ON","M6K 3E4",43.6388977,-79.4218429,"1","Vegetarian, Restaurants, Mexican, Latin American"
"178",112707,"LC 21 Latin Fusion Bar & Bistro","Charlotte","NC","28270",35.141595,-80.733212,"0","Restaurants, Latin American"
"179",16701,"Cafe Costa Rica","Madison","WI","53703",43.0748397823,-89.3976026773,"1","Restaurants, Food Trucks, Latin American, Food Stands, Food, Caribbean"
"180",137436,"Salvadoreno Restaurant","Mesa","AZ","85204",33.4092808,-111.7891338,"1","Food, Imported Food, Specialty Food, Restaurants, Ethnic Food, Salvadoran, Latin American, American (Traditional)"
"181",64470,"Sabroso Mexican Delights","Pittsburgh","PA","15222",40.4510258,-79.9842689,"1","Street Vendors, Latin American, Food, Mexican, Restaurants"
"182",99791,"Ave Maria Latin Café","Toronto","ON","M6G 1K8",43.6643448,-79.4143913,"1","Coffee & Tea, Restaurants, Grocery, Latin American, Food, Ethnic Food, Specialty Food"
"183",53873,"Plaza Latina","Toronto","ON","M9L 1Y8",43.7512345,-79.5520022,"1","Restaurants, Spanish, Latin American, Food"
"184",39784,"The View Mexican Grill","Las Vegas","NV","89130",36.2175722765,-115.2083918136,"0","Latin American, Tex-Mex, Restaurants, Mexican"
"185",47769,"Tacos Tin Tan","Montréal","QC","H2W 2M2",45.5193507681,-73.5733594609,"1","Mexican, Restaurants, Latin American"
"186",51936,"El Bombazo Latino Market","Calgary","AB","T2A 0P7",51.0377727,-113.9920892,"0","Mexican, Latin American, Restaurants"
"187",152459,"deseo","Scottsdale","AZ","85254",33.6259699759,-111.9327184233,"1","Restaurants, Latin American, Hotels & Travel, Event Planning & Services, Hotels"
"188",155986,"The Campus Grille","Berea","OH","44017",41.3666166002,-81.8512780219,"1","Restaurants, Fast Food, Latin American, Puerto Rican, Food, Spanish, Caribbean"
"189",98993,"Bacán Restobar","Carefree","AZ","85377",33.8260231,-111.9234184,"0","Restaurants, Latin American, Cocktail Bars, Tapas/Small Plates, Bars, Nightlife"
"190",122574,"Hello Chicken","Charlotte","NC","28210",35.0895008,-80.865205,"1","Salad, Latin American, Restaurants, Colombian, Chicken Shop"
"191",57539,"Lagartos","Madison","WI","53714",43.084874,-89.309364,"0","Restaurants, Burgers, Dance Clubs, Nightlife, Bars, Latin American"
"192",99125,"El Cafetal","Indian Trail","NC","28079",35.0680557747,-80.6771468233,"1","Latin American, Coffee & Tea, Colombian, Spanish, Restaurants, Food, Mexican"
"193",190359,"My Empanada","Mississauga","ON","L5A 4E4",43.5821821,-79.6185279,"1","Restaurants, Colombian, Food, Latin American"
"194",60131,"Pisco","Toronto","ON","M4N 2L5",43.7290624,-79.4030983,"0","Restaurants, Canadian (New), Peruvian, Latin American"
"195",28912,"Copacabana Brazilian Steak House","Toronto","ON","M4P 1E8",43.7078631,-79.394156,"1","Restaurants, Steakhouses, Latin American, Food, Brazilian, Beer, Wine & Spirits"
"196",93516,"Latin Fish","Las Vegas","NV","89128",36.2074847,-115.2682033,"0","American (New), Cuban, Restaurants, Latin American, Seafood"
"197",86867,"Moe's Southwest Grill","Charlotte","NC","28210",35.1474859643,-80.8333519277,"1","Latin American, Mexican, Fast Food, Spanish, Restaurants, Tex-Mex"
"198",49868,"El Charro's Taco Shop","North Las Vegas","NV","89031",36.2626058,-115.1794172,"0","Mexican, Restaurants, Tex-Mex, Latin American"
"199",160415,"Sarava At Shaker Square","Cleveland","OH","44120",41.4841708,-81.5897355,"0","Brazilian, Tapas Bars, Restaurants, Latin American, Seafood, Steakhouses"
"200",13504,"Cacique Grill","Montréal","QC","H2T",45.5200929437,-73.5864438862,"1","Latin American, Venezuelan, Restaurants"
"201",55415,"Green Forest Churrascaria","Pittsburgh","PA","15235",40.446357054,-79.826819346,"1","Lounges, Bars, Nightlife, Brazilian, Steakhouses, Latin American, Restaurants, Cocktail Bars"
"202",96308,"Calakmul","Cave Creek","AZ","85331",33.8304371,-111.9317087,"0","Mexican, New Mexican Cuisine, Restaurants, Latin American, Tacos"
"203",77047,"Burrito Zone","Brampton","ON","L6W 3C9",43.6945685,-79.7491965,"1","Restaurants, Fast Food, Latin American, Mexican"
"204",4000,"Ko'ox Hana","Toronto","ON","M5T 2L8",43.6547751,-79.4022052,"1","Restaurants, Mexican, Latin American"
"205",77888,"Taqueria El Manhattan","Rock Hill","SC","29732",34.9618483903,-81.0039941024,"1","Latin American, Mexican, Restaurants"
"206",28003,"Cocos Locos","Willoughby","OH","44094",41.626652,-81.433992,"1","Mexican, Caterers, Latin American, Restaurants, Event Planning & Services"
"207",7404,"Machu Picchu Peruvian Cuisine & Bar","Pineville","NC","28134",35.0831648,-80.8843741,"1","Latin American, Restaurants, Peruvian"
"208",149975,"Morazan Restaurant","Charlotte","NC","28217",35.148215,-80.8950909,"1","Restaurants, Mexican, Latin American"
"209",115091,"El Conquistador","Glendale","AZ","85308",33.6365781347,-112.0140480995,"0","Restaurants, Latin American, Mexican"
"210",53116,"Tamales","Saint-Lambert","QC","J4P 2J6",45.5001011,-73.5083032,"0","Latin American, Mexican, Restaurants"
"211",127728,"Maiz","Toronto","ON","M4N 2L2",43.728769131,-79.4035453722,"1","Latin American, Restaurants"
"212",165086,"El Arepazo Y Pupuseria","Fairview Park","OH","44126",41.4378589592,-81.8729844689,"1","Colombian, Restaurants, Salvadoran, Latin American"
"213",170338,"La Cabana Mexican Grill & Bar","Charlotte","NC","28227",35.143439,-80.722294,"0","Latin American, Mexican, Restaurants"
"214",93784,"Pollo Campero","Phoenix","AZ","85033",33.4797,-112.225412,"0","Restaurants, Latin American, Mexican, Fast Food"
"215",3995,"Cocina de Doña Julia","Toronto","ON","M6P 3S6",43.6654486,-79.4525361,"1","Restaurants, Latin American"
"216",108049,"Mr. Cooker","Las Vegas","NV","89044",35.9208835,-115.1652008,"1","Latin American, Restaurants, Food Trucks, Venezuelan, Food"
"217",129166,"Amanecer Salvadoreno Restaurant","Las Vegas","NV","89104",36.1531479,-115.1539905,"0","Restaurants, Latin American, Spanish"
"218",83788,"Mundo Restaurant","Las Vegas","NV","89106",36.1677078,-115.1561219,"0","Latin American, Mexican, Spanish, Restaurants"
"219",162788,"Los Paisas","Charlotte","NC","28217",35.1685609,-80.874931,"0","Latin American, Brazilian, Restaurants"
"220",159300,"Valdez","Toronto","ON","M5V 1M6",43.6444801,-79.4005463,"0","Bars, Latin American, Barbeque, Cocktail Bars, Restaurants, Nightlife"
"221",151827,"La Guanaquita","Toronto","ON","M3L 1A5",43.7199565341,-79.5113310857,"1","Restaurants, Salvadoran, Latin American"
"222",190547,"Lui's Cocina","Las Vegas","NV","89146",36.1520101,-115.243704,"1","Restaurants, Mexican, Event Planning & Services, Latin American, Salvadoran, Caterers"
"223",10563,"Tropicalyyc","Calgary","AB","T2T 0E3",51.0381349,-114.094277,"1","Nightlife, Restaurants, Mexican, Cocktail Bars, Tex-Mex, Latin American, Bars, Colombian"
"224",32193,"La Pasiva","North York","ON","M3K 1E7",43.7304903,-79.4690921,"1","Latin American, Restaurants"
"225",94931,"Frida","Montréal","QC","H4C 2G9",45.4845656,-73.5802973,"1","Restaurants, Mexican, Latin American"
"226",185817,"Sabor Latin Street Grill - Steele Creek","Charlotte","NC","28273",35.1172665,-80.9616367,"1","Restaurants, Latin American, Caribbean, Mexican"
"227",165656,"La Casa Latina Mexican & Latin Grill","Calgary","AB","T3C 0M6",51.043508,-114.0926947,"1","Mexican, Latin American, Restaurants, Salad"
"228",104318,"Pupusería El Zunzal","Las Vegas","NV","89108",36.1969016,-115.2062221,"1","Mexican, Latin American, Restaurants"
"229",57816,"Barroco","Cleveland","OH","44120",41.4874122,-81.5937045,"1","Colombian, Bars, Nightlife, Venezuelan, Latin American, Restaurants, Caribbean"
"230",15597,"Villa Peru Restaurant & Bar","Tempe","AZ","85281",33.4508772606,-111.9251943202,"0","Cocktail Bars, Bars, Restaurants, Nightlife, Peruvian, Latin American, Sandwiches"
"231",42477,"El Habanero & Churrobar","Toronto","ON","M1V 4Z4",43.8271892,-79.2909971,"1","Caterers, Food, Event Planning & Services, Caribbean, Cuban, Latin American, Donuts, Desserts, Spanish, Restaurants"
"232",96111,"Pupusas La Familiar Restaurant","Las Vegas","NV","89121",36.1008356513,-115.0750626541,"1","Mexican, Burgers, Latin American, Breakfast & Brunch, Salvadoran, Food, Restaurants"
"233",152302,"Fonda Lola","Toronto","ON","M6J 1G8",43.6448052,-79.4166327,"1","Latin American, Mexican, Restaurants"
"234",45333,"Andale Fresh Food","Las Vegas","NV","89123",36.0415486,-115.1215536,"0","Restaurants, Mexican, Salvadoran, Breakfast & Brunch, Latin American"
"235",64558,"Cafe Americano","Las Vegas","NV","89109",36.115557,-115.174632,"1","Restaurants, Diners, Breakfast & Brunch, American (New), Latin American"
"236",138162,"Chile Caliente Tacos Y Mariscos","Henderson","NV","89014",36.0792706,-115.0536845,"1","Latin American, Event Planning & Services, Caterers, Restaurants, Mexican"
"237",153773,"Bloom Restaurant","Toronto","ON","M6S 1P1",43.6501817,-79.479737,"1","American (New), Restaurants, Latin American"
"238",77183,"Benny's Sports Bar","Cleveland","OH","44109",41.4601128,-81.7115556,"1","Bars, Latin American, Chicken Wings, Sandwiches, Sports Bars, Dance Clubs, Nightlife, Restaurants"
"239",174617,"Pomarosa Coffee Shop & Kitchen","Toronto","ON","M4J 1N4",43.683242,-79.32545,"1","Coffee & Tea, Cafes, Latin American, Food, Restaurants, Venezuelan, Sandwiches"
"240",8359,"Antojitos Catrachos","Charlotte","NC","28212",35.2016526,-80.7369024,"1","Honduran, Restaurants, Mexican, Latin American"
"241",99623,"Bar Mar","Toronto","ON","M4S 2M9",43.7045219,-79.3883282,"0","Peruvian, Restaurants, Tapas Bars, Latin American"
"242",139945,"Centro America Restaurant","Las Vegas","NV","89146",36.1431011,-115.2265239,"1","Latin American, Restaurants"
"243",89135,"Los Chicos Brasa","Markham","ON","L3S 0B6",43.8503882,-79.2539052,"0","Chicken Wings, Brazilian, Specialty Food, Latin American, Barbeque, Restaurants, Peruvian, Food, Ethnic Food"
"244",55309,"3 Amigos","Boisbriand","QC","J7H 0B4",45.6285660978,-73.8488843892,"1","Restaurants, Mexican, Latin American, Tex-Mex"
"245",73843,"CopaCabana Brazilian Steakhouse","Vaughan","ON","L4L 5X8",43.784552,-79.565759,"1","Barbeque, Steakhouses, Restaurants, Brazilian, Latin American"
"246",15163,"Julieta Cuisine Latine","Montréal","QC","H2S 1R1",45.5311411,-73.6077813,"0","Latin American, Restaurants, Breakfast & Brunch"
"247",124453,"Karlas Sports Lounge & Restaurant","Phoenix","AZ","85009",33.4763758615,-112.1116781349,"0","Beer, Wine & Spirits, Karaoke, Mexican, Dive Bars, Sandwiches, Sports Bars, American (Traditional), Food, Burgers, Bars, Latin American, American (New), Restaurants, Nightlife"
"248",137863,"Tacos Mexicanos","Macedonia","OH","44056",41.2994789758,-81.5176079312,"1","Latin American, Food, Mexican, Restaurants"
"249",89384,"Arepera","Montréal","QC","H2X 1B4",45.5147831155,-73.5720007059,"1","Vegetarian, Gluten-Free, Restaurants, Venezuelan, Latin American, Vegan"
"250",104447,"Esmeralda's Cafe","Las Vegas","NV","89104",36.1584611,-115.140488,"1","Seafood, Salvadoran, Latin American, Restaurants, Mexican"
"251",11408,"Sabor Miami Cafe & Gallery","Cleveland","OH","44109",41.4241196,-81.6973112,"1","Cafes, Latin American, Restaurants"
"252",33639,"Les Deux Fours Restaurant","Montréal","QC","H2G 1E4",45.551316,-73.5993917,"1","Latin American, Pizza, Restaurants"
"253",175384,"La Bella Managua","Toronto","ON","M6G 1M5",43.6622467,-79.424958,"1","Restaurants, Nicaraguan, Latin American"
"254",51550,"Madre","Montréal","QC","H3L 1T4",45.5466801,-73.6658532,"1","Latin American, Seafood, Restaurants, Canadian (New)"
"255",70933,"La Quina Rotisserie","Toronto","ON","M6A 2T3",43.7198163163,-79.4566065073,"0","Latin American, Restaurants, Peruvian, Chicken Shop"
"256",165190,"Mariscos Camaron Pela'o","Goodyear","AZ","85338",33.4503883813,-112.3418700323,"1","Mexican, Latin American, Restaurants, Tacos, Seafood, Professional Services"
"257",116753,"Los Planes","Montréal","QC","H2S 1G5",45.5383623,-73.6110024,"1","Latin American, Restaurants, Salvadoran"
"258",35666,"Mojito Cubano","Toronto","ON","M6R 1A4",43.640361,-79.4383991,"1","Restaurants, Nightlife, Bars, Cuban, Beer Bar, Latin American"
"259",84617,"Augusto Al Gusto","Verdun","QC","H4G 1W8",45.4585566,-73.5671691,"1","Latin American, Peruvian, Restaurants"
"260",153006,"Tacos El Asador","Toronto","ON","M6G 1L2",43.6637372,-79.4169128,"1","Restaurants, Latin American, Mexican"
"261",47761,"Las Pupusas Deli","Charlotte","NC","28214",35.2431707,-80.9373842,"1","Salvadoran, Restaurants, Latin American"
"262",114712,"Saona Dominican Restaurant & Bar","Charlotte","NC","28205",35.2500759,-80.7813192,"1","Restaurants, Food, Caribbean, Dominican, Latin American"
"263",52180,"Escobar's Restaurant","Champaign","IL","61820",40.1212439,-88.2428344,"0","Latin American, American (New), Mexican, Restaurants"
"264",158336,"Arepa Café","Toronto","ON","M5V 2B3",43.6479538471,-79.4008710352,"1","Latin American, Salad, Coffee & Tea, Desserts, Venezuelan, Restaurants, Food"
"265",139344,"La Bonita Latin American Restaurant","Mississauga","ON","L4W 0B8",43.626754,-79.6271339,"1","Food, Latin American, Restaurants"
"266",67868,"Tacos Mexico","Calgary","AB","T2A 4V6",51.051942386,-113.9795121432,"1","Mexican, Restaurants, Tex-Mex, Latin American"
"267",140391,"El carbonero restaurant and pupuseria","Las Vegas","NV","89102",36.1287444,-115.2090168,"1","Salvadoran, Latin American, Restaurants"
"268",186013,"Sol","Willoughby","OH","44094",41.6407198,-81.4053605,"1","Tapas/Small Plates, Spanish, Beer, Wine & Spirits, Restaurants, American (New), Food, Latin American"
"269",55603,"El Pulgarcito","Toronto","ON","M1T 2M2",43.7806222,-79.2978768,"0","Latin American, Restaurants"
"270",25000,"Cana Latin Kitchen & Bar","Las Vegas","NV","89119",36.0680069,-115.1763677,"0","Latin American, Tapas Bars, Restaurants, Tapas/Small Plates"
"271",105135,"Mariachi Coco's Mexican Restaurante","Akron","OH","44313",41.1338797,-81.550383,"0","Latin American, Mexican, Restaurants"
"272",79712,"L'Atelier d'Argentine","Montréal","QC","H2Y 2C4",45.5000326,-73.5537952,"0","Latin American, Argentine, Breakfast & Brunch, Restaurants, Steakhouses"
"273",59114,"Los Chicos Brasa","Markham","ON","L3P 1B9",43.8685812,-79.2823755,"1","Peruvian, Latin American, Restaurants, Chicken Wings"
"274",29813,"Copan Restaurant","Charlotte","NC","28205",35.2090454102,-80.7574539185,"1","Restaurants, Salvadoran, Latin American"
"275",146646,"Latin Taste","Toronto","ON","M5T 1L8",43.655127,-79.401609,"1","Peruvian, Mexican, Latin American, Food, Restaurants, Argentine, Bakeries"
"276",38278,"Maria Bonita","Charlotte","NC","28263",35.1068061,-80.8068776,"0","Latin American, Mexican, Restaurants"
"277",67195,"Tacos Jalisco","Scottsdale","AZ","85251",33.480733,-111.92754,"0","Mexican, Latin American, Restaurants"
"278",33978,"Costa Vida Fresh Mexican Grill","Mesa","AZ","85204",33.3836669831,-111.7568119374,"1","Mexican, Tex-Mex, Restaurants, Latin American"
"279",57078,"La Casa Tazumal","Cleveland","OH","44111",41.4637757,-81.7588813,"0","Restaurants, Latin American"
"280",35988,"Perola Supermarket","Toronto","ON","M5T 2L8",43.6549426,-79.40196,"1","Grocery, Restaurants, Latin American, Food"
"281",87466,"Sabor Latin Street Grill - South End","Charlotte","NC","28203",35.2142559,-80.857754,"1","Restaurants, Latin American, Mexican"
"282",104491,"El Tango Latin Grill","Lakewood","OH","44107",41.4774278,-81.7929963,"1","Restaurants, Latin American, Mexican"
"283",10647,"Barroco express","Cleveland","OH","44113",41.4982016,-81.7019598,"0","Restaurants, Cuban, Colombian, Latin American"
"284",22614,"El Rancho","Toronto","ON","M5T 1T3",43.6568073,-79.4071149,"1","Mexican, Restaurants, Food, Nightlife, Spanish, Bars, Latin American"
"285",51893,"Colonia","Pittsburgh","PA","15222",40.4520554,-79.9837546,"1","Latin American, Restaurants"
"286",147584,"Que Chevere","Phoenix","AZ","85014",33.5083316,-112.0565795,"1","Event Planning & Services, Food Trucks, Food, Caterers, Venezuelan, Restaurants, Latin American"
"287",169048,"Pollo Campero","Charlotte","NC","28217",35.1519365,-80.8768231,"1","Fast Food, Restaurants, Chicken Shop, Latin American"
"288",50701,"Mira","Toronto","ON","M5V 1E3",43.644177,-79.396429,"1","Latin American, Restaurants, Peruvian"
"289",100315,"Sabor Latin Street Grill","Charlotte","NC","28204",35.2162131,-80.8216897,"1","Latin American, Food, Restaurants, Street Vendors, Mexican"
"290",50510,"La Bahia","Las Vegas","NV","89121",36.130531,-115.108748,"1","Restaurants, Latin American, Mexican"
"291",42702,"Pollos Mario Restaurant","Charlotte","NC","28212",35.2036261,-80.7425316,"1","Mexican, Colombian, Restaurants, Latin American"
"292",139096,"SalvaMex","Las Vegas","NV","89146",36.159527,-115.242714,"0","Salvadoran, Latin American, Restaurants, Mexican"
"293",16388,"Bluefire Grille","Scottsdale","AZ","85250",33.5308625,-111.9247184,"1","Latin American, American (New), Restaurants"
"294",48883,"Moe's Southwest Grill","Fort Mill","SC","29708",35.0340684,-80.9693277,"1","Mexican, Restaurants, Latin American, Diners, Tex-Mex, Fast Food"
"295",147247,"Miami Beach Grill","Vaughan","ON","L4K 5Y5",43.8285607833,-79.5410235853,"1","Latin American, Barbeque, Spanish, Restaurants"
"296",118453,"Bahama Breeze","Pittsburgh","PA","15205",40.4506444723,-80.1592732328,"1","Latin American, Seafood, Laotian, Caribbean, Restaurants, Nightlife, Bars"
"297",20348,"Adobo Dragon","Phoenix","AZ","85004",33.4583806623,-112.073423995,"0","Food, Restaurants, Specialty Food, Asian Fusion, Latin American, Ethnic Food, Mexican, Seafood"
"298",181542,"El Toro","Longueuil","QC","J4L 1M1",45.524306,-73.468979,"1","Event Planning & Services, Delicatessen, Food, Caterers, Latin American, Restaurants"
"299",89629,"Mr Pollo","Fort Mill","SC","29707",34.9498041,-80.8471081,"1","Chicken Shop, Restaurants, Latin American, Salad"
"300",76667,"Las Delicias","Mississauga","ON","L5B 1H7",43.5789270202,-79.6181294695,"1","Restaurants, Latin American, Colombian"
"301",190723,"4uatro Rotisserie","La Prairie","QC","J5R 2E6",45.4141374715,-73.4832505882,"1","Barbeque, Desserts, Caribbean, Latin American, Restaurants, Tapas/Small Plates, Food"
"302",24426,"Completo","Toronto","ON","M4M 2Y9",43.6626328,-79.3340575,"1","Food, Comfort Food, Restaurants, Street Vendors, Latin American, Fast Food"
"303",85266,"Brazilian Bull Steakhouse","Phoenix","AZ","85048",33.3039011,-111.9784087,"0","Latin American, Brazilian, Barbeque, Restaurants, Steakhouses"
"304",161914,"El Gordo Fine Foods","Toronto","ON","M5T 2L6",43.6547751,-79.4022052,"0","Latin American, Specialty Food, Restaurants, Coffee & Tea, Grocery, Bakeries, Mexican, Food"
"305",90901,"Milagro","Toronto","ON","M6J 1G1",43.6461262,-79.408207,"1","Mexican, Local Flavor, Latin American, Restaurants"
"306",75466,"Seviche","Pittsburgh","PA","15222",40.4440334,-79.9970421,"0","Tapas/Small Plates, Latin American, Cuban, Restaurants"
"307",45701,"Pollo Campero","Charlotte","NC","28215",35.2354634736,-80.7386802882,"1","Empanadas, Latin American, Food, Fast Food, Chicken Shop, Peruvian, Restaurants"
"308",13419,"Bomba Tacos & Rum","Rocky River","OH","44116",41.480194,-81.841648,"1","Tacos, Restaurants, Latin American, Mexican"
"309",75283,"Le Ice & Tacos","Montréal","QC","H2T 1N4",45.5204879,-73.5863086,"1","Latin American, Restaurants, Tex-Mex, Mexican"
"310",73895,"Restaurante Las San Sivar Pupusería","Toronto","ON","M6N 1K9",43.6688692,-79.4833112,"1","Salvadoran, Restaurants, Latin American"
"311",120150,"La Tortilla Feliz","Cleveland","OH","44113",41.4759223,-81.6909584,"0","Latin American, Restaurants"
"312",28792,"Danna's Caribbean Grill","Las Vegas","NV","89101",36.1673841,-115.1458384,"0","Caribbean, Cuban, Latin American, Asian Fusion, Restaurants"
"313",47911,"El Rincon Tico","Madison","WI","53703",43.082528,-89.364831,"0","Restaurants, Latin American, Food"
"314",75326,"Tostadas Grill","Toronto","ON","M6B 3S7",43.7077512821,-79.4537546486,"1","American (Traditional), Venezuelan, Restaurants, Latin American"
"315",82338,"Bandito Latin Kitchen & Cantina","Las Vegas","NV","89169",36.1153683,-115.1586233,"1","Tacos, Bars, Latin American, Restaurants, Cocktail Bars, Nightlife, Mexican"
"316",174513,"Morazan","Charlotte","NC","28210",35.1606216431,-80.8759994507,"1","Food, American (New), Latin American, Restaurants"
"317",32241,"Punta Cana Restaurant & Grill","Charlotte","NC","28217",35.166205,-80.876446,"1","Cuban, Latin American, Caterers, Caribbean, Dominican, Restaurants, Event Planning & Services"
"318",63941,"Las Pupusas Restaurant","Las Vegas","NV","89102",36.130903,-115.190783,"1","Restaurants, Latin American, Mexican"
"319",186496,"Pios Pios Ice Cream Shop","Las Vegas","NV","89109",36.141477489,-115.135794729,"0","Food, Latin American, Desserts, Restaurants, Ice Cream & Frozen Yogurt, Juice Bars & Smoothies, Gelato"
"320",138487,"Casa Grande Restaurant","Charlotte","NC","28209",35.1927328,-80.8735693,"0","Latin American, Restaurants, Mexican, Caribbean"
"321",35235,"Benny's Sports Cafe","Cleveland","OH","44109",41.4601128,-81.7114099,"0","Restaurants, Chicken Wings, Sports Bars, Food, Latin American, Beer, Wine & Spirits, Bars, Nightlife, Burgers"
"322",41047,"The Mission Old Town","Scottsdale","AZ","85251",33.492287,-111.924273,"1","Latin American, Restaurants, Nightlife, Mexican, Bars"
"323",23478,"El Cafetal Restaurant & Bakery","Toronto","ON","M6E 1A2",43.6793591,-79.4374897,"0","Restaurants, Latin American, Peruvian, Colombian, Mexican"
"324",49199,"The Sugar Corner","Las Vegas","NV","89119",36.1006924561,-115.1394493587,"0","Restaurants, Latin American, Bakeries, Specialty Food, Ethnic Food, Breakfast & Brunch, Food, Cuban"
"325",127673,"Plaza Fiesta Carolinas","Fort Mill","SC","29715",35.0983055681,-80.935170874,"0","Arcades, Shopping, Flea Markets, Restaurants, Local Flavor, Latin American, Food Court, Arts & Entertainment"
"326",31474,"Cafe Carumba","Scottsdale","AZ","85251",33.4949678,-111.9241443,"0","Restaurants, American (Traditional), Mexican, Tapas Bars, American (New), Latin American, Breakfast & Brunch"
"327",150880,"Bahama Breeze","Las Vegas","NV","89169",36.1150923353,-115.1546845794,"1","Seafood, Nightlife, Latin American, Laotian, Caribbean, Bars, Restaurants"
"328",150178,"Pupuseria Katarina","Cleveland","OH","44109",41.4190574,-81.6891499,"1","Salvadoran, Restaurants, Latin American"
"329",158460,"Bakery El Quetzal","North York","ON","M9N 3V3",43.7001904999,-79.5111404958,"1","Restaurants, Food, Coffee & Tea, Mexican, Latin American, Bakeries"
"330",164184,"The Corn Flower","Scottsdale","AZ","85254",33.625289,-111.9770503,"0","Latin American, Mexican, Gluten-Free, Restaurants"
"331",5910,"Cachitos","Montréal","QC","H2X 3V4",45.5098058,-73.5640372,"1","Food, Bakeries, Venezuelan, Restaurants, Cafes, Latin American"
"332",150161,"Salvadoreño Restaurant","Phoenix","AZ","85020",33.5661279,-112.0733931,"1","Latin American, Restaurants, Salvadoran"
"333",47199,"Cafe Posada","Gilbert","AZ","85296",33.3205989,-111.7888447,"0","Latin American, Mexican, Restaurants"
"334",126077,"El Amigo","Montréal","QC","H2S 1K7",45.532596,-73.6114079,"1","Restaurants, Mexican, Salvadoran, Latin American"
"335",10120,"San Salvador Restaurant","Las Vegas","NV","89104",36.1457889,-115.1366894,"1","Salvadoran, Restaurants, Mexican, Latin American"
"336",176196,"Social Hall","Tempe","AZ","85281",33.4228038,-111.9082255,"1","Bars, Restaurants, Nightlife, Venues & Event Spaces, American (Traditional), Event Planning & Services, Latin American, American (New)"
"337",143254,"Bocadillo","Montréal","QC","H2S 3C7",45.533132,-73.615348,"1","Latin American, Restaurants, Venezuelan"
"338",117091,"Todo Rico Bakery","Mississauga","ON","L5C 4L3",43.5789259112,-79.6607345657,"0","Latin American, Restaurants, Bakeries, Food, Colombian"
"339",148072,"The Latin Kitchen","Mesa","AZ","85210",33.4084223,-111.8440909,"1","Nightlife, Cuban, Restaurants, Latin American, Bars, Bartenders, Event Planning & Services"
"340",120579,"Firefly","Las Vegas","NV","89101",36.1711699752,-115.1260876455,"0","Latin American, American (New), Restaurants, Tapas Bars"
"341",59819,"La Sala Tequila Cantina","Scottsdale","AZ","85253",33.5671687057,-111.9252253713,"1","Mexican, Restaurants, Latin American"
"342",133727,"Machu Picchu","Charlotte","NC","28212",35.192896,-80.7641453,"0","Spanish, Basque, Latin American, Restaurants, Peruvian"
"343",65988,"Las Pupusas","Las Vegas","NV","89119",36.1020657,-115.1178357,"1","Restaurants, Latin American, Salvadoran, Mexican"
"344",22947,"Moe's Southwest Grill","Charlotte","NC","28226",35.088455,-80.845816,"1","Tex-Mex, Latin American, Restaurants, Mexican"
"345",67246,"Aracely's Sazón Colombian Restaurant","Las Vegas","NV","89103",36.1230052,-115.2241611,"1","Food, Comfort Food, Colombian, Specialty Food, Breakfast & Brunch, Seafood, Ethnic Food, Restaurants, Latin American"
"346",101522,"El Kefon Puertoriqueno","Lorain","OH","44052",41.4536332,-82.1667529,"1","Latin American, Restaurants"
"347",17905,"Tango Cafe","Pittsburgh","PA","15217",40.4296328,-79.9231618,"0","Restaurants, Food, Desserts, Latin American, Coffee & Tea, Sandwiches"
"348",96760,"Genaro's Rotisserie & Grill","Charlotte","NC","28210",35.094002,-80.867142,"0","Peruvian, Latin American, Restaurants"
"349",131770,"Crandall's Peruvian Bistro","Madison","WI","53703",43.074922,-89.39103,"1","Restaurants, Latin American, American (Traditional), Peruvian"
"350",130722,"Bomba Tacos & Rum","Akron","OH","44333",41.1342696794,-81.6382378712,"1","Restaurants, Desserts, Bars, Food, Nightlife, Latin American"
"351",50945,"Oiga, Mire, Vea Colombian Cuisine","Las Vegas","NV","89102",36.142935,-115.207747,"1","Latin American, Colombian, Restaurants"
"352",115494,"Street Dogs","Las Vegas","NV","",36.169478833,-115.1410046428,"0","Venezuelan, Food Trucks, Food, Restaurants, Latin American"
"353",146838,"Casa Corazon Restaurant","Phoenix","AZ","85006",33.4769368,-112.0473809,"1","Mexican, Caterers, Cocktail Bars, Restaurants, Event Planning & Services, Latin American, Nightlife, Bars"
"354",68174,"La Fiesta","Cleveland","OH","44102",41.4624167,-81.7396196,"0","Mexican, Latin American, Restaurants"
"355",170595,"La Costa Del Sol","Las Vegas","NV","89104",36.1470589,-115.0646636,"1","Restaurants, Mexican, Salvadoran, Latin American"
"356",40686,"La Chilenita","Montréal","QC","H2W 1K8",45.5177232,-73.5765865,"0","Latin American, Event Planning & Services, Restaurants, Caterers"
"357",5745,"Republica Empanada","Mesa","AZ","85210",33.41346,-111.825846,"1","Latin American, Restaurants, Comfort Food, Empanadas, Food"
"358",84757,"Viva Las Arepas","Las Vegas","NV","89104",36.1518972,-115.1525341,"1","Latin American, Venezuelan, Food Stands, Restaurants"
"359",49699,"Sabor Del Pacifico","Toronto","ON","M3M 1A2",43.7190671,-79.5074047,"1","Colombian, Latin American, Restaurants"
"360",68845,"Latina","Etobicoke","ON","M8Y 1K9",43.6272162,-79.4994986,"1","Latin American, Restaurants, Nightlife, Italian"
"361",43155,"Mi Tierra Restaurant","Charlotte","NC","28217",35.1357434,-80.8788301,"1","Colombian, Latin American, Food, Bakeries, Restaurants, Seafood"
"362",15336,"Senor Sushi","Mesa","AZ","85202",33.3934822083,-111.8618545532,"1","Japanese, Restaurants, Latin American, Bars, Mexican, Nightlife, Asian Fusion, Sushi Bars"
"363",92059,"Mariano's Pupusas Bahai Centroamerica","Las Vegas","NV","89146",36.1594111709,-115.2085999399,"1","Salvadoran, Latin American, Restaurants"
"364",140310,"El Coquito","Scottsdale","AZ","85257",33.4662738,-111.9004743,"0","Spanish, Restaurants, Latin American"
"365",151496,"El Santaneco","Las Vegas","NV","89119",36.1049744,-115.1359993,"0","Spanish, Restaurants, Mexican, Latin American"
"366",111131,"Viva El Salvador Restaurant & Pupuseria","Las Vegas","NV","89146",36.1520108,-115.2437024,"0","Restaurants, Latin American, Salvadoran"
"367",1082,"Mi Tierra Restaurant","Toronto","ON","M6C 1C1",43.6807553,-79.4310955,"1","Restaurants, Latin American"
"368",96281,"Sabor Latin Street Grill - Noda","Charlotte","NC","28205",35.2472603,-80.8056385,"1","Latin American, Mexican, Restaurants"
"369",1123,"Guanaquito Restaurant","Phoenix","AZ","85006",33.4660115,-112.0503186,"1","Restaurants, Mexican, Latin American, Salvadoran"
"370",74339,"Essence and Herbs","Henderson","NV","89011",36.1016495,-114.9307359,"0","Steakhouses, Nightlife, Restaurants, Caribbean, Tapas Bars, Tapas/Small Plates, Food, Bars, Latin American, Puerto Rican, Seafood"
"371",170629,"Lempira Restaurant","Charlotte","NC","28210",35.128121,-80.8747049,"1","Restaurants, Salvadoran, Latin American"
"372",44932,"Gran Fiesta Mexican Restaurant","Strongsville","OH","44136",41.3141234,-81.8331105,"1","American (New), Mexican, Food, Restaurants, Latin American"
"373",43699,"Destino Restaurant","Calgary","AB","T2W 3E5",50.9531750972,-114.1156442224,"0","Spanish, Arts & Entertainment, Bars, Music Venues, Restaurants, Latin American, Nightlife"
"374",38560,"Baja Joe's Mexican Cantina","Mesa","AZ","85203",33.450866,-111.785987,"1","Seafood, Nightlife, Bars, Mexican, Arts & Entertainment, Sports Bars, Restaurants, Music Venues, Latin American, Karaoke"
"375",119309,"Verde Mexican and Nuevo Latin Fusion","Huntersville","NC","28078",35.4059961,-80.8650745,"1","Latin American, Mexican, Restaurants"
"376",105581,"My Arepa","Mesa","AZ","85210",33.377252,-111.8596861,"0","Caribbean, Latin American, Restaurants, Food"
"377",168460,"Tacos & Beer","Las Vegas","NV","89169",36.11926,-115.154634,"1","Tapas/Small Plates, Latin American, Nightlife, Mexican, Bars, Cocktail Bars, Restaurants"
"378",43593,"Los Paisas","Charlotte","NC","28226",35.090159,-80.858811,"1","Colombian, Restaurants, Latin American"
"379",40074,"Crave Cantina","Cuyahoga Falls","OH","44221",41.1352013,-81.4826608,"1","Latin American, Tacos, Restaurants, Nightlife, Bars, Mexican"
"380",148137,"La Pupusa Loca","Phoenix","AZ","85031",33.481617,-112.152742,"1","Latin American, Restaurants"
"381",50871,"Salvadoreno Restaurant","Las Vegas","NV","89101",36.179507,-115.141043,"1","Latin American, Breakfast & Brunch, Soup, Restaurants"
"382",72567,"Saltao Peruvian Fare","Charlotte","NC","28226",35.1068061,-80.8068776,"1","Latin American, Restaurants, Peruvian"
"383",164603,"El Buen Gusto","Charlotte","NC","28273",35.1131948207,-80.9199949736,"1","Restaurants, Salvadoran, Latin American"
"384",185016,"Genaro's Rotisserie","Indian Trail","NC","28079",35.0781245,-80.6543593,"0","Latin American, Restaurants"
"385",183056,"Jalapeño's Mexican Grill","Calgary","AB","T2P 0K4",51.049937,-114.07937,"0","Mexican, Restaurants, Food, Specialty Food, Ethnic Food, Latin American"
"386",42127,"Tardes Caleñas","Saint-Hubert","QC","J4T 2T1",45.495765,-73.475185,"1","Latin American, Restaurants, Colombian"
"387",26857,"Totopo Mexican Kitchen and Bar","Pittsburgh","PA","15228",40.380953115,-80.0445051302,"1","Bars, Restaurants, Latin American, Nightlife, Mexican"
"388",157252,"Burrito Caliente Latin Grill","Toronto","ON","M9C 5M1",43.6487506474,-79.6047755541,"1","Mexican, Latin American, Restaurants, Tex-Mex"
"389",71612,"Padre's Modern Mexican Cuisine","Phoenix","AZ","85014",33.5093453,-112.0588374,"0","Bars, Restaurants, Latin American, Nightlife, Mexican"
"390",120115,"T&T Tacos Et Tortas","Montréal","QC","H2W 1G2",45.5174678,-73.5823901,"1","Mexican, Sandwiches, Restaurants, Latin American"
"391",95601,"Tacorrito","Toronto","ON","M5A 2R3",43.6538906,-79.3689511,"0","Mexican, Tex-Mex, Latin American, Restaurants"
"392",138537,"El Pulgarcito","Toronto","ON","M1P 2L1",43.7548374,-79.2771047,"0","Restaurants, Latin American"
"393",185958,"Dona Maria","Montréal","QC","H2E 1W3",45.5535381,-73.6023594,"1","Latin American, Restaurants"
"394",134295,"Ilopango Salvadorean Restaurant","Las Vegas","NV","89121",36.1006736,-115.099354,"1","Basque, Restaurants, Latin American, Spanish"
"395",116306,"Don Pedro Mexican Restaurant","Charlotte","NC","28213",35.2944056,-80.7425316,"1","Food, Mexican, Ethnic Food, Restaurants, Specialty Food, Latin American"
"396",73633,"La Habanera","Montréal","QC","H3B 3C4",45.5031149,-73.5680785,"1","Nightlife, Bars, Restaurants, Cuban, Latin American"
"397",4883,"Native Tongues Taqueria","Calgary","AB","T2R 1H7",51.0413854,-114.0675588,"1","Restaurants, Nightlife, Mexican, Latin American, Cocktail Bars, Bars"
"398",182985,"Caribe Bake Shop","Cleveland","OH","44113",41.4723506,-81.7077925,"1","Bakeries, Restaurants, Latin American, Food"
"399",87454,"The Mission Kierland","Scottsdale","AZ","85254",33.6235085,-111.9275452,"1","Restaurants, Latin American, Food, Desserts, Mexican, Tacos"
"400",11875,"La Chilenita","Montréal","QC","H2W 1L9",45.5167925,-73.574769,"1","Latin American, Restaurants, Food, Delicatessen"
"401",128068,"Inka Si Senor","Las Vegas","NV","89145",36.1636912,-115.2445676,"0","Latin American, Restaurants"
"402",136951,"Las Pupusas Restaurant","Las Vegas","NV","89123",36.050374086,-115.1713205874,"1","Seafood, Latin American, Salvadoran, Burgers, Mexican, Restaurants"
"403",191339,"Babalu Tapas & Tacos","Charlotte","NC","28203",35.200279,-80.841758,"0","Cuban, Latin American, Restaurants, Tapas Bars, Mexican, Tapas/Small Plates"
"404",169719,"Ajo Al's Mexican Cafe","Scottsdale","AZ","85254",33.5839064228,-111.9311819497,"1","Latin American, Pizza, Tex-Mex, Bars, Tacos, Nightlife, Cocktail Bars, Restaurants, Breakfast & Brunch, Salad, Mexican, Desserts, Food"
"405",181645,"Senor Taco","Charlotte","NC","28215",35.2460907,-80.7528147,"1","Latin American, Restaurants, Mexican"
"406",127019,"Lavanderia","Westmount","QC","H3Z 2N4",45.478369,-73.6028085,"1","Restaurants, Latin American"
"407",36314,"Taco Mich","Phoenix","AZ","85009",33.4512893825,-112.1185396358,"1","Restaurants, Latin American, Pizza, Tacos, Mexican"
"408",90119,"Casa Mariscos","Las Vegas","NV","89106",36.1157801,-115.0936882,"1","Restaurants, Latin American, Seafood, Sports Bars, Nightlife, Bars, American (Traditional), Mexican"
"409",84494,"The Empanada Company","Etobicoke","ON","M8W 3N3",43.5922016,-79.5417608,"1","Mexican, Fast Food, Food, Latin American, Restaurants, Ethnic Food, Specialty Food"
"410",10876,"El Comedor Popular Ecuatoriano","North York","ON","M9L 1Y9",43.7512345,-79.5520022,"1","Latin American, Restaurants"
"411",109901,"Las Pupusas Restaurant","Henderson","NV","89014",36.0653716,-115.0462566,"0","Mexican, Restaurants, Salvadoran, Latin American"
"412",188461,"Las Delicias Demontecristo Restaurant","Las Vegas","NV","89119",36.1002609,-115.1252239,"1","Latin American, Mexican, Restaurants"
"413",46071,"L'Atelier d'Argentine","Montréal","QC","H3G 2B6",45.4976099,-73.5771326,"1","Restaurants, Argentine, Latin American"
"414",60034,"Pupusas Dona Mary","Phoenix","AZ","85033",33.4939138127,-112.1858569253,"1","Salvadoran, Latin American, Restaurants"
"415",41513,"Sol Azteca Fusion Grill","Madison","WI","53713",43.0470342,-89.3939631,"0","Dance Clubs, Japanese, American (New), Nightlife, Restaurants, Mexican, Latin American, Karaoke, Italian"
"416",153379,"Mi Tienda Latina","Phoenix","AZ","85006",33.4675174515,-112.0296140956,"1","Food, Specialty Food, Restaurants, Convenience Stores, Grocery, Latin American"
"417",175007,"Ceviches","Montréal","QC","H2W 1K8",45.5177229,-73.5766008,"0","Mexican, Food, Latin American, Restaurants, Caribbean, Grocery"
"418",119948,"El Zaziummm","Montréal","QC","H2J 1H1",45.5326326,-73.5842581,"1","Tex-Mex, Mexican, Latin American, Restaurants"
"419",152032,"Latin World","Toronto","ON","M6E 1A4",43.6792815,-79.438193,"1","International Grocery, Salvadoran, Mexican, Food, Latin American, Restaurants"
"420",82107,"Russell's Restaurant","Las Vegas","NV","89136",36.220592335,-115.1060717834,"1","Latin American, Restaurants, French, American (Traditional)"
"421",125736,"The Blue House","Calgary","AB","T2L 2B3",51.0870701,-114.109356,"0","Latin American, Event Planning & Services, Musicians, Caterers, Seafood, Restaurants, Spanish"
"422",76645,"CRUjiente Tacos","Phoenix","AZ","85018",33.5089845,-111.9957405,"1","Latin American, Restaurants, Nightlife, Bars, Mexican, Tapas/Small Plates, Whiskey Bars, Tacos"
"423",87450,"Morazan Restaurant","Charlotte","NC","28205",35.2135893619,-80.7712170649,"1","Restaurants, Mexican, Latin American"
"424",60266,"Los Arrieros","Toronto","ON","M6S 3Z2",43.6558099,-79.4873751,"1","Colombian, Latin American, Restaurants"
"425",174420,"Cocina Latina","Mc Kees Rocks","PA","15136",40.4661379,-80.1359454,"1","Restaurants, Tacos, Food Delivery Services, Latin American, Food, Mexican"
"426",57397,"Glady's Restaurante Salvadoreño","Mesa","AZ","85210",33.3883639,-111.8393694,"1","Restaurants, Salvadoran, Latin American"
"427",161857,"Cà Phê Con Leche","Montréal","QC","H2S 2L7",45.533654,-73.598045,"0","Restaurants, Coffee & Tea, Latin American, Food, Vietnamese, Venezuelan"
"428",92917,"El Rinconcito Chapin","Cleveland","OH","44109",41.441492,-81.7039041,"1","Tapas/Small Plates, Latin American, Spanish, Restaurants"
"429",136489,"El Rinconcito","Charlotte","NC","28273",35.1338559,-80.893259,"0","Mexican, Puerto Rican, Latin American, Caterers, Event Planning & Services, Breakfast & Brunch, Caribbean, Cuban, Restaurants"
"430",146825,"La Rumba Night Club","Las Vegas","NV","89104",36.1438696,-115.081877,"1","Latin American, Adult Entertainment, Nightlife, Bars, Restaurants, Dance Clubs"
"431",72254,"Cocina Economica","Toronto","ON","M5A 2X1",43.6549273753,-79.3654748869,"1","Mexican, Restaurants, Latin American"
"432",79290,"San Salvador Restaurant","Las Vegas","NV","89108",36.2031091,-115.2408141,"1","Restaurants, Mexican, Latin American, American (New), Salvadoran"
"433",81191,"Bahama Breeze","Beachwood","OH","44122",41.4554605666,-81.4896052103,"1","Latin American, Laotian, Seafood, American (New), Bars, Restaurants, Nightlife, Caribbean"
"434",31845,"Tamales Guadalajara","Tolleson","AZ","85353",33.4505421,-112.2610119,"1","Caribbean, Latin American, Mexican, Breakfast & Brunch, Restaurants"
"435",57172,"The Toston","Markham","ON","L3S 0B5",43.8494284,-79.2521301,"1","Colombian, Restaurants, Latin American, Food, Steakhouses, Coffee & Tea"
"436",9339,"Lempira Restaurant","Charlotte","NC","28217",35.154807,-80.8765605,"1","Mexican, Restaurants, Latin American, Salvadoran, Honduran"
"437",136681,"Empanada Queen","Calgary","AB","T2G 4B7",51.0139539,-114.0529222,"1","Latin American, Ethnic Food, Fast Food, Specialty Food, Restaurants, Food"
"438",120574,"Gracias Corazon","Montréal","QC","H2T 2K9",45.5249956,-73.5999018,"0","Specialty Food, Colombian, Restaurants, Vegetarian, Ethnic Food, Spanish, Latin American, Gluten-Free, Italian, Cafes, Southern, Food"
"439",48611,"Lopez","Cleveland Heights","OH","44118",41.5000418634,-81.5655199726,"1","Gluten-Free, Latin American, Spanish, Mexican, Local Flavor, Bars, Nightlife, Restaurants, Cocktail Bars"
"440",123280,"Manitoba","Montréal","QC","H2V 1A3",45.528852,-73.616205,"1","Bars, Game Meat, Canadian (New), American (Traditional), Restaurants, Nightlife, Latin American"
"441",163820,"San Salvador","Phoenix","AZ","85033",33.476536,-112.224679,"1","Restaurants, Latin American, Salvadoran, Spanish, Mexican"
"442",138395,"Restaurant Madre","Montréal","QC","H1Y 1X5",45.5484683,-73.5746997,"1","Restaurants, Peruvian, Breakfast & Brunch, Portuguese, Latin American"
"443",37541,"Luchitas Mexican Restaurante","Elyria","OH","44035",41.4154155,-82.0777638,"0","Latin American, Mexican, Restaurants"
"444",128213,"El Cafecito Cafe","Toronto","ON","M6H 2Z6",43.6613304,-79.4304502,"0","Restaurants, Food, Latin American, Cafes, Coffee & Tea"
"445",98861,"Chez Tina Gourmet","Montréal","QC","H2S 1H6",45.541390937,-73.6081808433,"1","Restaurants, Colombian, Latin American"
"446",109369,"Pollo Sabroso","Phoenix","AZ","85034",33.447551,-112.047375,"0","Fast Food, Restaurants, American (New), Latin American"
"447",154723,"Fiebre Latina","Calgary","AB","T2B 0X6",51.0367154,-113.981044,"0","Nightlife, Bars, Restaurants, Latin American, Dance Clubs, Tapas Bars"
"448",85479,"El Plebeyo Restaurant","Toronto","ON","M5R 3J2",43.6828513,-79.4180444,"0","Restaurants, Latin American, Peruvian"
"449",170391,"Urban Seven Martini Kitchen","Scottsdale","AZ","85251",33.49522,-111.932743,"0","Nightlife, Bars, Restaurants, Latin American, American (New)"
"450",28073,"Hogan's Restaurant","King City","ON","L7B 1H8",43.9282713,-79.5283339,"1","Modern European, French, Italian, Latin American, Caterers, Canadian (New), Event Planning & Services, Seafood, Restaurants, Vegetarian"
"451",182223,"Latinada Tapas Restaurant","Toronto","ON","M6P 1A6",43.6553931,-79.4566191,"0","Nightlife, Restaurants, Music Venues, Latin American, Arts & Entertainment"
"452",180831,"Mi Comida Restaurante Latino","Phoenix","AZ","85053",33.6386543369,-112.149860578,"0","Latin American, Restaurants"
"453",150343,"Mocha Mocha","Toronto","ON","M4K 1P5",43.6779323258,-79.3493250241,"1","Restaurants, Latin American"
"454",53656,"Tumi Fine Peruvian Cuisine","Chandler","AZ","85224",33.3375314,-111.8596545,"0","Restaurants, Latin American, Peruvian"
"455",12590,"Restaurante Y Pupuseria Los 3 Hermanos","Phoenix","AZ","85015",33.5015747467,-112.1002268046,"1","Latin American, Restaurants, Salvadoran"
"456",165034,"Lucy's Bake & Deli","Stallings","NC","28104",35.0841220633,-80.6968826411,"1","Ethnic Food, Food, Latin American, Bakeries, Restaurants, Sandwiches, Venezuelan, Specialty Food, Colombian"
"457",2138,"Contigo Peru","Mesa","AZ","85202",33.363255,-111.860581,"0","Latin American, Peruvian, Restaurants"
"458",94273,"Los Planes Gourmet","Montréal","QC","H2W 2M2",45.5213167291,-73.5770280969,"1","Restaurants, Latin American, Salvadoran"
"459",87928,"Burrito Squad","Vaughan","ON","L6A 0A4",43.8457486,-79.5353047,"0","Fast Food, Latin American, Mexican, Restaurants"
"460",165451,"Que Sazon Food Truck","Scottsdale","AZ","85259",33.5910441,-111.7972384,"1","Latin American, Colombian, Restaurants, Food Trucks, Food"
"461",162097,"Sabor Latin Street Grill - Huntersville","Huntersville","NC","28078",35.408391,-80.8629505,"1","Latin American, Restaurants, Mexican, Venezuelan"
"462",178690,"Pittsburgh Steak Company","Pittsburgh","PA","15203",40.428324,-79.978097,"0","Latin American, Restaurants, Steakhouses"
"463",106592,"Lomito","Pittsburgh","PA","15224",40.4607908,-79.9478264,"0","Restaurants, Food, Sandwiches, Argentine, Food Trucks, Latin American"
"464",62532,"Mata Petisco Bar","Toronto","ON","M6R 1B3",43.639115,-79.4442339,"0","Brazilian, Restaurants, Tapas/Small Plates, Latin American, Bars, Nightlife"
"465",5750,"La Feria","Pittsburgh","PA","15232",40.451707,-79.9328251,"1","Restaurants, Latin American, Peruvian"
"466",56429,"Lempira Restaurant","Charlotte","NC","28205",35.2139238084,-80.7692369994,"1","Restaurants, Seafood, Mexican, Latin American"
"467",180746,"La Fontana","Scottsdale","AZ","85251",33.4806663,-111.9080473,"0","Latin American, Italian, Restaurants, Pizza"
"468",90313,"Sabor Latino","Montréal","QC","H2S 2N1",45.5394003,-73.6100552,"1","Restaurants, Food, Bakeries, Grocery, Latin American, International Grocery"
"469",78862,"El Paraiso","Cornelius","NC","28031",35.489534,-80.857648,"1","Restaurants, Latin American, Mexican"
"470",177262,"Jibaro's Pit Stop Pizza Shop and Burritos","Lakewood","OH","44107",41.4770943,-81.7921399,"0","Latin American, Restaurants"
"471",69900,"Restaurant and Bakery Salvadorena","Charlotte","NC","28215",35.2372928,-80.7372255,"1","Salvadoran, Restaurants, Latin American"
"472",103452,"Barros Luco","Montréal","QC","H2T 2W8",45.5228787961,-73.5955766503,"1","Latin American, Restaurants, Spanish, Sandwiches"
"473",64844,"Aji Picante","Pittsburgh","PA","15217",40.4375577,-79.92282,"0","Latin American, Restaurants"
