"","business_id","name","city","state","postal_code","latitude","longitude","is_open","categories"
"1",106451,"Tandoori Xpress","Laval","QC","H7G 2E1",45.576182,-73.683505,"1","Restaurants, Vegetarian, Pakistani, Middle Eastern, Indian"
"2",118317,"Sree's Foods","Pittsburgh","PA","15213",40.4407672,-79.9587973,"1","Pakistani, Indian, Restaurants, Food"
"3",83826,"Mirchi Restaurant","Calgary","AB","T2R 0J2",51.0417258,-114.0804603,"1","Pakistani, Halal, Restaurants, Indian"
"4",173823,"Biryani King","Brampton","ON","L6X 4X7",43.702387,-79.7866815,"1","Pakistani, Restaurants, Indian"
"5",56836,"Lahori Tarka","Toronto","ON","M1H 2Y2",43.7675222,-79.2289379,"1","Vegetarian, Restaurants, Pakistani, Halal"
"6",39702,"Bombay Buffet Indian Cuisine","Scarborough","ON","M1H 2Y1",43.7670713,-79.2280617,"0","Event Planning & Services, Caterers, Restaurants, Pakistani, Indian"
"7",138057,"Taj Mahal Indian Cuisine","Tempe","AZ","85281",33.4502544,-111.9255745,"0","Asian Fusion, Restaurants, Pakistani, Buffets, Indian"
"8",42229,"Indian Paradise","Scottsdale","AZ","85260",33.6222859533,-111.9041715755,"0","Indian, Restaurants, Gluten-Free, Pakistani, Halal, Buffets"
"9",166181,"Biryani House","Tempe","AZ","85281",33.4153283,-111.9182786,"0","Halal, Indian, Restaurants, Pakistani"
"10",136801,"India Gate Exclusive Indian Cuisine","Newmarket","ON","L3Y 2N1",44.0550795,-79.474812,"1","Pakistani, Middle Eastern, Indian, Restaurants"
"11",4783,"Mirchi","Calgary","AB","T2P 0E4",51.0515752,-114.0781162,"0","Indian, Restaurants, Pakistani"
"12",36270,"Anondo Restaurant","Toronto","ON","M4C 1M3",43.6897032,-79.2942628,"0","Restaurants, Bangladeshi, Pakistani, Indian"
"13",28091,"Mother India","Toronto","ON","M6K 1M2",43.6408144,-79.4362132,"1","Middle Eastern, Indian, Pakistani, Restaurants"
"14",6793,"Shalimar Restaurant","Mississauga","ON","L5L 1P5",43.5253002,-79.6842355,"0","Restaurants, Pakistani"
"15",89584,"Zauq","Mississauga","ON","L4W 4L9",43.635445,-79.622726,"1","Restaurants, Food, Pakistani, Indian"
"16",42612,"Tamarind Savoring India","Pittsburgh","PA","15220",40.3905324708,-80.0717178281,"1","Food, Pakistani, Indian, Restaurants, Bakeries"
"17",94587,"Taj Mahal Restaurant","Calgary","AB","T2G 0A8",51.0098859,-114.0668856,"1","Restaurants, Indian, Event Planning & Services, Caterers, Middle Eastern, Pakistani"
"18",124026,"Yuva India Kitchen + Bar","Pittsburgh","PA","15213",40.444838,-79.9488538,"1","Food, Halal, Food Delivery Services, Wineries, Bars, Restaurants, Nightlife, Arts & Entertainment, Indian, Pakistani"
"19",50031,"Cafe De Khan","Mississauga","ON","L5N 6A3",43.5895002,-79.7388544,"1","Pakistani, Restaurants, Indian"
"20",158103,"Chef of India","Toronto","ON","M4P 1A6",43.7070001967,-79.3971258402,"0","Indian, Middle Eastern, Buffets, Restaurants, Pakistani"
"21",9613,"Chaat Cafe","Madison","WI","53719",43.0496478,-89.5028208,"1","Pakistani, Halal, Indian, Restaurants"
"22",20400,"India Delight","Gilbert","AZ","85234",33.381279,-111.724168,"0","Specialty Food, Pakistani, Food, Restaurants, Indian"
"23",188561,"Delhi Palace Cuisine of India","Tempe","AZ","85281",33.4212886,-111.9246995,"1","Pakistani, Indian, Buffets, Restaurants"
"24",73070,"Kabob N More","Las Vegas","NV","89109",36.1317540411,-115.1642730431,"1","Arabian, Indian, Restaurants, Pakistani, Halal"
"25",177348,"Madras Palace","Richmond Hill","ON","L4B 3H7",43.8444089,-79.3854153,"0","Restaurants, Indian, Middle Eastern, Pakistani"
"26",110960,"Indian Maharaja Palace","Glendale","AZ","85308",33.6367211,-112.1836222,"0","Pakistani, Indian, Buffets, Restaurants"
"27",83899,"Jewel of the Crown","Scottsdale","AZ","85251",33.4922108,-111.9231385,"1","Restaurants, Indian, Pakistani, Vegetarian"
"28",330,"Al Mustafa Catering","Mississauga","ON","L5G 1H9",43.567352,-79.5684689,"1","Halal, Pakistani, Indian, Restaurants"
"29",112646,"Patna Kabab House","Scarborough","ON","M1R 2Y3",43.743447,-79.3015134,"1","Restaurants, Indian, Desserts, Middle Eastern, Food, Pakistani"
"30",64280,"Tandoori Mezban","Mississauga","ON","L5A 1W7",43.582646,-79.6136875,"0","Pakistani, Indian, Halal, Restaurants"
"31",66244,"King Samosa and Sweets","Pickering","ON","L1V 6M5",43.8317003,-79.0939147,"0","Restaurants, Pakistani"
"32",8,"India Oven","Las Vegas","NV","89119",36.1446996,-115.1551759,"0","Restaurants, Indian, Pakistani"
"33",97516,"Shahi Nan Kabab","Mississauga","ON","L4W 4L9",43.6348703,-79.6229265,"1","Indian, Restaurants, Pakistani"
"34",176525,"Copper Kettle","Chandler","AZ","85224",33.3336727,-111.8608534,"0","Indian, Restaurants, Pakistani"
"35",4421,"Little India Restaurant","Toronto","ON","M5V 1Z4",43.6502008,-79.3888945,"1","Pakistani, Vegetarian, Caterers, Indian, Event Planning & Services, Buffets, Food Delivery Services, Middle Eastern, Food, Restaurants"
"36",89522,"Zaika Biryani House","Calgary","AB","T2A 5N1",51.0574537,-113.9872883,"1","Restaurants, Indian, Pakistani"
"37",183756,"Makkah Restaurant","Toronto","ON","M4J 1M2",43.6806999,-79.3366548,"1","Restaurants, Pakistani, Indian"
"38",176010,"Buffet Palace","Toronto","ON","M5B 1S1",43.6582055,-79.3814852,"1","Indian, Pakistani, Restaurants, Buffets"
"39",112711,"Zest of India","Phoenix","AZ","85032",33.6275895,-112.0113666,"1","Restaurants, Indian, Pakistani"
"40",36406,"Tamarind","Pittsburgh","PA","15213",40.4511441,-79.9519468,"1","Indian, Restaurants, Pakistani"
"41",127082,"Copper Kettle-Salads Balti & Taandoori Grill","Tempe","AZ","85281",33.4167677,-111.9222221,"0","Buffets, Pakistani, Indian, Restaurants"
"42",85044,"Sree's Foods","Pittsburgh","PA","15222",40.4430443,-79.9969144,"1","Pakistani, Indian, Restaurants"
"43",187985,"Tiffin Curry & Roti House","Calgary","AB","T2A 6J9",51.0509659,-113.9928818,"1","Pakistani, Restaurants, Indian, Middle Eastern"
"44",48020,"Bar-Be-Que Hut","Toronto","ON","M4L 1Z9",43.6722484,-79.3212267,"0","Restaurants, Pakistani, Middle Eastern, Indian, Barbeque"
"45",144422,"Buffet Maharani","Montréal","QC","H3N 1S4",45.526017,-73.624529,"1","Indian, Restaurants, Pakistani, Buffets"
"46",146326,"Tandoori Time","Vaughan","ON","L6A 0A5",43.8450361401,-79.5348143907,"1","Restaurants, Indian, Pakistani"
"47",38456,"Southern Spice Cuisine","Calgary","AB","T2C 2L9",51.102051,-113.967793,"0","Pakistani, Indian, Restaurants"
"48",107778,"Copper Kettle-Salads Balti & Taandoori Grill","Mesa","AZ","85202",33.362719,-111.8761389,"0","Pakistani, Restaurants, Indian, Buffets"
"49",48819,"Fahim Kebab House","Markham","ON","L3S 2E4",43.8332344918,-79.2689282391,"0","Indian, Restaurants, Halal, Pakistani"
"50",140592,"Basha - Des Sources","Dollard-des-Ormeaux","QC","H9B 1Z8",45.4840219594,-73.7955109456,"1","Indian, Lebanese, Middle Eastern, Restaurants, Pakistani"
"51",83470,"Biryani Corner","Mississauga","ON","L5B 1H4",43.5787099325,-79.616502876,"1","Vegetarian, Caterers, Halal, Event Planning & Services, Restaurants, Pakistani"
"52",39987,"Noor Makkah","Toronto","ON","M9V 1A8",43.7379957,-79.5675513,"1","Pakistani, Halal, Restaurants, Indian"
"53",119028,"Sitara","Urbana","IL","61801",40.111959,-88.208652,"0","Pakistani, Indian, Vegetarian, Restaurants"
"54",2590,"Flavors of India","Charlotte","NC","28202",35.2253544,-80.8461468,"1","Pakistani, Indian, Restaurants"
"55",47340,"Campus Biryani & Gyros","Madison","WI","53711",43.0676175,-89.4106017,"1","Indian, Mediterranean, Restaurants, Pakistani, Buffets"
"56",118182,"Royal India Sweets & Restaurant","Brampton","ON","L6W 3E7",43.6868446,-79.7364299,"1","Restaurants, Indian, Pakistani, Middle Eastern"
"57",20826,"Zeerah","Mississauga","ON","L5M 7P5",43.5453573,-79.7146617,"1","Pakistani, Indian, Food, Restaurants"
"58",121980,"Iqbal Kebab","North York","ON","M2J 1P5",43.773774,-79.340667,"1","Pakistani, Restaurants"
"59",159321,"Qila Restaurant Inc","Calgary","AB","T3J 4L8",51.097913258,-113.9627973033,"0","Halal, Pakistani, Restaurants"
"60",169639,"Star of India","Phoenix","AZ","85048",33.3033358617,-111.9944411895,"1","Indian, Pakistani, Buffets, Restaurants"
"61",159690,"Tandoor Plus","Saint-Laurent","QC","H4L 1B6",45.5214496,-73.7019511,"1","Indian, Restaurants, Pakistani, Middle Eastern"
"62",29294,"Shaheen Food Centre","Mississauga","ON","L5C 2V6",43.5736286,-79.6520087,"1","Ethical Grocery, Food, Restaurants, Indian, Pakistani"
"63",21232,"Suksi Biryani House","Toronto","ON","M4Y 2P2",43.6694267,-79.3858593,"1","Indian, Pakistani, Restaurants"
"64",23180,"Sammy's Kebab House","Monroeville","PA","15146",40.4389758,-79.7651547,"0","Halal, Pakistani, Indian, Restaurants"
"65",98426,"Feast of Dilli","Toronto","ON","M8W 3T7",43.6006537,-79.5449851,"1","Indian, Pakistani, Restaurants"
"66",88467,"Chahat Vidéo & Variété","Montréal","QC","H3N 1S8",45.5253873,-73.6249414,"1","Pakistani, Books, Mags, Music & Video, Food Trucks, Food Stands, Street Vendors, Restaurants, Ice Cream & Frozen Yogurt, Food, Music & DVDs, Shopping"
"67",175009,"Kabab & Tikah House","Toronto","ON","M5A 2K3",43.6635456,-79.3726222,"1","Indian, Halal, Pakistani, Restaurants"
"68",52828,"KAMA - Classical Indian Cuisine","Toronto","ON","M5H 3S6",43.6473416272,-79.3868535619,"0","Indian, Restaurants, Middle Eastern, Pakistani"
"69",8583,"Basmati Indian Cuisine","Champaign","IL","61820",40.114132,-88.238369,"0","Vegetarian, Indian, Pakistani, Restaurants"
"70",187996,"Moti Mehal","Montréal","QC","H3N 1T1",45.5242476,-73.6255383,"1","Restaurants, Indian, Pakistani"
"71",2731,"Brampton Tandoori Restaurant","Brampton","ON","L6V 1X4",43.697276,-79.749027,"0","Pakistani, Middle Eastern, Restaurants, Indian"
"72",157121,"Afghan Cuisine","Richmond Hill","ON","L4C 4M6",43.8931308924,-79.440486962,"1","Food, Ethnic Food, Specialty Food, Halal, Afghan, Pakistani, Restaurants"
"73",162564,"Curry House","Chandler","AZ","85224",33.3223,-111.8767,"0","Restaurants, Indian, Pakistani"
"74",84598,"Bihari Kabab House","Pickering","ON","L1V 6M5",43.8317003,-79.0939147,"0","Indian, Restaurants, Pakistani"
"75",48156,"Bombay Cuisine","Charlotte","NC","28262",35.303872,-80.749548,"0","Pakistani, Vegan, Restaurants, Breakfast & Brunch, Vegetarian, Indian, Buffets"
"76",125672,"Ghareeb Nawaz","Toronto","ON","M1J 1E4",43.7352584188,-79.2467836663,"1","Indian, Restaurants, Pakistani"
"77",41035,"Peshawari Tikka","Montréal","QC","H4K 1M9",45.5272053,-73.7188586,"1","Indian, Afghan, Pakistani, Restaurants"
"78",32444,"Karahi Point","Toronto","ON","M9V",43.7379956,-79.5662524,"1","Restaurants, Halal, Pakistani, Indian"
"79",117443,"The Famous Indian Cuisine","Toronto","ON","M4L 1Z4",43.6721178034,-79.3232195824,"1","Indian, Pakistani, Middle Eastern, Restaurants"
"80",19039,"Kwality Indian Tiffin Service","Henderson","NV","89074",36.0376448,-115.0762536,"1","Event Planning & Services, Caterers, Pakistani, Food Delivery Services, Indian, Food, Restaurants"
"81",7723,"Ramadan Catering & Take Out Restaurant","Calgary","AB","T3J 4L8",51.0974358,-113.9613353,"1","Halal, Pakistani, Restaurants, Event Planning & Services, Caterers"
"82",58731,"Restaurant India's Oven","Montréal","QC","H3N 1R3",45.528812,-73.622855,"1","Asian Fusion, Indian, Pakistani, Restaurants"
"83",160631,"Aunty's Kitchen","Mississauga","ON","L4W 1K3",43.6272715852,-79.6288284659,"1","Restaurants, Halal, Pakistani"
"84",149628,"786 Halal Restaurant","Montréal","QC","H3N 1S2",45.526482,-73.624302,"0","Pakistani, Restaurants"
"85",74084,"India Sweets Restaurant","Markham","ON","L3S 3L1",43.8407284,-79.2529118,"1","Restaurants, Shopping, Indian, Arts & Crafts, Pakistani, Middle Eastern"
"86",190306,"Mysore","Montréal","QC","H2W 2R2",45.5179042,-73.5822958,"1","Restaurants, Middle Eastern, Indian, Pakistani"
"87",182703,"Saino Indian Nepali Kitchen","Las Vegas","NV","89102",36.1316910159,-115.2073291981,"0","Pakistani, Indian, Buffets, Restaurants, Himalayan/Nepalese"
"88",173553,"Pakwanchi Restaurant","Scarborough","ON","M1T 3G8",43.7826533,-79.2872632,"1","Restaurants, Indian, Pakistani"
"89",73618,"Spicy Grille","Dollard-des-Ormeaux","QC","H8Y 3C7",45.5047907125,-73.8185478966,"1","Indian, Restaurants, Pakistani"
"90",78962,"Curry in the Box","Fitchburg","WI","53711",43.023349,-89.418612,"1","Pakistani, Thai, Indian, Restaurants"
"91",31281,"Tandoor et Grille","Dollard-des-Ormeaux","QC","H8Y 3C4",45.5013325568,-73.8154966965,"0","Indian, Restaurants, Pakistani"
"92",1959,"Mantra Masala","Las Vegas","NV","89113",36.0563357,-115.2773223,"1","Restaurants, Pakistani, Indian"
"93",183929,"Lahori's Dhaba","Chandler","AZ","85224",33.3195331,-111.8592616,"1","Pakistani, Food Stands, Barbeque, Halal, Indian, Restaurants"
"94",86800,"Namaste India","Charlotte","NC","28288",35.194894,-80.767442,"0","Pakistani, Indian, Restaurants"
"95",154112,"Matagali Restaurant","Toronto","ON","M5G 1H2",43.6570524,-79.3848414,"1","Pakistani, Restaurants, Thai, Event Planning & Services, Indian, Caterers"
"96",65935,"Simply Delicious","Markham","ON","L3R 4S1",43.83379,-79.3550921,"1","Pakistani, Indian, Halal, Restaurants, Diners"
"97",93155,"Chillies","Calgary","AB","T2A",51.0382194467,-113.9618304449,"1","Pakistani, Restaurants, Halal"
"98",166718,"The Siddhartha","Toronto","ON","M4L 1Z7",43.6725531,-79.3213648,"0","Indian, Restaurants, Pakistani, Vegetarian"
"99",180607,"Bombay Indian Grill","Champaign","IL","61820",40.114132,-88.238369,"0","Restaurants, Indian, Pakistani"
"100",60504,"Spice Hut","Calgary","AB","T2K 6H2",51.111641,-114.0559329,"1","Indian, Restaurants, Pakistani"
"101",100758,"Étoile des Indes","Montréal","QC","H4A 1X5",45.469124,-73.618074,"1","Middle Eastern, Indian, Pakistani, Restaurants"
"102",160808,"India Gate","Chandler","AZ","85226",33.3048389,-111.9490143,"0","Restaurants, Indian, Pakistani"
"103",36186,"Nirvana the Flavours of India","Mississauga","ON","L4Z 3E8",43.6261329523,-79.6770085984,"1","Indian, Chinese, Restaurants, Pakistani, Halal, Hakka, Vegetarian, Middle Eastern"
"104",24651,"Pak Sweets","Mississauga","ON","L5V 3A4",43.5906318,-79.6796271,"1","Indian, Desserts, Pakistani, Food, Restaurants"
"105",126773,"Puspa Restaurant","Calgary","AB","T2K 0G2",51.088836,-114.08551,"1","Pakistani, Middle Eastern, Indian, Restaurants"
"106",179433,"Apna Punjab Sweets & Restaurant","Calgary","AB","T3J 3K9",51.0970375,-113.9629524,"0","Indian, Middle Eastern, Pakistani, Restaurants"
"107",80220,"Fast Biryani","Madison","WI","53704",43.1331746,-89.3025996,"0","Restaurants, Pakistani, Indian"
"108",151941,"J Ali Baba Restaurant","Pickering","ON","L1V 6M5",43.8317156,-79.0939147,"1","Indian, Restaurants, Pakistani, Halal"
"109",125944,"Biryani House Kabab And Grill","Monroeville","PA","15146",40.4396998,-79.7686518,"1","Halal, Indian, Pakistani, Restaurants, Soup"
"110",107741,"Skylark Restaurant","Toronto","ON","M4L 1Z7",43.672042,-79.322108,"0","Restaurants, Indian, Pakistani"
"111",41159,"Taj Indian Restaurant","Madison","WI","53715",43.053124,-89.39625,"1","Indian, Vegetarian, Pakistani, Restaurants"
"112",80767,"Tandoori Times 2 Indian Bistro","Glendale","AZ","85308",33.6394247,-112.179954,"1","Restaurants, Pakistani, Indian"
"113",180766,"Bombay Spice Restaurant","Calgary","AB","T2G 2M1",51.0470164,-114.0580266,"1","Buffets, Indian, Bars, Pakistani, Restaurants, Nightlife"
"114",86717,"786 Halal Biryani House","Toronto","ON","M5A 3X2",43.658087,-79.3710422,"1","Pakistani, Indian, Restaurants"
"115",146683,"Zafran Kabab Palace","Pineville","NC","28134",35.0873529,-80.8863258,"1","Restaurants, Indian, Halal, Pakistani, Afghan"
"116",79945,"Curry & Co","Toronto","ON","M5B 2G9",43.6567455,-79.380484,"0","Indian, Halal, Pakistani, Restaurants"
"117",12868,"Mango Shiva","Calgary","AB","T2P 1B5",51.0456412,-114.0665623,"0","Bars, Pakistani, Nightlife, Buffets, Indian, Restaurants"
"118",164938,"Usmania Grill","Pickering","ON","L1V 6M5",43.8314133777,-79.0938092396,"1","Indian, Seafood, Halal, Pakistani, Restaurants"
"119",15090,"Royal Taj","Tempe","AZ","85282",33.406601,-111.9075196,"0","Restaurants, Indian, Buffets, Pakistani"
"120",162951,"Peg N Tikka","Montréal","QC","H2X 1C2",45.5125503,-73.5692529,"0","Indian, Pakistani, Nightlife, Bars, Restaurants"
"121",25468,"Lahore Karahi","Pierrefonds","QC","H9H 1Z2",45.4916624,-73.8535454,"1","Pakistani, Restaurants"
"122",147275,"Lahore's Premium Kabab House","Markham","ON","L3S 1Z7",43.8332244035,-79.2691729033,"1","Restaurants, Pakistani"
"123",18546,"Flavors of India","Phoenix","AZ","85016",33.5028106,-112.0472423,"1","Restaurants, Pakistani, Indian, Seafood, Buffets"
"124",65921,"Copper Kettle","Tempe","AZ","85281",33.4153283,-111.9182786,"0","Indian, Buffets, Restaurants, Pakistani"
"125",117218,"Udupi","Tempe","AZ","85281",33.4480887488,-111.9268833664,"1","Restaurants, Vegetarian, Pakistani, Vegan, Indian"
"126",158084,"Bhelwala Indian Street Food","Strongsville","OH","44136",41.3061105414,-81.8360112235,"0","Indian, Pakistani, Restaurants"
"127",150606,"Etoile des Indes","Montréal","QC","H3H 1M1",45.4935844193,-73.5792593558,"1","Middle Eastern, Restaurants, Indian, Pakistani"
"128",37378,"Red Hot Tandoori","East York","ON","M4C 1N2",43.6909559,-79.2900668,"1","Restaurants, Pakistani, Indian"
"129",89491,"Nirvana","Calgary","AB","T3J 3K9",51.097389,-113.9613353,"1","Restaurants, Middle Eastern, Venues & Event Spaces, Pakistani, Caterers, Nightlife, Indian, Event Planning & Services"
"130",149637,"Cafe Tandoor","Aurora","OH","44202",41.320026,-81.348688,"1","Indian, Restaurants, Pakistani"
"131",50654,"Fritou Chicken Skyview","Calgary","AB","T3N",51.1648766037,-113.9676131142,"1","Chicken Wings, Indian, Restaurants, Halal, Pakistani"
"132",149644,"The Host","Mississauga","ON","L5B 2N5",43.5949731,-79.6391348,"1","Middle Eastern, Restaurants, Indian, Pakistani"
"133",163316,"Tamarind","Charlotte","NC","28226",35.0894934,-80.8448416,"0","Pakistani, Indian, Restaurants"
"134",65772,"Biryani Kabab and More","Mississauga","ON","L5C 1V8",43.5718893,-79.6481763,"0","Meat Shops, Food, Indian, Specialty Food, Pakistani, Restaurants"
"135",76901,"Little Spice","Calgary","AB","T2J 0P6",50.968128,-114.073171,"1","Pakistani, Halal, Indian, Restaurants"
"136",188288,"Copper Kettle Curry House","Phoenix","AZ","85008",33.4659236,-111.9722278,"0","Indian, Pakistani, Buffets, Restaurants"
"137",59081,"Everest Hakka House","Etobicoke","ON","M8V 1B6",43.6163384,-79.4881324,"1","Chinese, Indian, Middle Eastern, Restaurants, Pakistani"
"138",99027,"Biryani Culture","Brampton","ON","L7A 0P8",43.6757898,-79.8226489,"1","Halal, Restaurants, Pakistani, Indian, Caterers, Event Planning & Services"
"139",36758,"Kababish Restaurant","Calgary","AB","T3J 3W1",51.0821378,-114.0126372,"0","Caterers, Event Planning & Services, Restaurants, Pakistani, Halal, Barbeque"
"140",108328,"Indian Flavour","Toronto","ON","M5G 1C4",43.6555572,-79.384515,"0","Indian, Pakistani, Restaurants, Middle Eastern"
"141",188767,"La Sani Grill","Ajax","ON","L1Z 1A3",43.8638442628,-79.0130395442,"1","Pakistani, Restaurants"
"142",26395,"Gandhi India's Cuisine","Las Vegas","NV","89169",36.1152085,-115.153111,"1","Vegetarian, Pakistani, Restaurants, Vegan, Indian"
"143",129238,"Laari Adda","Mississauga","ON","L5M 0R4",43.5596282,-79.7336693,"1","Halal, Restaurants, Pakistani, Indian"
"144",95746,"Copacabana & Jay's  Scratch Kitchen","Montréal","QC","H2W 1Y2",45.5163158,-73.5782519,"1","Restaurants, Indian, Nightlife, Asian Fusion, Pakistani"
"145",98192,"Motimahal","Toronto","ON","M4L 1Z6",43.6723554,-79.3226598,"1","Indian, Restaurants, Pakistani"
"146",133440,"Bismillah Sweets","Mississauga","ON","L5V 2W1",43.6094809334,-79.6963443607,"1","Restaurants, Vegetarian, Pakistani, Indian"
"147",182974,"Bao-Shin To Go","Mississauga","ON","L5C 2S3",43.574341,-79.6567671,"1","Restaurants, Indian, Pakistani, Chinese, Hakka, Halal"
"148",122676,"The Kebob","Mississauga","ON","L4T 1A8",43.7129327,-79.6332796,"1","Halal, Pakistani, Restaurants"
"149",22094,"Bhogi - House of Biryani & Pulao","Mississauga","ON","L4W 1E8",43.6552386,-79.6465839,"1","Bangladeshi, Pakistani, Restaurants, Indian"
"150",39638,"Serena Grill","Whitby","ON","L1P 0A8",43.8741212633,-78.9622703567,"1","Pakistani, Halal, Restaurants, Indian"
"151",188367,"Masala Bhavan","Calgary","AB","T3E 3C9",51.0130118841,-114.1401257646,"1","Vegetarian, Restaurants, Chinese, Hakka, Bars, Nightlife, Pakistani, Indian, Sri Lankan"
"152",104894,"Shirin Mahal Bakery & Sweets","Mississauga","ON","L4W 4L9",43.6348703,-79.6229265,"1","Restaurants, Pakistani"
"153",73245,"Very Peri Chicken","Toronto","ON","M1T 3K8",43.7800117,-79.2998901,"1","African, Restaurants, Portuguese, Pakistani, South African, Chicken Shop, Halal"
"154",77276,"Karahi Boys","Mississauga","ON","L5V 0B7",43.6090252864,-79.6969280526,"1","Restaurants, Pakistani, Halal, Afghan"
"155",71947,"Surahi Restaurant","Calgary","AB","T2H 0M4",50.973706,-114.0700362,"1","Restaurants, Middle Eastern, Indian, Pakistani"
"156",185889,"Priya Indian Cuisine","Tempe","AZ","85284",33.333854,-111.9123807,"0","Indian, Restaurants, Pakistani, Buffets"
"157",25237,"Bombay Sweet House & Restaurant","Calgary","AB","T3J 3J8",51.0986737,-113.9621716,"1","Restaurants, Pakistani, Indian, Middle Eastern"
"158",102879,"Tandoori Style Restaurant","Brampton","ON","L6T 4L4",43.712228,-79.681188,"1","Pakistani, Middle Eastern, Restaurants, Indian"
"159",104191,"Le Taj","Montréal","QC","H3A 1R7",45.501105,-73.5766574,"1","Vegan, Pakistani, Restaurants, Indian, Middle Eastern, Vegetarian"
"160",3435,"The Indian Hut","Toronto","ON","M4Y 2G3",43.6697695,-79.3829273,"0","Middle Eastern, Indian, Restaurants, Pakistani, Buffets"
"161",112406,"Real Taste of India","Toronto","ON","M4L 1G6",43.6673241,-79.3128881,"0","Indian, Restaurants, Middle Eastern, Pakistani"
"162",188587,"Royal Biryani","Charlotte","NC","28270",35.140798,-80.740587,"1","Restaurants, Himalayan/Nepalese, Indian, Vegan, Kebab, Vegetarian, Pakistani, Halal"
"163",156359,"Udipi Cafe","Monroeville","PA","15146",40.443403,-79.790422,"1","Pakistani, Indian, Restaurants"
"164",94891,"Al Kabab","Mississauga","ON","L5V 0A6",43.6101043,-79.6971738,"1","Food, Pakistani, Restaurants, Canadian (New)"
"165",18580,"Kebobchi","Brampton","ON","L7A",43.7065925368,-79.7890599445,"0","Restaurants, Halal, Indian, Pakistani"
"166",138432,"Desi Hut Takeout & Catering","Toronto","ON","M1P 2G7",43.758688,-79.2889502,"0","Pakistani, Indian, Restaurants, Halal"
"167",46820,"Guru Palace","Mesa","AZ","85204",33.3813133,-111.787321,"1","Indian, Buffets, Pakistani, Restaurants"
"168",51187,"Bar B Q Tonite","Mississauga","ON","L4W 4G1",43.6402856336,-79.6248552884,"1","Barbeque, Restaurants, Pakistani"
"169",182423,"Trimurti Indian Cuisine","Toronto","ON","M5V 1Z4",43.6502113,-79.389349,"0","Middle Eastern, Pakistani, Buffets, Indian, Restaurants"
"170",191539,"Gujran Wala Tikka House","Toronto","ON","M4L 1Z8",43.6722484,-79.3212267,"0","Restaurants, Halal, Indian, Pakistani"
"171",111236,"Restaurant Biryani","Montréal","QC","H3H 2N3",45.4951307089,-73.5799684699,"1","Halal, Restaurants, Indian, Pakistani, Food"
"172",65964,"Baba Ka Dhaba","Calgary","AB","T2A 0R7",51.0378994,-113.9845258,"0","Pakistani, Indian, Pizza, Restaurants"
"173",4090,"Spice 7","Calgary","AB","T2P 0E4",51.0515752,-114.0781162,"0","Pakistani, Indian, Restaurants"
"174",160328,"Watan Kabob","Mississauga","ON","L4Z 1X8",43.6200547,-79.6674377,"1","Afghan, Pakistani, Halal, Restaurants, Middle Eastern"
"175",154502,"Indian Flavour Restaurant","North York","ON","M3J 1P3",43.7741539595,-79.5016729832,"1","Indian, Middle Eastern, Pakistani, Restaurants"
"176",30235,"Aromas at Island Restaurant","Gilbert","AZ","85233",33.3359514,-111.821208,"0","Indian, Pakistani, Restaurants"
"177",32867,"The Mount Everest","Ajax","ON","L1S 6L9",43.8543716,-79.0559305,"1","Indian, Event Planning & Services, Restaurants, Pakistani, Vegetarian, Caterers, Middle Eastern, Seafood"
"178",61598,"Bombay Indian Grill","Champaign","IL","61820",40.110474,-88.233544,"1","Indian, Pakistani, Restaurants"
"179",160735,"Shish Mahal Indian Cuisine","Mississauga","ON","L5L 5S6",43.5174493,-79.6945132,"1","Middle Eastern, Pakistani, Restaurants, Indian"
"180",115381,"Raja Foods","Calgary","AB","T2A 2Z5",51.0598204317,-113.974613373,"1","Indian, Hookah Bars, Pakistani, Nightlife, Restaurants, Mediterranean, Bars"
"181",21796,"Fatima Restaurant","Calgary","AB","T3J",51.0982621161,-113.9618725785,"1","Pakistani, Restaurants"
"182",105456,"Maezo - Modern Indian Cuisine","Toronto","ON","M5H 1W2",43.650911,-79.3819568,"1","Asian Fusion, Pakistani, Halal, Bars, Canadian (New), Indian, International, Nightlife, Cocktail Bars, Restaurants"
"183",53442,"Dera","Montréal","QC","H3N 1G6",45.5298147,-73.6365845,"1","Pakistani, Restaurants"
"184",138639,"Hopper Hut","Scarborough","ON","M1P 2W6",43.7660006,-79.2820232,"1","Salad, Indian, Pakistani, Restaurants, Sri Lankan"
"185",42764,"Jodhpore Club Indian Restaurant","Toronto","ON","M5T 1L1",43.6559229,-79.393421,"0","Middle Eastern, Indian, Pakistani, Restaurants"
"186",157798,"309 Dhaba Indian Excellence","Toronto","ON","M5V 1J5",43.6462487,-79.3904529,"1","Indian, Restaurants, Venues & Event Spaces, Event Planning & Services, Pakistani, Food, Food Delivery Services"
"187",87921,"Naan Bros","Mississauga","ON","L5M 2G6",43.5832516,-79.72934,"1","Pakistani, Restaurants, Indian, Halal, Middle Eastern"
"188",17951,"Food Time","Pickering","ON","L1V 5R2",43.8473019,-79.0758908,"1","Pakistani, Indian, Restaurants"
"189",56136,"Curry Corner","Tempe","AZ","85281",33.4153043,-111.9199712,"1","Pakistani, Halal, Restaurants, Indian"
"190",76602,"Kohinoor Kabob House","Richmond Hill","ON","L4C 3E3",43.8904304,-79.4403617,"1","Restaurants, Pakistani, Afghan, Indian"
"191",46633,"Sai India Curry","Las Vegas","NV","89119",36.0987077,-115.136795,"0","Restaurants, Fast Food, Pakistani, Buffets, Indian"
"192",109013,"Royal Kabab Hut","Charlotte","NC","28227",35.2001351,-80.7256529,"0","Vegetarian, Restaurants, Indian, Pakistani"
"193",13663,"Lahore Tikka House","Toronto","ON","M4L 1Z3",43.6714591,-79.3246451,"1","Indian, Halal, Barbeque, Pakistani, Restaurants"
"194",117531,"Sizzler Kabab","Toronto","ON","M5T 2G6",43.6562259585,-79.3992109224,"1","Halal, Restaurants, Indian, Pakistani"
"195",52316,"India Garden","Monroeville","PA","15146",40.4377341,-79.7828414,"1","Restaurants, Indian, Pakistani"
"196",141278,"The Maharaja","Mississauga","ON","L5R 1Y3",43.5985631,-79.6606921,"1","Lounges, Indian, Nightlife, Caterers, Restaurants, Event Planning & Services, Bars, Beer, Wine & Spirits, Pakistani, Food, Diners, Halal, Cocktail Bars, Wine Bars"
"197",154059,"India Masala","Las Vegas","NV","89109",36.127575,-115.169262,"1","Restaurants, Fast Food, Indian, Pakistani"
"198",187799,"Madras Palace","Scarborough","ON","M1P 2X8",43.7689233,-79.2666135,"0","Middle Eastern, Restaurants, Indian, Pakistani"
"199",69832,"Bombay Palace","Toronto","ON","M5C 2H2",43.6511338416,-79.3720099007,"1","Pakistani, Middle Eastern, Restaurants, Buffets, Event Planning & Services, Party & Event Planning, Indian, Caterers"
"200",165047,"Tandoori Flavour","Toronto","ON","M5S 2G8",43.6582095,-79.3996927,"1","Indian, Pakistani, Restaurants, Middle Eastern"
"201",92373,"Tandoori Hut","Calgary","AB","T2N 1V5",51.0532669,-114.0861096,"0","Indian, Pakistani, Middle Eastern, Restaurants"
"202",142020,"Indian Curry House","Las Vegas","NV","89146",36.1256933,-115.2112778,"0","Indian, Pakistani, Halal, Himalayan/Nepalese, Vegetarian, Vegan, Restaurants"
"203",80711,"Chandelier Meditaranean Restaurant","Henderson","NV","89052",36.0053075,-115.1177757,"0","Nightlife, Lounges, Pakistani, Restaurants, Indian, Mediterranean, Greek, Bars, Middle Eastern"
"204",91275,"Rajin's West Indian Take Out","Scarborough","ON","M1B 2G5",43.8147082,-79.2351342,"1","Indian, Pakistani, Middle Eastern, Restaurants"
"205",105082,"Kabob n Kurry Restaurant","Gilbert","AZ","85233",33.3362723,-111.8219235,"0","Restaurants, Buffets, Indian, Pakistani"
"206",77473,"Skylark Restaurant","Calgary","AB","T2A 0W2",51.037354,-113.9567202,"1","Indian, Caterers, Event Planning & Services, Middle Eastern, Pakistani, Restaurants"
"207",116727,"Eastern Twist","Toronto","ON","M6C 1A1",43.6829397,-79.418491,"1","Indian, Pakistani, Restaurants"
"208",77335,"Restaurant Shezan","Montréal","QC","H2X 3K8",45.5165066,-73.5660817,"1","Middle Eastern, Restaurants, Indian, Pakistani"
"209",169830,"Cuisine of India","North York","ON","M2N 5P6",43.7712763,-79.4139128,"0","Event Planning & Services, Middle Eastern, Pakistani, Restaurants, Caterers, Indian"
"210",128143,"Jaipur Indian Restaurant","Charlotte","NC","28217",35.155407,-80.875309,"1","Restaurants, Pakistani, Indian"
"211",9931,"Banjara Indian Cuisine","Toronto","ON","M6G 1L7",43.6631596,-79.4219229,"1","Restaurants, Indian, Pakistani, Middle Eastern"
"212",126737,"Saffron Tree Fine Indian Cuisine","Toronto","ON","M5G 1Z6",43.6563289,-79.380885,"0","Pakistani, Indian, Restaurants, Middle Eastern"
"213",113771,"Kabob Korner","Las Vegas","NV","89101",36.168876,-115.1403955,"0","Halal, Mediterranean, Greek, Restaurants, Indian, Pakistani"
"214",133100,"Masala","Las Vegas","NV","89109",36.1320924,-115.1644134,"1","Fast Food, Pakistani, Indian, Restaurants"
"215",157670,"Sangam Indian Cuisine","Cornelius","NC","28031",35.4878317,-80.874741,"1","Food, Seafood, Specialty Food, Restaurants, Pakistani, Indian, Ethnic Food, Halal"
"216",133267,"Student Biryani","Mississauga","ON","L5V 3A4",43.5907646634,-79.6792731516,"1","Restaurants, Pakistani, Indian"
"217",185989,"Bismillah","Monroeville","PA","15146",40.4389758,-79.7651547,"0","Pakistani, Restaurants"
"218",105094,"Maharani Restaurant","Madison","WI","53703",43.0717428,-89.3889447,"1","Restaurants, Pakistani, Indian"
"219",166745,"Pasand","Tempe","AZ","85283",33.3773276,-111.9086062,"0","Buffets, Indian, Restaurants, Pakistani"
"220",28292,"India Darbar","Madison","WI","53774",43.0529395,-89.4861846,"0","Indian, Restaurants, Pakistani"
"221",41516,"The Host","Toronto","ON","M5R 1A9",43.6700458,-79.3958276,"1","Event Planning & Services, Pakistani, Restaurants, Caterers, Indian, Middle Eastern"
"222",55963,"Fritou Chicken","Calgary","AB","T2W 3P5",50.936799,-114.080121,"1","Donairs, Halal, Restaurants, Pakistani, American (Traditional), Chicken Shop, Food, Indian, Fast Food"
"223",122569,"Red Onion Biryani & Kabob House","Ajax","ON","L1S 0C9",43.868462,-79.039013,"1","Restaurants, Pakistani, Indian"
"224",146215,"Madistan","Madison","WI","53703",43.0731595,-89.393608,"1","Food, Ethnic Food, Specialty Food, Mediterranean, Halal, Restaurants, Pakistani"
"225",75615,"Al Hamra","Scottsdale","AZ","85255",33.6997534,-111.8884849,"1","Halal, Pakistani, Restaurants, Indian"
"226",173459,"Star of India","Pittsburgh","PA","15213",40.4448167,-79.9489713,"0","Indian, Pakistani, Restaurants"
"227",122992,"Safa Tikka & Kebab House","Toronto","ON","M1V 4C3",43.8214476,-79.2468456,"0","Pakistani, Restaurants, Indian"
"228",102754,"Alnoor Kebob & Sweets Restaurant","Ajax","ON","L1S 2H6",43.8508961338,-79.0219862769,"1","African, Pakistani, Restaurants, Indian"
"229",17055,"Kohinoor Indo-Pak Cuisine","Monroeville","PA","15146",40.4393243374,-79.7647570159,"0","Halal, Indian, Pakistani, Restaurants"
"230",173237,"Africana Bbq Curries Drinks","Calgary","AB","T2E 6T1",51.0882152,-114.0523647,"1","Indian, Restaurants, African, Vegetarian, Pakistani"
"231",188925,"Shalimar Restaurant","Las Vegas","NV","89103",36.117707,-115.209897,"1","Restaurants, Indian, Pakistani, Food, Vegetarian"
"232",27556,"Pizza2Go","Brampton","ON","L7A 3E5",43.7102481,-79.8158697,"1","Restaurants, Indian, Pizza, Pakistani, Fast Food"
"233",33287,"Peacock Indian Cuisine","Charlotte","NC","28277",35.03901,-80.7936564,"0","Pakistani, Restaurants, Indian"
"234",31057,"Gandhi Cuisine","Toronto","ON","M5V 1V2",43.6475091,-79.4030906,"1","Pakistani, Indian, Restaurants"
"235",142390,"Indies","Cleveland","OH","44114",41.4997444996,-81.6898298052,"1","Pakistani, Indian, Restaurants"
"236",113826,"Shirin Mahal Bakery & Sweets","Toronto","ON","M1V 5P6",43.831541,-79.264672,"0","Pakistani, Ethnic Food, Bakeries, Specialty Food, Imported Food, Food, Restaurants"
"237",14381,"Al-Karam Sweets","Scarborough","ON","M1X 1L6",43.8285786,-79.2491479,"1","Local Flavor, Desserts, Restaurants, Food, Pakistani, Indian"
"238",94214,"Gateway of India","Toronto","ON","M5T 1L1",43.6560543,-79.3929696,"0","Restaurants, Pakistani, Middle Eastern, Indian"
"239",70552,"Taste of India","Phoenix","AZ","85022",33.6398283,-112.0472243,"0","Restaurants, Indian, Pakistani"
"240",145927,"Godavari","Phoenix","AZ","85023",33.6107116,-112.1006458,"1","Pakistani, Bars, Indian, Halal, Restaurants, Nightlife"
"241",43653,"Exotic Indian Cuisine","Etobicoke","ON","M9W 6J9",43.7462518,-79.6155679,"1","Pakistani, Restaurants, Middle Eastern, Indian"
"242",119505,"Dosa Rama","Scarborough","ON","M1X 0B7",43.8243767,-79.2474937,"1","Indian, Vegetarian, Pakistani, Restaurants"
"243",155704,"Pastries N Chaat","Phoenix","AZ","85053",33.6382898,-112.1356862,"1","Pakistani, Indian, Halal, Food, Bakeries, Restaurants"
"244",185608,"Kabul Restaurant and Bakery","Toronto","ON","M3C 1T2",43.7145615146,-79.3336165188,"1","Bakeries, Ice Cream & Frozen Yogurt, Persian/Iranian, Pakistani, Afghan, Food, Restaurants, Mediterranean"
"245",41556,"Maroli Indian Restaurant","Toronto","ON","M6G 1K7",43.6646432,-79.4145453,"1","Restaurants, Diners, Indian, Halal, Middle Eastern, Pakistani, Food Delivery Services, Event Planning & Services, Caterers, Food"
"246",182210,"Spice 7","Calgary","AB","T3G 5T5",51.1391842,-114.233515,"0","Pakistani, Halal, Restaurants, Indian"
"247",24184,"Kabana","Mississauga","ON","L5M",43.5433491,-79.7239522,"1","Indian, Pakistani, Restaurants"
"248",126229,"Dindigul Thalappakattu Biriyani","Toronto","ON","M1T 3T6",43.8006155,-79.30056,"1","Pakistani, Restaurants, Indian"
"249",28082,"Buffet Maharaja","Montréal","QC","H3G 1T8",45.4944659,-73.5747893,"0","Buffets, Restaurants, Middle Eastern, Indian, Pakistani"
"250",119916,"Armaan Taste of India","Las Vegas","NV","89183",36.0101659,-115.1351604,"1","Pizza, Pakistani, Indian, Restaurants, Asian Fusion, Soul Food"
"251",168158,"Raj Palace Restaurant","Calgary","AB","T2P 0T9",51.0478816,-114.0779007,"0","Restaurants, Indian, Pakistani, Buffets, Middle Eastern"
"252",137810,"India Palace","Phoenix","AZ","85053",33.638853,-112.123114,"1","Restaurants, Indian, Pakistani, Buffets, Vegetarian"
"253",11017,"Clay Oven Restaurant","Calgary","AB","T1Y 7L5",51.0803707,-113.9973368,"1","Indian, Caterers, Middle Eastern, Restaurants, Pakistani, Event Planning & Services"
"254",63314,"Woodlands Vegetarian South Indian Kitchen","Chandler","AZ","85226",33.3216596996,-111.9277120136,"1","Indian, Vegetarian, Pakistani, Restaurants"
"255",40514,"Tandoori Host","Vaughan","ON","L6A 0A4",43.8453167889,-79.5354198142,"1","Pakistani, Restaurants, Indian"
"256",57664,"Sana","Montréal","QC","H3N 1G3",45.5309914,-73.6359432,"1","Bangladeshi, Pakistani, Indian, Asian Fusion, Restaurants"
"257",148871,"Ali's Tandoori Curry House","Toronto","ON","M4E 1G8",43.673606,-79.2837656,"1","Middle Eastern, Pakistani, Indian, Restaurants"
"258",37236,"Shalimar Grill","Toronto","ON","M1L 3W4",43.6952493,-79.2763375,"1","Restaurants, Pakistani, Indian"
"259",181340,"Desi Bar & Grill","Mississauga","ON","L4W 4C3",43.6167794,-79.6174349,"1","Halal, Bars, Sports Bars, DJs, Indian, Restaurants, Chinese, Seafood, Pubs, Event Planning & Services, Canadian (New), Nightlife, Delis, Pakistani"
"260",121063,"Chaupaati","Pineville","NC","28134",35.0869866,-80.8717654,"1","Food, American (New), Pakistani, Event Planning & Services, Food Delivery Services, Restaurants, Caterers, Himalayan/Nepalese, Indian"
"261",140198,"Delhi Darbar","Calgary","AB","T2E 1J5",51.0672367831,-114.0612602234,"0","Pakistani, Restaurants, Buffets, Middle Eastern, Indian"
"262",134748,"Sahara Restaurant","Mississauga","ON","L4Z 3E8",43.6257742,-79.6777064,"0","Indian, Venues & Event Spaces, Event Planning & Services, Middle Eastern, Halal, Pakistani, Restaurants"
"263",164515,"Desi Masala","Leeds","XWY","LS27 8EB",43.6528212,-79.3763454,"1","Indian, Pakistani, Restaurants"
"264",60693,"786 Halal Restaurant","Montréal","QC","H3N 1S4",45.5257496,-73.6245777,"1","Restaurants, Pakistani"
"265",109995,"New India Sweets & Restaurant","Mississauga","ON","L5V 1N2",43.603448,-79.7070768,"1","Pakistani, Middle Eastern, Restaurants, Indian"
"266",183076,"Zaaffran Kitchen","Mississauga","ON","L5M 7L9",43.5591162038,-79.7426949441,"1","Indian, Pakistani, Restaurants"
"267",14221,"Makkah Takeout & Catering","Scarborough","ON","M1B 2L3",43.7946606,-79.2349784,"0","Halal, Pakistani, Caterers, Restaurants, Event Planning & Services"
"268",59192,"Udipi Indian Cuisine","Charlotte","NC","28263",35.22711,-80.84351,"0","Vegetarian, Restaurants, Indian, Pakistani"
"269",38309,"Bar B Q Tonite","Mississauga","ON","L5B 4M4",43.5794595,-79.6175073,"1","Barbeque, Food, Restaurants, Indian, Pakistani"
"270",131409,"Wicked Chili","Calgary","AB","T3P 0A3",51.1614545,-114.1254633,"0","Indian, Pakistani, Restaurants, Buffets"
"271",134439,"Bombay Spice Grill","Phoenix","AZ","85028",33.5839404,-111.9787698,"0","Gluten-Free, Pakistani, Restaurants, Vegetarian, Indian"
"272",42642,"Kabab N Curry","Pittsburgh","PA","15216",40.4041523,-80.0406133,"1","Restaurants, Indian, Pakistani"
"273",22089,"Palais Shahi","Pierrefonds","QC","H8Y 3C6",45.5037044,-73.8164769,"1","Restaurants, Indian, Pets, Pakistani"
"274",108975,"Aunty's Kitchen","Mississauga","ON","L5N",43.579193299,-79.7335126636,"1","Restaurants, Pakistani"
"275",167835,"Restaurant Ambala","Montréal","QC","H2W 2M4",45.5200251,-73.5737945,"1","Pakistani, Indian, Restaurants"
"276",372,"Moti Mahal ","Calgary","AB","T2T 3T1",51.0373851524,-114.0953077077,"1","Indian, Pakistani, Middle Eastern, Restaurants"
"277",84055,"Restaurant Salateen","Montréal","QC","H3N 1S2",45.5272345834,-73.624022853,"0","Restaurants, Pakistani, Chinese, Indian"
"278",28123,"Pak Centre Halal Restaurant","Scarborough","ON","M1P 2S2",43.7517056,-79.2615008,"1","Halal, Indian, Pakistani, Restaurants"
"279",170579,"Karachi Kitchen","Mississauga","ON","L5N 4B7",43.5800879914,-79.758184227,"1","Pakistani, Food, Restaurants, Ethnic Food, Specialty Food, Indian"
"280",165186,"Maharaja Restaurant","Madison","WI","53719",43.055999,-89.4977688,"0","Restaurants, Pakistani, Indian"
"281",90256,"Warraich Meats","Markham","ON","L6E 0N1",43.8952564905,-79.2653532777,"1","Restaurants, Butcher, Meat Shops, Specialty Food, Indian, Halal, Food, Pakistani"
"282",40480,"Chatkhara","Mississauga","ON","L5V 0A6",43.6089759,-79.6959068,"0","Restaurants, Pakistani, Indian"
"283",39946,"New Haandi 2000","Toronto","ON","M4L 1Z5",43.6717553,-79.3234769,"1","Indian, Pakistani, Restaurants"
"284",140586,"Ambrosia Fine Indian Cuisine","Calgary","AB","T2C 2N5",50.9841114,-114.0142002,"0","Pakistani, Indian, Halal, Restaurants"
"285",99231,"La Sani Grill","Mississauga","ON","L5V 0B7",43.6089211,-79.6966007,"1","Pakistani, Buffets, Restaurants"
"286",160481,"Taste Of Tandooree And Sweets","Toronto","ON","M4L 1Z1",43.6718561,-79.3252723,"1","Restaurants, Indian, Halal, Pakistani"
"287",85850,"Veda Healthy Indian Takeout","Toronto","ON","M4W 2J1",43.6725134,-79.3878261,"0","Indian, Restaurants, Pakistani, Food, Food Delivery Services, Middle Eastern, Fast Food"
"288",168503,"Bihari Kabab and Biryani House","Scarborough","ON","M1B 0A7",43.7926586695,-79.1959762573,"1","Indian, Pakistani, Restaurants"
"289",98142,"Tamba","Las Vegas","NV","89109",36.106542,-115.17204,"1","Gluten-Free, Pakistani, Restaurants, Halal, Indian, Nightlife, Bars"
"290",126539,"Iqbal Kebab & Sweet Centre","Toronto","ON","M4H 1H2",43.7065383,-79.351572,"1","Restaurants, Food, Pakistani, Grocery, Barbeque, Seafood"
"291",106277,"Gaylord India Restaurant","Las Vegas","NV","89103",36.1175838,-115.1884813,"0","Pakistani, Hotels, Hotels & Travel, Event Planning & Services, Indian, Restaurants"
"292",94396,"Indian Delhi Palace","Phoenix","AZ","85008",33.4657562,-111.9718284,"1","Venues & Event Spaces, Indian, Event Planning & Services, Party & Event Planning, Pakistani, Restaurants, Buffets"
"293",38931,"Baigs Grill","Brampton","ON","L6W 3E7",43.6865406,-79.7363688,"1","Halal, Restaurants, Indian, Pakistani"
"294",34065,"Yuga Traditional Indian Kitchen and Bar","Calgary","AB","T2P 0T9",51.0477779857,-114.0782592664,"0","Indian, Restaurants, Pakistani"
"295",51553,"Tulips Indian Cuisine","Charlotte","NC","28262",35.311359,-80.746403,"0","Restaurants, Indian, Pakistani, Buffets, Halal"
"296",63301,"Kamasutra Indian Restaurant & Wine Bar","Toronto","ON","M4G 3B4",43.7039983,-79.3748365,"1","Middle Eastern, Asian Fusion, Bars, Event Planning & Services, Restaurants, Indian, Caterers, Wine Bars, Pakistani, Nightlife"
"297",184688,"Taste of Tandooree","Toronto","ON","M6J",43.6422286,-79.4286861,"0","Indian, Restaurants, Pakistani"
"298",32491,"Copper Modern Indian Cuisine","Charlotte","NC","28203",35.2107515,-80.8558333,"1","Pakistani, Bars, Indian, Restaurants, Wine Bars, Nightlife"
"299",61217,"Halal Shamiana Restaurant","Mississauga","ON","L5V 0A6",43.6081494011,-79.6967617667,"1","Restaurants, Indian, Halal, Pakistani"
"300",27628,"Prime Tandoori House","Calgary","AB","T2E 3J6",51.0587413,-114.0541284,"0","Middle Eastern, Indian, Pakistani, Pizza, Restaurants"
"301",45713,"Bombay Indian Cuisine","Las Vegas","NV","89109",36.131484904,-115.1644624097,"1","Halal, Indian, Salad, Restaurants, Pakistani"
"302",41240,"Surya Restaurant","Calgary","AB","T3C 0M5",51.042866,-114.0892996,"0","Pakistani, Specialty Food, Indian, Food, Restaurants, Middle Eastern, Ethnic Food, Event Planning & Services, Caterers"
"303",111325,"Zam Zam Tikka and Kabab","Toronto","ON","M1K 1N8",43.7072508,-79.2695536,"1","Barbeque, Pakistani, Indian, Restaurants"
"304",113579,"Udupi Palace","Toronto","ON","M4L 2A3",43.672609,-79.3211209,"1","Vegetarian, Pakistani, Gluten-Free, Indian, Restaurants"
"305",61737,"Swagat Indian Restaurant","Madison","WI","53717",43.0753376,-89.5174848,"1","Restaurants, Pakistani, Indian"
"306",103424,"Gazebo","Mississauga","ON","L5A 3V9",43.5992403,-79.6123261,"1","Halal, Restaurants, Indian, Pakistani"
"307",149062,"Lahori Taste","Toronto","ON","M1R 3A3",43.7465705872,-79.287940979,"0","Pakistani, Restaurants, Halal, Indian"
"308",68566,"SK's Kitchen","Mississauga","ON","L5V 0A6",43.609422,-79.696284,"1","Halal, Restaurants, Middle Eastern, Pakistani"
"309",73045,"Le Tandoor","Brossard","QC","J4W 1Z3",45.4730269943,-73.4749850258,"1","Indian, Pakistani, Restaurants, Middle Eastern"
"310",156627,"Al Muneer Restaurant","Calgary","AB","T2E 6S8",51.085942,-114.011751,"1","Halal, Restaurants, Indian, Pakistani"
"311",188152,"Sana","Montréal","QC","H3G 2B1",45.496328,-73.5738047,"1","Bangladeshi, Indian, Pakistani, Restaurants"
"312",108719,"India Garden","Lakewood","OH","44107",41.482634,-81.825452,"1","Vegan, Vegetarian, Pakistani, Restaurants, Indian"
"313",191991,"Chutneys Fine Indian Cuisine","Etobicoke","ON","M8X 1C7",43.6465726,-79.5139399,"1","Restaurants, Indian, Pakistani, Middle Eastern"
"314",70500,"Nirala Sweets & Restaurant","Scarborough","ON","M1X 1E6",43.8229066,-79.2475051,"1","Halal, Restaurants, Pakistani, Indian"
"315",8680,"Bollywood Grill Indian Cusine","Las Vegas","NV","89146",36.1442339,-115.2418447,"0","Pakistani, Restaurants, Indian"
"316",117896,"Indian Street House","Calgary","AB","T2Y 1W1",50.9112236,-114.0746764,"1","Indian, Pakistani, Restaurants"
"317",133672,"Biryani","Toronto","ON","M1P 4P5",43.7752348978,-79.2579922825,"1","Indian, Restaurants, Pakistani"
"318",61505,"Allo Inde","Montréal","QC","H3A 1P7",45.499605,-73.5743533,"0","Pakistani, Restaurants, Indian, Middle Eastern"
"319",150125,"Pak Afghan Halal Restaurant & Catering","Phoenix","AZ","85008",33.467014,-111.995926,"0","Pakistani, Afghan, Restaurants, Indian"
"320",12307,"Papa Kebob Restaurant","Brampton","ON","L6R 3X1",43.7634325,-79.7699258,"1","Pakistani, Middle Eastern, Restaurants, Indian, Mediterranean, Kebab"
"321",43380,"Eastern Foods International","Mississauga","ON","L5A 2G9",43.5818559,-79.6178939,"1","Indian, Restaurants, Halal, Grocery, Pakistani, Food"
"322",140166,"Situl Indian Restaurant","Charlotte","NC","28209",35.1748509,-80.847318,"0","Indian, Pakistani, Restaurants"
"323",39459,"Tandoori Village","Phoenix","AZ","85053",33.6390426,-112.1516293,"0","Pakistani, Herbs & Spices, Restaurants, Food, Indian, Specialty Food"
"324",29125,"Rashnaa Restaurant","Toronto","ON","M4X 1H2",43.668096,-79.368979,"0","Pakistani, Restaurants, Sri Lankan, Indian"
"325",102774,"Lally's Sweets & Tandoori Restaurant","Brampton","ON","L6Y 4E6",43.6511795,-79.7353431,"1","Pakistani, Restaurants, Middle Eastern, Indian"
"326",28895,"Punjab Palace","Montreal","QC","H3N 1S6",45.5252861,-73.6250819,"1","Restaurants, Pakistani, Indian"
"327",17203,"Royal India Cuisine","Calgary","AB","T2P 0H3",51.0496976,-114.0643161,"1","Halal, Middle Eastern, Indian, Restaurants, Pakistani"
"328",147749,"Daawat Indian Cuisine","Phoenix","AZ","85027",33.6558818,-112.133956,"1","Desserts, Seafood, Restaurants, Pakistani, Indian, Food, Vegetarian, Halal"
"329",137022,"Mississauga Grill","Mississauga","ON","L5N 6S3",43.578982,-79.771073,"0","Pakistani, Restaurants, Indian, Halal"
"330",72547,"Restaurant Salateen","Montréal","QC","H3N 1S2",45.5265199277,-73.6243438624,"1","Restaurants, Pakistani, Halal, Indian"
"331",62360,"Paradise India","Las Vegas","NV","89117",36.1426711,-115.2686949,"0","Coffee & Tea, Pakistani, Food, Restaurants, Indian"
"332",97163,"Flavor of India","Madison","WI","53703",43.075319,-89.386145,"0","Restaurants, Pakistani, Indian"
"333",152962,"Kabob Express","Laveen Village","AZ","85339",33.391115624,-112.1678662241,"0","Desserts, Restaurants, Food, Indian, Kebab, Pakistani"
"334",21811,"Toshka - Grill & Lounge","Mississauga","ON","L5B 4M6",43.579644,-79.646424,"1","Restaurants, Pakistani, Middle Eastern, Persian/Iranian, Halal"
"335",170167,"Veda","Toronto","ON","M4Y 2C8",43.6641966,-79.3804539,"0","Indian, Restaurants, Pakistani"
"336",144475,"Yum shawarma","Brampton","ON","L6X 5E9",43.681599,-79.8049406,"1","Mediterranean, Pakistani, Burgers, Restaurants"
"337",46108,"Saffron Indian Cuisine","Charlotte","NC","28273",35.1375056,-80.9336475,"1","Indian, Restaurants, Pakistani"
"338",157298,"Calgary Hot Plate Restaurant","Calgary","AB","T3J 3K9",51.096933,-113.96297,"1","Pakistani, Restaurants"
"339",17706,"Restaurant Indian Kwality","Pierrefonds","QC","H8Y 3C6",45.5036665,-73.8164521,"1","Pakistani, Restaurants, Middle Eastern, Indian"
"340",188410,"Ali's West Indian Roti Shop","Toronto","ON","M6K 1M2",43.6408507,-79.4359336,"1","Seafood, Middle Eastern, Pakistani, Caribbean, Indian, Restaurants"
"341",177858,"Havelly Grill","Mississauga","ON","L5S 1W7",43.6807285,-79.6808595,"1","Halal, Pakistani, Restaurants, Buffets, Indian"
"342",6157,"Tinnels West Indian Take-Out","Brampton","ON","L6V 1X6",43.697012,-79.751873,"1","Caribbean, Middle Eastern, Pakistani, Indian, Restaurants"
"343",112327,"China Cottage Restaurant","Scarborough","ON","M1V 5P6",43.8351749646,-79.2533680632,"1","Restaurants, Indian, Halal, Thai, Hakka, Pakistani, Chinese"
"344",191593,"Haveli","Dollard-des-Ormeaux","QC","H8Y 3C4",45.5011144,-73.8153787,"1","Restaurants, Indian, Pakistani"
"345",121730,"Karahi Point","Toronto","ON","M9M 2Y9",43.7527437253,-79.5369017869,"1","Restaurants, Halal, Indian, Pakistani"
"346",174439,"India Palace","Las Vegas","NV","89169",36.121237,-115.151852,"1","Herbs & Spices, Food, Pakistani, Specialty Food, Indian, Halal, Restaurants"
"347",55164,"Madras Masala","Toronto","ON","M6G 1L7",43.6631596,-79.4219229,"1","Restaurants, Southern, Gluten-Free, Vegan, Pakistani, Indian"
"348",1048,"Karachi Kitchen","Toronto","ON","M1P 2R7",43.7493799,-79.2764504,"0","Indian, Restaurants, Pakistani"
"349",59861,"Brampton Punjabi Food- Dhaba Express","Brampton","ON","L7A 0C9",43.7102481,-79.8158697,"1","Indian, Pakistani, Restaurants"
"350",282,"Desi Flavors","Brampton","ON","L6Z 1Y4",43.727604,-79.794508,"0","Halal, Restaurants, Indian, Pakistani"
"351",167708,"Sweet India Restaurant","Mississauga","ON","L4T 2H1",43.7060983,-79.6461043,"1","Middle Eastern, Indian, Restaurants, Pakistani"
"352",42151,"Spice Heaven","Toronto","ON","M4J 1N5",43.6828108943,-79.325876981,"0","Indian, Pakistani, Restaurants"
"353",32697,"Shaheen Tikka & Kabab House","North York","ON","M3C 1T2",43.7139265103,-79.3341542432,"1","Restaurants, Pakistani"
"354",112314,"Maison Samosa Express","Montréal","QC","H4L 2H1",45.5122823,-73.6774524865,"1","Restaurants, Pakistani, Indian"
"355",182626,"Grand Kebab","Henderson","NV","89014",36.0647763818,-115.0465003029,"1","Armenian, Restaurants, Pakistani, Kebab, Mediterranean, Middle Eastern, Falafel"
"356",138020,"Taj Mahal","Pittsburgh","PA","15237",40.5474493,-80.0184494,"1","Restaurants, Indian, Pakistani"
"357",151328,"Tandoor Indian Grill","Pittsburgh","PA","15213",40.4517965,-79.9527148,"0","Indian, Restaurants, Pakistani"
"358",125838,"Taza Indian Kitchen","Las Vegas","NV","89123",36.0165803,-115.1187014,"0","Pakistani, Restaurants, Indian"
"359",25628,"Wanlee Loy","Toronto","ON","M1V 5P6",43.8317208,-79.2663275,"0","Chinese, Pakistani, Hakka, Restaurants, Halal"
"360",121130,"Maharani Indian Cuisine","Charlotte","NC","28204",35.206798,-80.8351239,"1","Food, Desserts, Seafood, Pakistani, Restaurants, Indian"
"361",42356,"Naan & Kabob","Mississauga","ON","L4Z 3K8",43.6146219,-79.6630912,"0","Pakistani, Restaurants, Afghan, Middle Eastern, Kebab"
"362",185632,"Ancila's Indian Cuisine","Mississauga","ON","L5N 6A3",43.5957825,-79.7567888,"1","Pakistani, Indian, Middle Eastern, Restaurants"
"363",84425,"Second grill","Mississauga","ON","L5M 7M5",43.5571526,-79.7563288,"1","Pakistani, Restaurants, Burgers"
"364",30898,"Masala Express","Calgary","AB","T3G 3A9",51.1160439,-114.1800245,"1","Pakistani, Middle Eastern, Restaurants, Indian"
"365",189583,"Shiraz","Las Vegas","NV","89102",36.143133,-115.2085074,"1","Restaurants, Indian, Pakistani, Persian/Iranian"
"366",56374,"Tinnel's West Indian Take-Out","York","ON","M6M 1T2",43.69095,-79.4709651,"1","Middle Eastern, Pakistani, Restaurants, Indian, Caribbean"
"367",103881,"Glory of India","Calgary","AB","T2P 0J7",51.0496906,-114.0750213,"0","Pakistani, Middle Eastern, Event Planning & Services, Indian, Restaurants, Caterers"
"368",23029,"Zaiaka","Plum","PA","15239",40.462932,-79.706651,"0","Indian, Restaurants, Pakistani"
"369",134601,"Incredible India","Brampton","ON","L6R 3P4",43.756018,-79.7590425,"1","Indian, Restaurants, Pakistani"
"370",16734,"Moti Mahal Restaurant","Calgary","AB","T2X 1N4",50.9133932,-114.063158,"0","Pakistani, Indian, Middle Eastern, Restaurants"
"371",40392,"Samosa King - Embassy Restaurant","Scarborough","ON","M1S 4Z8",43.810376,-79.257055,"1","Pakistani, Indian, Restaurants"
"372",2784,"Eat More Restaurant & Cafe","Mississauga","ON","L4W 1E1",43.6364229983,-79.624345504,"0","Halal, Restaurants, Pakistani"
