"","business_id","name","city","state","postal_code","latitude","longitude","is_open","categories"
"1",88804,"Circles Grill and Market","Charlotte","NC","28277",35.0393909574,-80.7950710445,"0","Burgers, Italian, Beauty & Spas, Wine Bars, Barbers, Peruvian, American (Traditional), Bars, Gastropubs, Diners, Salad, Specialty Food, Restaurants, American (New), Nightlife, Cafes, Food"
"2",187969,"Mi Peru South American Grill","Henderson","NV","89012",36.0230899638,-115.0489987523,"1","Restaurants, American (Traditional), Spanish, Latin American, Peruvian"
"3",65464,"The Boulevard Cafe","Toronto","ON","M5S 1H1",43.6619075,-79.4068878,"0","Breakfast & Brunch, Cafes, Latin American, Event Planning & Services, Restaurants, Peruvian, Caterers"
"4",124083,"Tumi Fine Peruvian Cuisine","Chandler","AZ","85225",33.3200036,-111.8583025,"1","Peruvian, Restaurants, Latin American"
"5",160905,"Villa Wellington","Verdun","QC","H4G 1X2",45.4577749,-73.5676826,"1","Restaurants, Peruvian"
"6",135193,"Inka Grill","Las Vegas","NV","89123",36.0180731813,-115.1179540157,"0","Peruvian, Restaurants"
"7",75372,"El Toque Del Sabor","Las Vegas","NV","89121",36.0994266527,-115.1162015962,"1","Bars, Restaurants, Nightlife, Peruvian"
"8",104384,"Solymar","Montréal","QC","H2R 2N6",45.543636,-73.620003,"1","Peruvian, Restaurants"
"9",93659,"Ardor Bistro","Toronto","ON","M6J 2Y9",43.6455388,-79.419174,"0","Latin American, Restaurants, Canadian (New), Peruvian, Tapas/Small Plates"
"10",60577,"Las Americas","Bedford","OH","44146",41.408098,-81.497417,"1","Grocery, Mexican, Beauty & Spas, Hair Salons, Restaurants, Latin American, Food, Peruvian"
"11",113384,"Rincon Peruano","Glendale","AZ","85302",33.5674685,-112.1872492,"0","Restaurants, Peruvian"
"12",159397,"Once","Las Vegas","NV","89109",36.1249493045,-115.1679912955,"1","Japanese, Restaurants, Latin American, Asian Fusion, Peruvian"
"13",50352,"El Chullo Peruvian Restaurant & Bar","Phoenix","AZ","85006",33.4770298133,-112.0648466176,"1","Restaurants, Peruvian"
"14",124431,"Pio Peruvian Rotisserie Chicken","Calgary","AB","T1Y 7K7",51.0686993,-113.9945828,"1","Restaurants, Peruvian"
"15",5816,"Nazca Bar & Grill","Eastlake","OH","44095",41.434188,-81.498748,"0","Latin American, Peruvian, Restaurants, Nightlife, Bars"
"16",128881,"Inka Heritage","Madison","WI","53715",43.0608425,-89.4009947,"0","Peruvian, Restaurants, Latin American, Seafood"
"17",185819,"De Mi Tierra Restaurant","Scottsdale","AZ","85257",33.4666298,-111.9000416,"0","Caribbean, Restaurants, Peruvian, Latin American, Puerto Rican, Dominican"
"18",90861,"Callao","Montréal","QC","H2T 2N7",45.5215434,-73.5940401,"0","Peruvian, Restaurants"
"19",54109,"Las Americas","Las Vegas","NV","89104",36.1452382,-115.1181012,"0","Peruvian, Restaurants"
"20",179667,"New Sky Restaurant","Toronto","ON","M5T 2G3",43.6554097,-79.3987492,"1","Restaurants, Food, Peruvian, Specialty Food, Chinese, Ethnic Food"
"21",77204,"MAS","Tempe","AZ","85281",33.4508727,-111.9250589,"0","Peruvian, Seafood, Nightlife, Restaurants, Breakfast & Brunch, Cocktail Bars, Bars, Latin American, Sandwiches"
"22",173420,"Inti - Modern Peruvian","Calgary","AB","T1Y 6Z1",51.0791889314,-113.9976656772,"0","Chicken Shop, Buffets, Restaurants, Peruvian"
"23",175202,"Tiradito","Montréal","QC","H2Z 1N1",45.5045353,-73.5634405,"1","Cocktail Bars, Nightlife, Bars, Peruvian, Restaurants"
"24",139313,"La Selva","Montréal","QC","H2J 2A9",45.5251927,-73.5781704,"1","Mexican, Restaurants, Peruvian"
"25",100211,"Inca vs Azteca","Las Vegas","NV","89141",36.007747,-115.208258,"1","Restaurants, Peruvian, Mexican, Food, Food Trucks"
"26",124967,"Paracas Peruvian","Toronto","ON","M6E 1A2",43.6794411,-79.436944,"1","Restaurants, Peruvian"
"27",60131,"Pisco","Toronto","ON","M4N 2L5",43.7290624,-79.4030983,"0","Restaurants, Canadian (New), Peruvian, Latin American"
"28",35938,"Viva Chicken - Gastonia","Gastonia","NC","28054",35.2615792,-81.1403486,"1","Restaurants, Peruvian"
"29",146446,"Pat'e Palo","Montréal","QC","H1Y 1G2",45.540899,-73.598482,"1","International, Restaurants, Peruvian"
"30",143052,"Las Tres Conchitas","Montréal","QC","H2R 2N3",45.5425580157,-73.6175761888,"1","Seafood, Restaurants, Musicians, Peruvian, Event Planning & Services"
"31",9312,"Kay Pacha","Toronto","ON","M6C 1B5",43.6813999,-79.4278949,"1","Peruvian, Restaurants"
"32",127913,"Puca Puca","Montréal","QC","H2T 1S1",45.5250352,-73.5976426,"1","Restaurants, Peruvian"
"33",189676,"Pisco 1641","Toronto","ON","M6G 1B4",43.655075,-79.414619,"0","Peruvian, Restaurants"
"34",7404,"Machu Picchu Peruvian Cuisine & Bar","Pineville","NC","28134",35.0831648,-80.8843741,"1","Latin American, Restaurants, Peruvian"
"35",15597,"Villa Peru Restaurant & Bar","Tempe","AZ","85281",33.4508772606,-111.9251943202,"0","Cocktail Bars, Bars, Restaurants, Nightlife, Peruvian, Latin American, Sandwiches"
"36",99623,"Bar Mar","Toronto","ON","M4S 2M9",43.7045219,-79.3883282,"0","Peruvian, Restaurants, Tapas Bars, Latin American"
"37",89135,"Los Chicos Brasa","Markham","ON","L3S 0B6",43.8503882,-79.2539052,"0","Chicken Wings, Brazilian, Specialty Food, Latin American, Barbeque, Restaurants, Peruvian, Food, Ethnic Food"
"38",70933,"La Quina Rotisserie","Toronto","ON","M6A 2T3",43.7198163163,-79.4566065073,"0","Latin American, Restaurants, Peruvian, Chicken Shop"
"39",84617,"Augusto Al Gusto","Verdun","QC","H4G 1W8",45.4585566,-73.5671691,"1","Latin American, Peruvian, Restaurants"
"40",69112,"Me Sabe A Peru","Woodbridge","ON","L4L 4R8",43.770047,-79.551199,"1","Restaurants, Peruvian"
"41",39433,"Viva Chicken","Charlotte","NC","28277",35.0705847,-80.8444573,"1","Restaurants, Caterers, Event Planning & Services, Peruvian"
"42",59114,"Los Chicos Brasa","Markham","ON","L3P 1B9",43.8685812,-79.2823755,"1","Peruvian, Latin American, Restaurants, Chicken Wings"
"43",146646,"Latin Taste","Toronto","ON","M5T 1L8",43.655127,-79.401609,"1","Peruvian, Mexican, Latin American, Food, Restaurants, Argentine, Bakeries"
"44",5615,"Lima Limon","Las Vegas","NV","89107",36.171017,-115.207055,"1","Chicken Wings, Restaurants, Seafood, Peruvian"
"45",119270,"Viva Chicken","Charlotte","NC","28277",35.0507959,-80.767278,"1","Peruvian, Restaurants"
"46",94380,"Mochica","Concord","NC","28025",35.3980252,-80.6108519,"1","Sandwiches, Wraps, Peruvian, Restaurants"
"47",50701,"Mira","Toronto","ON","M5V 1E3",43.644177,-79.396429,"1","Latin American, Restaurants, Peruvian"
"48",117333,"Viva Chicken","Concord","NC","28027",35.3752254,-80.7299224,"1","Restaurants, Peruvian"
"49",108566,"Peru Chicken","Las Vegas","NV","89102",36.1455122545,-115.1932036608,"1","Chicken Shop, Chicken Wings, Peruvian, Restaurants"
"50",89941,"Pollo Inka","Madison","WI","53717",43.0760778,-89.5184747,"0","Restaurants, Peruvian"
"51",45701,"Pollo Campero","Charlotte","NC","28215",35.2354634736,-80.7386802882,"1","Empanadas, Latin American, Food, Fast Food, Chicken Shop, Peruvian, Restaurants"
"52",146211,"Les Deux Fours","Montréal","QC","H2J 2L3",45.524226,-73.583963,"1","Italian, Peruvian, Steakhouses, Pizza, Restaurants"
"53",127429,"Chicho's","Montréal","QC","H2S 3C6",45.5311759,-73.6108876,"1","Peruvian, Restaurants"
"54",41279,"Don Beto Restaurant","Las Vegas","NV","89107",36.1803493,-115.204595,"0","Restaurants, Peruvian"
"55",149370,"Viva Chicken","Charlotte","NC","28204",35.2134205994,-80.826022401,"1","Restaurants, Peruvian"
"56",23478,"El Cafetal Restaurant & Bakery","Toronto","ON","M6E 1A2",43.6793591,-79.4374897,"0","Restaurants, Latin American, Peruvian, Colombian, Mexican"
"57",176115,"La Cancha","Matthews","NC","28105",35.1178317383,-80.6965885503,"0","Peruvian, Restaurants"
"58",54525,"AJ's Inca Peruvian Restaurant","Pittsburgh","PA","15222",40.4414035988,-80.0034166834,"0","Peruvian, Restaurants"
"59",102766,"Surco Peruvian Cuisine","Madison","WI","53716",43.08356,-89.317665,"0","Peruvian, Restaurants"
"60",117558,"Inca's Peruvian Cuisine","Scottsdale","AZ","85254",33.6369979604,-111.92232728,"0","Peruvian, Restaurants"
"61",133727,"Machu Picchu","Charlotte","NC","28212",35.192896,-80.7641453,"0","Spanish, Basque, Latin American, Restaurants, Peruvian"
"62",128857,"Rotisserie Pollo Rico","Charlotte","NC","28212",35.203507,-80.743549,"0","Peruvian, Restaurants"
"63",96760,"Genaro's Rotisserie & Grill","Charlotte","NC","28210",35.094002,-80.867142,"0","Peruvian, Latin American, Restaurants"
"64",10879,"Aldo's Restaurant Peruvian Food","Toronto","ON","M3N 2Z4",43.7515877876,-79.5266440138,"1","Peruvian, Restaurants, Buffets"
"65",131770,"Crandall's Peruvian Bistro","Madison","WI","53703",43.074922,-89.39103,"1","Restaurants, Latin American, American (Traditional), Peruvian"
"66",137470,"Mochica","Toronto","ON","M6G 1B4",43.655338,-79.4147095,"1","Restaurants, Peruvian"
"67",1580,"Viva Chicken","Indian Trail","NC","28079",35.051072,-80.6460016,"1","Chicken Shop, Restaurants, Peruvian"
"68",187189,"Desert Dave's","Fountain Hills","AZ","85268",33.607984,-111.719943,"0","Steakhouses, Restaurants, Peruvian"
"69",52545,"Viva Chicken","Charlotte","NC","28209",35.1699086,-80.851132,"1","Peruvian, Restaurants"
"70",156534,"Viva Chicken RedStone","Indian Land","SC","29707",34.9993737,-80.8531655,"1","Restaurants, Peruvian"
"71",72567,"Saltao Peruvian Fare","Charlotte","NC","28226",35.1068061,-80.8068776,"1","Latin American, Restaurants, Peruvian"
"72",118755,"Sandouchon","Montréal","QC","H3A",45.5003671266,-73.5735325425,"1","Peruvian, Food, Restaurants"
"73",26349,"El 77","Montréal","QC","H2T 2J9",45.5266004,-73.6030502,"0","Vegetarian, Restaurants, Peruvian, Vegan"
"74",64631,"Viva Chicken of Northcross","Huntersville","NC","28078",35.4434401998,-80.8724790179,"1","Sandwiches, Salad, Restaurants, Peruvian"
"75",25282,"Pizzellicoq Restaurant","Montréal","QC","H2R 2N6",45.543672,-73.620092,"1","Restaurants, Peruvian"
"76",27302,"Che Inka Chicken","Las Vegas","NV","89145",36.1635637,-115.244522,"0","Peruvian, Restaurants, Argentine"
"77",138395,"Restaurant Madre","Montréal","QC","H1Y 1X5",45.5484683,-73.5746997,"1","Restaurants, Peruvian, Breakfast & Brunch, Portuguese, Latin American"
"78",85479,"El Plebeyo Restaurant","Toronto","ON","M5R 3J2",43.6828513,-79.4180444,"0","Restaurants, Latin American, Peruvian"
"79",53656,"Tumi Fine Peruvian Cuisine","Chandler","AZ","85224",33.3375314,-111.8596545,"0","Restaurants, Latin American, Peruvian"
"80",2138,"Contigo Peru","Mesa","AZ","85202",33.363255,-111.860581,"0","Latin American, Peruvian, Restaurants"
"81",5750,"La Feria","Pittsburgh","PA","15232",40.451707,-79.9328251,"1","Restaurants, Latin American, Peruvian"
