"","business_id","name","city","state","postal_code","latitude","longitude","is_open","categories"
"1",92600,"Imsiam Thai Restaurant and Noodle","Las Vegas","NV","89102",36.1440225,-115.195896,"0","Thai, Noodles, Soup, Restaurants"
"2",147516,"Lucky Lin's Restaurant","Toronto","ON","M1J 3C2",43.7443362,-79.2194828,"0","Thai, Restaurants"
"3",127140,"Parallax Restaurant and Lounge","Cleveland","OH","44113",41.482406,-81.68906,"1","Restaurants, Asian Fusion, Sushi Bars, Thai"
"4",177515,"Burgh Thai","Verona","PA","15147",40.5049849,-79.8434964,"1","Restaurants, Thai"
"5",81009,"Si Lom Thai Bistro","Toronto","ON","M4Y",43.6650073,-79.3808111,"1","Thai, Restaurants, Vegan"
"6",12471,"Little Coxwell Vietnamese & Thai Cuisine","Toronto","ON","M4C 3G5",43.6961749185,-79.3290924315,"1","Restaurants, Vietnamese, Thai"
"7",62606,"Thai Express Restaurant","Montréal","QC","H3B 4G5",45.502466,-73.5713041,"1","Thai, Restaurants"
"8",78276,"Tottie's Asian Kitchen","Scottsdale","AZ","85254",33.639741,-111.9443776,"1","Laotian, Vietnamese, Chinese, Restaurants, Thai"
"9",153206,"Malaysia Grill","Markham","ON","L3P",43.8748998,-79.2591737,"0","Asian Fusion, Thai, Restaurants, Malaysian"
"10",170976,"Pat Thai","Henderson","NV","89052",35.995289,-115.099882,"0","Thai, Restaurants"
"11",64160,"Thai Express","Calgary","AB","T2P 3Y6",51.047918,-114.0644613,"1","Restaurants, Fast Food, Thai"
"12",67360,"Chang Mai Thai Food","Northwest Calgary","AB","",51.0933361838,-114.1533866619,"1","Thai, Restaurants"
"13",141419,"Jardin Thai","Rosemere","QC","J7A 2H4",45.6276922,-73.8077308,"1","Restaurants, Thai"
"14",19677,"Tim-Jas Thai & Chinese","Mississauga","ON","L5H 3A1",43.5319918,-79.6124489,"1","Restaurants, Thai, Chinese"
"15",115247,"Restaurant PM","Montréal","QC","H3H 1M2",45.493736,-73.579644,"1","Thai, Chinese, Restaurants"
"16",159176,"Jasmine Thai Gourmet","Las Vegas","NV","89128",36.1968609,-115.2622033,"0","Thai, Restaurants"
"17",92905,"Golden Palace","Monroeville","PA","15146",40.4451678,-79.7128515,"1","Sushi Bars, Chinese, Thai, Restaurants"
"18",123149,"Mango Thai","Mesa","AZ","85210",33.3880679,-111.841425,"0","Thai, Restaurants, Vegetarian"
"19",175829,"Pan Asian","Las Vegas","NV","89117",36.1349835,-115.2784336,"1","Thai, Japanese, Chinese, Restaurants"
"20",172668,"Tuk Tuk Thai","Calgary","AB","T3P 0A3",51.1608233,-114.1244078,"1","Thai, Restaurants"
"21",155666,"King & I","Las Vegas","NV","89119",36.1001658,-115.1389824,"1","Thai, Salad, Soup, Restaurants"
"22",67233,"Aranya Thai Bistro","Las Vegas","NV","89147",36.1136929,-115.3075716,"0","Restaurants, Thai"
"23",159385,"Delicious-Thai","Calgary","AB","T2N 1V8",51.0544982,-114.0854914,"1","Restaurants, Thai"
"24",184894,"Tum Nak Thai","Mesa","AZ","85209",33.3779891872,-111.6897583008,"1","Thai, Restaurants"
"25",6836,"Thai Express","Vaughan","ON","L4L 9L3",43.79181,-79.551135,"1","Food, Thai, Restaurants"
"26",133648,"Real Thai On","Toronto","ON","M9N 2R8",43.7009257,-79.5032563,"0","Breakfast & Brunch, Malaysian, Restaurants, Thai"
"27",89425,"The Friendly Thai","Toronto","ON","M5V 2B3",43.647936,-79.4012531,"1","Thai, Restaurants"
"28",170023,"MK Thai Cuisine","Las Vegas","NV","89104",36.1600326,-115.0788545,"0","Thai, Restaurants"
"29",49333,"Ichiki","Vaughan","ON","L4H 4J5",43.846265122,-79.5534812231,"1","Japanese, Restaurants, Noodles, Thai"
"30",31357,"Taste of Thai","Phoenix","AZ","85044",33.331253,-111.978331,"1","Asian Fusion, Thai, Restaurants"
"31",38087,"Restaurant Talay Thai","Montréal","QC","H3S 1Y7",45.4989536,-73.6274593,"1","Thai, Restaurants"
"32",75627,"Hong Kong Express II","Pittsburgh","PA","15219",40.437018,-79.997166,"1","Restaurants, Chinese, Thai"
"33",155819,"Thai Express","Montréal","QC","H3B 4W3",45.4893514,-73.5844885,"1","Restaurants, Thai"
"34",151441,"Ploy Thai Cuisine","Chandler","AZ","85224",33.340281,-111.860093,"0","Food, Thai, Restaurants"
"35",63144,"Bangkok Thai Restaurant","Stow","OH","44224",41.1673719905,-81.4399877563,"1","Asian Fusion, Chinese, Restaurants, Thai, Greek, Cambodian"
"36",49976,"Simply Thai Cuisine","Toronto","ON","M6S 1N8",43.6506762,-79.4775585,"1","Thai, Restaurants"
"37",90949,"China 8","Mississauga","ON","L5M 5S5",43.5589212189,-79.742916216,"1","Chinese, Vietnamese, Restaurants, Food, Thai"
"38",25349,"Green Basil","Calgary","AB","T2G 5E8",51.011904,-114.0646966,"1","Thai, Restaurants, Vietnamese"
"39",153147,"Mint Cafe","Cleveland Heights","OH","44118",41.5109907,-81.5797203,"0","Restaurants, Thai"
"40",2397,"Golden Thai Kitchen","Phoenix","AZ","85035",33.4679027715,-112.2213678798,"1","Food, Imported Food, Ethnic Food, Local Flavor, Specialty Food, Thai, Restaurants"
"41",67712,"Sa Bai On The Fly","Tempe","AZ","85282",33.4079762,-111.9104873,"1","Thai, Restaurants"
"42",131432,"Thaï Nouilles & Sushi","Dollard-des-Ormeaux","QC","H9B 2R8",45.4850803,-73.8015222,"1","Restaurants, Thai, Sushi Bars"
"43",64073,"Archi's Thai Cafe","Las Vegas","NV","89117",36.1471526137,-115.2999764308,"1","Thai, Restaurants, Food"
"44",101205,"Jing Thai Restaurant","Mississauga","ON","L5M 3S9",43.5856987,-79.7188007,"1","Thai, Restaurants"
"45",53265,"Thai Shan Inn","Toronto","ON","M6E 3S8",43.6969621382,-79.4510810184,"0","Restaurants, Thai"
"46",95865,"Ivory Thailand","Toronto","ON","M5C 2G2",43.6517653,-79.3750185,"0","Restaurants, Thai"
"47",102851,"Empire Grill","Toronto","ON","M6C 2E2",43.699788833,-79.4318662615,"1","Nightlife, Wine Bars, Thai, Restaurants, Portuguese, Seafood, Chicken Shop, Barbeque, Bars, Indian"
"48",130149,"Joyous Thai","Toronto","ON","M9P 3B6",43.6916836,-79.5319995,"1","Thai, Restaurants"
"49",61771,"EatThai","Toronto","ON","M2N 5P7",43.7704408,-79.4129859,"0","Restaurants, Thai"
"50",182346,"California Thai","Toronto","ON","M2N 6L6",43.7686976,-79.4131633,"1","Restaurants, Chinese, Thai, Fast Food"
"51",100320,"White Elephant Restaurant & Bar","Toronto","ON","M5A 1T1",43.6558084931,-79.363685064,"0","Restaurants, Thai"
"52",61830,"Pho Kimboss Bistro","Toronto","ON","M6H 1B5",43.6523520518,-79.4330067501,"0","Restaurants, Thai, Vietnamese"
"53",48240,"Jacky Chan","Las Vegas","NV","89178",36.0216106,-115.277674,"1","Restaurants, Thai, Chinese"
"54",23416,"Osechi Japanese Cuisine","Markham","ON","L3T 7T2",43.8435789,-79.3776066,"0","Japanese, Thai, Restaurants"
"55",101616,"Peppermint Thai Cuisine","Pepper Pike","OH","44124",41.462942,-81.461824,"1","Restaurants, Thai"
"56",83751,"Restaurant Thai Delice & Sushi","Laval","QC","H7W 3T7",45.530442,-73.753976,"1","Restaurants, Thai, Sushi Bars"
"57",183846,"Thai Express","Rocky View","AB","T4A 0G3",51.2040599738,-113.9922171459,"1","Restaurants, Thai"
"58",188502,"Basil Box","Toronto","ON","M5B 1S1",43.6578986,-79.3812679,"1","Thai, Vietnamese, Restaurants, Gluten-Free"
"59",165675,"Real Thailand Restaurant","Toronto","ON","M6G 1K1",43.6652462,-79.4118851,"1","Thai, Restaurants"
"60",169112,"Huong Xua","Anjou","QC","H1J 1G3",45.6010549,-73.5766119,"1","Restaurants, Thai, Asian Fusion, Vietnamese"
"61",44923,"Bahn Thai","Charlotte","NC","28277",35.0708159675,-80.8440170065,"1","Salad, Thai, Sushi Bars, Restaurants"
"62",72350,"Amazing Thai 2","Las Vegas","NV","89113",36.0532899,-115.2795449,"1","Restaurants, Thai"
"63",52755,"Oxtail Pho & Banh Mi","Toronto","ON","M6J 1V3",43.6518894,-79.4089993,"1","Food, Thai, Vietnamese, Restaurants, Chinese"
"64",102814,"Thai Green Chili","Toronto","ON","M6H 1M3",43.6603506,-79.4324956,"1","Thai, Restaurants, Food, Ethnic Food, Specialty Food"
"65",52456,"ChuChai","Montréal","QC","H2W 2M5",45.52089,-73.576718,"1","Thai, Restaurants, Vegan, Vegetarian"
"66",15495,"Nantana Thai Food & Desserts","Toronto","ON","M5T 2W6",43.6517657,-79.4049646,"1","Restaurants, Desserts, Food, Thai"
"67",94064,"Kanlaya Thai Kitchen","Allison Park","PA","15101",40.5965023,-79.9481025,"1","Noodles, Restaurants, Seafood, Thai"
"68",52283,"California Thai","Toronto","ON","M5B",43.6570197,-79.3804447,"1","Thai, Restaurants"
"69",16059,"Papaya Thai","Mesa","AZ","85213",33.4237052,-111.7728895,"1","Ethnic Food, Food, Specialty Food, Thai, Restaurants"
"70",149214,"Le Palais Impérial","Kirkland","QC","H9H 4P8",45.4579419,-73.8627436,"1","Food, Specialty Food, Chinese, Restaurants, Asian Fusion, Thai"
"71",12881,"Emeraude de Bangkok","Dorval","QC","H9S 3W8",45.4450675013,-73.7212315221,"1","Restaurants, Thai"
"72",177695,"Fresh Cool Drinks","Madison","WI","53703",43.0749970121,-89.3979473412,"1","Restaurants, Thai, Food Stands, Juice Bars & Smoothies, Food"
"73",168489,"Gaati Thai Kitchen","Henderson","NV","89052",35.9990681,-115.1068783,"1","Restaurants, Thai, Food"
"74",98294,"Thai Island","Toronto","ON","M5S",43.6482242111,-79.3834749869,"1","Restaurants, Thai"
"75",125478,"Chada Thai & Wine","Las Vegas","NV","89146",36.1273748593,-115.2241710499,"0","Wine Bars, Restaurants, Bars, Thai, Nightlife"
"76",115339,"Pho Côte-Vertu","Montréal","QC","H4L 3M9",45.5152265,-73.6847661,"1","Chinese, Restaurants, Vietnamese, Thai"
"77",24834,"Thai Express","Longueuil","QC","J4V 2H2",45.4972227,-73.484678,"1","Restaurants, Thai"
"78",131413,"Spring Sushi","Toronto","ON","M5B 2G9",43.6564397,-79.3806859,"1","Thai, Japanese, Asian Fusion, Restaurants"
"79",40327,"O'Wok Fine Cuisine Asiatique","Saint-Hubert","QC","J3Y 3R5",45.4980043,-73.4058219,"1","Thai, Asian Fusion, Japanese, Restaurants"
"80",60032,"Échalote","Montréal","QC","H2L 2E3",45.515967,-73.558236,"1","Vietnamese, Restaurants, Thai, Pan Asian"
"81",94096,"Ling & Louie's Asian Bar and Grill","Scottsdale","AZ","85260",33.581511,-111.879218,"1","Chinese, American (New), Comfort Food, Thai, Restaurants, Asian Fusion"
"82",21780,"Royyim Thai Cuisine","Mesa","AZ","85206",33.3819298,-111.7384288,"1","Gluten-Free, Vegan, Pan Asian, Restaurants, Thai, Vegetarian, Asian Fusion"
"83",94969,"Thai One On","Toronto","ON","M1H 2W5",43.7740428,-79.2412004,"1","Thai, Restaurants"
"84",64927,"Thai Express","Henderson","NV","89014",36.0630678461,-115.0452768803,"0","Restaurants, Salad, Asian Fusion, Thai, Vegetarian"
"85",79812,"Thai One On","Toronto","ON","M5G 1C3",43.6555662,-79.3849523,"0","Restaurants, Thai"
"86",75515,"Pi-Tom's Thai Cuisine","Toronto","ON","M4Y 1B4",43.6631138977,-79.383313623,"0","Thai, Restaurants"
"87",85010,"Thai Gourmet","Stow","OH","44224",41.1656975,-81.441558,"1","Thai, Restaurants"
"88",75957,"Thai Cottage","Pittsburgh","PA","15218",40.4325718,-79.893728,"1","Thai, Restaurants"
"89",108514,"Lucki Thai","Las Vegas","NV","89183",36.0119846411,-115.1535985619,"1","Thai, Restaurants, Local Flavor"
"90",173171,"Lyeh","Akron","OH","44310",41.101975,-81.509212,"1","Restaurants, Thai, Burmese"
"91",89101,"Shanee","Toronto","ON","M6G 1B7",43.6548267,-79.4159458,"0","Thai, Tapas Bars, Restaurants, Food, Asian Fusion, Coffee & Tea"
"92",65608,"Jatujak","Toronto","ON","M1N 1R6",43.6883803,-79.2700165,"1","Restaurants, Thai, Food, Food Delivery Services"
"93",161408,"Bua Thai Restaurant","Toronto","ON","M5R 2H8",43.6748504,-79.3968031,"1","Thai, Restaurants"
"94",100044,"Wild Thaiger","Phoenix","AZ","85004",33.477923,-112.073395,"1","Food, Desserts, Restaurants, Seafood, Thai"
"95",133632,"California Thai","Toronto","ON","M5V 3G2",43.6459076,-79.3878224,"1","Specialty Food, Restaurants, Food, Imported Food, Ethnic Food, Thai"
"96",557,"Let's Take a Seat: Thai Cuisine","Champaign","IL","61822",40.0818267,-88.2963454,"0","Restaurants, Thai"
"97",178881,"Gold Star Thai","Mississauga","ON","L5J 2Y4",43.5084547,-79.6322049,"1","Thai, Restaurants, Vietnamese"
"98",81252,"Thai Express","Toronto","ON","M5J 0A8",43.6430006637,-79.3833538451,"1","Thai, Food Court, Restaurants"
"99",49267,"Luang Prabang","Madison","WI","53706",43.0755641,-89.3974633,"1","Food Stands, Thai, Laotian, Restaurants"
"100",71026,"Tottie's Asian Fusion","Scottsdale","AZ","85251",33.4794914574,-111.9107225319,"1","Vietnamese, Thai, Asian Fusion, Restaurants"
"101",101726,"Island Malaysian Cuisine","Las Vegas","NV","89103",36.125592,-115.211199,"1","Asian Fusion, Malaysian, Ethnic Food, Food, Specialty Food, Thai, Singaporean, Chinese, Restaurants"
"102",134803,"Wind Japanese & Thai","Mississauga","ON","L5N 1A6",43.5979036,-79.735232,"1","Thai, Japanese, Restaurants, Sushi Bars"
"103",170474,"Sa Bai Dee Thai Cuisine","Phoenix","AZ","85051",33.5803604126,-112.120513916,"0","Laotian, Restaurants, Ethnic Food, Specialty Food, Thai, Food"
"104",61372,"Thai Princess","Toronto","ON","M5V 1K1",43.6456489,-79.3934495,"1","Restaurants, Thai"
"105",88767,"Line Thai Restaurant","Sun City","AZ","85351",33.637504,-112.270825,"1","Restaurants, Thai"
"106",60697,"Go For Thai","Whitby","ON","L1N 2K7",43.869957847,-78.9250837502,"0","Restaurants, Thai"
"107",79110,"Saigon House Restaurant","Brampton","ON","L6W 3R7",43.6895048,-79.7390478,"1","Vietnamese, Thai, Restaurants"
"108",13273,"thairoomgrand","Toronto","ON","M3B 1Y2",43.7542187,-79.3514066,"1","Thai, Restaurants"
"109",87780,"Tom Yum Downtown","Phoenix","AZ","85004",33.449568,-112.0740163,"1","Ethnic Food, Vietnamese, Food, Restaurants, Specialty Food, Chinese, Imported Food, Thai"
"110",46503,"Longrain Restaurant","Etobicoke","ON","M8V 3G6",43.5997885,-79.5091613,"0","Thai, Restaurants"
"111",67268,"Pamika Brasserie","Montréal","QC","H2L 1L3",45.5201031,-73.5662584,"1","Restaurants, Thai"
"112",38243,"Thai Me Up","Pittsburgh","PA","15203",40.427086,-79.973273,"1","Thai, Restaurants"
"113",62793,"Basil Thai Cuisine Ballantyne","Charlotte","NC","28277",35.0611922,-80.814542,"1","Restaurants, Thai"
"114",28361,"Pho Asia","Vaughan","ON","L4L 2S6",43.7851346,-79.5921545,"1","Vietnamese, Thai, Restaurants"
"115",136825,"Thai Patio","Mesa","AZ","85205",33.4510401,-111.682255,"1","Thai, Restaurants"
"116",101535,"Love Thai Cuisine","Las Vegas","NV","89102",36.1438684,-115.1614533,"1","Thai, Restaurants"
"117",24665,"Swaddee Thai Cuisine","Chandler","AZ","85226",33.3193026,-111.9288807,"1","Vegetarian, Restaurants, Seafood, Thai, Soup"
"118",90095,"Thai Chili 2 Go - Chandler","Chandler","AZ","85286",33.2639955194,-111.857584074,"1","Desserts, Thai, Food, Restaurants"
"119",38140,"Siam Garden","Charlotte","NC","28273",35.1517973,-80.9507926,"1","Thai, Restaurants"
"120",71027,"Rising Sons Deli","Madison","WI","53703",43.074799,-89.396267,"1","Restaurants, Thai"
"121",132376,"Taste of Thailand Cuisine","Etobicoke","ON","M9B 1B3",43.6359223,-79.5407666,"1","Restaurants, Thai"
"122",46539,"Regal d'Asie","Montréal","QC","H2S 1S9",45.5353923409,-73.6011700335,"1","Cambodian, Asian Fusion, Restaurants, Vietnamese, Thai"
"123",65725,"Plumeria Thai Cafe","Las Vegas","NV","89108",36.2192233223,-115.2427037877,"1","Asian Fusion, Thai, Restaurants, Hawaiian"
"124",186601,"Bao Chow","Tempe","AZ","85282",33.3926054,-111.940597,"1","Thai, Event Planning & Services, Restaurants, Asian Fusion, Caterers"
"125",155898,"Green Basil Restaurant","Toronto","ON","M4L",43.67129,-79.294772,"1","Restaurants, Thai"
"126",129905,"King & I","Henderson","NV","89074",36.0421392,-115.1013529,"0","Chinese, Restaurants, Thai"
"127",56762,"Thai & Pho","Montréal","QC","H3H 1M2",45.493826,-73.5794767,"0","Vietnamese, Thai, Food, Restaurants"
"128",101747,"Thai Express","Las Vegas","NV","89147",36.1140062,-115.3056816,"1","Food, Restaurants, Thai, Asian Fusion"
"129",62614,"The One Sushi","Calgary","AB","T2H 0J4",51.007827,-114.068006,"0","Korean, Sushi Bars, Restaurants, Japanese, Thai, Barbeque"
"130",89433,"Bali Restaurant","Richmond Hill","ON","L4B 1K9",43.8534828,-79.3839517,"1","Restaurants, Singaporean, Malaysian, Thai"
"131",139438,"Joy Thai Restaurant","Toronto","ON","M4N 2L1",43.7279574,-79.4031537,"1","Restaurants, Seafood, Noodles, Thai"
"132",29418,"Lion City Restaurant","Mississauga","ON","L5C 4P3",43.5670258133,-79.6595937386,"1","Indonesian, Singaporean, Restaurants, Malaysian, Thai"
"133",74398,"Asian Express","Las Vegas","NV","89123",36.0243843,-115.172455,"0","Chinese, Restaurants, Thai"
"134",85980,"JP Food To Go","Charlotte","NC","28214",35.2432675035,-80.9382414707,"1","Food Trucks, Food, Laotian, Thai, Restaurants"
"135",34432,"Pho 4 You","Toronto","ON","M1L 4C2",43.7259981416,-79.2867549509,"0","Thai, Restaurants, Vietnamese"
"136",103616,"Fickle","Toronto","ON","M4Y 1Y3",43.6658848249,-79.386177063,"0","Vietnamese, Restaurants, Asian Fusion, Chinese, Thai"
"137",43211,"Spring Rolls","Toronto","ON","M5G 2C2",43.6563391,-79.382401,"1","Thai, Korean, Sushi Bars, Chinese, Asian Fusion, Restaurants"
"138",191374,"Mekong River","Toronto","ON","M9B",43.6323967,-79.5444351,"1","Vietnamese, Restaurants, Chinese, Thai"
"139",53866,"Tuk Tuk Thai","Calgary","AB","T2N 1V8",51.0536317826,-114.0857293457,"1","Restaurants, Fast Food, Thai"
"140",186860,"Dancing Crab Thai Noodle House","Pittsburgh","PA","15203",40.428244,-79.975153,"1","Restaurants, Thai"
"141",97924,"Hearts Choices","Calgary","AB","T2J 0P6",50.9682661475,-114.0727442024,"1","Vegetarian, Thai, Food, Vegan, Grocery, Restaurants"
"142",14338,"Curry Away","Pittsburgh","PA","15218",40.430358,-79.8840227,"0","Restaurants, Thai"
"143",168803,"Nothing But Noodles","Charlotte","NC","28277",35.059113,-80.8138,"1","Event Planning & Services, American (Traditional), Restaurants, Italian, Thai, American (New), Vegan, Asian Fusion, Caterers, Noodles, Gluten-Free, Chinese"
"144",164148,"Royal Jade","Vaughan","ON","L4K 2V1",43.78318,-79.489917,"1","Thai, Restaurants, Chinese, Halal, Asian Fusion, Hakka"
"145",163174,"Bouddha Bouddha Restaurant","Montréal","QC","H2X 2V4",45.5146669,-73.5745163,"0","Thai, Vietnamese, Restaurants"
"146",22787,"Thai Express","Dorval","QC","H9S 3H7",45.4465638,-73.7422187,"0","Sushi Bars, Thai, Restaurants"
"147",39893,"Cafe 109","Las Vegas","NV","89183",36.006928,-115.146662,"0","Thai, Restaurants, Cafes"
"148",87276,"Thai Express","Mississauga","ON","L5N 4B7",43.580404376,-79.7595143652,"1","Thai, Restaurants"
"149",188480,"Garlic Onion","Richmond Hill","ON","L4S",43.899441,-79.3956036,"1","Restaurants, Thai, Chinese, Malaysian"
"150",135524,"Charm Thai Cuisine","Chandler","AZ","85225",33.3019787879,-111.84163243,"1","Restaurants, Gluten-Free, Thai, Vegetarian"
"151",177621,"Jasmine Thai Cuisine","Phoenix","AZ","85013",33.4799966,-112.080956,"0","Restaurants, Thai"
"152",154799,"Viet Thai Restaurant","Mississauga","ON","L5M 5Y7",43.5647878954,-79.7008565068,"0","Restaurants, Vietnamese, Thai"
"153",110955,"Noodle House","Mississauga","ON","L5E 1E3",43.5750667,-79.5606917,"0","Thai, Restaurants, Chinese, Vietnamese"
"154",44057,"Pusadee's Garden","Pittsburgh","PA","15201",40.4826927242,-79.951933,"1","Restaurants, Thai"
"155",16656,"Thai Express","Toronto","ON","M3J 3N2",43.7863804,-79.4727994,"1","Restaurants, Thai"
"156",153815,"Pho Challenge","Toronto","ON","M4K 3W1",43.6886692443,-79.3484129012,"1","Vietnamese, Thai, Restaurants, Canadian (New)"
"157",84838,"Nittaya's Secret Kitchen","Las Vegas","NV","89128",36.1980338,-115.2825097,"1","Thai, Restaurants"
"158",132018,"Best Friend Restaurant","Mississauga","ON","L4Y 4G6",43.5978049511,-79.5942595445,"1","Chinese, Seafood, Restaurants, Thai"
"159",46781,"Spicy & Sweet","Toronto","ON","M6C 1A7",43.6818545,-79.4242511,"0","Thai, Restaurants, Chinese"
"160",123450,"Chinese Wok","Mississauga","ON","L5M 7P5",43.5450183044,-79.7143995998,"1","Halal, Chinese, Asian Fusion, Restaurants, Thai"
"161",173821,"Sukho Thai","Toronto","ON","M5E 1C9",43.6485607,-79.3745641,"1","Restaurants, Thai"
"162",165234,"Dong Gia","Toronto","ON","M8W 3S2",43.598417624,-79.544101321,"1","Restaurants, Thai, Hot Pot, Vietnamese, Halal"
"163",30234,"Thai Family's Kitchen Lemongrass","Etobicoke","ON","M9V 1A3",43.7345043,-79.5599968,"1","Restaurants, Thai"
"164",26922,"Bola Thai","Gilbert","AZ","85234",33.3777354,-111.7401783,"0","Restaurants, Thai"
"165",66975,"Ha Long Bay","Madison","WI","53703",43.0855448,-89.3607155,"1","Thai, Restaurants, Vietnamese, Laotian"
"166",102558,"The Street Eatery","Calgary","AB","T2P 0K4",51.0501231,-114.0807025,"1","Nightlife, Burgers, Comfort Food, Mexican, Food, Canadian (New), Vegan, Indian, Vietnamese, Korean, Sandwiches, Street Vendors, Cocktail Bars, Bars, Beer Bar, Restaurants, Barbeque, Thai"
"167",8490,"Pho 88","Toronto","ON","M3C 1V6",43.7268982,-79.3420715,"1","Thai, Restaurants, Vietnamese"
"168",181165,"Siamese Bistro","Las Vegas","NV","89139",36.0450190157,-115.244142913,"0","Restaurants, Vegetarian, Thai, Chinese, Salad"
"169",101695,"Faley Restaurant","Rexdale","ON","M9W 5Z3",43.7140262,-79.5587579,"1","Thai, Indian, Chinese, Restaurants"
"170",157322,"Thai Grill","Montréal","QC","H2T 1R9",45.5231479,-73.5929759,"0","Restaurants, Thai"
"171",102272,"Banana Blossom Thai Cuisine","Cleveland","OH","44113",41.4889136,-81.7090449,"1","Specialty Food, Restaurants, Thai, Food, Ethnic Food"
"172",119241,"Thai Plate Restaurant","North York","ON","M6A 2C2",43.7273788,-79.4319611,"0","Restaurants, Thai"
"173",166264,"Walk In Wok Out","Toronto","ON","M5S 1Y2",43.6656865,-79.407886,"0","Chinese, Thai, Restaurants"
"174",146327,"Madame Thai","Longueuil","QC","J4H 1E7",45.5366615,-73.5128006,"1","Thai, Restaurants"
"175",19749,"noca","Phoenix","AZ","85016",33.5100242,-112.0152854,"0","Restaurants, American (New), Italian, Thai"
"176",174111,"Pho Mi 99","Vaughan","ON","L6A",43.8283350769,-79.5393504897,"1","Thai, Restaurants, Vietnamese"
"177",94690,"Thai House","Elyria","OH","44035",41.363141,-82.076973,"1","Restaurants, Thai"
"178",64923,"Thai Spice","Las Vegas","NV","89103",36.1148225492,-115.200800453,"1","Ethnic Food, Thai, Specialty Food, Restaurants, Food"
"179",2430,"Pho Vuho","Oakville","ON","L6H 6Z9",43.4872524,-79.7163561,"1","Thai, Restaurants, Vietnamese"
"180",32694,"Mr Thai Bistro","Gilbert","AZ","85233",33.333774032,-111.8059325172,"1","Salad, Thai, Food, Desserts, Restaurants"
"181",91858,"Wylie's Restaurant","Toronto","ON","M4T 1W3",43.682597,-79.3920338,"1","Thai, Canadian (New), Nightlife, Restaurants"
"182",37603,"Thai Siam Cuisine","Oakville","ON","L6H 4L1",43.483836,-79.694571,"1","Thai, Restaurants"
"183",59493,"Le Gourmet Thai Viet Restaurant","Montréal","QC","H2X 2X7",45.5144579,-73.5725487,"0","Restaurants, Thai, Asian Fusion, Vietnamese"
"184",27835,"Chili Club Thai House","Calgary","AB","T3E 2Y9",51.037664,-114.139284,"1","Restaurants, Thai"
"185",136191,"Noodlebox","Calgary","AB","T2H 3A7",50.9879069351,-114.0456453387,"1","Vegan, Chinese, Restaurants, Gluten-Free, Asian Fusion, Noodles, Thai, Food"
"186",131180,"Szechuan Express","Mesa","AZ","85202",33.394024,-111.875905,"1","Restaurants, Thai, Food, Chinese"
"187",94924,"Mint Thai Cafe","Gilbert","AZ","85234",33.3703007,-111.7894598,"1","Restaurants, Vegan, Vegetarian, Thai, Filipino"
"188",71697,"Thai Elephant","Tempe","AZ","85281",33.4215994533,-111.9503657542,"1","Restaurants, Thai"
"189",58841,"Mai Thai","Concord","NC","28027",35.367101,-80.665846,"0","Nightlife, Thai, Bars, Restaurants"
"190",88666,"Noodles & Company","Madison","WI","53704",43.1254079487,-89.3096987728,"1","Comfort Food, Italian, Asian Fusion, Restaurants, Noodles, Fast Food, Salad, Thai, Food"
"191",161688,"Taste of Thai House","Toronto","ON","M6G 2N4",43.6824463,-79.4199476,"0","Restaurants, Thai"
"192",87539,"Pad Thai","Akron","OH","44333",41.1342068,-81.6376206,"1","Thai, Restaurants"
"193",131134,"Thai Foon","Pittsburgh","PA","15205",40.4386179605,-80.1461325319,"1","Thai, Vegan, Restaurants, Asian Fusion"
"194",61014,"Pink Pepper Thai Cuisine","Phoenix","AZ","85022",33.6395383,-112.0717546,"0","Restaurants, Thai"
"195",4413,"Green Thai Viet Fusion","Richmond Hill","ON","L4B 4V9",43.8442132,-79.4077687,"0","Restaurants, Thai, Vietnamese"
"196",126439,"Nimman Thai Cuisine","Toronto","ON","M6C 2C5",43.7001105665,-79.4307195023,"1","Restaurants, Thai"
"197",133285,"Thai Express","Mississauga","ON","",43.6791170914,-79.6115342783,"1","Fast Food, Restaurants, Thai"
"198",42069,"Thai Lahna Restaurant","Phoenix","AZ","85018",33.4957023,-112.0005013,"1","Restaurants, Thai"
"199",52076,"Phu Quoc Island Vietnamese Restaurant","Richmond Hill","ON","L4B 3Z4",43.8448702,-79.383705,"0","Thai, Tea Rooms, Singaporean, Restaurants, Soup, Vietnamese, Food"
"200",162566,"Red Orchid","Pittsburgh","PA","15237",40.5430306,-80.0287562,"1","Thai, Restaurants"
"201",190184,"Freshly Thai","Brampton","ON","L6X 1A1",43.6853147,-79.7609334,"1","Thai, Restaurants"
"202",15673,"Tropical Smoothie Cafe","Chandler","AZ","85248",33.2466399642,-111.8666845188,"1","Caterers, Thai, Sandwiches, Breakfast & Brunch, Salad, Food, Juice Bars & Smoothies, Restaurants, Event Planning & Services"
"203",66012,"Nicky's Thai Kitchen","Pittsburgh","PA","15233",40.4521317,-80.0162219,"1","Thai, Restaurants"
"204",16939,"Basil 'n Lime","Las Vegas","NV","89147",36.1230938,-115.2980657,"1","Thai, Restaurants"
"205",19611,"Otago Café","Mont-Royal","QC","H4P 2P9",45.4929859,-73.6681505,"0","Restaurants, Food, Thai, Cafes, Seafood"
"206",17232,"Sakura Japanese Restaurant","Brecksville","OH","44141",41.3207698,-81.6227735,"1","Thai, Sushi Bars, Restaurants, Japanese, Asian Fusion, Food"
"207",43125,"Thai Naka","Toronto","ON","M1N",43.7092648,-79.2495759,"0","Thai, Restaurants"
"208",83752,"Thai Express","Mississauga","ON","L5M 5H7",43.5594666,-79.7079064,"1","Restaurants, Thai"
"209",163267,"California Thai","Calgary","AB","T3R 0A1",51.1562387,-114.1582006,"1","Thai, Restaurants, Asian Fusion"
"210",91859,"Pin Kaow Thai Restaurant","Las Vegas","NV","89108",36.195393,-115.241323,"1","Restaurants, Thai"
"211",162395,"O/A California Thai","Calgary","AB","T3G 2P6",51.125553,-114.1987951,"1","Thai, Restaurants"
"212",108156,"Asian Bowl","Toronto","ON","M5B 1N8",43.6554,-79.3802883,"1","Vietnamese, Restaurants, Thai, Chinese"
"213",18200,"Siamese Kitchen","Glendale","AZ","85302",33.5683775633,-112.1537439487,"1","Thai, Restaurants"
"214",37519,"Galanga","Montréal","QC","H2V 1P2",45.5216504558,-73.6098344227,"0","Asian Fusion, Thai, Restaurants"
"215",76903,"Tai Pan","Calgary","AB","T2E 2R9",51.065741912,-114.0613249317,"0","Thai, Chinese, Restaurants"
"216",32602,"Bailey's Sports Bar & Eatery","Las Vegas","NV","89130",36.2384622,-115.2319504,"0","Nightlife, Sports Bars, Restaurants, Bars, Thai"
"217",29679,"Asian House","West Mifflin","PA","15122",40.3836653131,-79.8676539436,"1","Ethnic Food, Chinese, Restaurants, Thai, Food, Specialty Food"
"218",128332,"Fugu","Madison","WI","53703",43.074392,-89.3936635,"1","Chinese, Seafood, Dim Sum, Soup, Town Car Service, Asian Fusion, Limos, Local Services, Restaurants, Transportation, Hotels & Travel, Beauty & Spas, Szechuan, Thai, Day Spas, Septic Services"
"219",69931,"Hai Thai & Vietnamese Cuisine","Whitby","ON","L1N 2N3",43.8777353,-78.9495509,"1","Thai, Food, Restaurants, Bubble Tea, Vietnamese"
"220",131029,"Thai Origin","Cleveland","OH","44130",41.373934,-81.830332,"0","Restaurants, Thai"
"221",104666,"Thai Delight Restaurant","Mississauga","ON","L5N 8C8",43.5765904,-79.7843371,"0","Restaurants, Chinese, Thai"
"222",16403,"Siam Thai Cusine","Glendale","AZ","85301",33.5536557,-112.1668669,"1","Restaurants, Thai"
"223",183004,"Chili Club Thai House","Calgary","AB","T2R 1P6",51.0426872,-114.073773,"0","Thai, Restaurants"
"224",85742,"Shef's Fiery Kitchen","Calgary","AB","T2H 1C3",50.9847373962,-114.0511627197,"1","Education, Specialty Schools, Event Planning & Services, Cooking Schools, Party & Event Planning, Thai, Restaurants, Indian, Food, Farmers Market"
"225",44569,"Thai Vegas","Las Vegas","NV","89101",36.1703435,-115.1415626,"0","Restaurants, Chinese, Thai"
"226",141102,"Jean's Vegetarian Kitchen","Toronto","ON","M4J 1M6",43.6819991,-79.3307375,"0","Salad, Malaysian, Vegetarian, Noodles, Thai, Restaurants"
"227",1271,"The Tasty Bowl Subs N Such","Charlotte","NC","28273",35.1328203,-80.9529974,"1","Thai, Caribbean, Restaurants, Indian, Fast Food, Mexican, Sandwiches, Italian"
"228",144651,"Green Lady","Toronto","ON","M4J 1M3",43.6816111,-79.3328374,"1","Thai, Restaurants, Chinese"
"229",108617,"Luscious 5","Markham","ON","L3R 1A8",43.8255092414,-79.3524724245,"1","Restaurants, Japanese, Sushi Bars, Asian Fusion, Thai"
"230",8092,"Thai Marlai","Cornelius","NC","28031",35.480913,-80.882426,"0","Seafood, Chinese, Thai, Restaurants"
"231",189794,"Phnom Penh Restaurant","Cleveland","OH","44111",41.4582548,-81.7809899,"0","Vietnamese, Thai, Restaurants, Cambodian"
"232",132931,"J-Wok Cafe","Las Vegas","NV","89120",36.0972977,-115.1013785,"0","Food, Chinese, Bubble Tea, Restaurants, Juice Bars & Smoothies, Asian Fusion, Cafes, Thai"
"233",58646,"Cuisine Bangkok","Montréal","QC","H2L 2H4",45.5197609,-73.5551292,"1","Thai, Restaurants"
"234",153267,"Forever Good Asian Cuisine","Calgary","AB","T2Z",50.9027037,-113.9900588,"1","Thai, Chinese, Japanese, Restaurants"
"235",40135,"Sushi & Thai Cuisine","Toronto","ON","M6S 1P1",43.6503035,-79.4785839,"0","Sushi Bars, Thai, Restaurants"
"236",136179,"Restaurant Le Gout De La Thailande","Montréal","QC","H1N 1C4",45.5802803,-73.5450216,"1","Restaurants, Thai"
"237",51167,"Hungary Thai Bar & Eatery Restaurant","Toronto","ON","M5T 2L6",43.6543212,-79.4020843,"1","Thai, Restaurants, Hungarian, Vegetarian"
"238",78962,"Curry in the Box","Fitchburg","WI","53711",43.023349,-89.418612,"1","Pakistani, Thai, Indian, Restaurants"
"239",1171,"Green Mango","Toronto","ON","M4Y 2B2",43.669347,-79.3860446,"0","Thai, Restaurants"
"240",140942,"Thai Suan Thip","Cecil","PA","15321",40.326232426,-80.193250868,"1","Restaurants, Thai"
"241",105093,"Otago","Montréal","QC","H4P 2H2",45.4963564,-73.6556237,"1","International, Cafes, Restaurants, Diners, Mediterranean, Pizza, Salad, Caterers, Thai, Event Planning & Services, Seafood"
"242",526,"Thaiphon","Montréal","QC","H3A 1J8",45.505087449,-73.5720484098,"0","Restaurants, Thai"
"243",30450,"My Thai","Chesterland","OH","44026",41.5250721996,-81.3386015396,"1","Restaurants, Vegan, Gluten-Free, Vegetarian, Thai"
"244",150169,"Thai Gourmet","Pittsburgh","PA","15224",40.4631879,-79.9514861,"1","Thai, Restaurants"
"245",77465,"Marnee Thai Restaurant","Las Vegas","NV","89146",36.1265084,-115.2182851,"0","Restaurants, Thai"
"246",16578,"Krachai Thai Kitchen","Phoenix","AZ","85053",33.6248454,-112.1310521,"1","Thai, Restaurants"
"247",107979,"General Thai Chinese Cuisine & Vegetarian","Aurora","ON","L4G 1P3",44.0067614,-79.4687848,"1","Restaurants, Chinese, Vegetarian, Thai"
"248",127889,"Thai Express","L'Île-Perrot","QC","J7V 6L2",45.3877384825,-73.9626881459,"1","Restaurants, Thai"
"249",129255,"Thai Express","Brampton","ON","L6T 3R5",43.7154187,-79.7215812,"1","Restaurants, Thai"
"250",154112,"Matagali Restaurant","Toronto","ON","M5G 1H2",43.6570524,-79.3848414,"1","Pakistani, Restaurants, Thai, Event Planning & Services, Indian, Caterers"
"251",27691,"Thai 4 You Restaurant","Toronto","ON","M6P 1A6",43.6552086,-79.4567337,"0","Thai, Restaurants"
"252",164801,"Sawasdee Thai & Sushi","Pittsburgh","PA","15228",40.3518600673,-80.0501363622,"1","Chicken Wings, Restaurants, Soup, Thai"
"253",138148,"Edo Japanese Thai Cuisine","Gibsonia","PA","15044",40.642853,-79.939847,"0","Thai, Japanese, Restaurants"
"254",34629,"Tea House Noodles","Cleveland","OH","44114",41.5005885,-81.6897623,"0","Asian Fusion, Tea Rooms, Food, Salad, Chinese, Thai, Restaurants, Noodles, Fast Food"
"255",96233,"Sabai Sabai Kitchen and Bar","Toronto","ON","M4W 1A9",43.6704534404,-79.3847215949,"1","Restaurants, Vegan, Tapas/Small Plates, Laotian, Thai"
"256",71564,"Yummy House","Las Vegas","NV","89121",36.1003339,-115.0652478,"0","Restaurants, Thai, Chinese"
"257",61510,"Ben Thanh Vietnamese Thai Cuisine","Mississauga","ON","L5K 1R9",43.5240253,-79.6813199,"0","Vietnamese, Asian Fusion, Restaurants, Thai"
"258",192605,"Surang's Thai Kitchen","Las Vegas","NV","89148",36.089771,-115.297907,"1","Thai, Restaurants, Salad, Soup"
"259",152377,"Thon Buri Thai Cuisine","Chagrin Falls","OH","44023",41.4207359,-81.3594486,"1","Restaurants, Thai"
"260",68682,"Tuyen Restaurant","North York","ON","M2N 5N2",43.7628587,-79.4115097,"0","Thai, Restaurants"
"261",49490,"Thai Chili 2 Go","Mesa","AZ","85212",33.325495,-111.68803,"1","Thai, Restaurants"
"262",8523,"Thai Curry Box","Brampton","ON","L7A 0P8",43.6760451,-79.823007,"0","Restaurants, Thai"
"263",46308,"D&D Thai Fusion","Richmond Hill","ON","L4B 3P2",43.846568,-79.379802,"1","Asian Fusion, Thai, Restaurants, Pan Asian, Chinese"
"264",80593,"High Thai'd","Cleveland Heights","OH","44118",41.5109785,-81.5798257,"1","Thai, Restaurants, Asian Fusion"
"265",77043,"Pepper Ring Asian Cuisine","Toronto","ON","M6K 3P6",43.6380833906,-79.4166686664,"0","Restaurants, Thai, Asian Fusion"
"266",17506,"Restaurant Lune d'Asie","Montréal","QC","H2H 1K5",45.5367358,-73.5711354,"0","Japanese, Vietnamese, Restaurants, Thai, French"
"267",74,"Kim Hour","Montréal","QC","H2A 3A5",45.561651,-73.605223,"1","Chinese, Thai, Vietnamese, Cambodian, Restaurants, Asian Fusion"
"268",4361,"Pho Cali Thai","Charlotte","NC","28273",35.1338376387,-80.9391291968,"1","Restaurants, Seafood, Vietnamese, Thai"
"269",5350,"SaBai Modern Thai","Phoenix","AZ","85018",33.480212,-111.992313,"1","Restaurants, Thai"
"270",28658,"K & B Noodle House","Calgary","AB","T2E 7E2",51.05905,-114.06255,"1","Vietnamese, Chinese, Restaurants, Thai"
"271",82361,"Thai Tai","Calgary","AB","T2G",51.050269,-114.0627215,"1","Restaurants, Sandwiches, Vietnamese, Bubble Tea, Thai, Food"
"272",120392,"Hearts Choices Cafe Market","Calgary","AB","T2E 6V5",51.0893617586,-114.0490886942,"1","Vegetarian, Vegan, Thai, Restaurants"
"273",157666,"Chuchote Thai Bistro & Desserts","Las Vegas","NV","89102",36.1440225,-115.195896,"1","Thai, Beer, Wine & Spirits, Food, Desserts, Restaurants, Comfort Food"
"274",72509,"Red Mango","Toronto","ON","M3B 2S9",43.7555859,-79.3521203,"0","Chinese, Restaurants, Thai"
"275",53487,"Pei Wei","Phoenix","AZ","85003",33.4655716572,-112.0828567121,"1","Fast Food, Gluten-Free, Thai, Restaurants, Asian Fusion, Chinese, Korean"
"276",78134,"Ginger","Toronto","ON","M5A 2L1",43.6644707,-79.3682022,"0","Restaurants, Vietnamese, Thai"
"277",97588,"Fresh Mint","Scottsdale","AZ","85254",33.6128590442,-111.926754459,"1","Kosher, Vegetarian, Thai, Vegan, Restaurants"
"278",36831,"My Mom's Thai Kitchen","Phoenix","AZ","85003",33.4494379,-112.0744459,"0","Restaurants, Thai"
"279",56716,"Little Khao","Toronto","ON","M5H 3K6",43.6503522,-79.3837951,"1","Thai, Restaurants, Chicken Wings, Seafood"
"280",63264,"My Pho","Mississauga","ON","L5R 3V2",43.5917189,-79.667083,"0","Restaurants, Vietnamese, Thai"
"281",113562,"Feng Wok 'N' Roll","Mississauga","ON","L5A 1W2",43.5807824,-79.6154316,"1","Chinese, Thai, Restaurants, Hakka"
"282",28587,"Orchid Thai Fusion","Oakville","ON","L6H 1M4",43.4652002,-79.6851478,"0","Restaurants, Asian Fusion, Thai"
"283",59450,"Mekong Thai Restaurant & Bar","Concord","NC","28025",35.4105459,-80.581798,"1","Asian Fusion, Restaurants, Nightlife, Thai, Bars"
"284",129676,"Real Thailand Restaurant","Toronto","ON","M5S 1W9",43.6666032,-79.404831,"0","Thai, Restaurants"
"285",41947,"Mix Zone Cafe","Las Vegas","NV","89102",36.1593662222,-115.1720087357,"0","Restaurants, Thai"
"286",188001,"Tom Yum Thai Surprise","Surprise","AZ","85374",33.6409335,-112.3548724,"1","Thai, Restaurants"
"287",100179,"Thai Everest","Toronto","ON","M1R 1P2",43.731522,-79.3054686,"0","Thai, Restaurants"
"288",12886,"Thai Emerald","Huntersville","NC","28078",35.4430876,-80.8601267,"1","Thai, Restaurants"
"289",3711,"Gohyang Restaurant","Toronto","ON","M9A 1C2",43.6449713,-79.5327411,"1","Korean, Restaurants, Asian Fusion, Thai, Noodles, Wine Bars, Sushi Bars, Chinese, Nightlife, Bars, Dim Sum"
"290",182381,"Tao Canteen","Markham","ON","L6E 0H7",43.9044139,-79.2681072,"1","Restaurants, Chinese, Thai"
"291",10429,"Suwanasak","Madison","WI","53711",43.0472739,-89.5031023,"0","Thai, Restaurants"
"292",172436,"Sunrise Thai Cuisine","Rock Hill","SC","29732",34.9558363,-81.0481916,"0","Laotian, Asian Fusion, Thai, Restaurants"
"293",191700,"Thai Chili To Go","Gilbert","AZ","85295",33.3061188,-111.7492767,"1","Thai, Restaurants"
"294",74225,"Phuket Thai Cuisine","Chandler","AZ","85248",33.2465672,-111.8426523,"1","Restaurants, Thai"
"295",44893,"Madame Thai","Longueuil","QC","J4H 2T2",45.534782,-73.508771,"0","Thai, Restaurants"
"296",156266,"Thai Express","Montréal","QC","H3A 0B8",45.5045704892,-73.5730663884,"0","Thai, Restaurants"
"297",133608,"Benjarong Thai Restaurant","Mesa","AZ","85210",33.3889034,-111.8403127,"0","Restaurants, Thai"
"298",107911,"Khmer Thai Restaurant","Toronto","ON","M6E 1A4",43.6792954,-79.4378536,"1","Cambodian, Thai, Restaurants"
"299",94414,"Thai Express","Toronto","ON","M4T 1L8",43.6881862,-79.3929441,"1","Thai, Restaurants"
"300",176377,"Good Pho You","Ajax","ON","L1S 3K3",43.84128,-79.026708,"1","Sandwiches, Chinese, Restaurants, Thai, Vietnamese"
"301",51902,"Lime Leaf","Toronto","ON","M4A 2M2",43.7224834,-79.3020196,"0","Restaurants, Malaysian, Thai"
"302",189729,"Oishi","Champaign","IL","61822",40.1451443,-88.2585174,"1","Asian Fusion, Thai, Japanese, Sushi Bars, Restaurants"
"303",164665,"New Thai Food","Toronto","ON","M5T 3K5",43.6537184,-79.3909035,"0","Thai, Restaurants"
"304",14140,"Saigon To Bangkok","Savoy","IL","61874",40.0704268,-88.251563,"0","Restaurants, Vietnamese, Shopping, Thai"
"305",160376,"Thai House","Calgary","AB","T2R 1P6",51.0425571,-114.0734426,"0","Restaurants, Thai"
"306",94200,"Thai Long-An","Phoenix","AZ","85013",33.5019465832,-112.0821349695,"1","Restaurants, Salad, Soup, Thai"
"307",47981,"Thai Pho","Akron","OH","44310",41.1022068435,-81.4752473133,"0","Thai, Nightlife, Bars, Restaurants"
"308",106860,"Thai Room","Toronto","ON","M6G 1L9",43.662753419,-79.4225340709,"1","Noodles, Restaurants, Thai, Seafood"
"309",4080,"Thai Place Restaurant","Calgary","AB","T2M 4L2",51.0690589,-114.1152774,"0","Hotels & Travel, Hotels, Restaurants, Thai, Event Planning & Services"
"310",18951,"Saigon Thai Restaurant","Calgary","AB","T2V 0R6",50.9751421,-114.0726941,"1","Thai, Vietnamese, Restaurants"
"311",151227,"Jung Thai Restaurant","Mississauga","ON","L5A 1W7",43.5829306,-79.6139768,"1","Restaurants, Thai"
"312",191322,"Tampopo","Montréal","QC","H2J 3B4",45.5268842,-73.5795218,"1","Restaurants, Vietnamese, Asian Fusion, Thai, Chinese"
"313",73012,"Pho Mi Binh Minh","Mississauga","ON","L5A 3K7",43.5956707153,-79.6039429307,"1","Restaurants, Thai, Vietnamese"
"314",127427,"Thaïexpress","Montréal","QC","H3X 1T9",45.4833188,-73.6296065,"1","Restaurants, Thai"
"315",51295,"Super 7 Restaurant","Scarborough","ON","M1V 5P6",43.8318556,-79.267356,"0","Thai, Vietnamese, Restaurants"
"316",86686,"Sticky Rice","Champaign","IL","61820",40.1194276897,-88.2438507269,"1","Noodles, Restaurants, Thai, Laotian"
"317",71238,"Golden Elephant","Toronto","ON","M1V 5N3",43.82526,-79.30032,"0","Vietnamese, Restaurants, Thai"
"318",186304,"Pho Cafe","Champaign","IL","61820",40.1100759,-88.229804,"1","Thai, Vietnamese, Restaurants"
"319",162607,"Asian Cafe","Shaler Township","PA","15101",40.5381139,-79.9619519,"1","Restaurants, Thai, Chinese"
"320",165439,"Kimono Japanese Grill & Sushi","Toronto","ON","M5N 1A3",43.7041845,-79.4100306,"1","Food, Food Delivery Services, Japanese, Sushi Bars, Asian Fusion, Restaurants, Thai"
"321",5958,"New Thai Restaurant","Toronto","ON","M4T 1M7",43.6885647,-79.390651,"1","Thai, Restaurants"
"322",121871,"8 Below Ice Cream","Mentor","OH","44060",41.659182,-81.368236,"1","Ice Cream & Frozen Yogurt, Food, Desserts, Thai, Restaurants"
"323",8472,"Smile Lao Thai","Tempe","AZ","85282",33.4059958,-111.9258616,"0","Restaurants, Laotian, Food, Thai, Desserts"
"324",124739,"Thai Express","Brampton","ON","L6W 0A5",43.6784774,-79.7208288,"1","Soup, Restaurants, Thai, Fast Food"
"325",19349,"Tasty Asian Cuisine","Toronto","ON","M4Y 1Z9",43.6679251,-79.3857339,"0","Restaurants, Chinese, Japanese, Thai, Asian Fusion"
"326",51426,"Silk Elephant","Pittsburgh","PA","15217",40.437802,-79.92303,"1","Thai, Restaurants, Tapas Bars"
"327",116511,"Tasty Thai Restaurant","Tempe","AZ","85282",33.4075887,-111.9466755,"1","Thai, Restaurants"
"328",111449,"Pho Mi 66","Brampton","ON","L6W 0A6",43.6800278,-79.718472,"1","Restaurants, Thai, Vietnamese"
"329",84194,"Thai Plates Cuisine","Mesa","AZ","85206",33.4096405,-111.6844495,"1","Thai, Restaurants"
"330",171024,"Asian Garden","White Oak","PA","15131",40.3383835,-79.8067112,"0","Asian Fusion, Chinese, Restaurants, Thai"
"331",151769,"Wild Papaya Thai Cuisine","Kent","OH","44240",41.1551215,-81.3338391,"1","Restaurants, American (New), Thai"
"332",75365,"Thai Basil","Madison","WI","53719",43.0322241,-89.4979918,"1","Restaurants, Thai"
"333",42491,"Thai Villa","Aurora","ON","L4G 0H5",44.0150879,-79.4151795,"1","Restaurants, Malaysian, Thai, Singaporean"
"334",4230,"Taste of Thailand","Calgary","AB","T3C 1A7",51.0424181,-114.0910358,"1","Thai, Restaurants"
"335",121016,"Kinnaree Thai","Toronto","ON","M1R 4C2",43.7593329,-79.3109158,"0","Thai, Restaurants"
"336",6288,"Pho Number One","Mesa","AZ","85202",33.377582,-111.877018,"1","Thai, Vietnamese, Restaurants"
"337",77022,"Restaurant Hana","Pittsburgh","PA","15201",40.4718139,-79.9598553,"0","Asian Fusion, Restaurants, Chinese, Sushi Bars, Japanese, Thai"
"338",92470,"TAO Canteen","Markham","ON","L6E 2C7",43.904438789,-79.2674774246,"1","Chinese, Thai, Restaurants"
"339",172148,"Sawasdee Thai Cuisine","Toronto","ON","M4W 2H2",43.6746803,-79.3883998,"0","Restaurants, Thai"
"340",30362,"Spring Rolls","Toronto","ON","M5E 1B8",43.6489897,-79.3723536,"0","Asian Fusion, Restaurants, Thai"
"341",26223,"A Touch of Ginger","Calgary","AB","T2G 0E2",51.0485729,-114.0618155,"0","Restaurants, Thai, Vietnamese"
"342",26273,"Thai Basil Signature","Phoenix","AZ","85032",33.6021872,-111.9836094,"1","Food, Bars, Pubs, Thai, Restaurants, Nightlife"
"343",6014,"La Perle","Dollard-des-Ormeaux","QC","H9H 3X4",45.480052,-73.842803,"1","Food, Chinese, Specialty Food, Ethnic Food, Home & Garden, Kitchen & Bath, Thai, Restaurants, Shopping, Imported Food"
"344",121236,"Thai Rama","Chandler","AZ","85224",33.306653,-111.877875,"1","Thai, Restaurants"
"345",38606,"Thai Touch Kitchen","Pittsburgh","PA","15228",40.3813039,-80.0439306,"1","Thai, Restaurants"
"346",21482,"Thai Chef Cuisine","Toronto","ON","M6R 2L6",43.6462214,-79.448585,"1","Restaurants, Thai"
"347",17204,"Thai Bowl","Toronto","ON","M5B 2H4",43.660699,-79.3835531,"1","Restaurants, Thai"
"348",36526,"Baan Thai Restaurant","Toronto","ON","M6P 1Z2",43.6652858,-79.4679385,"0","Thai, Restaurants"
"349",134435,"Kanok","Pittsburgh","PA","15206",40.457711,-79.9252872,"0","Restaurants, Thai, Food"
"350",20120,"Basil Box","North York","ON","M2M 3S9",43.7800082232,-79.415291436,"1","Gluten-Free, Thai, Salad, Vietnamese, Restaurants"
"351",54856,"Thai Restaurant","Toronto","ON","M4L 1Z9",43.67243,-79.321314,"0","Malaysian, Restaurants, Thai"
"352",61263,"Thai BBQ","Las Vegas","NV","89103",36.1129254,-115.2243713,"1","Soup, Restaurants, Chinese, Thai, Salad"
"353",44828,"Tuk Tuk Thai","Calgary","AB","T3H 3P8",51.0172115182,-114.1721947119,"1","Restaurants, Thai"
"354",188884,"Asian Wok","Las Vegas","NV","89131",36.2814901165,-115.267638105,"1","Restaurants, Asian Fusion, Thai, Chinese"
"355",29021,"Chokh Di Noodle House","Indian Trail","NC","28079",35.0792755963,-80.6551620363,"1","Restaurants, Thai, Noodles, Vietnamese, Japanese, Asian Fusion"
"356",127942,"Truly Thai Cuisine","Vaughan","ON","L4K 5Y6",43.827829591,-79.538071516,"1","Food Delivery Services, Thai, Food, Restaurants"
"357",182155,"Nouilles du Chef","Montréal","QC","H3H 1M1",45.4936720434,-73.5799884796,"1","Restaurants, Chinese, Vietnamese, Thai"
"358",184306,"Thai Tamarind","Matthews","NC","28105",35.1262416,-80.7090576,"1","Restaurants, Thai, Indian"
"359",69938,"Thai Home","Toronto","ON","M6R 2L2",43.6431826,-79.4475917,"1","Restaurants, Thai"
"360",11817,"Thai Seafood Ginger","Las Vegas","NV","89146",36.1526193,-115.2424074,"0","Asian Fusion, Restaurants, Seafood, Thai, Korean"
"361",173375,"Sala Thai Peoria","Peoria","AZ","85382",33.6705056724,-112.2384195775,"1","Thai, Restaurants"
"362",28443,"Chao Thai Restaurant","Las Vegas","NV","89119",36.107073,-115.136015,"1","Food Delivery Services, Food, Thai, Restaurants"
"363",29900,"Modern Wok","Toronto","ON","M5H 1J8",43.6474686,-79.3839517,"1","Restaurants, Chinese, Thai"
"364",39681,"Lilly's Thai & Vietnamese Restaurant","Las Vegas","NV","89117",36.1430817,-115.2536257,"0","Thai, Chinese, Vietnamese, Restaurants"
"365",161296,"Tom Yam Thai","Ajax","ON","L1S 3K3",43.8411331,-79.0264528,"0","Restaurants, Thai, Malaysian"
"366",130467,"Mizumi Sushi Asian Cuisin","Toronto","ON","M2R 2A5",43.7909589,-79.4452533,"0","Japanese, Chinese, Thai, Restaurants"
"367",34401,"King & I","Las Vegas","NV","89117",36.138984,-115.284115,"1","Thai, Chinese, Restaurants"
"368",82320,"Kang Thai","Las Vegas","NV","89146",36.1588687715,-115.2366020954,"1","Restaurants, Thai"
"369",157140,"Thai Paradise","Chandler","AZ","85224",33.31905,-111.8605765,"1","Restaurants, Food, Thai, Desserts, Salad"
"370",21347,"Thai Room","Toronto","ON","M4C",43.6854751,-79.3131434,"1","Restaurants, Thai, Taiwanese, Malaysian"
"371",124337,"Tropical Thai Cuisine","Toronto","ON","M4E 1T3",43.6805738,-79.2856111,"1","Specialty Food, Food, Restaurants, Thai, Ethnic Food"
"372",141110,"Flo's - New Asian Cuisine","Scottsdale","AZ","85254",33.6362090099,-111.921523657,"1","Restaurants, Chinese, Asian Fusion, Thai"
"373",131214,"Thai Elephant","Phoenix","AZ","85003",33.4493145,-112.0740474,"0","Restaurants, Thai"
"374",87720,"Ruby Thai  Kitchen","Newmarket","ON","L3Y 4Z1",44.057185,-79.48588,"1","Thai, Fast Food, Restaurants"
"375",185008,"Bach Yen","Toronto","ON","M4M 1Y3",43.6666894,-79.3475323,"1","Thai, Restaurants, Imported Food, Food, Specialty Food, Juice Bars & Smoothies, Vietnamese, Ethnic Food"
"376",152427,"Chanpen Thai Cuisine","Tempe","AZ","85283",33.3786283005,-111.976940357,"1","Restaurants, Noodles, Chicken Wings, Thai"
"377",126781,"Jasmine Cafe","Gilbert","AZ","85233",33.378545,-111.778816,"0","Restaurants, Thai"
"378",96372,"Chang & Huang Thai Restaurant","Mississauga","ON","L4W 4J7",43.636403,-79.623372,"1","Event Planning & Services, Halal, Thai, Restaurants, Asian Fusion, Caterers"
"379",52194,"Ty Fun Thai Bistro","Cleveland","OH","44113",41.479502,-81.684173,"1","Restaurants, Thai"
"380",91576,"Basil Express Restaurant","Toronto","ON","M4K 1N7",43.6771449,-79.3529361,"1","Seafood, Salad, Thai, Restaurants"
"381",124111,"Phothai","Laval","QC","H7V 3T4",45.538779,-73.7352675,"0","Vietnamese, Asian Fusion, Restaurants, Thai"
"382",10765,"The Thai Grill","Toronto","ON","M5T 1T3",43.656719,-79.4070829,"0","Thai, Restaurants"
"383",64896,"Lao Thai Kitchen","Las Vegas","NV","89110",36.1783291,-115.0616024,"0","Thai, Restaurants"
"384",160096,"Hakka No.1","Brampton","ON","L6T 4K9",43.710523,-79.683989,"1","Indian, Thai, Chinese, Asian Fusion, Restaurants"
"385",174975,"Pok Pok Wing","Las Vegas","NV","89109",36.1089407,-115.1723126,"1","Chicken Wings, Restaurants, Thai, Vietnamese"
"386",59630,"I Am Thai Cuisine","Las Vegas","NV","89119",36.0572622015,-115.1577220407,"1","Thai, Restaurants, Food"
"387",25912,"Bagolac Saigon","Calgary","AB","T2H 0G3",50.9983635,-114.0668951,"1","Soup, Thai, Restaurants, Salad, Vietnamese"
"388",156578,"Thai Charm Eatery","Airdrie","AB","T4B 3Y2",51.2714228537,-114.0258327264,"1","Restaurants, Thai"
"389",46396,"Restaurant Phuket","Saint-Leonard","QC","H1R 1X6",45.5773657,-73.5980355,"1","Thai, Sushi Bars, Restaurants, Asian Fusion"
"390",13823,"Spring Rolls Go","Toronto","ON","M5C 2G8",43.6521728,-79.3755231,"0","Asian Fusion, Restaurants, Thai"
"391",58824,"Thai 5 Cafe","Richmond Hill","ON","L4B 3P2",43.84614,-79.379321,"1","Food, Restaurants, Cafes, Fast Food, Thai, Food Delivery Services"
"392",174244,"Bac Asian American Bistro & Bar","Cleveland","OH","44113",41.4759144,-81.6909903,"0","Italian, Asian Fusion, Vietnamese, Thai, Restaurants"
"393",96913,"Lemongrass Restaurant","Toronto","ON","M4G 3B7",43.7065802,-79.3758028,"1","Restaurants, Thai"
"394",59172,"Thai-SuShi101","Huntersville","NC","28078",35.409145,-80.860164,"0","Sushi Bars, Thai, Malaysian, Asian Fusion, Restaurants"
"395",105091,"5 R Cha Thai Bistro","Mesa","AZ","85215",33.452185,-111.7008437,"1","Thai, Specialty Food, Coffee & Tea, Cafes, Food, Ethnic Food, Restaurants"
"396",101729,"Green Mango","Toronto","ON","M6S 1N3",43.6516825,-79.4743881,"0","Thai, Restaurants"
"397",90121,"Wasabi Cafe","Concord","NC","28025",35.4324259,-80.602812,"1","Restaurants, Sushi Bars, Japanese, Thai"
"398",76203,"Mi Pho Song Vu","North York","ON","M3M 1A2",43.7184236,-79.5079286,"1","Thai, Chinese, Vietnamese, Restaurants"
"399",9035,"Thaï Express","Brossard","QC","J4W 2T5",45.4715857,-73.4716105,"1","Thai, Restaurants"
"400",22421,"Thai Style Noodle House 2","Las Vegas","NV","89148",36.0949947,-115.2982015,"1","Noodles, Restaurants, Chinese, Thai, Vegan"
"401",83910,"Isaan Der","Toronto","ON","M6P 1Z2",43.6652858,-79.4679385,"1","Thai, Restaurants"
"402",170247,"Phayathai","Blainville","QC","J7C 2K3",45.6659275522,-73.8680967044,"1","Seafood, Thai, Restaurants"
"403",63595,"Thai Suan Thip","Bellevue","PA","15202",40.4947032663,-80.0548356128,"0","Thai, Restaurants"
"404",69760,"Thai Express","Montréal","QC","H3G",45.4957024,-73.5793286,"1","Restaurants, Thai"
"405",139208,"Sorn Thai Restaurant","Toronto","ON","M4P 2J2",43.7133363,-79.4000298,"1","Noodles, Restaurants, Thai, Salad"
"406",149168,"Restaurant Thaïlande","Montréal","QC","H2T 2J8",45.5262573,-73.603027,"1","Restaurants, Thai"
"407",127860,"Madame Ly","Montréal","QC","H2S 1S7",45.5356901,-73.603333,"1","Vietnamese, Restaurants, Thai"
"408",188235,"Mr. Thai","Concord","ON","L4K 5A3",43.8355085,-79.5079776,"0","Chinese, Asian Fusion, Thai, Restaurants, Pan Asian, Fast Food"
"409",98606,"Noodles & Company","Charlotte","NC","28262",35.3090905,-80.7477275,"1","Asian Fusion, Specialty Food, Soup, Noodles, Food, Salad, Restaurants, Pasta Shops, Thai, Italian, American (New)"
"410",35696,"Bangkok Paradise Restaurant","Toronto","ON","M5V 2B3",43.647922,-79.401064,"1","Thai, Restaurants"
"411",151738,"Kim Se Cambodian Cuisine","Cleveland","OH","44113",41.484647,-81.702746,"1","Cambodian, Restaurants, Thai"
"412",3407,"Spice Thai Cuisine","Twinsburg","OH","44087",41.3074471345,-81.4420044422,"1","Chinese, Restaurants, Thai"
"413",108655,"Asian One Chinese And Thai Cuisine","Vaughan","ON","L4H 2T1",43.82552,-79.610017,"1","Thai, Chinese, Restaurants"
"414",35836,"Chon Thai Food","Chandler","AZ","85224",33.3399621215,-111.8597268956,"1","Restaurants, Thai"
"415",2125,"Thai Express","Montréal","QC","H2L 4S9",45.5173737,-73.5687136,"1","Thai, Restaurants"
"416",82852,"Saigon Express Pho","North York","ON","M2J 5A7",43.778294,-79.3485758,"1","Vietnamese, Thai, Restaurants"
"417",60474,"MIO Japanese and Thai Fusion","Toronto","ON","M5T 2G8",43.6569907,-79.3997981,"0","Restaurants, Thai, Japanese, Sushi Bars"
"418",11453,"Green Room","Toronto","ON","M5T 1T3",43.656694,-79.4067177,"1","Pubs, Dive Bars, Nightlife, Lounges, Restaurants, Thai, Bars"
"419",117007,"Thai Elephant Restaurant","Cleveland","OH","44111",41.4509427,-81.8139555,"1","Thai, Food, Poke, Restaurants"
"420",3045,"Rai Lay","Charlotte","NC","28203",35.2142391,-80.855509,"1","Asian Fusion, Thai, Sushi Bars, Restaurants"
"421",3420,"Mr. Bangkok","Las Vegas","NV","89123",36.0520271,-115.1715467,"1","Food, Gluten-Free, Specialty Food, Thai, Restaurants, Food Delivery Services, Health Markets"
"422",152477,"Thai Basil","Richmond Hill","ON","L4S 1P3",43.8764767988,-79.4116175463,"1","Pan Asian, Thai, Restaurants"
"423",180306,"Pad Thai Noodle","Pittsburgh","PA","15224",40.4607487,-79.9477661,"1","Japanese, Restaurants, Thai, Noodles"
"424",44244,"Thai Express","Calgary","AB","T3K 2K9",51.1608639629,-114.0682007648,"1","Restaurants, Thai"
"425",109035,"Mr. Thai","Woodbridge","ON","L4H 0T2",43.7889146,-79.6267462,"0","Restaurants, Thai"
"426",158847,"Le Tuktuk","Montréal","QC","H4E 4A1",45.5086699,-73.5539925,"1","Food, Thai, Restaurants, Food Trucks"
"427",149418,"Tartares du Marché 27 Express","Montréal","QC","H3B 3G1",45.5039996,-73.56843,"0","Restaurants, Thai, Fast Food, Bars, Italian, Nightlife, Indian"
"428",159810,"Thai Spicy House","Toronto","ON","M4S 2M4",43.7019747414,-79.3873448973,"1","Restaurants, Thai"
"429",191098,"Thai D Togo","Las Vegas","NV","89169",36.1227751822,-115.1445829868,"1","Restaurants, Thai"
"430",96277,"Thai Cuisine","Pittsburgh","PA","15224",40.4625496053,-79.9497600693,"1","Thai, Restaurants"
"431",114590,"Buddha Thai Bistro","Las Vegas","NV","89123",36.018132,-115.118059,"1","Restaurants, Chinese, Thai, Asian Fusion"
"432",127246,"Pho Bowl","Montréal","QC","H4A 1V2",45.4740541,-73.6094837,"1","Vietnamese, Thai, Restaurants"
"433",172456,"Spring Rolls","Mississauga","ON","L5M 4Z5",43.5601544,-79.7087908,"0","Thai, Asian Fusion, Restaurants"
"434",124085,"Thai Noodle","Toronto","ON","M5T 1L9",43.6549918,-79.3994692,"0","Thai, Restaurants"
"435",114562,"Archi's Thai Bistro","Las Vegas","NV","89118",36.0732064948,-115.2435382178,"1","Restaurants, Ethnic Food, Thai, Food, Specialty Food"
"436",112487,"Prommares Thai Food","Las Vegas","NV","89146",36.1450530608,-115.2328381044,"1","Restaurants, Thai"
"437",170450,"Thai Express O'Burger","Dollard-des-Ormeaux","QC","H9G 1X1",45.4733702,-73.8351917,"1","Restaurants, Thai"
"438",33311,"Hot Wok","Toronto","ON","M1P 2M1",43.7693281,-79.2816269,"1","Thai, Restaurants, Chinese, Indian"
"439",160434,"River Tai Restaurant","Toronto","ON","M5S 1G5",43.6629816,-79.4030688,"1","Thai, Specialty Food, Chinese, Restaurants, Food, Ethnic Food"
"440",177195,"The Siamese Cat","Tempe","AZ","85282",33.3803309,-111.8943294,"1","Restaurants, Thai"
"441",158173,"Tuk Tuk Thai","Calgary","AB","T2S 0B4",51.0380218,-114.0765559,"1","Restaurants, Fast Food, Thai"
"442",7076,"Umi Japanese Fine Dining","Ajax","ON","L1S 3V4",43.8418819271,-79.0279730782,"0","Japanese, Asian Fusion, Soup, Restaurants, Thai, Salad"
"443",24522,"Persuasian Restaurant","Charlotte","NC","28203",35.2,-80.852472,"1","Vietnamese, Persian/Iranian, Bars, Food, Asian Fusion, Chinese, Thai, Nightlife, Wine Bars, Restaurants, Beer, Wine & Spirits"
"444",14105,"Clever Koi","Phoenix","AZ","85012",33.497502,-112.0740325,"1","Chinese, Bars, Japanese, Restaurants, Thai, Asian Fusion, Nightlife, Korean"
"445",61985,"Orient House","Madison","WI","53715",43.0603664,-89.4010906,"1","Taiwanese, Dim Sum, Restaurants, Thai, Asian Fusion, Chinese"
"446",128400,"Thai Express","Montréal","QC","H2L 1Y6",45.5164745386,-73.5603299597,"1","Fast Food, Restaurants, Thai, Asian Fusion"
"447",82531,"Lucky Elephant Thai Kitchen","Scarborough","ON","M1T 3T8",43.783936,-79.2885094,"0","Restaurants, Thai"
"448",108234,"5 R Cha Thai","Phoenix","AZ","85003",33.4494379,-112.0744459,"0","Restaurants, Thai"
"449",16415,"Thai Noodles","Fitchburg","WI","53719",43.014973924,-89.457883596,"1","Thai, Noodles, Restaurants"
"450",154114,"Royal Thai Restaurant","Las Vegas","NV","89102",36.144013,-115.193147,"0","Vietnamese, Korean, Restaurants, Thai"
"451",82465,"Sit In Bangkok","Toronto","ON","M6G 1C2",43.6551273,-79.4183899,"0","Restaurants, Thai"
"452",119077,"Chanpen Thai Cuisine","Phoenix","AZ","85040",33.406733,-112.022428,"1","Restaurants, Thai"
"453",150317,"Osha Thai Cafe","Scottsdale","AZ","85259",33.5855766,-111.8344051,"1","Salad, Chinese, Restaurants, Soup, Thai"
"454",160603,"Komol Restaurant","Las Vegas","NV","89104",36.1424875212,-115.1425948144,"1","Thai, Vegetarian, Restaurants, Vegan"
"455",125042,"Thai House - Gastonia","Gastonia","NC","28056",35.2572675,-81.1098674,"1","Restaurants, Thai, Sushi Bars"
"456",123084,"Kiin","Toronto","ON","M5V 1R3",43.647622,-79.3921,"1","Restaurants, Thai"
"457",132599,"Jatujak","Toronto","ON","M1R 1R4",43.7360866,-79.3079392,"1","Food, Restaurants, Thai, Food Delivery Services"
"458",172548,"Pho Captain","Caledon","ON","L0P 1N0",43.8603612732,-79.7107446061,"1","Thai, Food, Restaurants, Asian Fusion, Bubble Tea, Pan Asian, Vietnamese, Chinese"
"459",16439,"Vientiane Inn","Madison","WI","53715",43.0555456,-89.397846,"0","Thai, Restaurants"
"460",133837,"Chada Street","Las Vegas","NV","89102",36.1261759,-115.1909378,"0","Restaurants, Thai, Food, Nightlife, Bars, Desserts, Wine Bars"
"461",64830,"Senwell Vegetarian Cuisine","Markham","ON","L3T 7P6",43.8420875,-79.3859893,"0","Thai, Vegetarian, Restaurants, Malaysian"
"462",108632,"Royal Elephant","Toronto","ON","M6C 2C7",43.6997802,-79.4317603,"0","Thai, Restaurants"
"463",19959,"7 Star Thai Cuisine","Toronto","ON","M1L 4C2",43.7249672,-79.2860662,"0","Thai, Restaurants"
"464",25186,"Peking House Restaurant","Mahomet","IL","61853",40.196657487,-88.3959178407,"1","Thai, Chinese, Korean, Restaurants"
"465",41886,"Zen Asian Fusion","Charlotte","NC","28203",35.2023652,-80.844601,"1","Noodles, Chinese, Japanese, Tapas Bars, Vietnamese, Asian Fusion, Restaurants, Thai"
"466",152933,"Spoon & Fork Plus","Oakville","ON","L6H 6Y3",43.4662123,-79.7432983,"1","Japanese, Italian, Thai, Restaurants"
"467",86406,"Green Lotus","Gilbert","AZ","85234",33.3655334,-111.7881503,"1","Restaurants, Thai, Vietnamese, Vegan"
"468",83680,"Roll & Thai","Toronto","ON","M8V 1L2",43.599049,-79.513736,"1","Sushi Bars, Restaurants, Japanese, Korean, Thai, Asian Fusion"
"469",172431,"Amazing Wok","Charlotte","NC","28277",35.029324,-80.850153,"1","Restaurants, Thai, Chinese"
"470",21156,"Lao Thai Restaurant","Toronto","ON","M6J 3K6",43.6427919,-79.427495,"1","Laotian, Thai, Asian Fusion, Restaurants"
"471",106609,"Pei Wei Asian Diner","Las Vegas","NV","89119",36.0811202017,-115.1472152688,"1","Restaurants, Thai, Korean, Asian Fusion"
"472",55703,"Bamboo Garden","Brampton","ON","L6W 3E1",43.6945129,-79.7478308,"0","Restaurants, Specialty Food, Ethnic Food, Vietnamese, Food, Thai"
"473",36681,"Corner Thai Kitchen","Las Vegas","NV","89147",36.099339,-115.30114,"0","Salad, Restaurants, Thai"
"474",168124,"Monsoon","Charlotte","NC","28209",35.199336,-80.8668329,"0","Vegetarian, Thai, Restaurants"
"475",5936,"Erawan Restaurant","Glendale","AZ","85306",33.6274508,-112.1856677,"0","Restaurants, Thai"
"476",21722,"Noodles & Company","Madison","WI","53717",43.0614323883,-89.5047939971,"1","Thai, American (New), Comfort Food, Italian, Mediterranean, Noodles, Fast Food, Chinese, Salad, Asian Fusion, Restaurants"
"477",104410,"Pattaya Thai Kitchen","Toronto","ON","M4E 1G9",43.6737538151,-79.2827384483,"1","Restaurants, Thai"
"478",107499,"Sweet Mango Thai Cuisine","Strongsville","OH","44136",41.3089297,-81.8360135,"1","Thai, Restaurants"
"479",153905,"Pink Pepper Asian Fusion","Mesa","AZ","85202",33.3629395,-111.8752823,"0","Restaurants, Thai, Chinese, Vietnamese"
"480",7666,"Soi 4 Bangkok Eatery","Scottsdale","AZ","85253",33.5663692607,-111.9246125221,"1","Taiwanese, Thai, Restaurants"
"481",66992,"Thai Country Kitchen","Toronto","ON","M5T",43.6561615,-79.3997225,"1","Restaurants, Thai"
"482",183172,"Thai By The Park","Toronto","ON","M6P 1A6",43.655252,-79.456726,"1","Vegan, Thai, Restaurants, Vegetarian"
"483",86519,"Smooth Curry Thai Cuisine","Calgary","AB","T3K 0B3",51.1411042,-114.0700541,"0","Thai, Restaurants"
"484",85350,"Ping Pong Thai Restaurant","Las Vegas","NV","89120",36.0711402559,-115.1106205908,"1","Vegan, Restaurants, Vegetarian, Thai"
"485",133316,"Krung Siam Thai","Las Vegas","NV","89102",36.1261559476,-115.1896398638,"1","Restaurants, Thai"
"486",9772,"Smile Thai Cuisine","Tempe","AZ","85282",33.4059944088,-111.9258569061,"1","Restaurants, Noodles, Thai, Barbeque"
"487",137066,"Thaï Express","Chambly","QC","J3L 1W5",45.4555656171,-73.3017802639,"1","Restaurants, Thai"
"488",171105,"Siam","Brossard","QC","J4Y 0L3",45.444936,-73.437944,"1","Thai, Restaurants"
"489",157465,"Angkoria","Brossard","QC","J4W 3J1",45.4561057,-73.4914,"1","Thai, Cambodian, Restaurants"
"490",62152,"Fusion 108","Huntersville","NC","28078",35.408973,-80.860738,"1","Restaurants, Chinese, Noodles, Thai"
"491",158735,"Rising Sons","Madison","WI","53717",43.0761136448,-89.5181138731,"1","Asian Fusion, Thai, Restaurants"
"492",58203,"Thai Express","Toronto","ON","M5G",43.6558353,-79.3881303,"1","Thai, Fast Food, Restaurants"
"493",90299,"Na Siam Authentic Thai Cuisine","Toronto","ON","M4Y 2B6",43.6687087,-79.3861682,"0","Restaurants, Food, Thai, Food Delivery Services, Diners"
"494",89693,"Thai Basil","North Las Vegas","NV","89031",36.2623265,-115.1780313,"1","Chinese, Thai, Sushi Bars, Restaurants"
"495",38231,"Jackie Bee Boba Express","Las Vegas","NV","89146",36.1596932343,-115.2302701771,"1","Coffee & Tea, Fast Food, Bubble Tea, Cafes, Restaurants, Food, Thai"
"496",31551,"Mountain View Thai Cafe","Fountain Hills","AZ","85268",33.6013951,-111.7154171,"1","Cafes, Food, Restaurants, Coffee & Tea, Thai"
"497",156876,"Glai Baan","Phoenix","AZ","85016",33.4873016,-112.0308466,"1","Restaurants, Thai"
"498",32125,"Ploythai Bistro","Chandler","AZ","85224",33.3399193,-111.8595356,"0","Restaurants, Thai"
"499",148226,"Anise Cafe","Peoria","AZ","85345",33.580238,-112.221038,"0","Asian Fusion, Thai, Vietnamese, Restaurants"
"500",114225,"Papaya Restaurant","Toronto","ON","M4Y 1Y5",43.6646122,-79.3842879,"0","Restaurants, Thai"
"501",142700,"George & Son's Asian Cuisine","Scottsdale","AZ","85259",33.5876349741,-111.836714308,"1","Austrian, Buffets, Thai, Chinese, Asian Fusion, Restaurants"
"502",181796,"Restaurant Chalet Thai","Sainte-Anne-De-Bellevue","QC","H9X 1L8",45.4033582,-73.9516507,"1","Thai, Restaurants"
"503",10739,"Pho Tan Dinh Restaurant","Vaughan","ON","L4L 1A6",43.7922411,-79.5472603,"1","Vietnamese, Restaurants, Thai"
"504",110859,"Thaï Express","Montréal","QC","H3A 2J2",45.5069805632,-73.5685472136,"1","Thai, Restaurants"
"505",4386,"Thai Chili 2 Go","Scottsdale","AZ","85254",33.6335183,-111.9247808,"1","Restaurants, Thai"
"506",82105,"Reign Of Thai","Phoenix","AZ","85020",33.5959555,-112.0391836,"1","Buffets, Salad, Thai, Seafood, Restaurants"
"507",143241,"Colonial Fusion Cuisine inc","Calgary","AB","T2C 5E1",50.9624407565,-114.0108561516,"0","Vietnamese, Restaurants, Coffee & Tea, Thai, Food, Asian Fusion"
"508",52198,"C Thai","Montréal","QC","H2S 3E2",45.5340161,-73.6170982,"0","Restaurants, Thai"
"509",14062,"Thai Basil","Tempe","AZ","85281",33.4215393,-111.9447821,"1","Soup, Restaurants, Noodles, Thai, Delis"
"510",173166,"Gata Thai Cuisine","Henderson","NV","89012",36.0303163,-115.0300016,"1","Chinese, Restaurants, Thai, Food"
"511",54221,"Chez Sen","Montréal","QC","H2J 2L5",45.5254298,-73.5854767,"1","Chinese, Restaurants, Thai"
"512",71045,"Penn's Thai House","Henderson","NV","89011",36.0645190234,-115.0237401056,"1","Chicken Shop, Food, Restaurants, Thai, Noodles"
"513",166278,"Bang Sue Bar","Toronto","ON","M5V 2H5",43.6464107,-79.3934801,"1","Restaurants, Beer Bar, Bars, Cocktail Bars, Nightlife, Thai"
"514",8242,"Thai Basil Signature","Scottsdale","AZ","85255",33.6967441022,-111.9160619801,"1","Caterers, Event Planning & Services, Bars, Thai, Food, Restaurants, Nightlife"
"515",43372,"Bandung Indonesian Restaurant","Madison","WI","53703",43.076604,-89.3745656,"1","Seafood, Indonesian, Asian Fusion, Thai, Restaurants, Vegetarian"
"516",176784,"Hakka No 1 Restaurant","Scarborough","ON","M1K 2B5",43.7271088,-79.2665972,"1","Chinese, Indian, Restaurants, Hakka, Thai"
"517",38261,"Sukho Thai","Toronto","ON","M6J 1Y6",43.6497799,-79.4302864,"1","Thai, Restaurants"
"518",157268,"The One Sushi","Calgary","AB","T2A 7X6",51.061385552,-113.9840321236,"1","Korean, Thai, Restaurants, Sushi Bars"
"519",150104,"Tsunami Asian Grill & Sushi Bar","Las Vegas","NV","89109",36.1214517,-115.1696112,"0","Sushi Bars, Japanese, Vietnamese, Korean, Chinese, Restaurants, Thai"
"520",172031,"La Mai Thai Cuisine","Fountain Hills","AZ","85268",33.5957037,-111.7153764,"1","Restaurants, Thai"
"521",182569,"Taste Of Thai","Rantoul","IL","61866",40.3103985,-88.1576889,"1","Thai, Vietnamese, Restaurants, Asian Fusion"
"522",41356,"Thai 130","Middleburg Heights","OH","44130",41.3517406815,-81.7853986099,"0","Restaurants, Thai"
"523",185070,"Tipp's 88 Thai Restaurant","Tempe","AZ","85281",33.421053,-111.915305,"0","Thai, Restaurants"
"524",152664,"La's Thai Cuisine","Scottsdale","AZ","85260",33.6224220693,-111.8970548362,"1","Restaurants, Thai"
"525",172825,"Azian Cuisine","Maple","ON","L6A 4H6",43.862038,-79.4869135,"0","Restaurants, Japanese, Chinese, Thai, Asian Fusion"
"526",81346,"Thai Basil Garden","North York","ON","M3J 2C7",43.768146,-79.468443,"0","Noodles, Thai, Restaurants, Chinese"
"527",22750,"Pho King","Brampton","ON","L6W 3E1",43.697665,-79.748611,"1","Chinese, Asian Fusion, Restaurants, Thai, Food, Vietnamese"
"528",158279,"Thai Chef Panda","Toronto","ON","M6R 1A1",43.6402389,-79.4384537,"1","Chinese, Thai, Restaurants"
"529",66760,"Thai Golden Bell Restaurant","Newmarket","ON","L3Y 5Y1",44.0410137135,-79.4762324918,"1","Fast Food, Thai, Restaurants"
"530",41792,"Genghis Grill","Tempe","AZ","85281",33.4324571,-111.9023035,"1","Vegetarian, Restaurants, Buffets, Mongolian, Asian Fusion, Korean, Food, Thai, Chinese, Vegan"
"531",176163,"Thai Basil Signature","Phoenix","AZ","85003",33.4495994,-112.0754187,"1","Thai, Restaurants"
"532",55493,"Thai Express","Etobicoke","ON","M9C 1B8",43.613164,-79.555825,"1","Restaurants, Thai"
"533",29730,"Thai Breeze","Toronto","ON","M1N 1R6",43.6883934,-79.2699965,"0","Thai, Restaurants"
"534",181732,"Thai Elephant","Toronto","ON","M6J",43.6460292,-79.4090535,"1","Thai, Restaurants"
"535",31941,"Thai Basil - Ahwatukee","Phoenix","AZ","85048",33.3049017,-111.9924447,"1","Asian Fusion, Restaurants, Thai, Vegetarian"
"536",165623,"Jasmine Thai Cuisine By Kelly","Phoenix","AZ","85013",33.4799966,-112.080928,"1","Thai, Restaurants"
"537",164643,"75th Thai Taste Restaurant","Phoenix","AZ","85035",33.468226,-112.221156,"0","Thai, Restaurants"
"538",148455,"Ruby Thai","Toronto","ON","M5X 1C1",43.6489768,-79.382409,"1","Restaurants, Thai"
"539",28072,"Basil Thai Cafe","Champaign","IL","61820",40.110554,-88.232373,"0","Restaurants, Thai"
"540",63726,"Thai House Cuisine 2","Mississauga","ON","L5G 1G8",43.5598705,-79.5768488,"1","Thai, Restaurants"
"541",3901,"Le Thai 2","Las Vegas","NV","89102",36.1596891529,-115.1721,"1","Thai, Asian Fusion, Restaurants"
"542",70065,"General Thai & Chinese Cuisine","Richmond Hill","ON","L4C 3E4",43.8954154,-79.4434467,"1","Restaurants, Thai, Chinese"
"543",139591,"Thai One On Danforth","Toronto","ON","M4C 1H8",43.6841906,-79.3190522,"0","Restaurants, Thai"
"544",167310,"Glendale Sala Thai","Glendale","AZ","85303",33.5390281677,-112.2180099487,"1","Salad, Thai, Barbeque, Restaurants"
"545",115230,"The Green Mango Noodle Hut","Pittsburgh","PA","15218",40.4325714,-79.8937279,"0","Thai, Restaurants"
"546",121715,"Amazing Thai","Richmond Hill","ON","L4C 3B2",43.8775904,-79.4381271,"1","Asian Fusion, Thai, Restaurants, Chinese"
"547",32950,"Pepper ring","Toronto","ON","M6K",43.638265,-79.417441,"0","Vietnamese, Chinese, Thai, Dim Sum, Restaurants"
"548",153738,"Suko Thai","Oakville","ON","L6H 6P5",43.5084152,-79.669131,"1","Thai, Restaurants"
"549",172484,"Hung Long Restaurant","Toronto","ON","M3M 1G7",43.7266608,-79.4834781,"1","Restaurants, Malaysian, Vietnamese, Thai"
"550",143666,"McKnight Kitchen","Pittsburgh","PA","15237",40.5294531223,-80.0084148132,"1","Sushi Bars, Thai, Asian Fusion, Restaurants"
"551",87230,"Spice Island Tea House","Pittsburgh","PA","15213",40.4400171,-79.9560186,"1","Food, Thai, Specialty Food, Asian Fusion, Tea Rooms, Restaurants"
"552",4780,"168 Sushi Asian Buffet","Vaughan","ON","L4K 3B9",43.78738,-79.471494,"1","Buffets, Restaurants, Japanese, Sushi Bars, Chinese, Thai, Asian Fusion"
"553",146735,"Corner By Spoon And Fork","Toronto","ON","M5R 3L2",43.6715255,-79.3945958,"1","Restaurants, Japanese, Thai, Fast Food"
"554",125897,"Olay's Thai Express","Las Vegas","NV","89120",36.0794322,-115.1016447,"0","Laotian, Vegetarian, Restaurants, Thai"
"555",170230,"Thai One On","North York","ON","M3B 1Y2",43.7542187,-79.3514066,"0","Restaurants, Thai"
"556",9768,"Bowl Fine Asian Cuisine","Toronto","ON","M4Y 1X9",43.6636891,-79.3841996,"0","Vietnamese, Thai, Chinese, Restaurants"
"557",95588,"Souvenirs Thai","Vaudreuil-Dorion","QC","J7V 8P5",45.413567,-74.0419077,"1","Restaurants, Thai, Cambodian"
"558",26493,"Thai Express","Scottsdale","AZ","85255",33.6519743,-111.9246289,"1","Thai, Restaurants"
"559",83816,"Chun Fai Chinese Eatery","Las Vegas","NV","89148",36.0689682903,-115.2986838217,"1","Restaurants, Chinese, Bubble Tea, Food, Thai, Soup"
"560",148279,"Pearl of the Orient","Rocky River","OH","44116",41.4768217,-81.8497567,"1","Thai, Asian Fusion, Vietnamese, Chinese, Restaurants, Sushi Bars"
"561",97175,"Thai Basil","Tempe","AZ","85281",33.4163104,-111.9259098,"1","Restaurants, Thai"
"562",108842,"Thmor Da","Montréal","QC","H1Z 2G1",45.5687842,-73.6054883,"0","Chinese, Restaurants, Asian Fusion, Thai"
"563",94732,"Ruen Thai","Las Vegas","NV","89139",36.0552438,-115.2258702,"0","Restaurants, Thai"
"564",68539,"World Noodle","Las Vegas","NV","89102",36.125908,-115.197904,"0","Asian Fusion, Thai, Chinese, Restaurants"
"565",77941,"Wang & King Asian Cafe","Charlotte","NC","28273",35.1195903,-80.9567545,"1","Chinese, Sushi Bars, Asian Fusion, Japanese, Thai, Restaurants"
"566",107220,"Thai Boys","Toronto","ON","M4L 1Z9",43.6722484,-79.3212267,"1","Thai, Restaurants"
"567",168817,"Pei Wei","Scottsdale","AZ","85260",33.6187702,-111.8933289,"1","Thai, Asian Fusion, Chinese, Gluten-Free, Restaurants, Fast Food"
"568",145729,"Vanipha Lanna Lao-Thai Restaurant","Toronto","ON","M6C 1C4",43.6800138,-79.4328394,"0","Thai, Restaurants, Gluten-Free"
"569",11582,"Larb Thai Restaurant","Brunswick","OH","44212",41.2630106222,-81.8416246343,"1","Restaurants, Bars, Nightlife, Cocktail Bars, Thai"
"570",81676,"Thai Chili","Avon Lake","OH","44012",41.493608553,-82.0171231534,"1","Thai, Food, Soup, Bubble Tea, Restaurants"
"571",151041,"Thai Bistro","Calgary","AB","T2G 2B7",51.0506432,-114.0629234,"1","Thai, Restaurants"
"572",54261,"Asia Garden","Strongsville","OH","44136",41.2781816355,-81.7852382394,"1","Chinese, Japanese, Sushi Bars, Thai, Restaurants"
"573",93963,"Curry on Murray","Pittsburgh","PA","15217",40.433094,-79.9227463,"1","Thai, Restaurants"
"574",17296,"Thai Dish","Toronto","ON","M5E",43.6490322,-79.3748387,"0","Thai, Restaurants"
"575",76977,"Thai Original BBQ Restaurant","Las Vegas","NV","89103",36.1151835,-115.2411327,"0","Barbeque, Restaurants, Thai"
"576",64622,"Narai Thai + Sushi","Scottsdale","AZ","85260",33.6274748,-111.8952238,"0","Japanese, Thai, Restaurants, Sushi Bars"
"577",77944,"Thai St Cafe","Las Vegas","NV","89109",36.132775,-115.172881,"1","Seafood, Asian Fusion, Restaurants, Thai"
"578",42234,"Ranu Thai Cuisine","Etobicoke","ON","M8W 1M8",43.5968402,-79.524241,"1","Restaurants, Thai"
"579",124128,"Rice Paper","Akron","OH","44333",41.136390527,-81.6377332088,"1","Restaurants, Thai"
"580",138310,"Général Tao","Brossard","QC","J4Z 1A6",45.474573,-73.4657372,"1","Food, Restaurants, Chinese, Ethnic Food, Thai, Vietnamese, Imported Food, Specialty Food"
"581",70138,"Red Thai","Montréal","QC","H2X 2V1",45.5133871,-73.5717159,"0","Restaurants, Thai"
"582",10805,"Thai Room","Toronto","ON","M3H 5Y4",43.7860721876,-79.4697755395,"1","Thai, Malaysian, Restaurants"
"583",191948,"Mr. Chop Chop","Las Vegas","NV","89120",36.0972977,-115.1013785,"0","Thai, Chinese, Restaurants"
"584",42294,"Rice to Go","Whitby","ON","L1N 3R6",43.8884501,-78.9128169,"1","Thai, Restaurants, Chinese"
"585",181532,"Lotus of Siam","Las Vegas","NV","89119",36.1151541,-115.1497063,"1","Restaurants, Thai, Bars, Seafood, Nightlife, Wine Bars"
"586",16281,"Phat Hong Thaï","Saint-Eustache","QC","J7R",45.5614048238,-73.9021915197,"1","Restaurants, Thai"
"587",12719,"Thai Express","Toronto","ON","M5B 1S6",43.6587236,-79.3823022,"1","Restaurants, Greek, Thai, Food"
"588",14285,"La Colonie Thai","Saint-Lambert","QC","J4P 1L1",45.5027495546,-73.5136317778,"1","Restaurants, Thai"
"589",37671,"Thai Lotus Restaurant","Phoenix","AZ","85021",33.5396436,-112.0993598,"1","Restaurants, Salad, Thai, American (New)"
"590",126055,"The Friendly Thai","Toronto","ON","M4Y 2A6",43.6673978,-79.3857345,"0","Thai, Restaurants"
"591",32888,"Thai Thai Restaurant","Henderson","NV","89052",35.995045,-115.099744,"1","Restaurants, Thai"
"592",158120,"Kub Khao Thai Eatery","Toronto","ON","M1T 3K7",43.7802225148,-79.2998219176,"1","Thai, Food, Restaurants, Food Delivery Services"
"593",117107,"Chuch","Montréal","QC","H2W 2M5",45.5209434,-73.5767114,"1","Thai, Restaurants, Vegetarian"
"594",19718,"East! Restaurant","Toronto","ON","M5V 1Z7",43.6499763,-79.3905377,"0","Thai, Restaurants"
"595",47266,"Tiffany's Restaurant","Vaughan","ON","L4K 1W5",43.8027928274,-79.4902310148,"0","Restaurants, Thai, Indian, Chinese"
"596",43244,"Thai Thai","Lakewood","OH","44107",41.4769144417,-81.7890876699,"1","Food, Bubble Tea, Thai, Desserts, Restaurants, Vegan"
"597",120051,"Green Mango","Etobicoke","ON","M8X 1C2",43.6476846,-79.5106551,"1","Thai, Restaurants"
"598",183138,"Sweet Basil La Filipiniana","Pittsburgh","PA","15217",40.434144,-79.9230179,"0","Filipino, Thai, Restaurants"
"599",128581,"Sabi's Kitchen & Catering","Las Vegas","NV","89118",36.0929847,-115.1992107,"0","Thai, Event Planning & Services, Restaurants, Caterers, Food"
"600",192001,"Zabb Thai Spice Kitchen","Las Vegas","NV","89113",36.0422516485,-115.2781509602,"1","Thai, Restaurants"
"601",2413,"Thai","Toronto","ON","M6C 1A9",43.6823087,-79.4238058,"1","Thai, Restaurants, Pizza"
"602",53798,"Thai Express","Toronto","ON","M3J 1P3",43.7748776774,-79.4946187281,"1","Specialty Food, Imported Food, Restaurants, Ethnic Food, Food, Thai"
"603",114672,"Une Nuit à Bangkok","Montréal","QC","H1T 2A2",45.5709476614,-73.5675130724,"1","Food Trucks, Food, Thai, Restaurants"
"604",10095,"Pho Lam","Mississauga","ON","L5A 1W4",43.5811709,-79.6138008,"1","Chinese, Vietnamese, Restaurants, Thai"
"605",181181,"Thai One On","Pickering","ON","L1V 1A6",43.817839,-79.117285,"1","Food, Restaurants, Thai"
"606",104538,"Brown Sugar Thai Cuisine","Rocky River","OH","44116",41.4647380392,-81.8439335509,"1","Restaurants, Thai"
"607",42733,"Thai Villa Restaurant","Whitchurch-Stouffville","ON","L0H 1J0",43.9560867,-79.2767389,"1","Singaporean, Malaysian, Thai, Restaurants"
"608",89133,"Pho No.1","Toronto","ON","M1K 2C8",43.7324882142,-79.2683264986,"0","Vietnamese, Restaurants, Thai"
"609",122763,"Thai Delite","Etobicoke","ON","M8Y 1J3",43.6300822,-79.4854385,"0","Restaurants, Thai"
"610",92342,"Sail Sushi","Scarborough","ON","M1E 2M8",43.7659173,-79.1916725,"1","Dim Sum, Thai, Japanese, Sushi Bars, Restaurants, Chinese, Salad"
"611",112636,"Cuisine Bangkok 2","Montreal","QC","H3H 1M1",45.493367,-73.579637,"0","Thai, Restaurants"
"612",41785,"Thai Tai Vietnamese Restaurant","Calgary","AB","T3H 0E9",51.0393689,-114.2077286,"0","Thai, Restaurants, Vietnamese, Food"
"613",89344,"Our Thai Restaurant & Cafe","Vaughan","ON","L4K 5C3",43.7885261,-79.5310616,"1","Restaurants, Thai"
"614",60870,"9 Thai kitchen","Las Vegas","NV","89117",36.1298759,-115.2755165,"1","Restaurants, Thai"
"615",28423,"Royal Jasmine Thai Restaurant","Goodyear","AZ","85395",33.4927108,-112.3801191,"1","Thai, Restaurants"
"616",120954,"Queen's Head Pub","Scarborough","ON","M1T 1A3",43.7731783,-79.3216165,"1","Thai, British, Bars, Nightlife, Pubs, Restaurants"
"617",37144,"Thai Room","Toronto","ON","M5A 2L2",43.664132,-79.36817,"1","Food Delivery Services, Malaysian, Food, Thai, Restaurants"
"618",9350,"O'Dine Japanese & Thai Fusion","Ajax","ON","L1Z 1W5",43.8638667,-79.0125628,"1","Specialty Food, Ethnic Food, Food, Thai, Japanese, Restaurants, Imported Food"
"619",133890,"Lemongrass","Las Vegas","NV","89109",36.106863798,-115.1773988321,"1","Thai, Restaurants"
"620",165561,"Kyjo's","Concord","NC","28025",35.4475856,-80.5996181,"0","Restaurants, Sushi Bars, Japanese, Thai, Asian Fusion"
"621",109301,"The Friendly Thai","Toronto","ON","M6J 1E7",43.6460562,-79.408251,"1","Thai, Restaurants"
"622",74533,"Thaïzone","Montréal","QC","H1N 1C1",45.5775076432,-73.5459439417,"1","Restaurants, Thai"
"623",128427,"Papaya Thai Cuisine & Sushi Bar","Pittsburgh","PA","15275",40.4498141018,-80.1745709468,"1","Restaurants, Asian Fusion, Thai, Sushi Bars"
"624",80153,"The Green Mango","Pittsburgh","PA","15235",40.4294697,-79.8102598,"1","Restaurants, Thai"
"625",73966,"Lemon Grass","Cleveland","OH","44118",41.500314,-81.565092,"0","Korean, Thai, Vietnamese, Restaurants"
"626",56927,"Haiku & Thai","Henderson","NV","89123",36.01488,-115.171467,"0","Nightlife, Chinese, Thai, Japanese, Lounges, Restaurants, Bars"
"627",56913,"China A Go Go","Las Vegas","NV","89129",36.2203744,-115.3253819,"1","Chinese, Restaurants, Thai, Japanese"
"628",57950,"Indochine Thai Vietnamese Restaurant","Toronto","ON","M4W 1L7",43.6721547,-79.387466,"0","Food, Thai, Restaurants, Specialty Food, Vietnamese, Ethnic Food"
"629",30495,"Rendezvous Asian Cuisine","Maple","ON","L6A 4N9",43.8480378447,-79.4591975212,"0","Dim Sum, Thai, Chinese, Restaurants, Asian Fusion"
"630",133788,"Ye's Sushi","Oakville","ON","L6H 6C8",43.519080921,-79.6841433272,"1","Specialty Food, Thai, Food, Restaurants, Sushi Bars, Chinese"
"631",188131,"Archi's Thai Kitchen","Las Vegas","NV","89103",36.1148045,-115.2309225,"1","Steakhouses, Restaurants, Thai"
"632",9154,"Essence of Thai","Las Vegas","NV","89136",36.1442497,-115.1959972,"0","Restaurants, Thai"
"633",94594,"Thai Wok Restaurant","East York","ON","M4C 4E5",43.6931054,-79.3157587,"1","Thai, Restaurants"
"634",87416,"Green Mango Thai Food","Toronto","ON","M4Y 2B7",43.6688789,-79.3864055,"0","Restaurants, Thai"
"635",137718,"Golden Diner & Thai Cuisine","Etobicoke","ON","M8W 3W2",43.6099638789,-79.5493448885,"0","Canadian (New), Restaurants, Thai"
"636",125581,"Thai Royal York","Mississauga","ON","L5C 2S3",43.5757547,-79.655698,"0","Restaurants, Thai"
"637",95599,"The Friendly Thai","Toronto","ON","M4M 1L7",43.6633174,-79.3306028,"1","Thai, Restaurants"
"638",92805,"Chada Thai","Toronto","ON","M4L 1H7",43.6694204,-79.3022232,"0","Thai, Restaurants, Seafood, Active Life, Beaches"
"639",125274,"Anchan Thai Kitchen","Toronto","ON","M5V 1P5",43.6422885,-79.4113172,"0","Restaurants, Noodles, Thai, Soup"
"640",143135,"Orchid Room Fusion Cuisine","Calgary","AB","T2P 4K1",51.0455991,-114.0690246,"0","Thai, Vietnamese, Restaurants, Food, Shopping, Specialty Food, Shopping Centers, Ethnic Food, Asian Fusion"
"641",149642,"Thai Original BBQ Restaurant","Las Vegas","NV","89104",36.1535041186,-115.1516318321,"0","Barbeque, Restaurants, Thai"
"642",76623,"K Asian Bistro","Allison Park","PA","15101",40.5936265,-79.9469005,"1","Sushi Bars, Cafes, Thai, Japanese, Asian Fusion, Restaurants"
"643",182609,"Le Thai","Las Vegas","NV","89101",36.1688018067,-115.1398800888,"1","Beer Gardens, Nightlife, Restaurants, Thai"
"644",14045,"Cynthia's Paradise","Newmarket","ON","L3X 1X4",44.0361597383,-79.475154429,"1","Buffets, Sushi Bars, Thai, Restaurants, Asian Fusion, Chinese, Japanese"
"645",28242,"Benjarong Authentic Thai Cuisine","Las Vegas","NV","89113",36.0533813,-115.2795528,"0","Thai, Food, Restaurants"
"646",147762,"Chili Noodle Corner","Pittsburgh","PA","15222",40.441237,-80.003478,"0","Thai, Asian Fusion, Restaurants"
"647",122197,"Thai Spoon","Pittsburgh","PA","15216",40.3953208923,-80.0346221924,"1","Restaurants, Thai"
"648",12799,"Le Basilic Vert","Laval","QC","H7X 3S5",45.522464,-73.785926,"1","Vietnamese, Thai, Food, Asian Fusion, Restaurants, Specialty Food, Ethnic Food"
"649",95811,"Stars of Thai Cuisine","Markham","ON","L3R 5A1",43.8512927,-79.3539046,"0","Thai, Restaurants"
"650",182089,"Lotus of Siam","Las Vegas","NV","89104",36.1436636,-115.1418906,"0","Car Dealers, Nightlife, Automotive, Buffets, Wine Bars, Bars, Thai, Restaurants, Seafood"
"651",8572,"Wok Box","Chandler","AZ","85286",33.276673,-111.791793,"0","Asian Fusion, Restaurants, Chinese, Thai"
"652",54443,"Flo's - New Asian Cuisine","Tempe","AZ","85283",33.378791,-111.930187,"1","Restaurants, Asian Fusion, Chinese, Thai"
"653",65983,"Royal Myanmar","West View","PA","15229",40.518593,-80.0310709,"1","Sushi Bars, Thai, Restaurants, Burmese"
"654",113888,"Nobu Tei","Solon","OH","44139",41.396544,-81.465911,"1","Asian Fusion, Thai, Sushi Bars, Restaurants, Japanese, Steakhouses"
"655",45506,"Royal Thai Grill","Mesa","AZ","85201",33.4507778,-111.8384602,"1","Thai, Restaurants"
"656",144080,"Palee's Crown","Mesa","AZ","85202",33.37831,-111.861418,"0","Restaurants, Thai"
"657",126075,"Bangkok Orchid","Henderson","NV","89014",36.071621,-115.072037,"1","Restaurants, Chinese, Thai"
"658",41828,"Sweet Mango Berea Thai Cuisine","Berea","OH","44017",41.366759,-81.8528019,"1","Thai, Restaurants"
"659",37862,"Kung Fu Thai & Chinese Restaurant","Las Vegas","NV","89103",36.126175,-115.19047,"1","Restaurants, Chinese, Thai, Vegetarian"
"660",73150,"Sama Fusion","Montréal","QC","H2C 1P5",45.5575701869,-73.6596510932,"1","Vietnamese, Sushi Bars, Restaurants, Asian Fusion, Thai"
"661",23806,"I Love Pho","Mississauga","ON","L5C 2S3",43.5751767136,-79.6557045243,"0","Restaurants, Vietnamese, Thai, Asian Fusion, Chinese"
"662",114705,"Lotus Thai House","Cleveland Heights","OH","44118",41.5074369106,-81.5656458959,"0","Thai, Restaurants"
"663",71574,"Thai Gourmet","Independence","OH","44131",41.395547,-81.641748,"1","Thai, Restaurants, Chinese"
"664",129261,"Thai Chili 2 Go - Gilbert","Gilbert","AZ","85298",33.2318555,-111.7211289,"1","Thai, Restaurants"
"665",51809,"Star King Viet Thai Cuisine","Markham","ON","L3R",43.8212251203,-79.3255251825,"0","Thai, Restaurants, Vietnamese"
"666",131509,"Satay On the Road","North York","ON","M5M 4A5",43.735275,-79.41965,"1","Ethnic Food, Specialty Food, Asian Fusion, Chinese, Restaurants, Food, Thai"
"667",55593,"Wok With Yu","Woodbridge","ON","L4L 4V9",43.7699094,-79.5521779,"1","Thai, Restaurants, Noodles, Chinese"
"668",32998,"Stick E Rice","Las Vegas","NV","89121",36.1308785,-115.1150025,"0","Thai, Restaurants"
"669",138812,"Irrawaddy Sushi & Thai Cuisine","Pittsburgh","PA","15222",40.441237,-80.003478,"0","Asian Fusion, Restaurants, Sushi Bars, Thai"
"670",164200,"Bangkok Buri","Calgary","AB","T4A 0G3",51.202504,-113.991462,"1","Restaurants, Thai"
"671",180781,"Noodles & Company","Charlotte","NC","28203",35.206689,-80.860924,"0","Salad, Fast Food, Asian Fusion, Soup, American (Traditional), Noodles, Comfort Food, Italian, Food, Chinese, Desserts, Restaurants, Thai"
"672",2176,"Siam Thai Kitchen","Las Vegas","NV","89107",36.179679,-115.241972,"0","Restaurants, Thai"
"673",79888,"Thai Delight","Phoenix","AZ","85048",33.3045643515,-111.9821897439,"1","Beverage Store, Seafood, Food, Thai, Restaurants, Desserts"
"674",18261,"Sandwiches Thai Saigon","Montréal","QC","H2M 1R6",45.5467846,-73.6392447,"1","Restaurants, Thai"
"675",139590,"Thai Express","Montréal","QC","H3B 4L5",45.5008359,-73.5642962,"1","Thai, Restaurants"
"676",118303,"Ling & Louie's Asian Bar and Grill","Chandler","AZ","85226",33.281405,-111.973505,"1","Thai, Mongolian, Asian Fusion, Bars, Chinese, Restaurants, Nightlife"
"677",132106,"Siam Princess","Etobicoke","ON","M8V 1K5",43.5997884,-79.5091613,"0","Restaurants, Thai"
"678",189614,"Satara","Peoria","AZ","85382",33.6353549,-112.2350274,"0","Nightlife, Restaurants, Thai, Wine Bars, Bars"
"679",186618,"Hug Thai","Pittsburgh","PA","15201",40.4660996482,-79.9536006257,"1","Thai, Restaurants"
"680",164164,"Bolton Thai Cuisine","Caledon","ON","L7E 1E8",43.8803006778,-79.7373204678,"0","Thai, Restaurants"
"681",2299,"Tai Wah Asian Cuisine","Streetsboro","OH","44241",41.2396916527,-81.3421118345,"1","Bakeries, Restaurants, Cantonese, Food, Chinese, Thai"
"682",22314,"Pho 72","Markham","ON","L3S 0A2",43.8547149,-79.2575368,"1","Restaurants, Thai, Vegetarian, Vietnamese"
"683",149742,"Siam Garden","Las Vegas","NV","89115",36.218985,-115.093035,"1","Restaurants, Thai"
"684",154302,"Thai Place","Wexford","PA","15090",40.631512,-80.059051,"1","Restaurants, Thai"
"685",77211,"Siam","Montréal","QC","H3G 0A1",45.496606,-73.572863,"1","Thai, Restaurants"
"686",146044,"Sukhothai Bistro","Pittsburgh","PA","15217",40.4381461,-79.9223846,"0","Asian Fusion, Restaurants, Thai"
"687",92507,"Latitude Eight Thai Grill","Chandler","AZ","85225",33.3021074,-111.8420649,"0","Thai, Restaurants"
"688",66577,"Thai Spring Rolls","Aurora","ON","L4G 1P2",44.0053149,-79.4683231,"1","Thai, Restaurants"
"689",118908,"Little Dumpling","Las Vegas","NV","89131",36.279407,-115.206454,"1","Food Delivery Services, Chinese, Food, Restaurants, Thai"
"690",73958,"Thai & Noodle Outlet","Pittsburgh","PA","15217",40.4381713,-79.9223718,"1","Restaurants, Desserts, Thai, Noodles, Food"
"691",41122,"Thai Orchid Restaurant","Charlotte","NC","28211",35.1565242,-80.794503,"1","Event Planning & Services, Thai, Restaurants, Asian Fusion, Caterers"
"692",181391,"Spoon & Fork","Vaughan","ON","L4L 9J8",43.7863561087,-79.5447131418,"1","Japanese, Sushi Bars, Thai, Restaurants"
"693",72754,"Hollywood Noodle Thai Cuisine","Las Vegas","NV","89119",36.0576725978,-115.1579487696,"0","Thai, Restaurants, Asian Fusion"
"694",21458,"Spring Rolls","Toronto","ON","M4P 3A2",43.707051,-79.396711,"0","Restaurants, Asian Fusion, Thai"
"695",17703,"Seven East","Toronto","ON","M4W 2L6",43.678862,-79.3904624,"0","Thai, Restaurants"
"696",66251,"O Fuzion","Montréal","QC","H1Y 1L7",45.550040767,-73.5829375684,"1","Asian Fusion, Thai, Restaurants, Chinese"
"697",23288,"Talay Thai II","Laval","QC","H7N 4Y6",45.5806998,-73.7037297,"0","Restaurants, Thai"
"698",37749,"Thai House","Las Vegas","NV","89183",36.0105784998,-115.1341448538,"1","Thai, Seafood, Chinese, Restaurants"
"699",104123,"Basil Thai Cuisine","Charlotte","NC","28202",35.2288861,-80.8426659,"1","Seafood, Taiwanese, Vegetarian, Thai, Restaurants"
"700",146602,"Curry Hut","Las Vegas","NV","89129",36.241778,-115.2501424,"1","Asian Fusion, Tea Rooms, Juice Bars & Smoothies, Japanese Curry, Thai, Restaurants, Japanese, Food"
"701",164509,"Silk Thai","Chandler","AZ","85248",33.2334016,-111.857963,"1","Thai, Bars, Vegan, Cocktail Bars, Gluten-Free, Nightlife, Restaurants, Asian Fusion"
"702",25808,"Brown Rice Thai Kitchen","Las Vegas","NV","89134",36.1932914379,-115.3040919117,"1","Restaurants, Thai"
"703",143324,"The Friendly Thai","Toronto","ON","M6P 1Z3",43.6656661,-79.4704944,"1","Restaurants, Thai"
"704",13424,"Just Thai","Toronto","ON","M4Y 2E1",43.6650073,-79.3808111,"0","Restaurants, Thai"
"705",138571,"888 Noodle Bar","Las Vegas","NV","89109",36.1345820974,-115.1516103745,"0","Restaurants, Thai, Asian Fusion, Szechuan, Chinese"
"706",176722,"Red House","Pickering","ON","L1V 6K3",43.8195876,-79.1138711,"1","Thai, Malaysian, Restaurants"
"707",12729,"Vientiane Palace Restaurant","Madison","WI","53703",43.0755119,-89.3903706,"1","Restaurants, Thai, Vegan, Vietnamese, Vegetarian, Asian Fusion"
"708",170620,"Motu's Tahitian Noni Island Grill","Glendale","AZ","85305",33.5362437255,-112.1855163574,"0","Restaurants, Thai"
"709",4797,"Thai Recipe Bistro","Phoenix","AZ","85006",33.472643,-112.0655892,"1","Restaurants, Thai"
"710",170788,"EN Sushi","Brampton","ON","L6Y 5B5",43.6589764335,-79.725368618,"1","Thai, Japanese, Sushi Bars, Restaurants, Chinese"
"711",173155,"Pho Pad Thai","Markham","ON","L3R 5Z1",43.857594,-79.357332,"1","Thai, Vietnamese, Restaurants"
"712",81004,"Thai Cafe","Chandler","AZ","85226",33.3058201,-111.9007671,"0","Restaurants, Thai"
"713",71052,"Red Thai","Phoenix","AZ","85020",33.5514088809,-112.0580245675,"1","Vietnamese, Salad, Restaurants, Thai, Asian Fusion"
"714",160271,"Umami Moto","Cleveland","OH","44108",41.5389065,-81.6089873,"0","Asian Fusion, Thai, Food Stands, Food Trucks, Food, Restaurants, Street Vendors"
"715",105909,"Thai Spice","Westlake","OH","44145",41.4559911,-81.8985725,"1","Specialty Food, Vietnamese, Food, Thai, Restaurants, Ethnic Food"
"716",55796,"Thai Terrace","Pittsburgh","PA","15218",40.430358,-79.8840588,"1","Thai, Restaurants"
"717",69415,"Spicy Hut","Calgary","AB","T2E 3S1",51.0514073,-114.0516808,"1","Ethnic Food, Thai, Food, Specialty Food, Seafood, Restaurants, Chinese"
"718",65111,"Jackie's Thai","Calgary","AB","T2P 4R5",51.0528759791,-114.0681401182,"1","Restaurants, Event Planning & Services, Thai, Caterers"
"719",39022,"Block 9 Street Eats","Las Vegas","NV","89135",36.122232,-115.325403,"1","Thai, Restaurants"
"720",155515,"Golden Land Asian Cuisine","Allison Park","PA","15101",40.580006,-80.0075774,"1","Asian Fusion, Thai, Restaurants"
"721",8493,"Satay Thai Bistro & Bar","Las Vegas","NV","89169",36.1181994101,-115.1542528015,"1","Malaysian, Asian Fusion, Dance Clubs, Singaporean, Thai, Nightlife, Chinese, Restaurants"
"722",51155,"Pompom Rouge","Laval","QC","H7N 5H6",45.5613209,-73.7087822,"1","Taiwanese, Asian Fusion, Chinese, Thai, Restaurants"
"723",54089,"Lucky Curry","Markham","ON","L3R 2Z5",43.8187487,-79.3304736,"0","Vietnamese, Fast Food, Thai, Restaurants"
"724",94277,"Suko Thai","Mississauga","ON","L5L 2W1",43.5251902,-79.684136,"0","Thai, Restaurants"
"725",59811,"Restaurant Sawadee","Beloeil","QC","J3G 4G7",45.5557465,-73.2127978,"1","Canadian (New), Restaurants, French, Asian Fusion, Thai"
"726",181058,"Pho On The Go","North York","ON","M3N 2K1",43.7569623,-79.5175302,"0","Bubble Tea, Vietnamese, Restaurants, Thai, Food"
"727",66627,"La Merveille du Vietnam","Montréal","QC","H2S 1V1",45.5397771942,-73.600031957,"1","Restaurants, Chinese, Pan Asian, Thai, Vietnamese"
"728",135202,"Sala Thai","Phoenix","AZ","85028",33.5857413,-112.0140094,"1","Thai, Salad, Barbeque, Restaurants"
"729",12118,"Duke Dragon","Mississauga","ON","L4X 1M1",43.6196105874,-79.5734913074,"0","Specialty Food, Indian, Chinese, Asian Fusion, Restaurants, Food, Ethnic Food, Thai"
"730",61073,"Restaurant Thailandais Bato Thai","Montréal","QC","H2L 2H5",45.5194208,-73.5551812,"0","Thai, Restaurants"
"731",16491,"Vicky's Fish & Chips","Toronto","ON","M6R 2N2",43.651701,-79.4512765,"1","Seafood, Thai, Restaurants"
"732",190852,"The Friendly Thai","Toronto","ON","M4S",43.7015376,-79.3872396,"0","Restaurants, Thai"
"733",36661,"Pumpui","Montréal","QC","H2S 1K7",45.5328529,-73.6111091,"1","Restaurants, Thai, Imported Food, Specialty Food, Food"
"734",132492,"Noodles & Company","Monona","WI","53716",43.0470458,-89.3239739,"1","Chinese, Salad, Comfort Food, Asian Fusion, Restaurants, Noodles, Thai, Italian"
"735",55755,"Thai Heng Restaurant","Montréal","QC","H1M 1B1",45.5873777,-73.5616169,"0","Thai, Restaurants"
"736",192250,"Soupe @ Nouilles","Châteauguay","QC","J6J 2R1",45.3605368,-73.7334433,"1","Restaurants, Thai"
"737",93490,"Tasty Asian Kitchen","Litchfield Park","AZ","85340",33.5096447,-112.3391789,"1","Thai, Chinese, Japanese, Restaurants"
"738",110296,"Wiang Kuk Thai Food","Markham","ON","L3R 3P9",43.8493841403,-79.3521881104,"1","Thai, Soup, Restaurants, Fast Food"
"739",127349,"La Tonkinoise","Saint-Sauveur","QC","J0R 1R0",45.8921785,-74.1595386,"1","Thai, Restaurants, Vietnamese"
"740",106782,"Little Bangkok Thai Restaurant","Las Vegas","NV","89104",36.1316401,-115.1908263,"0","Ethnic Food, Food, Specialty Food, Thai, Restaurants"
"741",31070,"Pai Northern Thai Kitchen","Toronto","ON","M5H 3G8",43.647866,-79.3886415,"1","Restaurants, Food, Thai, Ethnic Food, Specialty Food"
"742",85792,"My Thai Bowl","GILBERT","AZ","85233",33.3785652,-111.810327,"1","Thai, Restaurants"
"743",80356,"Thai One On","Toronto","ON","M5M 4A4",43.7364126,-79.4205214,"1","Thai, Food, Restaurants"
"744",42390,"Basilic Hong Kong Cha ChaanTeng","Montréal","QC","H2Z 1B9",45.50711,-73.5609039,"0","Asian Fusion, Thai, Restaurants, Chinese, Vietnamese"
"745",191679,"Thai Chi Asian Kitchen","Woodbridge","ON","L4H 2Z7",43.838431,-79.559187,"0","Thai, Restaurants"
"746",187163,"Soda Bun Thai Food","Mesa","AZ","85210",33.3653600592,-111.8606037893,"1","Food Delivery Services, Food, Thai, Vegetarian, Restaurants, Salad, Soup"
"747",50163,"Twin Fish Express Thai Cuisine","Etobicoke","ON","M8Z 1S2",43.621401,-79.524806,"0","Thai, Restaurants"
"748",178552,"Green Lotus Vegetarian","Mesa","AZ","85201",33.413244,-111.8735797,"0","Restaurants, Thai, Vietnamese, Vegetarian"
"749",103523,"Pink Pepper Thai Cusine","Mesa","AZ","85202",33.3629395,-111.8752823,"0","Thai, Restaurants, Chinese, Vietnamese, Buffets"
"750",84927,"Sa-Bai Thong Thai Cuisine","Madison","WI","53719",43.0572311,-89.500154,"1","Vegetarian, Thai, Restaurants"
"751",7788,"Basil Thai Fusion","Las Vegas","NV","89130",36.2377817298,-115.2314369948,"0","Italian, Restaurants, Food Delivery Services, Food, American (New), Thai"
"752",97745,"Thai Place Restaurant","Pittsburgh","PA","15232",40.4513611,-79.9325239,"0","Thai, Restaurants"
"753",154360,"Golden Mango Thai Cuisine","Bradford","ON","L3Z 0G1",44.1090946,-79.5861127,"1","Juice Bars & Smoothies, Restaurants, Noodles, Soup, Food, Ramen, Thai, Japanese"
"754",4764,"Restaurant Soupebol","Pointe-Claire","QC","H9R 5K3",45.4684496,-73.8299316,"0","French, Thai, Restaurants, Vietnamese, Chinese"
"755",54042,"Pho So 1","Las Vegas","NV","89102",36.1249835,-115.2064306,"0","Restaurants, Vietnamese, Thai, Soup, Korean, Noodles"
"756",127190,"Kin Khao 25","Montréal","QC","H2T 2N6",45.5217551,-73.594198,"1","Laotian, Thai, Restaurants, Tapas/Small Plates"
"757",38535,"Basil Box","Mississauga","ON","L5B 2C9",43.5928749,-79.6430241,"1","Gluten-Free, Vietnamese, Restaurants, Thai"
"758",25319,"EAT BKK Thai Kitchen Leslieville","Toronto","ON","M4M 1J3",43.6605957,-79.3429889,"1","Restaurants, Thai"
"759",18738,"Siam Orchid","Westlake","OH","44145",41.437349,-81.9379809,"0","Thai, Restaurants"
"760",141368,"Silk Thai Restaurant","Toronto","ON","M6P 1Z1",43.66517,-79.4661916,"1","Thai, Soup, Noodles, Restaurants"
"761",115107,"The King & I Thai Cuisine","Calgary","AB","T2R 0E5",51.0429846253,-114.0802803409,"0","Restaurants, Thai"
"762",58912,"Pho Tai Loi","Mississauga","ON","L4W 5G6",43.6318785873,-79.6143556014,"1","Restaurants, Food, Vietnamese, Thai"
"763",157329,"Lime Asian Cuisine","Toronto","ON","M4P 1A6",43.7080524,-79.3932104,"0","Thai, Restaurants"
"764",58673,"Au Just Thai","Terrebonne","QC","J6W",45.7000319,-73.6488608,"1","Restaurants, Thai"
"765",83383,"Thai House At Tower Place","Charlotte","NC","28226",35.0890517,-80.867053,"1","Thai, Restaurants"
"766",101157,"Pho 88 North York","Toronto","ON","M2N 5P8",43.7704722,-79.4129878,"1","Chinese, Thai, Restaurants, Vietnamese"
"767",190069,"Bangkok Garden Restaurant","Toronto","ON","M5G 1G7",43.6578537,-79.382764,"1","Bars, Restaurants, Nightlife, Food, Thai, Desserts"
"768",163265,"Thai Room","Toronto","ON","M1S 3P8",43.7836569409,-79.2531117553,"1","Thai, Restaurants"
"769",53633,"Thai Sep","Montréal","QC","H2E 1T6",45.5487224,-73.6061555,"1","Restaurants, Thai, Laotian"
"770",81649,"Pad Thai Express","Pittsburgh","PA","15213",40.4444668,-79.9548644,"1","Thai, Restaurants, Food, Food Trucks"
"771",42926,"Young Thailand","Toronto","ON","M5A",43.6639221,-79.3678379,"0","Restaurants, Thai"
"772",37426,"Thai Pan Fresh Exotic Cuisine","Scottsdale","AZ","85255",33.6968147,-111.9160441,"0","Thai, Restaurants"
"773",189658,"Eathai","Toronto","ON","M4C 3G4",43.6960113154,-79.3287539855,"0","Asian Fusion, Restaurants, Thai"
"774",112308,"Thai Place","Las Vegas","NV","89119",36.116147,-115.137842,"1","Thai, Restaurants"
"775",133111,"Cultures Thai Express","Montréal","QC","H2X 3P9",45.510319,-73.5750033,"1","Thai, Restaurants"
"776",11460,"J Chen","Cave Creek","AZ","85331",33.756006,-111.992641,"1","Restaurants, Chinese, Thai"
"777",155264,"Ginger Zing","Mesa","AZ","85204",33.3949119,-111.7559719,"1","Thai, Asian Fusion, Restaurants, Chinese"
"778",52951,"Spring Rolls","North York","ON","M2N 5X2",43.7626557559,-79.4113679643,"0","Asian Fusion, Restaurants, Chinese, Thai, Japanese"
"779",163183,"Pittsburgh Poke","Pittsburgh","PA","15222",40.441237,-80.003478,"1","Thai, Poke, Japanese, Food, Restaurants, Sushi Bars"
"780",2594,"Asian Grille","Cleveland","OH","44102",41.4865093,-81.7633642,"0","Restaurants, Thai"
"781",84407,"Restaurant Ken Ching","Laval","QC","H7X 2Y9",45.5214376,-73.7938344,"1","Restaurants, Chinese, Thai"
"782",69416,"Kami Chinese and Sushi","Wesley Chapel","NC","28104",34.9997055,-80.6994116,"1","Japanese, Chinese, Sushi Bars, Thai, Restaurants"
"783",64640,"Kinnaree Thai and Vegetarian","Las Vegas","NV","89117",36.1430817,-115.2536257,"0","Restaurants, Food, Vegetarian, Thai"
"784",107789,"Pho Surpryz Viet & Thai Cuisine","Whitby","ON","L1N 2K7",43.886509,-78.913802,"1","Thai, Restaurants, Vietnamese"
"785",34168,"Siam Oishi","Scottsdale","AZ","85260",33.6182525,-111.8978162,"0","Thai, Restaurants, Japanese"
"786",43948,"MY Restaurant","Markham","ON","L3P 2R2",43.8748998,-79.2591737,"1","Hong Kong Style Cafe, Chinese, Cantonese, Cafes, Hakka, Restaurants, Thai"
"787",164307,"Chopstick Chinese and Thai","Bradford West Gwillimbury","ON","L3Z 1H9",44.1117712,-79.5759856,"1","Thai, Chinese, Restaurants"
"788",132792,"Lemongrass","Toronto","ON","M8X 2W8",43.6451696,-79.5224123,"0","Restaurants, Thai"
"789",106342,"Krua Thai Cuisine","Phoenix","AZ","85022",33.640773,-112.050142,"1","Food, Desserts, Restaurants, Thai"
"790",32166,"Sukhothai Restaurant","Madison","WI","53711",43.0676088,-89.4106872,"0","Restaurants, Thai, Vegetarian"
"791",151407,"Thai 1st","Charlotte","NC","28277",35.0342937,-80.8063307,"1","Restaurants, Thai"
"792",169399,"Thai Original BBQ","Las Vegas","NV","89109",36.1411631,-115.1363513,"1","Restaurants, Thai"
"793",13058,"Jasmine Thai Gourmet","Las Vegas","NV","89147",36.1136569,-115.2614822,"0","Restaurants, Thai"
"794",111488,"Wing Phat","Saint-Léonard","QC","H1R 1W9",45.5728917,-73.6017222,"1","Grocery, Chinese, Food, Vietnamese, Restaurants, Thai"
"795",187100,"Coconut Bay","Toronto","ON","M4Y 1E7",43.664923,-79.3851073,"0","Restaurants, Thai"
"796",103617,"Zem-One","Mississauga","ON","L4Z 3M2",43.6050994,-79.6498645,"0","Japanese, Thai, Food, Restaurants, Sushi Bars"
"797",44287,"La Belle Thailandaise","Montréal","QC","H2J 2L3",45.5239589,-73.583466,"1","Thai, Vietnamese, Restaurants"
"798",173199,"Thai Noodle","Toronto","ON","M6G 2N2",43.6823223153,-79.4200096888,"1","Restaurants, Noodles, Thai"
"799",87386,"N & N Oriental","Las Vegas","NV","89119",36.1068493,-115.1372406,"0","Restaurants, Thai"
"800",45098,"Greens & Grill","Las Vegas","NV","89106",36.1616500028,-115.1740013102,"1","Kebab, Burgers, Seafood, Wraps, American (New), Salad, Thai, Restaurants"
"801",138123,"Coco Rice Thai Cuisine","Toronto","ON","M5V 1M9",43.6437815874,-79.4029973833,"1","Vegan, Restaurants, Thai"
"802",67194,"Sakina Thai Cuisine","Las Vegas","NV","89102",36.144051,-115.198702,"0","Chinese, Restaurants, Thai, Halal, Cantonese"
"803",29321,"Arisra Thai Seafood & Steaks","Las Vegas","NV","89146",36.1261338466,-115.2180456088,"0","Seafood, Thai, Shopping, Nightlife, Karaoke, Restaurants"
"804",25112,"Thai House","Scottsdale","AZ","85253",33.5819259553,-111.9316221324,"1","Thai, Restaurants"
"805",181517,"Thai Express","Richmond Hill","ON","L4B 3K4",43.8645331,-79.3821783,"1","Food, Thai, Food Delivery Services, Restaurants"
"806",115778,"Mr Thai","Toronto","ON","M4T 1Z2",43.6896236,-79.3943759,"1","Asian Fusion, Thai, Restaurants"
"807",177457,"Thai Place Restaurant","Pittsburgh","PA","15238",40.486958,-79.885641,"1","Thai, Restaurants"
"808",147919,"Basil Express Restaurant","Toronto","ON","M4K 1N7",43.6773378,-79.352841,"1","Restaurants, Thai"
"809",26661,"Thai Express","Laval","QC","H7S 1Y9",45.5603711,-73.7299956,"1","Restaurants, Thai"
"810",133366,"Tuk Tuk","Montréal","QC","H3T 1Y8",45.4982755155,-73.6263696945,"1","Food, Asian Fusion, Cambodian, Thai, Restaurants"
"811",51659,"Nikki Asian Bistro","Locust","NC","28001",35.2545907009,-80.4510428756,"1","Thai, Pan Asian, Chinese, Restaurants, Asian Fusion"
"812",36748,"La Maison Thai","Montréal","QC","H2J 1Y8",45.5304947,-73.5771915,"1","Restaurants, Thai"
"813",816,"Thai Kitchen","Lakewood","OH","44107",41.4770696,-81.7743871,"1","Thai, Gluten-Free, Vegetarian, Vegan, Restaurants"
"814",7731,"WAM Asian Grill","Charlotte","NC","28209",35.1716684,-80.8492639,"0","Chinese, Local Flavor, Asian Fusion, Japanese, Thai, Restaurants"
"815",58415,"Saigon 27","Montréal","QC","H2P 2M9",45.5411566,-73.6384782,"0","Asian Fusion, Soup, Vietnamese, Restaurants, Thai"
"816",157923,"Sa-Bai Thong","Madison","WI","53705",43.0752466048,-89.4376666799,"1","Ice Cream & Frozen Yogurt, Restaurants, Fast Food, Food, Event Planning & Services, Thai, Asian Fusion, Caterers"
"817",164339,"Simi's Cafe","Gilbert","AZ","85234",33.3788895537,-111.7797506829,"1","Thai, Vietnamese, Restaurants, Food, Chinese, Poke, Cantonese"
"818",84540,"Bangkok Saigon Noodle","Bradford","ON","L3Z 2B4",44.1149027,-79.5597733,"1","Vietnamese, Thai, Restaurants"
"819",49861,"Red Chilli","Toronto","ON","M4J 1M6",43.6820449485,-79.3305855989,"1","Restaurants, Thai"
"820",64369,"Panda Thai","Montréal","QC","H2J 1W8",45.5259771,-73.581489,"1","Restaurants, Sandwiches, Asian Fusion, Pan Asian, Thai"
"821",169642,"Thai Khao San Asian Fusion","Gastonia","NC","28052",35.2397975,-81.1946647,"1","Asian Fusion, Chinese, Restaurants, Laotian, Thai"
"822",106038,"Little Dumpling","Las Vegas","NV","89131",36.2786413,-115.2610693,"1","Seafood, Restaurants, Thai, Chinese"
"823",157428,"Cravings Cafe","Rocky River","OH","44116",41.4833991,-81.8400519,"1","Thai, Restaurants, Food, Coffee & Tea"
"824",1089,"Thara Thai","Champaign","IL","61821",40.133725,-88.260627,"1","Salad, Thai, Restaurants, Noodles"
"825",122210,"Lao Laan-Xang","Madison","WI","53704",43.0928326884,-89.3519827939,"1","Laotian, Restaurants, Thai"
"826",121061,"Pho Hùng","Verdun","QC","H4G 2A1",45.4642920532,-73.5647508,"0","Vietnamese, Restaurants, Thai, Cantonese, Chinese"
"827",123239,"Saveurs Thai","Pierrefonds","QC","H9A",45.4926388,-73.8498568,"1","Cambodian, Thai, Restaurants"
"828",14106,"Noodles & Company","Charlotte","NC","28277",35.0984229,-80.780416,"1","Chinese, Noodles, Restaurants, Thai, Italian, Fast Food, Asian Fusion, Comfort Food, American (Traditional)"
"829",28025,"Cuisine Du Cambodge","Cleveland","OH","44111",41.4582548,-81.7809899,"0","Restaurants, Cambodian, Thai, Vietnamese"
"830",83759,"Thai Breeze","Toronto","ON","M5V 3M5",43.643089,-79.393757,"1","Food, Thai, Restaurants"
"831",80238,"Malay Thai Famous Cuisine","Markham","ON","L3R 9W6",43.8497187752,-79.3472803384,"1","Ethnic Food, Restaurants, Food Court, Hotels & Travel, Imported Food, Food, Specialty Food, Thai, Car Rental"
"832",50171,"Sila Authentic Thai Restaurant","Rock Hill","SC","29730",34.9636457,-80.9944316,"1","Restaurants, Thai"
"833",54804,"Restaurant Cambodiana","Joliette","QC","J6E 3M3",46.023012,-73.437797,"1","Asian Fusion, Vietnamese, Thai, Restaurants"
"834",101955,"Thai Basil","Toronto","ON","M5S 1X9",43.665907,-79.4066932,"1","Restaurants, Pan Asian, Thai"
"835",137620,"Thai Express","Toronto","ON","M5H 3Y2",43.648857,-79.379977,"1","Thai, Restaurants"
"836",136650,"Thai Express","Calgary","AB","T2L 2L2",51.097839159,-114.1440161795,"1","Fast Food, Thai, Restaurants"
"837",4401,"Thai Pan Cuisine","Las Vegas","NV","89107",36.1669449,-115.205034,"1","Restaurants, Thai"
"838",34551,"Little Bangkok","Markham","ON","L3P 1Y6",43.883709244,-79.2612575367,"1","Restaurants, Thai"
"839",81093,"Ruby Thai Kitchen","Pineville","NC","28134",35.0822,-80.8772242,"1","Thai, Restaurants"
"840",152374,"VIP Vietnamese Cuisine","Markham","ON","L3R 3P3",43.848271,-79.349289,"1","Restaurants, Noodles, Vietnamese, Thai, Chinese, Asian Fusion"
"841",27528,"White Orchid","Richmond Hill","ON","L4B 3Y7",43.8417684,-79.3968244,"1","Thai, Malaysian, Chinese, Restaurants, Singaporean"
"842",100660,"Star King Viet Thai Cuisine","Toronto","ON","M4P 2E6",43.7085029,-79.3989157,"1","Restaurants, Thai, Vietnamese"
"843",33584,"Chen & Wok","Phoenix","AZ","85053",33.6102143,-112.1328126,"0","Chinese, Restaurants, Thai"
"844",2918,"Krung Thai Restaurant","Las Vegas","NV","89103",36.1145279,-115.2076743,"1","Restaurants, Thai"
"845",53247,"Red Rose Garden Restaurant","Markham","ON","L3P 1B7",43.869815,-79.276479,"1","Chinese, Restaurants, Seafood, Noodles, Thai"
"846",191365,"D E Thai Kitchen","Las Vegas","NV","89104",36.1584415,-115.1512002,"1","Food, Restaurants, Thai, Soup, Vegan, Seafood, Noodles"
"847",29266,"Satay On the Road","Toronto","ON","M4G 3B7",43.7055448,-79.3752949,"1","Thai, Restaurants, Specialty Food, Food, Ethnic Food"
"848",166693,"Thai Delicious","Whitby","ON","L1N 2M6",43.879055,-78.9448853,"1","Thai, Restaurants, Specialty Food, Food"
"849",188912,"Authentic Thai Kitchen","Phoenix","AZ","85014",33.5021375332,-112.0565352961,"1","Restaurants, Thai"
"850",149470,"Natural Gourmet","Champaign","IL","61820",40.086876,-88.248053,"1","Specialty Food, Restaurants, Food, Thai, Health Markets"
"851",110058,"The Memory Thai","Las Vegas","NV","89121",36.1292179,-115.0875123,"1","Restaurants, Soup, Noodles, Seafood, Thai, Food, Vegetarian, Food Delivery Services, Asian Fusion"
"852",87026,"Sato & Chan Sushi Szechuan Thai","Laval","QC","H7S 2N4",45.5672063,-73.7288757,"0","Restaurants, Sushi Bars, Thai, Asian Fusion, Chinese, Japanese"
"853",88171,"Jolly Good Chinese & Thai Food","Calgary","AB","T3E 0N2",51.0298193,-114.1349383,"1","Specialty Food, Ethnic Food, Chinese, Food, Food Delivery Services, Thai, Restaurants"
"854",136574,"Yupha's Thai Kitchen","Tempe","AZ","85284",33.3478604381,-111.9095867334,"1","Restaurants, Thai, Vegetarian"
"855",149623,"Chitose Asian Cuisine","Newmarket","ON","L3Y 8E4",44.0594583648,-79.4297110452,"0","Thai, Chinese, Japanese, Canadian (New), Restaurants, Sushi Bars"
"856",24226,"Thai Fusion","Clover","SC","29710",35.1156317005,-81.0764505342,"1","Restaurants, Thai, Soup, Noodles, Vegan"
"857",28395,"Expression d'Asie","Lachine","QC","H8S 2W3",45.4418029,-73.6692329,"1","Cantonese, Restaurants, Thai, Chinese, Pan Asian, French"
"858",49368,"Thai Express","Toronto","ON","M5X 2A2",43.6480656,-79.3845036,"1","Restaurants, Thai"
"859",91171,"Thai Express","Mississauga","ON","L5V 2W1",43.6086493015,-79.6981573174,"0","Food, Restaurants, Thai"
"860",190314,"Bananier","Verdun","QC","H3E 1N3",45.4688317233,-73.5416652396,"1","Restaurants, Thai"
"861",106918,"Thai Mango","Toronto","ON","M6G 1Z4",43.6716755,-79.4207827,"1","Thai, Restaurants"
"862",170527,"Dang Dee Thai Cuisine","Las Vegas","NV","89120",36.079497,-115.101643,"0","Restaurants, Thai"
"863",79646,"Thai Orchid Garden Restaurant","Avondale","AZ","85392",33.4927898356,-112.3325602233,"1","Thai, Restaurants"
"864",138546,"Pho Dacao","Vaughan","ON","L4H 2J3",43.8279072474,-79.5499604568,"0","Vietnamese, Thai, Chinese, Restaurants"
"865",57082,"Thai One On","Toronto","ON","M5V 1N4",43.6429397064,-79.4068385619,"1","Restaurants, Thai"
"866",93442,"Hanoi 3 Seasons","Toronto","ON","M4M 1Y3",43.6656695302,-79.3520745381,"1","Thai, Vietnamese, Restaurants"
"867",39979,"Shekz Restaurant","Montréal","QC","H1E 6Z7",45.6234288,-73.6014464,"1","Thai, Restaurants, Sushi Bars, Italian"
"868",98514,"Asian One","Madison","WI","53703",43.0736076,-89.3950083,"0","Restaurants, Thai"
"869",65190,"Ocha Thai Cuisine","Las Vegas","NV","89104",36.1566847,-115.1483918,"1","Chinese, Bars, Thai, Nightlife, Restaurants"
"870",82563,"Taiga Modern Japanese & Thai Restaurant","Las Vegas","NV","89120",36.0719464,-115.1067983,"0","Restaurants, Japanese, Thai"
"871",20952,"Dragon","Brunswick","OH","44212",41.2385172831,-81.8243254625,"1","Seafood, Thai, Restaurants, Chinese"
"872",53635,"Mega Ramen & Thai Noodle","Las Vegas","NV","89102",36.1440505981,-115.1987075806,"0","Thai, Restaurants"
"873",45460,"Ginza Sushi","Vaughan","ON","L6A 1S2",43.8587573163,-79.4873654097,"1","Thai, Sushi Bars, Japanese, Restaurants"
"874",82041,"Pon Ocha Soup","Las Vegas","NV","89110",36.1783139411,-115.0616638362,"1","Restaurants, Asian Fusion, Thai"
"875",66002,"Pho Van Vietnamese Cuisine","Chandler","AZ","85224",33.3359999365,-111.8756398418,"0","Thai, Vietnamese, Restaurants"
"876",159871,"Thai Express","Calgary","AB","T2P 4K8",51.0461119,-114.0709288,"1","Restaurants, Thai, Fast Food"
"877",44255,"The Chef Thai Fusion","Thornhill","ON","L3T 0A2",43.842251,-79.3904441,"0","Thai, Restaurants"
"878",92192,"Thai Time Kitchen","Mesa","AZ","85204",33.3835901,-111.8027347,"1","Vegan, Restaurants, Thai, Gluten-Free"
"879",69759,"Sin City Thai Restaurant","Las Vegas","NV","89118",36.0725097656,-115.2069015503,"1","Thai, Restaurants"
"880",90905,"Eaton Ruby Thai","Toronto","ON","M5B 2L9",43.6549077,-79.3808739,"1","Thai, Restaurants"
"881",89532,"Bonzai Thai & Japanese Cuisine","Charlotte","NC","28278",35.1718712798,-80.9635604151,"1","Japanese, Restaurants, Thai"
"882",192560,"Thai Cuisine Experts","Mississauga","ON","L5K 2K8",43.5259395,-79.6520526,"1","Thai, Asian Fusion, Restaurants"
"883",54447,"Ping Pong Thai Restaurant","Las Vegas","NV","89109",36.1314967,-115.1645622,"1","Restaurants, Thai"
"884",38418,"Thai Thai","Paradise Valley","AZ","85253",33.5278636,-111.9270736,"0","Thai, Restaurants"
"885",112134,"Canadian Thai","Thornhill","ON","L3T 6G7",43.8231273,-79.3696145,"1","Restaurants, Thai"
"886",140529,"Shand Thai","Oka","QC","J0N 1E0",45.4610002695,-74.095037654,"1","Restaurants, Thai"
"887",178108,"Malay Thaï","Montréal","QC","H1L 2N6",45.6047706,-73.5182077,"1","Thai, Malaysian, Restaurants"
"888",184248,"Hue-Thai","Las Vegas","NV","89146",36.125587,-115.211199,"1","Sandwiches, French, Vietnamese, Asian Fusion, Restaurants, Chinese, Thai"
"889",50595,"White Elephant Thai Cuisine","Calgary","AB","T2E 4Y3",51.0688517,-114.0133475,"1","Thai, Chinese, Restaurants"
"890",270,"Thai Gourmet","Avondale","AZ","85392",33.4928558,-112.2861491,"1","Restaurants, Thai"
"891",80449,"Thai Express","Toronto","ON","M5B 2H1",43.655066,-79.381121,"1","Restaurants, Thai"
"892",182188,"The Family Thai","Toronto","ON","M6R 1A1",43.6403444,-79.4384797,"1","Food, Thai, Restaurants"
"893",122590,"Vientiane Restaurant","Madison","WI","53715",43.0603702,-89.4010014,"0","Restaurants, Thai"
"894",110453,"Chandhra Thai Restaurant","Phoenix","AZ","85032",33.641201,-112.0067284,"0","Thai, Restaurants"
"895",10044,"Thai Spring Roll","Toronto","ON","M5V",43.647936,-79.4012531,"1","Thai, Restaurants"
"896",182056,"Noodlehead","Pittsburgh","PA","15206",40.457748,-79.925494,"1","Thai, Restaurants, Noodles, Food"
"897",17686,"Thai On Demand","Scottsdale","AZ","85258",33.5691373805,-111.8901008215,"1","Restaurants, Thai"
"898",13407,"Ta Lew Thai Bistro","Gilbert","AZ","85296",33.3231303,-111.7205811,"1","Vegan, Gluten-Free, Thai, Restaurants"
"899",134234,"Chili Island Chinese & Thai","Calgary","AB","T2Z 0C2",50.932293,-113.970863,"1","Restaurants, Thai, Chinese"
"900",75002,"Thai Spices","Mesa","AZ","85202",33.412708,-111.875803,"1","Thai, Restaurants"
"901",98095,"Express Thai Cuisine","York","ON","M6E 3T1",43.698191,-79.4515668,"1","Thai, Restaurants"
"902",35255,"Flip Toss & Thai Kitchen","Toronto","ON","M5S 1H1",43.6621072,-79.406308,"1","Thai, Restaurants"
"903",117252,"Pho Da Lat","Tempe","AZ","85284",33.3478602,-111.9450558,"1","Restaurants, Vietnamese, Thai"
"904",111886,"Thai Express","Toronto","ON","M6N 5H4",43.67385,-79.469816,"1","Restaurants, Thai"
"905",93123,"Thai Dressing Fine Thai Cuisine","Chandler","AZ","85286",33.2625334,-111.8594296,"0","Thai, Restaurants"
"906",9806,"Sawaddee Thai Restaurant","Las Vegas","NV","89103",36.114998302,-115.2099561151,"1","Bars, Nightlife, Restaurants, Thai, Wine Bars"
"907",104502,"Thai Basil","Phoenix","AZ","85012",33.4834351459,-112.0751468806,"1","Thai, Chinese, Restaurants"
"908",131590,"Touch of Thai","Scottsdale","AZ","85251",33.4978182,-111.9253728,"0","Restaurants, Thai"
"909",125407,"Ruan Thai Restaurant","Calgary","AB","T3C 0M6",51.0432487,-114.093364,"0","Restaurants, Thai"
"910",10184,"Sala Thai Restaurant","Madison","WI","53714",43.0987992,-89.3338968,"1","Thai, Restaurants"
"911",30890,"Spice Thai Cafe","Toronto","ON","M5J 2N2",43.6394218,-79.3849874,"1","Restaurants, Thai"
"912",190982,"Thai Plus Leon","Lachine","QC","H8S 1X8",45.438969571,-73.6900909388,"1","Thai, Restaurants"
"913",91877,"Golden Wok","Champaign","IL","61820",40.1160086,-88.2328539,"1","Restaurants, Chinese, Thai"
"914",172677,"Thai Bamboo","Vaughan","ON","L4K 2Y7",43.7827884,-79.4913919,"1","Thai, Restaurants"
"915",89784,"Charm Thai Restaurant","Parma","OH","44134",41.3637374,-81.6853549,"1","Food, Salad, Desserts, Restaurants, Thai"
"916",91134,"East","Montréal","QC","H3B 3B8",45.5027146,-73.5693876,"1","Thai, Restaurants, Japanese, Asian Fusion, Vietnamese, Chinese"
"917",156798,"Amazing Thai Restaurant","North Las Vegas","NV","89031",36.263043,-115.180559,"1","Restaurants, Thai"
"918",105967,"Juree's Thai Place","Calgary","AB","T2M 0M3",51.06652,-114.108219,"1","Buffets, Restaurants, Thai, Noodles"
"919",130575,"Green Mango Boys","Toronto","ON","M9B 3Y8",43.6319647065,-79.5552534257,"1","Vietnamese, Thai, Restaurants"
"920",21381,"Thai Orchid Restaurant","Pickering","ON","L1V 1C1",43.8420661428,-79.0833150795,"1","Restaurants, Seafood, Salad, Thai"
"921",71,"Jade Garden Restaurant","Murrysville","PA","15668",40.426683,-79.6782316,"1","Restaurants, Sushi Bars, Chinese, Thai"
"922",56470,"Sakun Thai","Las Vegas","NV","89119",36.0571445,-115.1286093,"0","Thai, Restaurants, Salad, Ethnic Food, Specialty Food, Food"
"923",11028,"Thai Taste","Las Vegas","NV","89145",36.1712924,-115.244908,"1","Thai, Restaurants, Chinese"
"924",71635,"Lily Thai","Brampton","ON","L6X",43.6724519762,-79.8211773857,"1","Thai, Restaurants"
"925",140633,"Panna Thai Restaurant","Las Vegas","NV","89148",36.0789362,-115.2985524,"1","Beer, Wine & Spirits, Thai, Food, Restaurants, Vegetarian, Asian Fusion"
"926",47330,"Calrose Asian Cuisine","Toronto","ON","M6C 1A9",43.6823087,-79.4238304,"0","Restaurants, Thai, Japanese"
"927",123378,"Chef Lin Restaurant","Markham","ON","L3P 2R2",43.8748998,-79.2591737,"0","Vegan, Halal, Thai, Taiwanese, Chinese, Restaurants, Malaysian"
"928",84871,"Diners Thai","Toronto","ON","M4K 1P1",43.6773658,-79.3515301,"1","Diners, Thai, Restaurants"
"929",69834,"Pam Real Thai Las Vegas","Las Vegas","NV","89103",36.123621,-115.2074151,"0","Restaurants, Food, Food Delivery Services, Thai"
"930",2991,"Tuptim Thai","Newmarket","ON","L3Y 9B8",44.0404392,-79.4550503,"1","Thai, Restaurants"
"931",69559,"Top Saigon Restaurant","North York","ON","M2H 1T1",43.7915862,-79.3669321,"0","Thai, Vietnamese, Restaurants"
"932",114371,"Nunthaporn's Thai Cuisine","Mesa","AZ","85201",33.4148132752,-111.832200028,"1","Thai, Restaurants"
"933",113958,"Thai Island","Toronto","ON","M5H",43.648528,-79.3833359,"1","Thai, Vietnamese, Restaurants"
"934",43048,"Thai Room","Toronto","ON","M3H 4Y4",43.7865611812,-79.4688353688,"1","Malaysian, Restaurants, Thai"
"935",167887,"Thai Style Noodle House","Las Vegas","NV","89139",36.0555646163,-115.2258749184,"1","Chinese, Food, Restaurants, Noodles, Thai, Vegan"
"936",178014,"Saigon Bangkok Restaurant","Toronto","ON","M6N 1L2",43.669529,-79.4822644,"1","Vietnamese, Thai, Restaurants"
"937",124150,"Sukho Thai","Laval","QC","H7T 3B3",45.5623812,-73.7451119,"1","Thai, Restaurants, Chinese"
"938",102529,"Yummy Garden","Toronto","ON","M4A 2M2",43.7224834,-79.3020196,"0","Restaurants, Chinese, Malaysian, Thai"
"939",190752,"Spoon & Fork Thai & Vietnamese Cuisine","Etobicoke","ON","M9C 5M1",43.6493986165,-79.6036862147,"0","Vietnamese, Thai, Restaurants"
"940",177983,"My Thai Kitchen","Etobicoke","ON","M9A 1B2",43.6488084,-79.5284059,"1","Restaurants, Thai"
"941",79867,"Malee's Thai Bistro","Phoenix","AZ","85050",33.676431,-111.9761895,"0","Restaurants, Thai, Sushi Bars"
"942",169966,"Sochu House","Phoenix","AZ","85004",33.47907,-112.073306,"0","Dance Clubs, Restaurants, Lounges, Asian Fusion, Nightlife, Bars, Thai"
"943",157021,"Oriental House","Las Vegas","NV","89117",36.1296859635,-115.2782837301,"0","Restaurants, Thai, Chinese, Asian Fusion"
"944",191356,"China Lite","Scottsdale","AZ","85250",33.53714,-111.9065407,"1","Chinese, Thai, Korean, Restaurants"
"945",80909,"The Green Mango","Regent Square","PA","15218",40.432559,-79.893698,"0","Restaurants, Thai"
"946",18819,"Thai Express","Pickering","ON","L1V 1B8",43.835919,-79.086181,"1","Food, Imported Food, Thai, Restaurants, Specialty Food, Ethnic Food"
"947",72471,"Phayathai","Montréal","QC","H3H 2K5",45.4948222,-73.5769452,"1","Restaurants, Thai"
"948",22760,"Thai 2 Go","Blawnox","PA","15238",40.4935792,-79.8614257,"0","Thai, Asian Fusion, Restaurants, Salad"
"949",68572,"Restaurant Little Saigon","Montréal","QC","H2R 2N2",45.5408858,-73.6133472,"1","Vietnamese, Thai, Restaurants, Chinese"
"950",99889,"Sukhothai","Toronto","ON","M5A 1H7",43.6537147,-79.3544775,"1","Restaurants, Thai"
"951",110162,"Nimman Thai Cuisine","Toronto","ON","M8V 1C5",43.6134849,-79.4892972,"1","Thai, Restaurants"
"952",125593,"Cravings Asian Cuisine","Toronto","ON","M4N 2M8",43.7324953,-79.4037874,"0","Japanese, Restaurants, Thai, Asian Fusion"
"953",45269,"Thai Room","Las Vegas","NV","89121",36.0989953,-115.1025713,"1","Thai, Restaurants"
"954",87977,"Maeli","Montréal","QC","H2L 1J9",45.517348,-73.5677004,"0","Thai, Restaurants"
"955",74847,"Siam Thai Restaurant","Pittsburgh","PA","15219",40.436964,-80.000187,"1","Thai, Restaurants"
"956",81165,"Fusion Sushi","Calgary","AB","T2N 1V5",51.0528487,-114.0863089,"1","Thai, Japanese, Sushi Bars, Restaurants"
"957",44396,"Resto Lychee","Montréal","QC","H2T 1P2",45.5221168,-73.5848292,"1","Chinese, Restaurants, Thai"
"958",143310,"Viet Thai Bistro","Calgary","AB","T2Z 4R5",50.9134212,-113.9492492,"1","Restaurants, Vietnamese, Thai"
"959",77564,"SEA: The Thai Experience","Las Vegas","NV","89109",36.1137571281,-115.1688201804,"1","Thai, Vietnamese, Nightlife, Restaurants, Bars, Asian Fusion, Cocktail Bars"
"960",99096,"Spring 'N Fresh Rolls","Toronto","ON","M1L 4C2",43.7259981416,-79.2867549509,"1","Thai, Vietnamese, Restaurants"
"961",66045,"Sweet Lulu","Toronto","ON","M6J 1G4",43.6456613,-79.4115708,"0","Chinese, Thai, Restaurants"
"962",191389,"Sweet Basil and La Filipiniana","Pittsburgh","PA","15201",40.482705,-79.951942,"0","Restaurants, Asian Fusion, Filipino, Thai"
"963",23111,"Red Kitchen","Ajax","ON","L1S 2J1",43.8442686357,-79.0187925473,"0","Restaurants, Thai, Vietnamese"
"964",171898,"Pho & Rice","Cleveland Heights","OH","44118",41.51117139,-81.5801511221,"1","Restaurants, Vietnamese, Thai"
"965",88180,"Pho Mi Viet Thai","Vaughan","ON","L6A 1R8",43.8545649,-79.5161402,"1","Restaurants, Thai, Vietnamese"
"966",185260,"Thaï Express","Vaudreuil-Dorion","QC","J7V 9R2",45.4056836348,-74.0436651879,"1","Taiwanese, Restaurants, Thai"
"967",165552,"Thai Express","Calgary","AB","T2H 0K9",50.997951235,-114.0733992202,"1","Restaurants, Fast Food, Thai"
"968",36429,"ThaiTini","Tempe","AZ","85281",33.4145067,-111.9250714,"1","Thai, Restaurants"
"969",57148,"Thai Room Liberty Village","Toronto","ON","M6K 3P6",43.6387,-79.417724,"0","Thai, Restaurants"
"970",107193,"Thai Island - Brookfield Place","Toronto","ON","M5J 2V1",43.6469575495,-79.3785032195,"1","Thai, Restaurants, Fast Food"
"971",3797,"California Noodle House","Las Vegas","NV","89101",36.1730572,-115.1450046,"1","Restaurants, Japanese, Asian Fusion, Thai, Noodles"
"972",90353,"Pad Thai","Hudson","OH","44236",41.2193179,-81.4394437,"1","Restaurants, Thai"
"973",116117,"Fantastic Curry House","Markham","ON","L6C 0A2",43.8889628,-79.3143887,"0","Thai, Restaurants, Vietnamese"
"974",81168,"Khao Gaeng","Toronto","ON","M8W 1P5",43.5940888,-79.5343284,"1","Thai, Asian Fusion, Restaurants"
"975",119372,"Corner By Spoon and Fork","Mississauga","ON","L4Y 2C5",43.6065001162,-79.5879746494,"1","Asian Fusion, Cafes, Restaurants, Breakfast & Brunch, Thai, Fast Food"
"976",180151,"Woodstone Thai & Vietnamese Cuisine","Markham","ON","L3R 5Z1",43.8570556,-79.3589109,"0","Restaurants, Vietnamese, Thai"
"977",155513,"Thai Express","Thornhill","ON","L4J 4P8",43.8064592,-79.4524571,"1","Thai, Restaurants"
"978",45640,"Thai Bistro","Calgary","AB","T2T 0C8",51.0378441,-114.0957488,"0","Restaurants, Thai"
"979",46804,"Thai Room","Vaughan","ON","L3T 7P6",43.823412298,-79.4730377197,"0","Thai, Malaysian, Restaurants"
"980",158355,"Phuket Paradise","Markham","ON","L4J 1W2",43.8167861,-79.4241723,"0","Restaurants, Thai"
"981",70433,"Lemongrass Grill","Munroe Falls","OH","44262",41.139678,-81.438666,"1","Thai, Restaurants"
"982",124357,"The Friendly Thai","Toronto","ON","M6R 2L6",43.645908,-79.4486592,"1","Malaysian, Restaurants, Thai"
"983",63142,"Patchmon's Thai Desserts & More","Toronto","ON","M6S 1P7",43.6489986,-79.4847023,"1","Desserts, Restaurants, Thai, Food, Bakeries"
"984",160973,"Thai Express","Toronto","ON","M2M 4G3",43.7801785,-79.416408,"1","Thai, Restaurants"
"985",179153,"Siam Square Hut","Toronto","ON","M4G 2K2",43.7116801,-79.3763857,"1","Event Planning & Services, Caterers, Restaurants, Thai, Asian Fusion"
"986",44665,"iThai Restaurant","Whitby","ON","L1N 4J8",43.879669,-78.941899,"1","Restaurants, Thai"
"987",4163,"Angkor Wat","Madison","WI","53715",43.060775,-89.40113,"0","Restaurants, Cambodian, Asian Fusion, Vegetarian, Thai"
"988",14856,"Thai Boat","Calgary","AB","T2E 6Z3",51.0809827506,-114.0056672556,"1","Restaurants, Thai"
"989",40948,"Thai Taste Matthews","Matthews","NC","28105",35.1167668277,-80.7193422318,"1","Restaurants, Thai"
"990",52833,"Thai Garden","Ajax","ON","L1S 3K3",43.8414211,-79.0263528,"0","Thai, Noodles, Seafood, Restaurants"
"991",141179,"De Thai Cuisine","Calgary","AB","T2T 1Z9",51.0238491,-114.1125703,"1","Thai, Restaurants"
"992",125176,"Panda House","Toronto","ON","M4B 1M6",43.7058731158,-79.311500847,"0","Chinese, Vietnamese, Restaurants, Italian, Asian Fusion, Thai"
"993",42852,"Thai Manna","Calgary","AB","T2J 7A4",50.9941501,-114.0716869,"1","Food, Asian Fusion, Do-It-Yourself Food, Food Delivery Services, Thai, Restaurants"
"994",57501,"Asian Cafe","Pittsburgh","PA","15234",40.3689607,-80.033156,"1","Thai, Restaurants, Chinese"
"995",138396,"Na Na Thai Kitchen","Las Vegas","NV","89102",36.1311926,-115.2077993,"0","Thai, Restaurants"
"996",172460,"Thai Express","Calgary","AB","T2P 4H4",51.0496409,-114.0672181,"1","Restaurants, Thai"
"997",36122,"Thai Classic Cuisine","Toronto","ON","M6S",43.6489129,-79.484799,"1","Restaurants, Thai"
"998",106064,"Brother 888 Restaurant","Mississauga","ON","L4Y 4G6",43.5971782,-79.5948389,"0","Chinese, Vietnamese, Restaurants, Thai"
"999",59843,"Thai Express @ Sahara","Las Vegas","NV","89102",36.1441542,-115.196028,"0","Restaurants, Thai"
"1000",35582,"Summer House","Toronto","ON","M3H 2R9",43.7558537,-79.4379179,"1","Thai, Filipino, Restaurants"
"1001",164003,"Kung Foo Noodle","Huntersville","NC","28078",35.446553,-80.879669,"1","Thai, Ramen, Noodles, Asian Fusion, Sushi Bars, Restaurants, Japanese, Chinese"
"1002",32495,"Nothing But Noodles","Charlotte","NC","28204",35.213744,-80.8262522,"1","Food, Salad, Noodles, Desserts, Gluten-Free, Chinese, Italian, Restaurants, Asian Fusion, Thai, Fast Food, American (Traditional)"
"1003",187210,"Tipps Thai Buffet & Live Cooking Station","Las Vegas","NV","89146",36.1260199,-115.219839,"0","Thai, Restaurants, Buffets"
"1004",178417,"Sister's Oriental Market & Video","Las Vegas","NV","89101",36.1624234,-115.1258725,"1","Restaurants, Grocery, Thai, Food, Laotian"
"1005",164099,"Malee's Thai Bistro","Scottsdale","AZ","85251",33.4929306,-111.9277962,"1","Nightlife, Vegetarian, Restaurants, Thai, Gluten-Free, Asian Fusion, Bars"
"1006",6730,"Buffet Asia","Henderson","NV","89014",36.0725902,-115.0799169,"0","Buffets, Chinese, Sushi Bars, Japanese, Seafood, Restaurants, Asian Fusion, Dim Sum, Korean, Thai"
"1007",161325,"Thai Viet Noodles House","Indian Trail","NC","28079",35.0794016242,-80.6550195068,"0","Restaurants, Vietnamese, Noodles, Thai"
"1008",7557,"Sweet Basil Pan Asian","Richmond Hill","ON","L4C 3N8",43.8902554,-79.4189538,"0","Asian Fusion, Vietnamese, Restaurants, Thai, Chinese"
"1009",130100,"Délice Cuisine Fusion Asiatique","Outremont","QC","H2V 1V5",45.5203306765,-73.608596921,"0","Restaurants, Thai, Asian Fusion"
"1010",44490,"Laksa","Toronto","ON","M5T 2C2",43.6517208,-79.3978459,"0","Restaurants, Thai"
"1011",136795,"Suns Beef Jerky Pecos","Las Vegas","NV","89120",36.0720575,-115.1012725,"1","Juice Bars & Smoothies, Food, Specialty Food, Restaurants, Thai"
"1012",95837,"Nicky's Thai Kitchen","Pittsburgh","PA","15237",40.550984,-80.0876623,"1","Salad, Restaurants, Thai, Soup"
"1013",84828,"Chao Phraya","Montréal","QC","H2T 2N4",45.5223759924,-73.593122527,"1","Thai, Restaurants"
"1014",88005,"Bangkok Thai & PHO 911","Urbana","IL","61802",40.1236712033,-88.2006709278,"1","Thai, Restaurants"
"1015",50964,"Green Lemon Grass","Richmond Hill","ON","L4B 3N8",43.8662922087,-79.3864051095,"1","Restaurants, Thai, Malaysian, Asian Fusion, Vietnamese"
"1016",25824,"Vegan House","Phoenix","AZ","85003",33.449498,-112.0744168,"1","Vegetarian, Vegan, Restaurants, Thai"
"1017",109785,"Bamboo Bubble Tea","Mississauga","ON","L5C 4E6",43.5700754185,-79.6612048184,"0","Vietnamese, Restaurants, Thai"
"1018",44073,"Bangkok Thai Cuisine","Cleveland","OH","44124",41.520092,-81.486463,"1","Thai, Noodles, Restaurants"
"1019",181201,"Thai On Danforth","Toronto","ON","M4C 1J2",43.6841379,-79.3190027,"0","Thai, Restaurants"
"1020",668,"Thai Taste","Charlotte","NC","28203",35.210017,-80.855878,"1","Thai, Restaurants"
"1021",6003,"Thai E-San","Phoenix","AZ","85013",33.4951554,-112.0822129,"1","Food, Buffets, Beer, Wine & Spirits, Thai, Restaurants"
"1022",138317,"Evergreen Thai","Toronto","ON","M5G 1C7",43.6550303,-79.3863551,"1","Restaurants, Thai"
"1023",54471,"Baan Mae Toy","Las Vegas","NV","89102",36.1440225,-115.195896,"0","Thai, Restaurants"
"1024",130665,"Wah Sun","Chesterland","OH","44026",41.5277673,-81.3389531,"1","Thai, Chinese, Restaurants"
"1025",166716,"Sesame Inn Chinese Restaurant","Pittsburgh","PA","15228",40.3796549065,-80.0448643438,"1","Chinese, Thai, Sushi Bars, Restaurants"
"1026",52857,"I Roll Thai Ice Cream","Chandler","AZ","85224",33.3198565,-111.8742787,"1","Ice Cream & Frozen Yogurt, Thai, Desserts, Food, Restaurants"
"1027",107111,"Tara Thai","Phoenix","AZ","85023",33.631458,-112.11195,"0","Buffets, Restaurants, Thai"
"1028",74479,"Golden Lemon Thai Cuisine","Toronto","ON","M6S 3Z2",43.6559726,-79.4873427,"0","Thai, Restaurants"
"1029",49576,"Thai Angels","Toronto","ON","M1R",43.7591328,-79.3105399,"0","Thai, Restaurants"
"1030",83106,"Thai Express","Markham","ON","L6G 1B3",43.8496810563,-79.3220430985,"1","Asian Fusion, Restaurants, Thai, Chinese"
"1031",143968,"Apsara Cafe","Pittsburgh","PA","15203",40.428968829,-79.9817368981,"1","Cafes, Cambodian, Restaurants, Thai"
"1032",120144,"Bato Thai","Montréal","QC","H2L 2J4",45.5222850635,-73.5524649775,"1","Restaurants, Asian Fusion, Thai"
"1033",67056,"After Rain","Mississauga","ON","L5B 4L1",43.576154809,-79.6453918141,"0","Japanese, Korean, Restaurants, Thai"
"1034",15944,"Dee","Toronto","ON","M4S 1Z8",43.7010612,-79.3969887,"1","Thai, Restaurants"
"1035",38831,"Noodles & Company","Charlotte","NC","28273",35.1442674488,-80.9332256894,"0","Thai, Sandwiches, Restaurants, Noodles, Chinese"
"1036",67380,"Home of Gourmet Chinese & Thai Restaurant","Champaign","IL","61820",40.108116,-88.2300156,"1","Restaurants, Chinese, Thai"
"1037",135004,"George & Son's Asian Cuisine","Phoenix","AZ","85027",33.6667301603,-112.1243880755,"1","Chinese, Asian Fusion, Restaurants, Buffets, Thai"
"1038",104012,"Urban Thai","Toronto","ON","M6G 1B4",43.6550671,-79.4154514,"1","Restaurants, Thai"
"1039",13596,"Sala Thai","Goodyear","AZ","85338",33.452315,-112.3598032,"0","Restaurants, Thai"
"1040",19741,"Arawan Thai Bistro and Dessert","Las Vegas","NV","89109",36.1422857525,-115.1425208456,"1","Food, Restaurants, Thai, Seafood, Desserts"
"1041",19886,"Tree Country Bistro","Cleveland Heights","OH","44118",41.5105244,-81.5797661,"1","Thai, Specialty Food, Food, Korean, Asian Fusion, Ethnic Food, Restaurants, Sushi Bars"
"1042",155710,"Imm Thai Kitchen","Toronto","ON","M6G 1B7",43.6548267,-79.4159458,"1","Restaurants, Thai"
"1043",45843,"Yuan","Montréal","QC","H2X 3K8",45.516891,-73.5670449,"1","Sushi Bars, Vegetarian, Pan Asian, Restaurants, Thai, Chinese"
"1044",150241,"Damas Grill House & Juice Bar","Toronto","ON","M1R 1H5",43.7420506,-79.3098369,"1","Restaurants, Middle Eastern, Mediterranean, Thai"
"1045",84006,"Wild East","Charlotte","NC","28226",35.0894548,-80.845066,"1","Thai, Japanese, Asian Fusion, Sushi Bars, Restaurants"
"1046",25076,"Sushi Shop","Montréal","QC","H4P 2T5",45.4924655,-73.6559888,"1","Restaurants, Sushi Bars, Asian Fusion, Thai, Japanese"
"1047",19146,"Delivery Dine","Phoenix","AZ","85020",33.5403639,-112.0466822,"1","Food Delivery Services, Indian, Food, Restaurants, Thai"
"1048",110724,"Miss Saigon88","Pittsburgh","PA","15213",40.4512474328,-79.9514841288,"0","Thai, Restaurants, Chinese, Vietnamese"
"1049",158156,"Green Bamboo Restaurant","Scarborough","ON","M1S 5H5",43.785267,-79.277624,"0","Specialty Food, Thai, Restaurants, Food, Vietnamese, Chinese, Comfort Food"
"1050",145204,"Lao Laan-Xang Restaurant","Madison","WI","53703",43.0830979,-89.3649155,"1","Vegetarian, Restaurants, Thai, Laotian"
"1051",173185,"Noodles & Company","Fitchburg","WI","53711",43.0162093111,-89.4289763817,"1","Italian, Asian Fusion, Noodles, Salad, Comfort Food, Thai, Restaurants"
"1052",12244,"Big Eye Japanese Cuisine and Sushi Bar","Fairlawn","OH","44333",41.12923,-81.609277,"1","Restaurants, Sushi Bars, Japanese, Thai"
"1053",25030,"Wok In","Mesa","AZ","85207",33.4158437,-111.6688207,"1","Thai, Restaurants, Asian Fusion, Vietnamese"
"1054",42970,"Spoon and Fork Thai & Vietnamese Cuisine","Mississauga","ON","L5J 1J6",43.5127728,-79.6282566,"0","Vietnamese, Thai, Restaurants"
"1055",39320,"Pho Xua","Toronto","ON","M6N 1J3",43.6741568799,-79.4612735346,"1","Thai, Restaurants, Vietnamese"
"1056",32493,"Char's Thai Restaurant","Tempe","AZ","85281",33.421712,-111.925231,"0","Thai, Restaurants"
"1057",154809,"Thai Hut","Lakewood","OH","44107",41.4767978,-81.7838912,"1","Food, Restaurants, Thai, Desserts"
"1058",31113,"Sutra Indian Asian Fusion","Toronto","ON","M6R 2L2",43.6431268,-79.4477936,"0","Asian Fusion, Thai, Indian, Restaurants"
"1059",112327,"China Cottage Restaurant","Scarborough","ON","M1V 5P6",43.8351749646,-79.2533680632,"1","Restaurants, Indian, Halal, Thai, Hakka, Pakistani, Chinese"
"1060",96434,"Thai Express","Richmond Hill","ON","L4C 5G2",43.8548551,-79.4360871,"1","Restaurants, Fast Food, Thai"
"1061",52883,"Thai Express","Montréal","QC","H4C 1N9",45.4811719,-73.5783292,"1","Restaurants, Mediterranean, Thai"
"1062",39259,"Salad King Restaurant","Toronto","ON","M5B 1R8",43.6576479,-79.3817284,"1","Thai, Restaurants"
"1063",126738,"The Thai One On","Markham","ON","L3R 0A7",43.8425059,-79.3059487,"1","Restaurants, Thai"
"1064",162598,"Restaurant Phayathai","Montréal","QC","H2T 2N6",45.521755,-73.594198,"0","Thai, Restaurants, Vietnamese"
"1065",167324,"Pho Bistro","Vaughan","ON","L4J 7Y1",43.797476,-79.424783,"1","Thai, Restaurants, Vietnamese"
"1066",112146,"Peking House 98","Calgary","AB","T2K 1A3",51.0877765246,-114.0720272381,"1","Restaurants, Thai, Vegetarian, Chinese"
"1067",80675,"Jardin du Cerf","Montréal","QC","H2X 2S5",45.508857,-73.562068,"1","Thai, Chinese, Restaurants"
"1068",6358,"Thai Thai Kitchen","Phoenix","AZ","85029",33.5829193,-112.0990715,"1","Breakfast & Brunch, Noodles, Thai, Restaurants, Salad"
"1069",49244,"Papaya Thai Restaurant","Tempe","AZ","85282",33.406547,-111.910913,"1","Restaurants, Thai"
"1070",172145,"Bangkoknoi Thai Restaurant","Calgary","AB","T2E 2R7",51.0641361,-114.0621846,"0","Specialty Food, Food, Thai, Restaurants"
"1071",107604,"Pho 99","Mississauga","ON","L4Z 3M2",43.6068265,-79.6490854,"1","Thai, Vietnamese, Restaurants, Chinese"
"1072",140308,"Thai One On","Toronto","ON","M5V 2B6",43.6477453,-79.4018186,"0","Restaurants, Thai, Malaysian"
"1073",94819,"Papaya Salad Thai Food Restaurant","Cuyahoga Falls","OH","44223",41.1593879,-81.5091265,"1","Restaurants, Thai, Salad, Sushi Bars, Noodles, Food, Desserts"
"1074",2696,"Curry Love","Toronto","ON","M5T 1S6",43.6572686,-79.4046849,"0","Restaurants, Thai"
"1075",138977,"Oasis Asian Kitchen","Las Vegas","NV","89147",36.1166813884,-115.2623144538,"1","Restaurants, Chinese, Asian Fusion, Vegetarian, Food, Thai"
"1076",149460,"Coca Cafe","Pittsburgh","PA","15201",40.4672287,-79.9642028,"1","Breakfast & Brunch, Food, Restaurants, Thai, Coffee & Tea, American (New)"
"1077",9750,"Thai Lime","Toronto","ON","M6P 3S6",43.6651116,-79.452663,"1","Thai, Restaurants"
"1078",50898,"Rickshaw Bar","Toronto","ON","M6J 1E6",43.6468732,-79.4049438,"1","Thai, Restaurants, Tapas Bars, Tapas/Small Plates, Indian"
"1079",44578,"Khun Chai Thai Restaurant","Las Vegas","NV","89103",36.1242915571,-115.2078325097,"0","Beer, Wine & Spirits, Thai, Food Delivery Services, Restaurants, Food"
"1080",144952,"Thai On Yonge","Toronto","ON","M5B 1S5",43.65855,-79.382072,"1","Food, Specialty Food, Ethnic Food, Restaurants, Food Delivery Services, Vegetarian, Thai"
"1081",48233,"Genghis Grill","Glendale","AZ","85032",33.6386479,-112.2172122,"1","Mongolian, Thai, American (Traditional), Asian Fusion, Korean, Chinese, Restaurants, Vegetarian, Vegan"
"1082",65437,"Basil Box","Toronto","ON","M5V 2A5",43.6487076,-79.3959931,"1","Restaurants, Gluten-Free, Thai, Vietnamese"
"1083",189253,"Thai Express","Toronto","ON","M6A 2T9",43.725877,-79.451658,"1","Restaurants, Thai"
"1084",91746,"Joyful Chinese Dining","Scottsdale","AZ","85258",33.574805,-111.903756,"1","Pan Asian, Breakfast & Brunch, Restaurants, Asian Fusion, Chinese, Thai"
"1085",134929,"Bangkok Thai Bar-B-Q","Glendale","AZ","85306",33.611520848,-112.1704865637,"1","Thai, Asian Fusion, Restaurants"
"1086",179306,"Bow Thai Restaurant","Toronto","ON","M2J 2L3",43.7787083802,-79.3639682774,"1","Thai, Food, Restaurants"
"1087",90012,"My Thai By The Lake","Etobicoke","ON","M8W 1P5",43.5941456748,-79.5343718427,"0","Thai, Restaurants"
"1088",38609,"Thai Food Corner","Mesa","AZ","85205",33.436295,-111.716849,"1","Thai, Restaurants"
"1089",59505,"Thai Hana","Pittsburgh","PA","15213",40.4415006,-79.958821,"0","Sushi Bars, Thai, Japanese, Restaurants"
"1090",27532,"Spoonful Chinese & Thai Cuisine","Calgary","AB","T3B",51.0860468,-114.180016,"1","Thai, Restaurants, Food, Chinese"
"1091",14667,"Baan Thai Restaurant","Las Vegas","NV","89146",36.12558,-115.211031,"1","Restaurants, Thai, Vegetarian, Chinese, Vegan, Asian Fusion"
"1092",64255,"Typhoon","Pittsburgh","PA","15206",40.457748,-79.925494,"0","Restaurants, Thai"
"1093",83342,"Taiyo Pacific and Sushi Bar","Charlotte","NC","28213",35.2949318,-80.7474815,"0","Taiwanese, Chinese, Japanese, Thai, Asian Fusion, Restaurants"
"1094",38915,"Wok Fire","Peoria","AZ","85382",33.6396417,-112.2511156,"1","Chinese, Restaurants, Thai, Japanese"
"1095",146659,"TCJ Restaurant","Toronto","ON","M5B 1Y4",43.6533268947,-79.3755613063,"1","Restaurants, Thai, Japanese, Chinese"
"1096",59531,"Lotus Thai House","Parma","OH","44134",41.4036168,-81.689745,"1","Thai, Restaurants"
"1097",49551,"Hunan by the Falls","Chagrin Falls","OH","44022",41.4267494,-81.3738366,"1","Thai, Chinese, Restaurants"
"1098",8844,"Thai Satay & More","Oakville","ON","L6J 2W7",43.4547094,-79.6856898,"0","Restaurants, Event Planning & Services, Caterers, Thai"
"1099",53943,"Tom Yum Thai Kitchen","Henderson","NV","89014",36.0677967567,-115.0413659122,"1","Asian Fusion, Fast Food, Food, Thai, Restaurants, Bubble Tea, Food Court"
"1100",45018,"Saigon Restaurant and Bar","Cleveland","OH","44115",41.498806,-81.68987,"1","Thai, Vietnamese, Chinese, Restaurants"
"1101",100019,"Mix Zone Cafe 2","Las Vegas","NV","89128",36.1969444,-115.2621175,"0","Restaurants, Thai"
"1102",89924,"Jardin des Délices","Montréal","QC","H1W 1A8",45.5495019,-73.5583911,"1","Vegetarian, Vietnamese, Cambodian, Asian Fusion, Restaurants, Thai"
"1103",32148,"Pho Tempe","Tempe","AZ","85282",33.4074267,-111.9099123,"1","Thai, Vietnamese, Restaurants"
"1104",60948,"Nitaya Thai Restaurant","Champaign","IL","61820",40.1185125,-88.2449947,"0","Restaurants, Thai"
"1105",31216,"Love At First Bite","Toronto","ON","M5B 1G7",43.660284,-79.3774717,"0","Pizza, Restaurants, Thai"
"1106",179537,"Sun's Thai Food","Las Vegas","NV","89130",36.2380092637,-115.2102986065,"1","Food, Thai, Restaurants"
"1107",176503,"Thai Rama","Phoenix","AZ","85013",33.5092152,-112.0887394,"1","Restaurants, Thai"
"1108",104710,"Lime Asian Kitchen","Toronto","ON","M4N 2L5",43.7289535239,-79.4030993401,"1","Malaysian, Restaurants, Thai, Asian Fusion, Chinese"
"1109",27333,"Thai Express","Vaughan","ON","L6A 4N9",43.8468427,-79.4585966,"1","Thai, Restaurants"
"1110",59184,"The Thai Grill","Toronto","ON","M6C 2C4",43.7000012,-79.4291247,"1","Restaurants, Thai, Food"
"1111",120844,"Thai Bistro","North York","ON","M2N 5P9",43.7724864,-79.4148052,"0","Thai, Restaurants"
"1112",113728,"Thai One On","Stouffville","ON","L4A 8C1",43.9642313,-79.2752287,"1","Thai, Restaurants"
"1113",113011,"Little Dumpling Thai & Chinese Cuisine","Boulder City","NV","89005",35.9706094,-114.8529085,"0","Restaurants, Chinese, Thai"
"1114",98009,"Silk Restaurant & Bar","Toronto","ON","M5A 3A2",43.663435,-79.3677887,"1","Restaurants, Food Delivery Services, Vietnamese, Thai, Food"
"1115",138276,"Ruby Thai Kitchen","North Olmsted","OH","44070",41.4156025,-81.9234726,"1","Thai, Restaurants, Food"
"1116",139563,"Sticky Rice Kitchen & Bar","Toronto","ON","M4L 2A4",43.672497,-79.3199624,"1","Thai, Restaurants"
"1117",111609,"Thai Basil Chandler","Chandler","AZ","85226",33.3047369,-111.927051,"1","Vegetarian, Restaurants, Thai"
"1118",128996,"Pittsburgh Thai by Boris","Verona","PA","15147",40.5049849,-79.8434964,"0","Thai, Restaurants"
"1119",39859,"Lemongrass","Scarborough","ON","M1V 5N1",43.8215127,-79.2988384,"0","Asian Fusion, Vietnamese, Thai, Restaurants"
"1120",102265,"Five Asian Cuisine","Thornhill","ON","L6A 4N9",43.8476139,-79.458793,"0","Chinese, Restaurants, Asian Fusion, Thai"
"1121",80223,"Pad Thai Restaurant","Las Vegas","NV","89106",36.1606158,-115.1747415,"1","Thai, Restaurants, Chinese"
"1122",80845,"Asian Fusion Kitchen","Las Vegas","NV","89139",36.0553391,-115.2259983,"0","Restaurants, Asian Fusion, Thai, Chinese"
"1123",124768,"Savor Flavor Asia","Phoenix","AZ","85044",33.317289,-111.9777108,"1","Restaurants, Asian Fusion, Japanese, Vietnamese, Chinese, Thai"
"1124",175499,"Thai Bistro","Las Vegas","NV","89146",36.1595695272,-115.2302976698,"1","Restaurants, Thai"
"1125",143620,"Kumo Japanese Restaurant","Toronto","ON","M8Z 5E7",43.6144731885,-79.5246311792,"1","Thai, Japanese, Sushi Bars, Restaurants"
"1126",150935,"Restaurant Ban Lao Thai","Saint-Laurent","QC","H4L 3M4",45.5123143437,-73.6796945234,"1","Thai, Restaurants"
"1127",118649,"Thai Basil","Mesa","AZ","85202",33.3781389,-111.8613802,"0","Thai, Restaurants"
"1128",114277,"La Saigonaise","Montréal","QC","H3S 1Y7",45.4990743,-73.6277977,"0","Imported Food, Food, Thai, Ethnic Food, Specialty Food, Restaurants, Vietnamese"
"1129",103259,"Fire Kirin","Calgary","AB","T2J 7G4",50.9448068328,-114.0698145817,"0","Asian Fusion, Thai, Restaurants"
"1130",113130,"Thai Cuisine Experts","Mississauga","ON","L5N 8C8",43.5757712,-79.7837247,"1","Halal, Restaurants, Thai, Vegan"
"1131",1791,"Thai Chili","Henderson","NV","89014",36.071381,-115.083379,"1","Thai, Restaurants"
"1132",162229,"Thailicious Authentic Thai & Vegan","Henderson","NV","89012",36.028178,-115.048607,"1","Restaurants, Thai, Vegetarian, Vegan"
"1133",3766,"Touch of Thai","Phoenix","AZ","85053",33.6388368,-112.1366409,"1","Restaurants, Thai"
"1134",90334,"Thai Square","Scarborough","ON","M1C 2G5",43.7891123,-79.1406387,"1","Restaurants, Thai"
"1135",130688,"Pho Tuong Lai","LaSalle","QC","H8N 1T4",45.4265692,-73.6273638,"0","Thai, Vietnamese, Restaurants"
"1136",164553,"Table Thai Bar & Bistro","Las Vegas","NV","89120",36.0719295,-115.1069118,"1","Beer, Wine & Spirits, Vegan, Food, Thai, Restaurants"
"1137",6037,"Orchid Thai","Aurora","ON","L4G 1P2",44.0050128,-79.4693161,"1","Restaurants, Thai, Seafood, Chinese"
"1138",145686,"Banana Leaf Asia Bistro","Scottsdale","AZ","85251",33.479935,-111.92777,"0","Thai, Chinese, Restaurants"
"1139",77568,"Banh Mi Thai Tai","Calgary","AB","T2S 0B3",51.0375502,-114.0751507,"1","Fast Food, Vietnamese, Sandwiches, Restaurants, Asian Fusion, Thai"
"1140",121118,"E-san Sab Sab Thai Cuisine","Phoenix","AZ","85020",33.5959571,-112.0391851,"0","Buffets, Restaurants, Thai"
"1141",59044,"Bangkok Thai and Pho 911","Champaign","IL","61820",40.1106376,-88.2324833,"1","Restaurants, Thai, Food"
"1142",41093,"Thai House Restaurant","Mesa","AZ","85206",33.3945593,-111.6836794,"1","Restaurants, Thai, Gluten-Free"
"1143",65891,"Siam Terrace","Urbana","IL","61801",40.112708,-88.209446,"1","Sushi Bars, Thai, Restaurants"
"1144",102119,"Thai Indeed","Toronto","ON","M1M 1P1",43.7266942,-79.2301288,"0","Restaurants, Thai"
"1145",12825,"Chanpen Thai Cuisine","Glendale","AZ","85306",33.623079,-112.178903,"0","Restaurants, Thai"
"1146",152297,"Thai Hana Restaurant","Pittsburgh","PA","15222",40.441237,-80.003478,"0","Restaurants, Thai, Japanese"
"1147",62707,"Map of Thailand","Cleveland","OH","44114",41.5093232,-81.6621933,"1","Restaurants, Thai"
"1148",178106,"Westwood Grill","Toronto","ON","M6P 1S1",43.6599304,-79.4796397,"1","Dim Sum, Food, Asian Fusion, Specialty Food, Chinese, Restaurants, Thai, Ethnic Food"
"1149",4463,"The Original Vientiane Palace","Madison","WI","53711",43.0676944,-89.4107334,"0","Restaurants, Thai"
"1150",38797,"Thaiphon","Montréal","QC","H3A 0A3",45.5051095,-73.5714391,"1","Restaurants, Thai"
"1151",180172,"Thai Chili","Gilbert","AZ","85234",33.3776857,-111.752849,"1","Thai, Restaurants"
"1152",123839,"Spring Rolls","Toronto","ON","M2J 5A7",43.7777578,-79.3444513,"0","Chinese, Thai, Restaurants, Vietnamese, Food"
"1153",156330,"Tai Nature","Montréal","QC","H2Y 2Y7",45.506242,-73.5553168,"1","Restaurants, Asian Fusion, Thai"
"1154",45341,"Thai House Cuisine","Toronto","ON","M4E 1E8",43.670746,-79.2961005,"1","Restaurants, Thai"
"1155",177521,"Good Fortune Asian Cuisine","Mentor","OH","44060",41.65645,-81.372442,"1","Chinese, Thai, Restaurants, Food"
"1156",11180,"My Thai","Pittsburgh","PA","15216",40.3930420493,-80.0370368072,"1","Salad, Restaurants, Asian Fusion, Noodles, Thai"
"1157",179361,"Island Malaysian Cuisine 2","Las Vegas","NV","89102",36.125908,-115.197904,"0","Food, Specialty Food, Malaysian, Thai, Chinese, Soup, Restaurants, Ethnic Food"
"1158",52442,"Bahn Thai Restaurant","Madison","WI","53703",43.0806833,-89.3685159,"1","Restaurants, Chinese, Thai"
"1159",8970,"Galangal Thai Fusion","Toronto","ON","M5E 1R9",43.6490322,-79.3748387,"0","Restaurants, Thai"
"1160",189975,"Two Sisters' Thai Food","Phoenix","AZ","85022",33.6059251,-112.0363947,"0","Restaurants, Thai, Gluten-Free"
"1161",103980,"Thai Express Markville","Markham","ON","L3R 4M9",43.8682049169,-79.2883119732,"1","Restaurants, Thai, Food Court"
"1162",192349,"Lotus Thai Kitchen","North Las Vegas","NV","89031",36.2628439,-115.1797927,"0","Restaurants, Thai"
"1163",157198,"Thai Spring Roll","Toronto","ON","M5S 1Y4",43.6655406,-79.409162,"0","Thai, Asian Fusion, Restaurants"
"1164",61030,"Thai Cuisine 2","Las Vegas","NV","89110",36.1736340768,-115.0598144531,"0","Thai, Restaurants"
"1165",124416,"Angkor Restaurant","Pittsburgh","PA","15205",40.4276163,-80.0555006,"1","Restaurants, Cambodian, Thai"
"1166",72666,"Thai House","Scottsdale","AZ","85260",33.6275951,-111.8929197,"1","Restaurants, Thai"
"1167",24162,"Desiam Thai Restaurant","Whitby","ON","L1N 9S2",43.8691457,-78.912657,"0","Thai, Restaurants"
"1168",35580,"Thai Express","Montréal","QC","H4P 2T5",45.492213,-73.655338,"1","Thai, Sushi Bars, Restaurants"
"1169",132061,"Hot Thai House","Scarborough","ON","M1T 1A4",43.7743561,-79.3221043,"1","Restaurants, Thai"
"1170",184223,"Linda Modern Thai","North York","ON","M3C 0E7",43.7347895,-79.3442271,"0","Asian Fusion, Thai, Restaurants"
"1171",14921,"NAGA - Thai Dining","Henderson","NV","89012",36.0137143,-114.9927838,"1","Thai, Restaurants"
"1172",79319,"Pho Mi Saigon","Oakville","ON","L6H 1M4",43.4650503132,-79.6848830378,"0","Vietnamese, Thai, Asian Fusion, Restaurants"
"1173",132491,"Ing's Thai Bowl","Toronto","ON","M5J 2H7",43.6467318,-79.3839517,"1","Thai, Restaurants"
"1174",59374,"Aroy Thai Restaurant","Charlotte","NC","28212",35.1872673,-80.7585943,"1","Restaurants, Thai"
"1175",102587,"Pick Thaï","Montréal","QC","H4A 0A4",45.473577,-73.60512,"1","Thai, Restaurants"
"1176",185686,"The Zen","Whitby","ON","L1R 0B5",43.919319,-78.95692,"1","Thai, Chinese, Restaurants, Halal, Asian Fusion"
"1177",107843,"The King's Kitchen","Markham","ON","L6E 1A2",43.893994,-79.263055,"1","Imported Food, Chinese, Food, Seafood, Specialty Food, Thai, Ethnic Food, Restaurants"
"1178",155035,"Thai Fantasy","Toronto","ON","M4Y 1Z3",43.6651203,-79.3848093,"1","Restaurants, Thai"
